{"type": "FeatureCollection", "features": [{"type": "Feature", "geometry": {"type": "MultiPolygon", "coordinates": [[[[72.08688302050501, 34.45035331613261], [72.08660619237742, 34.45033788059005], [72.08660011526754, 34.450412552100154], [72.0868769467686, 34.45042789760316], [72.08688302050501, 34.45035331613261]]]]}, "properties": {"id": "8J6JF32P+5M58", "height": 2.649824142456055, "hmax": 0.0, "ratio": 0.0, "vulnClass": "none"}}, {"type": "Feature", "geometry": {"type": "MultiPolygon", "coordinates": [[[[72.07885999652703, 34.45002309314612], [72.07879748149927, 34.45002159823704], [72.07879592483793, 34.45006627048778], [72.07885843989891, 34.45006776539935], [72.07885999652703, 34.45002309314612]]]]}, "properties": {"id": "8J6JF32H+2G8M", "height": 2.587276458740234, "hmax": 0.0, "ratio": 0.0, "vulnClass": "none"}}, {"type": "Feature", "geometry": {"type": "MultiPolygon", "coordinates": [[[[72.07909047833229, 34.449982001912396], [72.07886032336404, 34.44999497725875], [72.07886671620993, 34.450073822411646], [72.07909698325561, 34.45006075959893], [72.07909047833229, 34.449982001912396]]]]}, "properties": {"id": "8J6JF32H+2H93", "height": 2.63569450378418, "hmax": 0.0, "ratio": 0.0, "vulnClass": "none"}}, {"type": "Feature", "geometry": {"type": "MultiPolygon", "coordinates": [[[[72.07917808863553, 34.450118946261924], [72.07917297264557, 34.450056537142316], [72.07886671620993, 34.450073822411646], [72.07887183510918, 34.45013614146733], [72.07917808863553, 34.450118946261924]]]]}, "properties": {"id": "8J6JF32H+2JJW", "height": 2.453307390213013, "hmax": 0.0, "ratio": 0.0, "vulnClass": "none"}}, {"type": "Feature", "geometry": {"type": "MultiPolygon", "coordinates": [[[[72.07843892242819, 34.45033446292029], [72.0784315931552, 34.450260643205326], [72.07812640946976, 34.45028146770691], [72.07813384405583, 34.45035538009182], [72.07843892242819, 34.45033446292029]]]]}, "properties": {"id": "8J6JF32H+48F6", "height": 2.735464096069336, "hmax": 0.0, "ratio": 0.0, "vulnClass": "none"}}, {"type": "Feature", "geometry": {"type": "MultiPolygon", "coordinates": [[[[72.07866078987335, 34.45049688305082], [72.07865715821656, 34.45045434023278], [72.07853482336816, 34.45046142016078], [72.07854250034781, 34.450553366337886], [72.07859352683543, 34.45055044019889], [72.07858937269762, 34.450501034240325], [72.07866078987335, 34.45049688305082]]]]}, "properties": {"id": "8J6JF32H+5CWQ", "height": 2.444527149200439, "hmax": 0.0, "ratio": 0.0, "vulnClass": "none"}}, {"type": "Feature", "geometry": {"type": "MultiPolygon", "coordinates": [[[[72.07859614942035, 34.450902950543814], [72.07854785648365, 34.45090549135167], [72.0785505526551, 34.45094053017271], [72.07859884561208, 34.4509379893648], [72.07859614942035, 34.450902950543814]]]]}, "properties": {"id": "8J6JF32H+9C8V", "height": 2.559978008270264, "hmax": 0.0, "ratio": 0.0, "vulnClass": "none"}}, {"type": "Feature", "geometry": {"type": "MultiPolygon", "coordinates": [[[[72.07842700668064, 34.451150936959486], [72.07841900424047, 34.451108920586854], [72.07830521759998, 34.45112359618404], [72.07831321998336, 34.451165612561205], [72.07842700668064, 34.451150936959486]]]]}, "properties": {"id": "8J6JF32H+F85G", "height": 2.609041929244995, "hmax": 0.0, "ratio": 0.0, "vulnClass": "none"}}, {"type": "Feature", "geometry": {"type": "MultiPolygon", "coordinates": [[[[72.0785005697644, 34.45114142879887], [72.07849267601067, 34.45109941502938], [72.07841900424047, 34.451108920586854], [72.07842700668064, 34.451150936959486], [72.0785005697644, 34.45114142879887]]]]}, "properties": {"id": "8J6JF32H+F944", "height": 2.506939888000488, "hmax": 0.0, "ratio": 0.0, "vulnClass": "none"}}, {"type": "Feature", "geometry": {"type": "MultiPolygon", "coordinates": [[[[72.07856190882231, 34.45116732371294], [72.07851796439041, 34.45117934306595], [72.07857189253954, 34.451314851320774], [72.07861583703767, 34.45130283195183], [72.07856190882231, 34.45116732371294]]]]}, "properties": {"id": "8J6JF32H+FCWJ", "height": 2.568184375762939, "hmax": 0.0, "ratio": 0.0, "vulnClass": "none"}}, {"type": "Feature", "geometry": {"type": "MultiPolygon", "coordinates": [[[[72.07858173718117, 34.451132282732665], [72.07857218856394, 34.45108779560944], [72.07850776455491, 34.45109734210311], [72.07851731313825, 34.451141829229634], [72.07858173718117, 34.451132282732665]]]]}, "properties": {"id": "8J6JF32H+CCVF", "height": 2.675132751464844, "hmax": 0.0, "ratio": 0.0, "vulnClass": "none"}}, {"type": "Feature", "geometry": {"type": "MultiPolygon", "coordinates": [[[[72.07860636520788, 34.45105318790594], [72.07859890943654, 34.45101109447594], [72.07850045089839, 34.451023072068914], [72.07850790662042, 34.451065165502385], [72.07860636520788, 34.45105318790594]]]]}, "properties": {"id": "8J6JF32H+CC7G", "height": 2.497628927230835, "hmax": 0.0, "ratio": 0.0, "vulnClass": "none"}}, {"type": "Feature", "geometry": {"type": "MultiPolygon", "coordinates": [[[[72.08001891419804, 34.45213294636733], [72.07993496418054, 34.45212823541917], [72.07992451657063, 34.4522563451494], [72.08000846671487, 34.452261056111155], [72.08001891419804, 34.45213294636733]]]]}, "properties": {"id": "8J6JF32H+VXHJ", "height": 3.397603034973145, "hmax": 0.0, "ratio": 0.0, "vulnClass": "none"}}, {"type": "Feature", "geometry": {"type": "MultiPolygon", "coordinates": [[[[72.07939710603097, 34.45209969268808], [72.07922771747393, 34.4520923976515], [72.07921915770952, 34.45222875517694], [72.07943233749526, 34.45223781834603], [72.0794355176103, 34.45218714552079], [72.07939183854384, 34.45218528995094], [72.07939710603097, 34.45209969268808]]]]}, "properties": {"id": "8J6JF32H+VP8J", "height": 3.69074010848999, "hmax": 0.0, "ratio": 0.0, "vulnClass": "none"}}, {"type": "Feature", "geometry": {"type": "MultiPolygon", "coordinates": [[[[72.07956827293123, 34.45186229970916], [72.07952352561199, 34.45185987781144], [72.0795203990867, 34.451899644975285], [72.07956514642692, 34.451902066875206], [72.07956827293123, 34.45186229970916]]]]}, "properties": {"id": "8J6JF32H+QR37", "height": 7.312171936035156, "hmax": 0.0, "ratio": 0.0, "vulnClass": "none"}}, {"type": "Feature", "geometry": {"type": "MultiPolygon", "coordinates": [[[[72.0796738399453, 34.45186806853053], [72.07956827293123, 34.45186229970916], [72.07956514642692, 34.451902066875206], [72.07967071349049, 34.45190783570178], [72.0796738399453, 34.45186806853053]]]]}, "properties": {"id": "8J6JF32H+QR5H", "height": 7.312171936035156, "hmax": 0.0, "ratio": 0.0, "vulnClass": "none"}}, {"type": "Feature", "geometry": {"type": "MultiPolygon", "coordinates": [[[[72.07946308410743, 34.45181444442544], [72.07926347577298, 34.4518187761396], [72.07926598631987, 34.451896627042295], [72.07946548611608, 34.45189229273411], [72.07946308410743, 34.45181444442544]]]]}, "properties": {"id": "8J6JF32H+PPX8", "height": 4.053410530090332, "hmax": 0.0, "ratio": 0.0, "vulnClass": "none"}}, {"type": "Feature", "geometry": {"type": "MultiPolygon", "coordinates": [[[[72.07988478010141, 34.45191953332206], [72.07989504161783, 34.45179051774119], [72.07979968219298, 34.45178535369088], [72.0797925500682, 34.45187451201421], [72.0796738399453, 34.45186806853053], [72.07967071349049, 34.45190783570178], [72.07988478010141, 34.45191953332206]]]]}, "properties": {"id": "8J6JF32H+PWVH", "height": 5.100417137145996, "hmax": 0.0, "ratio": 0.0, "vulnClass": "none"}}, {"type": "Feature", "geometry": {"type": "MultiPolygon", "coordinates": [[[[72.07941746675236, 34.45137788710086], [72.07936427063886, 34.45137436175343], [72.07935401725713, 34.451478138249904], [72.07954638704251, 34.451491030345586], [72.07955058617281, 34.451448584619165], [72.07941141263512, 34.45143921788695], [72.07941746675236, 34.45137788710086]]]]}, "properties": {"id": "8J6JF32H+HQFX", "height": 2.988606452941895, "hmax": 0.0, "ratio": 0.0, "vulnClass": "none"}}, {"type": "Feature", "geometry": {"type": "MultiPolygon", "coordinates": [[[[72.07990181075674, 34.451465003424275], [72.07955880744257, 34.45144373332314], [72.07955504634963, 34.45148609938221], [72.07989794424839, 34.451507276838484], [72.07990181075674, 34.451465003424275]]]]}, "properties": {"id": "8J6JF32H+HVX3", "height": 4.494091033935547, "hmax": 0.0, "ratio": 0.0, "vulnClass": "none"}}, {"type": "Feature", "geometry": {"type": "MultiPolygon", "coordinates": [[[[72.07936084498955, 34.452275319970234], [72.07924169835346, 34.45227202051678], [72.07923744960225, 34.45237521943614], [72.07935670197116, 34.45237861156573], [72.07936084498955, 34.452275319970234]]]]}, "properties": {"id": "8J6JF32H+WPM4", "height": 3.314213275909424, "hmax": 0.0, "ratio": 0.0, "vulnClass": "none"}}, {"type": "Feature", "geometry": {"type": "MultiPolygon", "coordinates": [[[[72.07942237379113, 34.45227706147638], [72.07936084498955, 34.452275319970234], [72.07935572823818, 34.452400312039394], [72.07941725713111, 34.452402053552746], [72.07942237379113, 34.45227706147638]]]]}, "properties": {"id": "8J6JF32H+WQJF", "height": 3.216861963272095, "hmax": 0.0, "ratio": 0.0, "vulnClass": "none"}}, {"type": "Feature", "geometry": {"type": "MultiPolygon", "coordinates": [[[[72.07963836819705, 34.452277177575425], [72.07958400580479, 34.45227587792833], [72.07958227998705, 34.45232541370673], [72.07963664241134, 34.45232671335623], [72.07963836819705, 34.452277177575425]]]]}, "properties": {"id": "8J6JF32H+WRH4", "height": 3.780965566635132, "hmax": 0.0, "ratio": 0.0, "vulnClass": "none"}}, {"type": "Feature", "geometry": {"type": "MultiPolygon", "coordinates": [[[[72.07997275697178, 34.452336551154374], [72.07997636744585, 34.45228913363718], [72.07982104154858, 34.45228109388759], [72.07980824610839, 34.45245160344941], [72.07985213023333, 34.45245382433617], [72.07986131191122, 34.45233082234108], [72.07997275697178, 34.452336551154374]]]]}, "properties": {"id": "8J6JF32H+WWQQ", "height": 3.22061014175415, "hmax": 0.0, "ratio": 0.0, "vulnClass": "none"}}, {"type": "Feature", "geometry": {"type": "MultiPolygon", "coordinates": [[[[72.07900658203259, 34.452914325304], [72.07899142268762, 34.45276541201268], [72.07888834139494, 34.45277259203918], [72.07889563773031, 34.4528442475723], [72.07872361899872, 34.45285617886845], [72.07873137293967, 34.45293343403285], [72.07900658203259, 34.452914325304]]]]}, "properties": {"id": "8J6JF33H+4HRF", "height": 2.48857593536377, "hmax": 0.0, "ratio": 0.0, "vulnClass": "none"}}, {"type": "Feature", "geometry": {"type": "MultiPolygon", "coordinates": [[[[72.07853431488284, 34.45283641793091], [72.07847956208063, 34.45284006614636], [72.07848977794343, 34.452946585570835], [72.07874499615512, 34.45292970352308], [72.07873714716484, 34.45284893062462], [72.07853679074472, 34.45286216705323], [72.07853431488284, 34.45283641793091]]]]}, "properties": {"id": "8J6JF33H+5C5M", "height": 2.48857593536377, "hmax": 0.0, "ratio": 0.0, "vulnClass": "none"}}, {"type": "Feature", "geometry": {"type": "MultiPolygon", "coordinates": [[[[72.07799641856651, 34.45144783529719], [72.07790792598938, 34.45147357178511], [72.07795970856307, 34.451595688236154], [72.0780482012589, 34.45156995171688], [72.07799641856651, 34.45144783529719]]]]}, "properties": {"id": "8J6JF32H+J55V", "height": 2.53065013885498, "hmax": 0.0, "ratio": 0.0, "vulnClass": "none"}}, {"type": "Feature", "geometry": {"type": "MultiPolygon", "coordinates": [[[[72.07811180684384, 34.45013536197119], [72.07784937756463, 34.45015333239048], [72.07785597583927, 34.45022001357792], [72.07802482052843, 34.45020845813912], [72.07804015036207, 34.450361792478226], [72.07813373533368, 34.45035537749134], [72.07811180684384, 34.45013536197119]]]]}, "properties": {"id": "8J6JF32H+36JX", "height": 3.188292503356934, "hmax": 0.0, "ratio": 0.0, "vulnClass": "none"}}, {"type": "Feature", "geometry": {"type": "MultiPolygon", "coordinates": [[[[72.09186469967686, 34.44517761108535], [72.09161999201288, 34.44514943088858], [72.09160476597896, 34.44524020045241], [72.0918494707746, 34.44526847075867], [72.09186469967686, 34.44517761108535]]]]}, "properties": {"id": "8J6JC3WR+3MQ8", "height": 2.540948867797852, "hmax": 0.0, "ratio": 0.0, "vulnClass": "none"}}, {"type": "Feature", "geometry": {"type": "MultiPolygon", "coordinates": [[[[72.0926602347666, 34.444605043539376], [72.09266498236093, 34.4444806724441], [72.09260530355338, 34.44447907193771], [72.09260215112266, 34.44456057409732], [72.0924919193057, 34.44455777045728], [72.0924902152817, 34.44460063679453], [72.0926602347666, 34.444605043539376]]]]}, "properties": {"id": "8J6JC3VV+R2H6", "height": 2.585278749465942, "hmax": 0.0, "ratio": 0.0, "vulnClass": "none"}}, {"type": "Feature", "geometry": {"type": "MultiPolygon", "coordinates": [[[[72.09262698081734, 34.44476704596768], [72.09249130658218, 34.444760572061284], [72.09248623577842, 34.44483463703322], [72.0926218014159, 34.444841108363995], [72.09262698081734, 34.44476704596768]]]]}, "properties": {"id": "8J6JC3VV+W2F5", "height": 2.571866989135742, "hmax": 0.0, "ratio": 0.0, "vulnClass": "none"}}, {"type": "Feature", "geometry": {"type": "MultiPolygon", "coordinates": [[[[72.09213218610992, 34.44474977128132], [72.09207885016492, 34.444747239798886], [72.09207813669533, 34.44475840024031], [72.09213136393112, 34.444760929135754], [72.09213218610992, 34.44474977128132]]]]}, "properties": {"id": "8J6JC3VR+WR53", "height": 2.743128299713135, "hmax": 0.097, "ratio": 0.035, "vulnClass": "none"}}, {"type": "Feature", "geometry": {"type": "MultiPolygon", "coordinates": [[[[72.09248416898075, 34.444840897681914], [72.09249315174715, 34.444710497841825], [72.09244242187064, 34.444708118681355], [72.09243851612317, 34.44476427341407], [72.09213218610992, 34.44474977128132], [72.0921271087441, 34.44482401635473], [72.09248416898075, 34.444840897681914]]]]}, "properties": {"id": "8J6JC3VR+WW8F", "height": 3.197829723358154, "hmax": 0.0, "ratio": 0.0, "vulnClass": "none"}}, {"type": "Feature", "geometry": {"type": "MultiPolygon", "coordinates": [[[[72.09200341752366, 34.44464457705921], [72.09192848151291, 34.4446405398179], [72.09191685689639, 34.44479061747952], [72.09211125914949, 34.44480101383104], [72.09211466908688, 34.44475602473756], [72.09199520304055, 34.44474966564772], [72.09200341752366, 34.44464457705921]]]]}, "properties": {"id": "8J6JC3VR+VQXG", "height": 2.761718273162842, "hmax": 0.097, "ratio": 0.035, "vulnClass": "none"}}, {"type": "Feature", "geometry": {"type": "MultiPolygon", "coordinates": [[[[72.09225375712438, 34.444924472685315], [72.0922489620434, 34.44496861755097], [72.0923519560188, 34.44497620689104], [72.09235675104654, 34.44493206201867], [72.09225375712438, 34.444924472685315]]]]}, "properties": {"id": "8J6JC3VR+XWM4", "height": 2.620060205459595, "hmax": 0.0, "ratio": 0.0, "vulnClass": "none"}}, {"type": "Feature", "geometry": {"type": "MultiPolygon", "coordinates": [[[[72.09245116575798, 34.4449391766635], [72.09244690186918, 34.44498369474383], [72.09266890563792, 34.444998262599654], [72.09267317253357, 34.44495365443952], [72.09245116575798, 34.4449391766635]]]]}, "properties": {"id": "8J6JC3VV+X2MQ", "height": 3.450467824935913, "hmax": 0.0, "ratio": 0.0, "vulnClass": "none"}}, {"type": "Feature", "geometry": {"type": "MultiPolygon", "coordinates": [[[[72.09244518114305, 34.444983112948215], [72.09244997299942, 34.44493905813596], [72.09235674792326, 34.44493215208485], [72.0923519560188, 34.44497620689104], [72.09244518114305, 34.444983112948215]]]]}, "properties": {"id": "8J6JC3VR+XXJ9", "height": 2.562284231185913, "hmax": 0.0, "ratio": 0.0, "vulnClass": "none"}}]}