{"type": "FeatureCollection", "features": [{"type": "Feature", "geometry": {"type": "MultiPolygon", "coordinates": [[[[71.99105184374642, 34.47265126704549], [71.99098710354104, 34.47262650655294], [71.99096371271418, 34.47266865523747], [71.99102845294334, 34.47269341574363], [71.99105184374642, 34.47265126704549]]]]}, "properties": {"id": "8J6HFXFR+3C66", "height": 2.539728164672852, "hmax": 0.0, "ratio": 0.0, "vulnClass": "none"}}, {"type": "Feature", "geometry": {"type": "MultiPolygon", "coordinates": [[[[71.98873451085724, 34.472380160086026], [71.98872169702756, 34.47232486043218], [71.98868721346983, 34.47233040983302], [71.98870002727702, 34.47238570948931], [71.98863861834043, 34.47239546231884], [71.98865652061731, 34.472472700654926], [71.98879356894336, 34.47245093187479], [71.98877566654157, 34.47237369355219], [71.98873451085724, 34.472380160086026]]]]}, "properties": {"id": "8J6HFXCQ+XF8H", "height": 2.805525779724121, "hmax": 0.0, "ratio": 0.0, "vulnClass": "none"}}, {"type": "Feature", "geometry": {"type": "MultiPolygon", "coordinates": [[[[71.98857447465436, 34.472405598363025], [71.98852652837506, 34.472413249424626], [71.98854858054698, 34.47250825699813], [71.98859641813799, 34.47250060324911], [71.98857447465436, 34.472405598363025]]]]}, "properties": {"id": "8J6HFXCQ+XCM9", "height": 2.731783390045166, "hmax": 0.0, "ratio": 0.0, "vulnClass": "none"}}, {"type": "Feature", "geometry": {"type": "MultiPolygon", "coordinates": [[[[71.98898641255066, 34.4723030847172], [71.98894190534146, 34.47230892786116], [71.9889603500629, 34.47240438724654], [71.98900486056013, 34.47239845404117], [71.98898641255066, 34.4723030847172]]]]}, "properties": {"id": "8J6HFXCQ+WHX2", "height": 3.358214616775513, "hmax": 0.0, "ratio": 0.0, "vulnClass": "none"}}, {"type": "Feature", "geometry": {"type": "MultiPolygon", "coordinates": [[[[71.98890350799526, 34.47220234030385], [71.98890568175798, 34.472138847189946], [71.98887142815762, 34.472138002575825], [71.98886925436902, 34.47220149568777], [71.98890350799526, 34.47220234030385]]]]}, "properties": {"id": "8J6HFXCQ+VH6V", "height": 3.150409460067749, "hmax": 0.0, "ratio": 0.0, "vulnClass": "none"}}, {"type": "Feature", "geometry": {"type": "MultiPolygon", "coordinates": [[[[71.98884992166919, 34.47215495888404], [71.98880800758647, 34.47215527741722], [71.98880869742987, 34.472208745775], [71.98885050279773, 34.47220842456162], [71.98884992166919, 34.47215495888404]]]]}, "properties": {"id": "8J6HFXCQ+VGG8", "height": 2.82990026473999, "hmax": 0.0, "ratio": 0.0, "vulnClass": "none"}}, {"type": "Feature", "geometry": {"type": "MultiPolygon", "coordinates": [[[[71.98838383238508, 34.472122913891674], [71.988333260581, 34.4721158077732], [71.98831742349141, 34.472193025293414], [71.98836799533983, 34.47220013142075], [71.98838383238508, 34.472122913891674]]]]}, "properties": {"id": "8J6HFXCQ+V896", "height": 2.836559295654297, "hmax": 0.0, "ratio": 0.0, "vulnClass": "none"}}, {"type": "Feature", "geometry": {"type": "MultiPolygon", "coordinates": [[[[71.98840126572368, 34.472037623381055], [71.98835069396856, 34.472030517272344], [71.988333260581, 34.4721158077732], [71.98838383238508, 34.472122913891674], [71.98840126572368, 34.472037623381055]]]]}, "properties": {"id": "8J6HFXCQ+R8Q5", "height": 3.453748941421509, "hmax": 0.0, "ratio": 0.0, "vulnClass": "none"}}, {"type": "Feature", "geometry": {"type": "MultiPolygon", "coordinates": [[[[71.98978469900389, 34.47208318069553], [71.98975353678206, 34.47207808594729], [71.98974559075754, 34.4721114211146], [71.98977675299098, 34.47211651586546], [71.98978469900389, 34.47208318069553]]]]}, "properties": {"id": "8J6HFXCQ+RWJV", "height": 2.866352558135986, "hmax": 0.0, "ratio": 0.0, "vulnClass": "none"}}, {"type": "Feature", "geometry": {"type": "MultiPolygon", "coordinates": [[[[71.99001434644411, 34.47202565516967], [71.98997434055916, 34.472021334005035], [71.98996026555922, 34.472110132779065], [71.99000027148519, 34.47211445395047], [71.99001434644411, 34.47202565516967]]]]}, "properties": {"id": "8J6HFXCQ+RXHP", "height": 2.711556911468506, "hmax": 0.0, "ratio": 0.0, "vulnClass": "none"}}, {"type": "Feature", "geometry": {"type": "MultiPolygon", "coordinates": [[[[71.98981228893983, 34.472087736692764], [71.98983509190671, 34.47199230265524], [71.98980750200023, 34.471987746664674], [71.98978469900389, 34.47208318069553], [71.98981228893983, 34.472087736692764]]]]}, "properties": {"id": "8J6HFXCQ+RW7H", "height": 3.111713171005249, "hmax": 0.0, "ratio": 0.0, "vulnClass": "none"}}, {"type": "Feature", "geometry": {"type": "MultiPolygon", "coordinates": [[[[71.98862588514847, 34.46964668523391], [71.98862224163393, 34.469611802428766], [71.9885749928384, 34.46961523430741], [71.98857863633317, 34.46965011711293], [71.98862588514847, 34.46964668523391]]]]}, "properties": {"id": "8J6HFX9Q+VC56", "height": 3.224924087524414, "hmax": 0.0, "ratio": 0.0, "vulnClass": "none"}}, {"type": "Feature", "geometry": {"type": "MultiPolygon", "coordinates": [[[[71.98861809104886, 34.46955166870309], [71.98857728184622, 34.4695515637524], [71.98857703240985, 34.46960996650724], [71.98861784164096, 34.46961007145951], [71.98861809104886, 34.46955166870309]]]]}, "properties": {"id": "8J6HFX9Q+RCQ6", "height": 2.915887832641602, "hmax": 0.0, "ratio": 0.0, "vulnClass": "none"}}, {"type": "Feature", "geometry": {"type": "MultiPolygon", "coordinates": [[[[71.98850659963657, 34.46957713232374], [71.9885015348766, 34.46961810998905], [71.98857054349439, 34.46962395803467], [71.98857560822135, 34.46958298036478], [71.98850659963657, 34.46957713232374]]]]}, "properties": {"id": "8J6HFX9Q+RCV2", "height": 3.630962133407593, "hmax": 0.0, "ratio": 0.0, "vulnClass": "none"}}, {"type": "Feature", "geometry": {"type": "MultiPolygon", "coordinates": [[[[71.98848561485583, 34.46963105770512], [71.9884714067569, 34.46956914362487], [71.98842817347547, 34.469575919409635], [71.9884423815428, 34.46963783349326], [71.98848561485583, 34.46963105770512]]]]}, "properties": {"id": "8J6HFX9Q+R9W4", "height": 3.837891817092896, "hmax": 0.0, "ratio": 0.0, "vulnClass": "none"}}, {"type": "Feature", "geometry": {"type": "MultiPolygon", "coordinates": [[[[71.98835079719167, 34.46960907460708], [71.98836040231068, 34.4696506844527], [71.98833752706106, 34.46965426663054], [71.98835030798077, 34.469710466884266], [71.98841554021577, 34.469700267605596], [71.98840265051446, 34.469644064674824], [71.9884423815428, 34.46963783349326], [71.98843277638352, 34.469596223651955], [71.98835079719167, 34.46960907460708]]]]}, "properties": {"id": "8J6HFX9Q+V963", "height": 3.81377124786377, "hmax": 0.0, "ratio": 0.0, "vulnClass": "none"}}, {"type": "Feature", "geometry": {"type": "MultiPolygon", "coordinates": [[[[71.98849445698276, 34.46966967419899], [71.98848561485583, 34.46963105770512], [71.9884423815428, 34.46963783349326], [71.98845122365002, 34.46967644998921], [71.98849445698276, 34.46966967419899]]]]}, "properties": {"id": "8J6HFX9Q+V985", "height": 3.883121013641357, "hmax": 0.0, "ratio": 0.0, "vulnClass": "none"}}, {"type": "Feature", "geometry": {"type": "MultiPolygon", "coordinates": [[[[71.98856406626963, 34.46967697925716], [71.98855128520805, 34.4696207790183], [71.98848561485583, 34.46963105770512], [71.98849839587382, 34.469687257948564], [71.98856406626963, 34.46967697925716]]]]}, "properties": {"id": "8J6HFX9Q+VC65", "height": 4.206550598144531, "hmax": 0.0, "ratio": 0.0, "vulnClass": "none"}}, {"type": "Feature", "geometry": {"type": "MultiPolygon", "coordinates": [[[[71.98862374419922, 34.46976678532827], [71.98860182706485, 34.46967105998747], [71.98849839587382, 34.469687257948564], [71.98853037762116, 34.46982694803707], [71.98859604812529, 34.46981666933419], [71.98858598336132, 34.469772704602455], [71.98862374419922, 34.46976678532827]]]]}, "properties": {"id": "8J6HFX9Q+VCVQ", "height": 4.206550598144531, "hmax": 0.0, "ratio": 0.0, "vulnClass": "none"}}, {"type": "Feature", "geometry": {"type": "MultiPolygon", "coordinates": [[[[71.98848725294668, 34.469833726517265], [71.98845527127047, 34.46969403642123], [71.98835030798077, 34.469710466884266], [71.98838228624598, 34.469850247055994], [71.98848725294668, 34.469833726517265]]]]}, "properties": {"id": "8J6HFX9Q+W93V", "height": 4.087553977966309, "hmax": 0.0, "ratio": 0.0, "vulnClass": "none"}}, {"type": "Feature", "geometry": {"type": "MultiPolygon", "coordinates": [[[[71.98835691000522, 34.46963581582859], [71.98834619430328, 34.46958877036271], [71.98827778607614, 34.46959952224108], [71.98829199403353, 34.4696614363364], [71.98833752382316, 34.46965435668787], [71.98833403475962, 34.46963939800598], [71.98835691000522, 34.46963581582859]]]]}, "properties": {"id": "8J6HFX9Q+R8WR", "height": 3.151834487915039, "hmax": 0.0, "ratio": 0.0, "vulnClass": "none"}}, {"type": "Feature", "geometry": {"type": "MultiPolygon", "coordinates": [[[[71.98824847266668, 34.469567251298], [71.9881332168817, 34.46958541076073], [71.9881521233569, 34.4696679920277], [71.98821910833941, 34.46965747553303], [71.98825108960736, 34.469797165670286], [71.98829935736383, 34.469789612739255], [71.98824847266668, 34.469567251298]]]]}, "properties": {"id": "8J6HFX9Q+V79C", "height": 3.356452465057373, "hmax": 0.0, "ratio": 0.0, "vulnClass": "none"}}, {"type": "Feature", "geometry": {"type": "MultiPolygon", "coordinates": [[[[71.98869317889942, 34.46953675475453], [71.9886657319218, 34.46941926013585], [71.98831981764813, 34.469474817425876], [71.98832725526728, 34.46950708968921], [71.98825807298732, 34.46951818301794], [71.98827796982071, 34.469603492808986], [71.98869317889942, 34.46953675475453]]]]}, "properties": {"id": "8J6HFX9Q+R95F", "height": 3.970399141311646, "hmax": 0.0, "ratio": 0.0, "vulnClass": "none"}}, {"type": "Feature", "geometry": {"type": "MultiPolygon", "coordinates": [[[[71.98784770839283, 34.47173823571652], [71.98782015592761, 34.47167211652754], [71.9876674144597, 34.47171567087119], [71.98769485807232, 34.47178178740633], [71.98784770839283, 34.47173823571652]]]]}, "properties": {"id": "8J6HFXCQ+M4R2", "height": 3.385279417037964, "hmax": 0.0, "ratio": 0.0, "vulnClass": "none"}}, {"type": "Feature", "geometry": {"type": "MultiPolygon", "coordinates": [[[[71.98771799415402, 34.4716832072432], [71.9876935125217, 34.471637624910535], [71.98763218460378, 34.4716602688563], [71.98765666620744, 34.47170585119974], [71.98771799415402, 34.4716832072432]]]]}, "properties": {"id": "8J6HFXCQ+M37W", "height": 3.418962240219116, "hmax": 0.0, "ratio": 0.0, "vulnClass": "none"}}, {"type": "Feature", "geometry": {"type": "MultiPolygon", "coordinates": [[[[71.98792672572871, 34.47168069421467], [71.98783701596247, 34.47169659902139], [71.98784811420859, 34.47173905696079], [71.98793771527853, 34.471723149466165], [71.98792672572871, 34.47168069421467]]]]}, "properties": {"id": "8J6HFXCQ+M5J7", "height": 2.552954435348511, "hmax": 0.0, "ratio": 0.0, "vulnClass": "none"}}, {"type": "Feature", "geometry": {"type": "MultiPolygon", "coordinates": [[[[71.98794819213697, 34.47184644510153], [71.98795045150565, 34.47198639369651], [71.98804605267152, 34.47198523634327], [71.98804477872373, 34.47190867847388], [71.9880838686327, 34.47190820040694], [71.98808339738424, 34.47188195887018], [71.98814426142445, 34.471881296725684], [71.98814363505565, 34.471844234903145], [71.98794819213697, 34.47184644510153]]]]}, "properties": {"id": "8J6HFXCQ+Q664", "height": 2.935707092285156, "hmax": 0.0, "ratio": 0.0, "vulnClass": "none"}}, {"type": "Feature", "geometry": {"type": "MultiPolygon", "coordinates": [[[[71.98840126572368, 34.472037623381055], [71.9884184394425, 34.4719534982467], [71.98834859274089, 34.47194366335922], [71.98833921416349, 34.471989582293844], [71.98823243885515, 34.47197460014884], [71.98822464360073, 34.472012806326056], [71.98840126572368, 34.472037623381055]]]]}, "properties": {"id": "8J6HFXCQ+Q8WQ", "height": 3.363719940185547, "hmax": 0.0, "ratio": 0.0, "vulnClass": "none"}}, {"type": "Feature", "geometry": {"type": "MultiPolygon", "coordinates": [[[[71.98832498587741, 34.47205232740981], [71.98827468393694, 34.472049824919125], [71.9882729836517, 34.47207592276327], [71.9882042118478, 34.47207251403916], [71.98820138305457, 34.47211183421173], [71.98832023614858, 34.47211783012735], [71.98832498587741, 34.47205232740981]]]]}, "properties": {"id": "8J6HFXCQ+R8JG", "height": 3.02835488319397, "hmax": 0.0, "ratio": 0.0, "vulnClass": "none"}}, {"type": "Feature", "geometry": {"type": "MultiPolygon", "coordinates": [[[[71.9881653286001, 34.47223371179674], [71.98818464865597, 34.47230783035764], [71.98837207877959, 34.47227423473942], [71.98835264981929, 34.472200113517765], [71.9881653286001, 34.47223371179674]]]]}, "properties": {"id": "8J6HFXCQ+W824", "height": 3.030241012573242, "hmax": 0.0, "ratio": 0.0, "vulnClass": "none"}}, {"type": "Feature", "geometry": {"type": "MultiPolygon", "coordinates": [[[[71.9876698820971, 34.46648696416613], [71.98761218276891, 34.466499602355505], [71.98764614741656, 34.466605269701894], [71.9877038468149, 34.4665926315002], [71.9876698820971, 34.46648696416613]]]]}, "properties": {"id": "8J6HFX8Q+J37R", "height": 2.570123195648193, "hmax": 0.0, "ratio": 0.0, "vulnClass": "none"}}, {"type": "Feature", "geometry": {"type": "MultiPolygon", "coordinates": [[[[71.98823273673234, 34.466620638504004], [71.9882324630885, 34.46657376040023], [71.98814015603247, 34.46657427821384], [71.98814042962458, 34.466621156315114], [71.98823273673234, 34.466620638504004]]]]}, "properties": {"id": "8J6HFX8Q+J7MX", "height": 2.724451303482056, "hmax": 0.0, "ratio": 0.0, "vulnClass": "none"}}, {"type": "Feature", "geometry": {"type": "MultiPolygon", "coordinates": [[[[71.98824237901998, 34.46686100185023], [71.98822803245277, 34.46678781717202], [71.98790322570505, 34.4668317256049], [71.98791757198991, 34.466904910306354], [71.98824237901998, 34.46686100185023]]]]}, "properties": {"id": "8J6HFX8Q+P6PV", "height": 2.480809211730957, "hmax": 0.0, "ratio": 0.0, "vulnClass": "none"}}, {"type": "Feature", "geometry": {"type": "MultiPolygon", "coordinates": [[[[71.98847198249543, 34.46688000425016], [71.9881917083976, 34.46687489529191], [71.98818981595379, 34.466945696473864], [71.98847009028793, 34.46695080544884], [71.98847198249543, 34.46688000425016]]]]}, "properties": {"id": "8J6HFX8Q+Q88G", "height": 2.789489984512329, "hmax": 0.0, "ratio": 0.0, "vulnClass": "none"}}, {"type": "Feature", "geometry": {"type": "MultiPolygon", "coordinates": [[[[71.98867389689829, 34.467811593857896], [71.98858110191712, 34.46779839907922], [71.98857016999025, 34.46785122033277], [71.98866296502699, 34.467864415122655], [71.98867389689829, 34.467811593857896]]]]}, "properties": {"id": "8J6HFX9Q+4CQ9", "height": 3.847285747528076, "hmax": 0.0, "ratio": 0.0, "vulnClass": "none"}}, {"type": "Feature", "geometry": {"type": "MultiPolygon", "coordinates": [[[[71.9922266694722, 34.46717372120523], [71.99220068180402, 34.4670912364611], [71.99207279048375, 34.46711891354601], [71.99209867252837, 34.4672013055751], [71.99215000373758, 34.467190221022896], [71.99216856494765, 34.46724917729998], [71.99227693338268, 34.46722570644787], [71.99225836886556, 34.46716684024105], [71.9922266694722, 34.46717372120523]]]]}, "properties": {"id": "8J6HFX8R+VV7P", "height": 3.176564693450928, "hmax": 0.0, "ratio": 0.0, "vulnClass": "none"}}, {"type": "Feature", "geometry": {"type": "MultiPolygon", "coordinates": [[[[71.9986273433753, 34.46677711795356], [71.99845532397167, 34.46678199417006], [71.99845688654797, 34.46682647037397], [71.9986292322503, 34.466821602176935], [71.9986273433753, 34.46677711795356]]]]}, "properties": {"id": "8J6HFX8X+PCF3", "height": 2.814920663833618, "hmax": 0.0, "ratio": 0.0, "vulnClass": "none"}}, {"type": "Feature", "geometry": {"type": "MultiPolygon", "coordinates": [[[[71.99763901010044, 34.465618083574356], [71.9976342241097, 34.4655937189256], [71.99756128543113, 34.46560346339689], [71.99756607140077, 34.46562782804738], [71.99763901010044, 34.465618083574356]]]]}, "properties": {"id": "8J6HFX8X+62XC", "height": 2.467881917953491, "hmax": 0.0, "ratio": 0.0, "vulnClass": "none"}}, {"type": "Feature", "geometry": {"type": "MultiPolygon", "coordinates": [[[[71.99770288804518, 34.46567896440168], [71.99769396372793, 34.465615198064874], [71.99763215563199, 34.46562106987859], [71.99763347035413, 34.46562993567574], [71.99752437707903, 34.465640323638965], [71.99753209206189, 34.46569531691504], [71.99770288804518, 34.46567896440168]]]]}, "properties": {"id": "8J6HFX8X+7298", "height": 2.467881917953491, "hmax": 0.0, "ratio": 0.0, "vulnClass": "none"}}, {"type": "Feature", "geometry": {"type": "MultiPolygon", "coordinates": [[[[71.99714852338415, 34.46519274414477], [71.99708403496815, 34.46520053281044], [71.99708775383411, 34.46522126573825], [71.99711398543295, 34.46521812494656], [71.99713252171428, 34.46532341062855], [71.99748392702476, 34.46528103257628], [71.99747560509388, 34.46523386633818], [71.99745811736327, 34.46523596025209], [71.99745214483828, 34.465202192124785], [71.9971564844344, 34.46523782836449], [71.99714852338415, 34.46519274414477]]]]}, "properties": {"id": "8J6HFX8W+4W36", "height": 3.100416421890259, "hmax": 0.0, "ratio": 0.0, "vulnClass": "none"}}, {"type": "Feature", "geometry": {"type": "MultiPolygon", "coordinates": [[[[71.99771086939178, 34.46525884936685], [71.99769002512608, 34.46518757899718], [71.99749512848987, 34.46522659449244], [71.99751597259426, 34.46529786488684], [71.99771086939178, 34.46525884936685]]]]}, "properties": {"id": "8J6HFX8X+32XM", "height": 3.133673906326294, "hmax": 0.0, "ratio": 0.0, "vulnClass": "none"}}, {"type": "Feature", "geometry": {"type": "MultiPolygon", "coordinates": [[[[71.99796936447386, 34.46522473193837], [71.9984507479442, 34.46516310173522], [71.99843669711925, 34.46508749156026], [71.99795531408188, 34.46514912173083], [71.99796936447386, 34.46522473193837]]]]}, "properties": {"id": "8J6HFX8X+3787", "height": 3.042388677597046, "hmax": 0.0, "ratio": 0.0, "vulnClass": "none"}}, {"type": "Feature", "geometry": {"type": "MultiPolygon", "coordinates": [[[[71.99841303390616, 34.46498856992749], [71.99836103036648, 34.46498810305332], [71.99836020562684, 34.465047573560405], [71.99841220920341, 34.46504804043685], [71.99841303390616, 34.46498856992749]]]]}, "properties": {"id": "8J6HFX8X+292M", "height": 3.363094568252563, "hmax": 0.0, "ratio": 0.0, "vulnClass": "none"}}, {"type": "Feature", "geometry": {"type": "MultiPolygon", "coordinates": [[[[71.99492425207954, 34.46322414588168], [71.99487563942186, 34.4630897265845], [71.99460113211771, 34.46315778594554], [71.99464974758777, 34.46329211527185], [71.99492425207954, 34.46322414588168]]]]}, "properties": {"id": "8J6HFX7V+7WCM", "height": 2.649917125701904, "hmax": 0.0, "ratio": 0.0, "vulnClass": "none"}}, {"type": "Feature", "geometry": {"type": "MultiPolygon", "coordinates": [[[[71.99621125166391, 34.46309013329851], [71.99616115784772, 34.46296054545359], [71.99606755090339, 34.462985284403416], [71.99608596769906, 34.463033149699726], [71.99594302724995, 34.46307100701226], [71.99597459527298, 34.46315272694777], [71.99621125166391, 34.46309013329851]]]]}, "properties": {"id": "8J6HFX7W+6CGG", "height": 2.596942186355591, "hmax": 0.0, "ratio": 0.0, "vulnClass": "none"}}, {"type": "Feature", "geometry": {"type": "MultiPolygon", "coordinates": [[[[71.9947383590825, 34.462438801150405], [71.99474597419936, 34.462481353138116], [71.99481779073187, 34.462472484046316], [71.99481017557862, 34.46242993206118], [71.9947383590825, 34.462438801150405]]]]}, "properties": {"id": "8J6HFX6V+XWJ9", "height": 2.756714344024658, "hmax": 0.0, "ratio": 0.0, "vulnClass": "none"}}, {"type": "Feature", "geometry": {"type": "MultiPolygon", "coordinates": [[[[71.9942263007945, 34.46278557810254], [71.99417472724033, 34.46278530033637], [71.99417350577521, 34.46291642024913], [71.99422507617932, 34.462916788077955], [71.9942263007945, 34.46278557810254]]]]}, "properties": {"id": "8J6HFX7V+4MW3", "height": 3.064898490905762, "hmax": 0.0, "ratio": 0.0, "vulnClass": "none"}}, {"type": "Feature", "geometry": {"type": "MultiPolygon", "coordinates": [[[[71.99417485091168, 34.46287589150709], [71.9940432564431, 34.46286138555037], [71.99403165030488, 34.462933119706015], [71.99416324165146, 34.462947715738814], [71.99417485091168, 34.46287589150709]]]]}, "properties": {"id": "8J6HFX7V+5J93", "height": 3.479530334472656, "hmax": 0.0, "ratio": 0.0, "vulnClass": "none"}}, {"type": "Feature", "geometry": {"type": "MultiPolygon", "coordinates": [[[[71.99309181976774, 34.46130490759451], [71.99307915790662, 34.46125745399089], [71.99288615082862, 34.46129254279656], [71.99289870385458, 34.46133999373749], [71.99309181976774, 34.46130490759451]]]]}, "properties": {"id": "8J6HFX6V+G59W", "height": 2.579155921936035, "hmax": 0.0, "ratio": 0.0, "vulnClass": "none"}}, {"type": "Feature", "geometry": {"type": "MultiPolygon", "coordinates": [[[[71.99282117740732, 34.46122901864321], [71.9927577911493, 34.46123043247587], [71.99275887970867, 34.46126074545002], [71.99282216372598, 34.46125914882523], [71.99282117740732, 34.46122901864321]]]]}, "properties": {"id": "8J6HFX6V+F4VM", "height": 2.901713371276855, "hmax": 0.0, "ratio": 0.0, "vulnClass": "none"}}, {"type": "Feature", "geometry": {"type": "MultiPolygon", "coordinates": [[[[71.99282117740732, 34.46122901864321], [71.99281963270667, 34.4611871568485], [71.9927563519761, 34.461188663417005], [71.9927577911493, 34.46123043247587], [71.99282117740732, 34.46122901864321]]]]}, "properties": {"id": "8J6HFX6V+F4M6", "height": 3.236869812011719, "hmax": 0.0, "ratio": 0.0, "vulnClass": "none"}}, {"type": "Feature", "geometry": {"type": "MultiPolygon", "coordinates": [[[[71.99288114495171, 34.46129557435479], [71.99278313442144, 34.46130659163786], [71.99279090012584, 34.461354014851274], [71.99288891071157, 34.461342997564905], [71.99288114495171, 34.46129557435479]]]]}, "properties": {"id": "8J6HFX6V+G4GX", "height": 3.008499145507812, "hmax": 0.0, "ratio": 0.0, "vulnClass": "none"}}, {"type": "Feature", "geometry": {"type": "MultiPolygon", "coordinates": [[[[71.99263361145505, 34.461285333172015], [71.99257835449852, 34.46130281126457], [71.99260804172735, 34.461367089148006], [71.99266330195441, 34.46134952098624], [71.99263361145505, 34.461285333172015]]]]}, "properties": {"id": "8J6HFX6V+G2Q5", "height": 4.61743688583374, "hmax": 0.0, "ratio": 0.0, "vulnClass": "none"}}, {"type": "Feature", "geometry": {"type": "MultiPolygon", "coordinates": [[[[71.99274960096898, 34.46130702789082], [71.99273312943116, 34.46126263526256], [71.9926669006875, 34.46127957283004], [71.99268337219218, 34.461323965465475], [71.99274960096898, 34.46130702789082]]]]}, "properties": {"id": "8J6HFX6V+G38P", "height": 3.854434013366699, "hmax": 0.0, "ratio": 0.0, "vulnClass": "none"}}, {"type": "Feature", "geometry": {"type": "MultiPolygon", "coordinates": [[[[71.99305421026499, 34.46114903542556], [71.99303162906124, 34.46107474706383], [71.99297910574825, 34.461085802752805], [71.99298581938012, 34.46110796157666], [71.99286553672228, 34.46113312298042], [71.99288140740848, 34.461185162479545], [71.99305421026499, 34.46114903542556]]]]}, "properties": {"id": "8J6HFX6V+F54H", "height": 2.768959522247314, "hmax": 0.0, "ratio": 0.0, "vulnClass": "none"}}, {"type": "Feature", "geometry": {"type": "MultiPolygon", "coordinates": [[[[71.993038325391, 34.46105796609178], [71.99300353672767, 34.460978149206625], [71.99294853628115, 34.46099455214183], [71.9929833216646, 34.46107445909793], [71.993038325391, 34.46105796609178]]]]}, "properties": {"id": "8J6HFX6V+C595", "height": 2.49065637588501, "hmax": 0.0, "ratio": 0.0, "vulnClass": "none"}}, {"type": "Feature", "geometry": {"type": "MultiPolygon", "coordinates": [[[[71.9934201208715, 34.461226638143806], [71.9933823056471, 34.46114927070001], [71.99321531560481, 34.46120537156114], [71.99325313392391, 34.461282648991435], [71.9934201208715, 34.461226638143806]]]]}, "properties": {"id": "8J6HFX6V+F8PJ", "height": 2.46734094619751, "hmax": 0.0, "ratio": 0.0, "vulnClass": "none"}}, {"type": "Feature", "geometry": {"type": "MultiPolygon", "coordinates": [[[[71.99510000837574, 34.46211653446055], [71.99498290800908, 34.46176770571099], [71.99478330547275, 34.4618137221426], [71.9949002963135, 34.46216254836601], [71.99510000837574, 34.46211653446055]]]]}, "properties": {"id": "8J6HFX6V+QXPJ", "height": 4.589277744293213, "hmax": 0.0, "ratio": 0.0, "vulnClass": "none"}}, {"type": "Feature", "geometry": {"type": "MultiPolygon", "coordinates": [[[[71.99673212322027, 34.4579853839611], [71.9966533543919, 34.457833097652994], [71.99647082886804, 34.45789783499278], [71.99654948868326, 34.458050118729595], [71.99657704088511, 34.458040430420965], [71.99656635430813, 34.45801979654871], [71.99664427763088, 34.45799223767871], [71.99665497067971, 34.45801269142864], [71.99673212322027, 34.4579853839611]]]]}, "properties": {"id": "8J6HFX5W+5JHC", "height": 3.411544322967529, "hmax": 0.0, "ratio": 0.0, "vulnClass": "none"}}, {"type": "Feature", "geometry": {"type": "MultiPolygon", "coordinates": [[[[71.9950486576636, 34.45821970881276], [71.9950269450766, 34.45817275380527], [71.99498577848428, 34.45818580243989], [71.99500738232629, 34.45823275477867], [71.9950486576636, 34.45821970881276]]]]}, "properties": {"id": "8J6HFX5W+72J4", "height": 2.666910886764526, "hmax": 0.0, "ratio": 0.0, "vulnClass": "none"}}, {"type": "Feature", "geometry": {"type": "MultiPolygon", "coordinates": [[[[71.99500372113766, 34.45812242652261], [71.99496255456766, 34.458135475150605], [71.99498577848428, 34.45818580243989], [71.9950269450766, 34.45817275380527], [71.99500372113766, 34.45812242652261]]]]}, "properties": {"id": "8J6HFX5V+7X95", "height": 4.443692684173584, "hmax": 0.0, "ratio": 0.0, "vulnClass": "none"}}, {"type": "Feature", "geometry": {"type": "MultiPolygon", "coordinates": [[[[71.99521761982244, 34.45805377609635], [71.99516528786818, 34.457980649055855], [71.99507932936672, 34.45802288197378], [71.99506606501922, 34.4580043478616], [71.99499284544189, 34.45804031408471], [71.9950585503554, 34.45813197798233], [71.99521761982244, 34.45805377609635]]]]}, "properties": {"id": "8J6HFX5W+62H3", "height": 3.288468599319458, "hmax": 0.0, "ratio": 0.0, "vulnClass": "none"}}, {"type": "Feature", "geometry": {"type": "MultiPolygon", "coordinates": [[[[71.99549970409655, 34.4605965541236], [71.99547220582019, 34.46060471114781], [71.9954950172539, 34.460657461918245], [71.99552251554613, 34.46064930488976], [71.99549970409655, 34.4605965541236]]]]}, "properties": {"id": "8J6HFX6W+7555", "height": 2.735697746276855, "hmax": 0.0, "ratio": 0.0, "vulnClass": "none"}}, {"type": "Feature", "geometry": {"type": "MultiPolygon", "coordinates": [[[[71.99555724367163, 34.46064285804076], [71.99550094559287, 34.46065904995355], [71.99552080093709, 34.46070622961319], [71.99557710227417, 34.46068994763472], [71.99555724367163, 34.46064285804076]]]]}, "properties": {"id": "8J6HFX6W+767R", "height": 2.57822322845459, "hmax": 0.0, "ratio": 0.0, "vulnClass": "none"}}, {"type": "Feature", "geometry": {"type": "MultiPolygon", "coordinates": [[[[71.99563573957131, 34.46084525476402], [71.9955977517056, 34.46085459598463], [71.99562583402724, 34.460933345854784], [71.9956638186979, 34.46092409468531], [71.99563573957131, 34.46084525476402]]]]}, "properties": {"id": "8J6HFX6W+972C", "height": 2.829827308654785, "hmax": 0.0, "ratio": 0.0, "vulnClass": "none"}}, {"type": "Feature", "geometry": {"type": "MultiPolygon", "coordinates": [[[[71.99572051252888, 34.46082705909275], [71.99570288953133, 34.46075100023389], [71.99556739367242, 34.46077254517805], [71.99558501331937, 34.460848694108115], [71.99572051252888, 34.46082705909275]]]]}, "properties": {"id": "8J6HFX6W+876W", "height": 2.668668270111084, "hmax": 0.0, "ratio": 0.0, "vulnClass": "none"}}, {"type": "Feature", "geometry": {"type": "MultiPolygon", "coordinates": [[[[71.99558874730351, 34.4607688339947], [71.99556977469175, 34.46073041939735], [71.9955382685435, 34.460741091832695], [71.99555724114248, 34.46077950643425], [71.99558874730351, 34.4607688339947]]]]}, "properties": {"id": "8J6HFX6W+8642", "height": 3.003426074981689, "hmax": 0.0, "ratio": 0.0, "vulnClass": "none"}}, {"type": "Feature", "geometry": {"type": "MultiPolygon", "coordinates": [[[[71.99281434796193, 34.46029737037791], [71.99279875100135, 34.46024074060124], [71.99270386982855, 34.46025859521264], [71.99271946349435, 34.460315315055965], [71.99281434796193, 34.46029737037791]]]]}, "properties": {"id": "8J6HFX6V+4463", "height": 2.773910045623779, "hmax": 0.0, "ratio": 0.0, "vulnClass": "none"}}, {"type": "Feature", "geometry": {"type": "MultiPolygon", "coordinates": [[[[71.99300323547804, 34.46097138148294], [71.99299376834618, 34.4609410424996], [71.99295066678037, 34.46095034712143], [71.99293864746778, 34.460912283616935], [71.9927209488956, 34.46095920322005], [71.99274254388084, 34.46102760841675], [71.99300323547804, 34.46097138148294]]]]}, "properties": {"id": "8J6HFX6V+94QM", "height": 3.126327991485596, "hmax": 0.0, "ratio": 0.0, "vulnClass": "none"}}, {"type": "Feature", "geometry": {"type": "MultiPolygon", "coordinates": [[[[71.9926387653562, 34.46072633770276], [71.99254743810329, 34.46074824572995], [71.99258975406809, 34.46086998170482], [71.99268129567008, 34.4608481690649], [71.9926387653562, 34.46072633770276]]]]}, "properties": {"id": "8J6HFX6V+829W", "height": 3.216162204742432, "hmax": 0.0, "ratio": 0.0, "vulnClass": "none"}}, {"type": "Feature", "geometry": {"type": "MultiPolygon", "coordinates": [[[[71.99192868600765, 34.458474164636485], [71.99193642249531, 34.458388995035584], [71.99189993970097, 34.45838674446504], [71.99189709129425, 34.45841759144792], [71.99185126791593, 34.45841484040545], [71.99184638300193, 34.458469072958074], [71.99192868600765, 34.458474164636485]]]]}, "properties": {"id": "8J6HFX5R+9QCG", "height": 2.470931053161621, "hmax": 0.0, "ratio": 0.0, "vulnClass": "none"}}, {"type": "Feature", "geometry": {"type": "MultiPolygon", "coordinates": [[[[71.99173237471297, 34.45834683293034], [71.99168327859505, 34.45824124456699], [71.99162295434007, 34.45826049035972], [71.99167194489844, 34.45836598600797], [71.99173237471297, 34.45834683293034]]]]}, "properties": {"id": "8J6HFX5R+8MF4", "height": 2.955953121185303, "hmax": 0.0, "ratio": 0.0, "vulnClass": "none"}}, {"type": "Feature", "geometry": {"type": "MultiPolygon", "coordinates": [[[[71.99208206946001, 34.4579572181913], [71.99207848737532, 34.45800850831048], [71.99221645320966, 34.45801506070817], [71.9922199297195, 34.45796367784535], [71.99208206946001, 34.4579572181913]]]]}, "properties": {"id": "8J6HFX5R+5VRH", "height": 3.985648155212402, "hmax": 0.0, "ratio": 0.0, "vulnClass": "none"}}, {"type": "Feature", "geometry": {"type": "MultiPolygon", "coordinates": [[[[71.99056850801492, 34.457984202561605], [71.99056019271457, 34.45795515371583], [71.99051975037966, 34.45796317097666], [71.99052817438975, 34.457992222503364], [71.99056850801492, 34.457984202561605]]]]}, "properties": {"id": "8J6HFX5R+56MV", "height": 2.59461784362793, "hmax": 0.0, "ratio": 0.0, "vulnClass": "none"}}, {"type": "Feature", "geometry": {"type": "MultiPolygon", "coordinates": [[[[71.99048052298109, 34.4580191712466], [71.99044398171631, 34.458027645152846], [71.9904767227957, 34.45812498903182], [71.99061048579078, 34.45809403267804], [71.99060173110475, 34.458068127817214], [71.99055443466484, 34.45807913101795], [71.99051981534328, 34.457976512909966], [71.99046999567015, 34.45798808486928], [71.99048052298109, 34.4580191712466]]]]}, "properties": {"id": "8J6HFX5R+66C7", "height": 2.762456893920898, "hmax": 0.0, "ratio": 0.0, "vulnClass": "none"}}, {"type": "Feature", "geometry": {"type": "MultiPolygon", "coordinates": [[[[72.00193458558698, 34.457951938378535], [72.00173755394948, 34.45787778597588], [72.00165268405405, 34.45803263235697], [72.00184971595992, 34.45810678491014], [72.00193458558698, 34.457951938378535]]]]}, "properties": {"id": "8J6JF252+5PVM", "height": 2.485044956207275, "hmax": 0.0, "ratio": 0.0, "vulnClass": "none"}}, {"type": "Feature", "geometry": {"type": "MultiPolygon", "coordinates": [[[[72.00088669538229, 34.45830641314653], [72.00087957905724, 34.45826504548335], [72.00082843478154, 34.458271090790134], [72.00084628796169, 34.45837428614017], [72.0009595071399, 34.45836084140761], [72.00094877017615, 34.45829901372797], [72.00088669538229, 34.45830641314653]]]]}, "properties": {"id": "8J6JF252+89J3", "height": 6.168351173400879, "hmax": 0.0, "ratio": 0.0, "vulnClass": "none"}}, {"type": "Feature", "geometry": {"type": "MultiPolygon", "coordinates": [[[[72.00099617406859, 34.458506953545935], [72.00097909610949, 34.4583638462515], [72.00086133068005, 34.458373573861905], [72.0008784116604, 34.458516591103674], [72.00099617406859, 34.458506953545935]]]]}, "properties": {"id": "8J6JF252+99FP", "height": 4.554471492767334, "hmax": 0.0, "ratio": 0.0, "vulnClass": "none"}}, {"type": "Feature", "geometry": {"type": "MultiPolygon", "coordinates": [[[[72.0012673435027, 34.45844645892085], [72.00124969809671, 34.45836481162986], [72.00111098080674, 34.45838529228758], [72.00112862285589, 34.45846702965011], [72.0012673435027, 34.45844645892085]]]]}, "properties": {"id": "8J6JF252+9F8J", "height": 5.302992343902588, "hmax": 0.0, "ratio": 0.0, "vulnClass": "none"}}, {"type": "Feature", "geometry": {"type": "MultiPolygon", "coordinates": [[[[72.00109492350558, 34.45832008903111], [72.00106716557798, 34.45832337354589], [72.0010774750297, 34.45838194576368], [72.00110523297668, 34.45837866124758], [72.00109492350558, 34.45832008903111]]]]}, "properties": {"id": "8J6JF252+8CW5", "height": 4.218383312225342, "hmax": 0.0, "ratio": 0.0, "vulnClass": "none"}}, {"type": "Feature", "geometry": {"type": "MultiPolygon", "coordinates": [[[[72.0022231470087, 34.4584425198467], [72.00202181452782, 34.45845812961827], [72.0020338230057, 34.458563524953306], [72.00219576415488, 34.458550914412385], [72.002187647762, 34.458479686675595], [72.00222704253596, 34.45847659738066], [72.0022231470087, 34.4584425198467]]]]}, "properties": {"id": "8J6JF252+CR54", "height": 2.947073221206665, "hmax": 0.0, "ratio": 0.0, "vulnClass": "none"}}, {"type": "Feature", "geometry": {"type": "MultiPolygon", "coordinates": [[[[72.00211379803787, 34.45907783074309], [72.00203976262728, 34.45895414733798], [72.00198089673849, 34.45897830154401], [72.00205493207805, 34.459101984980975], [72.00211379803787, 34.45907783074309]]]]}, "properties": {"id": "8J6JF252+JR74", "height": 2.838063716888428, "hmax": 0.0, "ratio": 0.0, "vulnClass": "none"}}, {"type": "Feature", "geometry": {"type": "MultiPolygon", "coordinates": [[[[72.00265515683391, 34.45879871032835], [72.00258379308535, 34.45869158800347], [72.00250712554501, 34.45872666295803], [72.00257848921852, 34.45883378532366], [72.00265515683391, 34.45879871032835]]]]}, "properties": {"id": "8J6JF253+G24G", "height": 2.576595544815063, "hmax": 0.0, "ratio": 0.0, "vulnClass": "none"}}, {"type": "Feature", "geometry": {"type": "MultiPolygon", "coordinates": [[[[72.00235914012814, 34.45925871957587], [72.00228188015402, 34.45920995174968], [72.00219900319335, 34.459299948235206], [72.00227625997258, 34.45934880617372], [72.00235914012814, 34.45925871957587]]]]}, "properties": {"id": "8J6JF252+PW65", "height": 3.592942714691162, "hmax": 0.0, "ratio": 0.0, "vulnClass": "none"}}, {"type": "Feature", "geometry": {"type": "MultiPolygon", "coordinates": [[[[72.00247900631409, 34.45916899980361], [72.00241092846045, 34.45910387206413], [72.00234961096982, 34.459147886716394], [72.00241769202786, 34.459212924430396], [72.00247900631409, 34.45916899980361]]]]}, "properties": {"id": "8J6JF252+MX77", "height": 2.591631412506104, "hmax": 0.0, "ratio": 0.0, "vulnClass": "none"}}, {"type": "Feature", "geometry": {"type": "MultiPolygon", "coordinates": [[[[72.00220327711068, 34.459077052420255], [72.00218789204182, 34.45905386996269], [72.00213556578564, 34.459077734064294], [72.00215095084339, 34.45910091652784], [72.00220327711068, 34.459077052420255]]]]}, "properties": {"id": "8J6JF252+JVM3", "height": 2.838063716888428, "hmax": 0.0, "ratio": 0.0, "vulnClass": "none"}}, {"type": "Feature", "geometry": {"type": "MultiPolygon", "coordinates": [[[[72.00213967307104, 34.45912110098072], [72.00211379803787, 34.45907783074309], [72.00205493207805, 34.459101984980975], [72.00208080708636, 34.45914525522973], [72.00213967307104, 34.45912110098072]]]]}, "properties": {"id": "8J6JF252+JRXC", "height": 2.838063716888428, "hmax": 0.0, "ratio": 0.0, "vulnClass": "none"}}, {"type": "Feature", "geometry": {"type": "MultiPolygon", "coordinates": [[[[72.00181640537863, 34.4590408756023], [72.00179665454185, 34.459008932710425], [72.00174935943576, 34.45902904422451], [72.00176911025808, 34.45906098712326], [72.00181640537863, 34.4590408756023]]]]}, "properties": {"id": "8J6JF252+JP76", "height": 3.50752592086792, "hmax": 0.0, "ratio": 0.0, "vulnClass": "none"}}, {"type": "Feature", "geometry": {"type": "MultiPolygon", "coordinates": [[[[72.00154997375725, 34.461456605203814], [72.00150187411805, 34.46142009036575], [72.00142653123798, 34.46148800718045], [72.0014747363851, 34.46152461477614], [72.00154997375725, 34.461456605203814]]]]}, "properties": {"id": "8J6JF262+HHQW", "height": 3.089250326156616, "hmax": 0.0, "ratio": 0.0, "vulnClass": "none"}}, {"type": "Feature", "geometry": {"type": "MultiPolygon", "coordinates": [[[[72.00143102399028, 34.464868549864356], [72.00141560872295, 34.464779295674155], [72.0013536410597, 34.464786607685866], [72.0013690562611, 34.46487586188042], [72.00143102399028, 34.464868549864356]]]]}, "properties": {"id": "8J6JF272+WHJ4", "height": 2.642414093017578, "hmax": 0.0, "ratio": 0.0, "vulnClass": "none"}}, {"type": "Feature", "geometry": {"type": "MultiPolygon", "coordinates": [[[[72.00140332483022, 34.4646998532299], [72.00135195441526, 34.464699944008025], [72.00135221506696, 34.464762596063075], [72.0014034767871, 34.464762502617155], [72.00140332483022, 34.4646998532299]]]]}, "properties": {"id": "8J6JF272+VHR6", "height": 2.577595233917236, "hmax": 0.0, "ratio": 0.0, "vulnClass": "none"}}, {"type": "Feature", "geometry": {"type": "MultiPolygon", "coordinates": [[[[72.0016819206739, 34.46461790757568], [72.00164100886614, 34.464614649732425], [72.00163585751363, 34.464658240020405], [72.00167676934224, 34.46466149786646], [72.0016819206739, 34.46461790757568]]]]}, "properties": {"id": "8J6JF272+VM3C", "height": 2.487306833267212, "hmax": 0.12, "ratio": 0.048, "vulnClass": "low"}}, {"type": "Feature", "geometry": {"type": "MultiPolygon", "coordinates": [[[[72.00259338502156, 34.4665639988166], [72.00255032567438, 34.46656294198557], [72.00254907221375, 34.46659797476648], [72.0025921315789, 34.466599031598896], [72.00259338502156, 34.4665639988166]]]]}, "properties": {"id": "8J6JF283+J2P7", "height": 2.743376731872559, "hmax": 0.0, "ratio": 0.0, "vulnClass": "none"}}, {"type": "Feature", "geometry": {"type": "MultiPolygon", "coordinates": [[[[72.002483824166, 34.46662089075464], [72.00246892683681, 34.46657491545951], [72.00232005768021, 34.46660803761673], [72.00233495170826, 34.466654102984414], [72.002483824166, 34.46662089075464]]]]}, "properties": {"id": "8J6JF282+JXRH", "height": 2.727979898452759, "hmax": 0.0, "ratio": 0.0, "vulnClass": "none"}}, {"type": "Feature", "geometry": {"type": "MultiPolygon", "coordinates": [[[[72.00253316011306, 34.468481370729144], [72.00244589001457, 34.46848400598795], [72.00245124381115, 34.468602037412], [72.0026847309406, 34.46859487850687], [72.0026810584286, 34.46851501656681], [72.00253484488364, 34.46851945016015], [72.00253316011306, 34.468481370729144]]]]}, "properties": {"id": "8J6JF293+C27W", "height": 3.866506099700928, "hmax": 0.079, "ratio": 0.02, "vulnClass": "none"}}, {"type": "Feature", "geometry": {"type": "MultiPolygon", "coordinates": [[[[72.0024446693776, 34.46852724208734], [72.00226592876945, 34.46851302971797], [72.00225551311664, 34.46860336235461], [72.00243425713624, 34.468617484690505], [72.0024446693776, 34.46852724208734]]]]}, "properties": {"id": "8J6JF292+CWHJ", "height": 3.207072973251343, "hmax": 0.0, "ratio": 0.0, "vulnClass": "none"}}, {"type": "Feature", "geometry": {"type": "MultiPolygon", "coordinates": [[[[72.00192558951005, 34.47040793044482], [72.00191909789466, 34.47037036397481], [72.0017678240437, 34.4703883732369], [72.00177431881491, 34.47042584965297], [72.00182557928744, 34.47041980701398], [72.00183044877427, 34.47044795935395], [72.00187154479914, 34.47044310935007], [72.0018666752985, 34.47041495701104], [72.00192558951005, 34.47040793044482]]]]}, "properties": {"id": "8J6JF2C2+5P92", "height": 3.088416576385498, "hmax": 0.0, "ratio": 0.0, "vulnClass": "none"}}, {"type": "Feature", "geometry": {"type": "MultiPolygon", "coordinates": [[[[72.00166057822244, 34.470438200223036], [72.00162668809038, 34.470442415840935], [72.00163339705787, 34.47047998765929], [72.0016672872051, 34.47047577204032], [72.00167218242945, 34.470503203916316], [72.00170661628874, 34.470499001635986], [72.00169501205507, 34.470433997944575], [72.00166057822244, 34.470438200223036]]]]}, "properties": {"id": "8J6JF2C2+5MMM", "height": 2.886312484741211, "hmax": 0.0, "ratio": 0.0, "vulnClass": "none"}}, {"type": "Feature", "geometry": {"type": "MultiPolygon", "coordinates": [[[[72.00202380645864, 34.47035797170486], [72.00201270378729, 34.47029415213808], [72.00195816184457, 34.47030065512441], [72.00195302089469, 34.47027096378467], [72.00192471206091, 34.47027432499446], [72.00191633015562, 34.470225715331054], [72.00174330762393, 34.47024625531232], [72.00175168942896, 34.47029486498236], [72.00169682125289, 34.470301359841535], [72.00171295580647, 34.47039486810013], [72.0017678240437, 34.4703883732369], [72.00176205414111, 34.470354970808444], [72.0017864290047, 34.470352053879026], [72.00179219891697, 34.47038545630685], [72.00194084686851, 34.47036783323628], [72.00193507689704, 34.47033443081238], [72.00196349449165, 34.47033107227082], [72.00196915573383, 34.47036447202442], [72.00202380645864, 34.47035797170486]]]]}, "properties": {"id": "8J6JF2C2+4PHC", "height": 3.088416576385498, "hmax": 0.0, "ratio": 0.0, "vulnClass": "none"}}, {"type": "Feature", "geometry": {"type": "MultiPolygon", "coordinates": [[[[72.00198731108867, 34.47001229946602], [72.00194594063383, 34.4700157005765], [72.00194993207452, 34.47005014098919], [72.00199140806336, 34.47004683260623], [72.00198731108867, 34.47001229946602]]]]}, "properties": {"id": "8J6JF2C2+2Q89", "height": 3.042763710021973, "hmax": 0.0, "ratio": 0.0, "vulnClass": "none"}}, {"type": "Feature", "geometry": {"type": "MultiPolygon", "coordinates": [[[[72.00171892776999, 34.47003951208568], [72.0017187094017, 34.47008818102144], [72.00187410970429, 34.470088661180064], [72.00187428416743, 34.47005946088351], [72.00191237224495, 34.47005958471899], [72.00191241927428, 34.47004002601587], [72.00171892776999, 34.47003951208568]]]]}, "properties": {"id": "8J6JF2C2+2PFH", "height": 2.503592252731323, "hmax": 0.0, "ratio": 0.0, "vulnClass": "none"}}, {"type": "Feature", "geometry": {"type": "MultiPolygon", "coordinates": [[[[72.00158961948019, 34.47000334691974], [72.00154060262409, 34.47000448698718], [72.00154175784992, 34.47003606350547], [72.00159066920813, 34.470034830710226], [72.00158961948019, 34.47000334691974]]]]}, "properties": {"id": "8J6JF2C2+2J4J", "height": 3.422773838043213, "hmax": 0.0, "ratio": 0.0, "vulnClass": "none"}}, {"type": "Feature", "geometry": {"type": "MultiPolygon", "coordinates": [[[[72.00146097883608, 34.470015421618115], [72.00143267975008, 34.47001851254208], [72.00143820945962, 34.47005254004857], [72.00146640304082, 34.47004935639552], [72.00146097883608, 34.470015421618115]]]]}, "properties": {"id": "8J6JF2C2+2H87", "height": 3.148906707763672, "hmax": 0.0, "ratio": 0.0, "vulnClass": "none"}}, {"type": "Feature", "geometry": {"type": "MultiPolygon", "coordinates": [[[[72.00243798204139, 34.471788887549394], [72.00242879903723, 34.47174440458266], [72.00236655394224, 34.47175324249266], [72.00237573691355, 34.47179772546236], [72.00243798204139, 34.471788887549394]]]]}, "properties": {"id": "8J6JF2C2+PX2X", "height": 2.692960023880005, "hmax": 0.0, "ratio": 0.0, "vulnClass": "none"}}, {"type": "Feature", "geometry": {"type": "MultiPolygon", "coordinates": [[[[72.00176690187806, 34.471642524862055], [72.00175893883876, 34.47159437616626], [72.00148321541032, 34.471625824645685], [72.0014911815152, 34.471673883292745], [72.00176690187806, 34.471642524862055]]]]}, "properties": {"id": "8J6JF2C2+MM26", "height": 2.944964647293091, "hmax": 0.0, "ratio": 0.0, "vulnClass": "none"}}, {"type": "Feature", "geometry": {"type": "MultiPolygon", "coordinates": [[[[72.00162342006368, 34.47160393851883], [72.00160938653407, 34.47153382747503], [72.00136493263648, 34.471567395514825], [72.00137896596262, 34.47163750657603], [72.00162342006368, 34.47160393851883]]]]}, "properties": {"id": "8J6JF2C2+JHQH", "height": 3.285875558853149, "hmax": 0.0, "ratio": 0.0, "vulnClass": "none"}}, {"type": "Feature", "geometry": {"type": "MultiPolygon", "coordinates": [[[[71.99992690024949, 34.4720980494243], [71.99986918184675, 34.472102039687364], [71.99987270200708, 34.4721374600731], [71.9999304172086, 34.472133559867906], [71.99992690024949, 34.4720980494243]]]]}, "properties": {"id": "8J6HFXCX+RXRQ", "height": 2.465121984481812, "hmax": 0.0, "ratio": 0.0, "vulnClass": "none"}}, {"type": "Feature", "geometry": {"type": "MultiPolygon", "coordinates": [[[[72.00009865570057, 34.4723044472854], [72.00012286645773, 34.472126840168414], [72.0000229628151, 34.4721174453556], [72.00001838539877, 34.47215104433558], [72.00006199030167, 34.47215518021744], [72.00005221343147, 34.472227590875214], [71.99955507117748, 34.47218112475806], [71.99954532290252, 34.4722527248278], [72.00009865570057, 34.4723044472854]]]]}, "properties": {"id": "8J6HFXCX+VWX8", "height": 3.495094299316406, "hmax": 0.0, "ratio": 0.0, "vulnClass": "none"}}, {"type": "Feature", "geometry": {"type": "MultiPolygon", "coordinates": [[[[71.99965764587041, 34.47206430293867], [71.99961751112919, 34.472060522586986], [71.99960229415831, 34.472172369900875], [71.9996424321778, 34.472176060202024], [71.99965764587041, 34.47206430293867]]]]}, "properties": {"id": "8J6HFXCX+RVRJ", "height": 3.46834135055542, "hmax": 0.0, "ratio": 0.0, "vulnClass": "none"}}, {"type": "Feature", "geometry": {"type": "MultiPolygon", "coordinates": [[[[71.99977555340227, 34.47186276791699], [71.9997083202723, 34.47185588812155], [71.99967897931091, 34.472052117696286], [72.0000715339805, 34.47209231840599], [72.00010087727532, 34.47189599863233], [71.99991554943496, 34.47187711393571], [71.99990552461345, 34.47194429051429], [71.99976552847185, 34.47192994447841], [71.99977555340227, 34.47186276791699]]]]}, "properties": {"id": "8J6HFXCX+QXR8", "height": 3.660520315170288, "hmax": 0.0, "ratio": 0.0, "vulnClass": "none"}}, {"type": "Feature", "geometry": {"type": "MultiPolygon", "coordinates": [[[[71.99954843615375, 34.47216581863417], [71.99933670603099, 34.47214565336889], [71.99932556041462, 34.47222587228012], [71.99953718199194, 34.47224603490314], [71.99954843615375, 34.47216581863417]]]]}, "properties": {"id": "8J6HFXCX+VQFX", "height": 2.476236820220947, "hmax": 0.0, "ratio": 0.0, "vulnClass": "none"}}, {"type": "Feature", "geometry": {"type": "MultiPolygon", "coordinates": [[[[71.99668948494453, 34.471719216334805], [71.99677253664784, 34.47170683685417], [71.99676151986577, 34.471655908688334], [71.99667846498333, 34.47166837822211], [71.99668948494453, 34.471719216334805]]]]}, "properties": {"id": "8J6HFXCW+MMHC", "height": 3.886986017227173, "hmax": 0.0, "ratio": 0.0, "vulnClass": "none"}}, {"type": "Feature", "geometry": {"type": "MultiPolygon", "coordinates": [[[[71.99901182227448, 34.470854652856254], [71.99895701072397, 34.47086259005597], [71.99897487209245, 34.47094730755077], [71.99902957173036, 34.47093945773195], [71.99901182227448, 34.470854652856254]]]]}, "properties": {"id": "8J6HFXCX+9H95", "height": 2.571639060974121, "hmax": 0.0, "ratio": 0.0, "vulnClass": "none"}}, {"type": "Feature", "geometry": {"type": "MultiPolygon", "coordinates": [[[[71.99874334557832, 34.47098461325681], [71.99873190686881, 34.47093935352664], [71.99867419375876, 34.470949292448616], [71.9986855236965, 34.47099454951007], [71.99874334557832, 34.47098461325681]]]]}, "properties": {"id": "8J6HFXCX+9FPP", "height": 3.280346632003784, "hmax": 0.0, "ratio": 0.0, "vulnClass": "none"}}, {"type": "Feature", "geometry": {"type": "MultiPolygon", "coordinates": [[[[71.99881858253042, 34.47089262916204], [71.99877674984062, 34.470899803594705], [71.9987919799712, 34.470960750285414], [71.99883381269095, 34.47095357584911], [71.99881858253042, 34.47089262916204]]]]}, "properties": {"id": "8J6HFXCX+9GF5", "height": 4.589856624603271, "hmax": 0.0, "ratio": 0.0, "vulnClass": "none"}}, {"type": "Feature", "geometry": {"type": "MultiPolygon", "coordinates": [[[[71.99890926092495, 34.47099238639098], [71.99889398295275, 34.47095099837304], [71.9987989764929, 34.470975073818025], [71.9988142544207, 34.47101646184548], [71.99890926092495, 34.47099238639098]]]]}, "properties": {"id": "8J6HFXCX+9GX7", "height": 2.851977825164795, "hmax": 0.0, "ratio": 0.0, "vulnClass": "none"}}, {"type": "Feature", "geometry": {"type": "MultiPolygon", "coordinates": [[[[71.99952608405701, 34.47154106722993], [71.99945310251046, 34.471548828611745], [71.9994612355781, 34.471601308199695], [71.9995342203965, 34.47159345675718], [71.99952608405701, 34.47154106722993]]]]}, "properties": {"id": "8J6HFXCX+JQHX", "height": 4.153311252593994, "hmax": 0.0, "ratio": 0.0, "vulnClass": "none"}}, {"type": "Feature", "geometry": {"type": "MultiPolygon", "coordinates": [[[[71.9992508475648, 34.47088143837903], [71.99923754958586, 34.47081819563867], [71.99915155978019, 34.4708305947757], [71.9991647521801, 34.47089374479174], [71.9992508475648, 34.47088143837903]]]]}, "properties": {"id": "8J6HFXCX+8MW7", "height": 2.637091875076294, "hmax": 0.0, "ratio": 0.0, "vulnClass": "none"}}, {"type": "Feature", "geometry": {"type": "MultiPolygon", "coordinates": [[[[71.99983752718245, 34.47074027564182], [71.9998276258924, 34.4707067716463], [71.99978497410792, 34.47071554878276], [71.99979487538141, 34.47074905278089], [71.99983752718245, 34.47074027564182]]]]}, "properties": {"id": "8J6HFXCX+7WV5", "height": 3.223703861236572, "hmax": 0.0, "ratio": 0.0, "vulnClass": "none"}}, {"type": "Feature", "geometry": {"type": "MultiPolygon", "coordinates": [[[[71.99992539592408, 34.47069060523798], [71.99990998342933, 34.47063776656296], [71.99981461449902, 34.470656786213056], [71.99983002370953, 34.47070971495531], [71.99992539592408, 34.47069060523798]]]]}, "properties": {"id": "8J6HFXCX+7W9X", "height": 6.591468334197998, "hmax": 0.0, "ratio": 0.0, "vulnClass": "none"}}, {"type": "Feature", "geometry": {"type": "MultiPolygon", "coordinates": [[[[71.9998276258924, 34.4707067716463], [71.99981101179132, 34.470651019039295], [71.99965258784844, 34.470683271988946], [71.99966919862122, 34.47073911467036], [71.9998276258924, 34.4707067716463]]]]}, "properties": {"id": "8J6HFXCX+7VHW", "height": 5.675809860229492, "hmax": 0.0, "ratio": 0.0, "vulnClass": "none"}}, {"type": "Feature", "geometry": {"type": "MultiPolygon", "coordinates": [[[[71.99943474198335, 34.47071848144416], [71.99939352993313, 34.470529081428865], [71.99930719808977, 34.470541922968444], [71.99931869874862, 34.470594575451834], [71.99924287368297, 34.47060578222377], [71.99929669739484, 34.47085327031431], [71.99943992973498, 34.47083191176285], [71.99942591559625, 34.47076738951726], [71.99933542231834, 34.47078094005764], [71.99932532045585, 34.47073481184727], [71.99943474198335, 34.47071848144416]]]]}, "properties": {"id": "8J6HFXCX+7PHJ", "height": 3.563436985015869, "hmax": 0.0, "ratio": 0.0, "vulnClass": "none"}}, {"type": "Feature", "geometry": {"type": "MultiPolygon", "coordinates": [[[[71.99895618865521, 34.47066985588455], [71.99890843020158, 34.4706753524052], [71.99891639476601, 34.470723411144895], [71.99896415324703, 34.470717914622576], [71.99895618865521, 34.47066985588455]]]]}, "properties": {"id": "8J6HFXCX+7HFX", "height": 5.189659118652344, "hmax": 0.0, "ratio": 0.0, "vulnClass": "none"}}, {"type": "Feature", "geometry": {"type": "MultiPolygon", "coordinates": [[[[71.9987787625049, 34.47075554293448], [71.99875213982796, 34.47067538738269], [71.9987061644442, 34.47068579506926], [71.99873278385202, 34.47076604068701], [71.9987787625049, 34.47075554293448]]]]}, "properties": {"id": "8J6HFXCX+7FQX", "height": 5.304579734802246, "hmax": 0.0, "ratio": 0.0, "vulnClass": "none"}}, {"type": "Feature", "geometry": {"type": "MultiPolygon", "coordinates": [[[[71.99884459199632, 34.470434017824964], [71.99882586510242, 34.47037650056612], [71.99864396025153, 34.470417098761004], [71.99865385555579, 34.47044771829305], [71.99880317418373, 34.47041443163286], [71.9988118969589, 34.47044132670048], [71.99884459199632, 34.470434017824964]]]]}, "properties": {"id": "8J6HFXCX+5G6C", "height": 4.167604446411133, "hmax": 0.0, "ratio": 0.0, "vulnClass": "none"}}, {"type": "Feature", "geometry": {"type": "MultiPolygon", "coordinates": [[[[71.99864396025153, 34.470417098761004], [71.99860446522115, 34.47042586293123], [71.99862308322834, 34.47048337754374], [71.99866258151172, 34.470474523310706], [71.99864396025153, 34.470417098761004]]]]}, "properties": {"id": "8J6HFXCX+5FJ3", "height": 5.165762424468994, "hmax": 0.0, "ratio": 0.0, "vulnClass": "none"}}, {"type": "Feature", "geometry": {"type": "MultiPolygon", "coordinates": [[[[71.9988189502096, 34.46987083952758], [71.99871164643584, 34.46988884392799], [71.99875056674934, 34.470047991753084], [71.9990360165315, 34.47000011291394], [71.9990196847324, 34.469933460511484], [71.9988415390646, 34.46996333491013], [71.9988189502096, 34.46987083952758]]]]}, "properties": {"id": "8J6HFX9X+XGQJ", "height": 3.46909236907959, "hmax": 0.0, "ratio": 0.0, "vulnClass": "none"}}, {"type": "Feature", "geometry": {"type": "MultiPolygon", "coordinates": [[[[71.99884050896428, 34.46973084497287], [71.99880111753245, 34.46973672736294], [71.99880869284364, 34.46977134605672], [71.99884797555211, 34.46976546099275], [71.99884050896428, 34.46973084497287]]]]}, "properties": {"id": "8J6HFX9X+WG43", "height": 4.012777328491211, "hmax": 0.0, "ratio": 0.0, "vulnClass": "none"}}, {"type": "Feature", "geometry": {"type": "MultiPolygon", "coordinates": [[[[71.99943296920439, 34.46974711599948], [71.99939827467298, 34.46976771626667], [71.99945533345378, 34.469833746829785], [71.99949002800099, 34.46981314654727], [71.99943296920439, 34.46974711599948]]]]}, "properties": {"id": "8J6HFX9X+WQ8J", "height": 3.801249504089355, "hmax": 0.0, "ratio": 0.0, "vulnClass": "none"}}, {"type": "Feature", "geometry": {"type": "MultiPolygon", "coordinates": [[[[71.99951365285611, 34.469846356789894], [71.99949109375801, 34.46981073901971], [71.99945538050473, 34.469826356709014], [71.99947805155648, 34.46986188709864], [71.99951365285611, 34.469846356789894]]]]}, "properties": {"id": "8J6HFX9X+WQQG", "height": 4.482694625854492, "hmax": 0.0, "ratio": 0.0, "vulnClass": "none"}}, {"type": "Feature", "geometry": {"type": "MultiPolygon", "coordinates": [[[[71.99954221242106, 34.46996360630665], [71.9995228189742, 34.46988822553485], [71.99930146873632, 34.469927134484955], [71.99932085876131, 34.47000260533982], [71.99954221242106, 34.46996360630665]]]]}, "properties": {"id": "8J6HFX9X+XQFV", "height": 4.238110542297363, "hmax": 0.0, "ratio": 0.0, "vulnClass": "none"}}, {"type": "Feature", "geometry": {"type": "MultiPolygon", "coordinates": [[[[71.99955933271983, 34.470296904812926], [71.9995672483066, 34.47020353654799], [71.99952195850803, 34.470200891457125], [71.9995196826138, 34.47022796693236], [71.99944756624484, 34.470223761311125], [71.99944203518636, 34.47029005676082], [71.99955933271983, 34.470296904812926]]]]}, "properties": {"id": "8J6HFXCX+4R23", "height": 3.04059362411499, "hmax": 0.0, "ratio": 0.0, "vulnClass": "none"}}, {"type": "Feature", "geometry": {"type": "MultiPolygon", "coordinates": [[[[71.99921117109302, 34.46959194771779], [71.99917495554796, 34.46961854976098], [71.99925720326286, 34.469695384901954], [71.99929342204487, 34.46966869277676], [71.99921117109302, 34.46959194771779]]]]}, "properties": {"id": "8J6HFX9X+VM5M", "height": 3.129055023193359, "hmax": 0.0, "ratio": 0.0, "vulnClass": "none"}}, {"type": "Feature", "geometry": {"type": "MultiPolygon", "coordinates": [[[[71.99917869446556, 34.46945341956633], [71.99915807399522, 34.469375845292895], [71.99907547176599, 34.46939094164821], [71.99909598342221, 34.46946851325958], [71.99917869446556, 34.46945341956633]]]]}, "properties": {"id": "8J6HFX9X+QM6R", "height": 2.966386318206787, "hmax": 0.0, "ratio": 0.0, "vulnClass": "none"}}, {"type": "Feature", "geometry": {"type": "MultiPolygon", "coordinates": [[[[71.99937541414938, 34.469403269387605], [71.9993001528023, 34.46924989896089], [71.99925972300191, 34.469263507819655], [71.9992839662803, 34.46931286791446], [71.99923835473929, 34.469328332467484], [71.99924921231018, 34.4693503224002], [71.99918862188936, 34.469370736989], [71.99922878867109, 34.46945257732665], [71.99937541414938, 34.469403269387605]]]]}, "properties": {"id": "8J6HFX9X+PPVJ", "height": 6.495797157287598, "hmax": 0.0, "ratio": 0.0, "vulnClass": "none"}}, {"type": "Feature", "geometry": {"type": "MultiPolygon", "coordinates": [[[[71.9997944727962, 34.46933821026942], [71.99975649154501, 34.469335113866435], [71.99975257959663, 34.469368368647615], [71.99979056086255, 34.46937146505259], [71.9997944727962, 34.46933821026942]]]]}, "properties": {"id": "8J6HFX9X+PWR5", "height": 3.781011581420898, "hmax": 0.0, "ratio": 0.0, "vulnClass": "none"}}, {"type": "Feature", "geometry": {"type": "MultiPolygon", "coordinates": [[[[71.99983536195155, 34.469518408223415], [71.99982376292677, 34.46946241827173], [71.99976304817375, 34.469471112213625], [71.99977465038387, 34.46952701211067], [71.99983536195155, 34.469518408223415]]]]}, "properties": {"id": "8J6HFX9X+QWVP", "height": 2.752794981002808, "hmax": 0.0, "ratio": 0.0, "vulnClass": "none"}}, {"type": "Feature", "geometry": {"type": "MultiPolygon", "coordinates": [[[[71.99986099210672, 34.46931938322859], [71.9998120627707, 34.46931809104732], [71.99981063478707, 34.469354922218955], [71.99985956414451, 34.46935621440191], [71.99986099210672, 34.46931938322859]]]]}, "properties": {"id": "8J6HFX9X+PWPG", "height": 4.252962112426758, "hmax": 0.0, "ratio": 0.0, "vulnClass": "none"}}, {"type": "Feature", "geometry": {"type": "MultiPolygon", "coordinates": [[[[71.99986434152031, 34.46923194196096], [71.99979007929524, 34.469229937287224], [71.99978844809655, 34.46927244213123], [71.99981378104928, 34.4692731546287], [71.9998120627707, 34.46931809104732], [71.99986099210672, 34.46931938322859], [71.99986434152031, 34.46923194196096]]]]}, "properties": {"id": "8J6HFX9X+PW4W", "height": 4.252962112426758, "hmax": 0.0, "ratio": 0.0, "vulnClass": "none"}}, {"type": "Feature", "geometry": {"type": "MultiPolygon", "coordinates": [[[[71.9997547585051, 34.46922852872097], [71.99972611730975, 34.46923206153715], [71.99973176563958, 34.46926275692907], [71.99957585554151, 34.469282632636265], [71.99959475487152, 34.4693839608716], [71.99975055319287, 34.46936417253699], [71.99974388935676, 34.46932840449525], [71.99977264254957, 34.469324784289775], [71.9997547585051, 34.46922852872097]]]]}, "properties": {"id": "8J6HFX9X+PVFP", "height": 4.098452568054199, "hmax": 0.0, "ratio": 0.0, "vulnClass": "none"}}, {"type": "Feature", "geometry": {"type": "MultiPolygon", "coordinates": [[[[71.99898809814599, 34.46949668916994], [71.99897730707865, 34.46946676874893], [71.99891921944042, 34.469481115351975], [71.99893000726155, 34.469511125835304], [71.99898809814599, 34.46949668916994]]]]}, "properties": {"id": "8J6HFX9X+QHWG", "height": 3.123819351196289, "hmax": 0.0, "ratio": 0.0, "vulnClass": "none"}}, {"type": "Feature", "geometry": {"type": "MultiPolygon", "coordinates": [[[[71.99909251021253, 34.46963229791343], [71.99907694448747, 34.469580717306094], [71.99894273769166, 34.469608426638395], [71.99895830333656, 34.469660007258604], [71.99909251021253, 34.46963229791343]]]]}, "properties": {"id": "8J6HFX9X+RJRW", "height": 4.657050132751465, "hmax": 0.0, "ratio": 0.0, "vulnClass": "none"}}, {"type": "Feature", "geometry": {"type": "MultiPolygon", "coordinates": [[[[71.99882255755335, 34.46964864909437], [71.9987832748992, 34.469654534153015], [71.99879298013686, 34.46969957100505], [71.99883237155136, 34.469693688616694], [71.99882255755335, 34.46964864909437]]]]}, "properties": {"id": "8J6HFX9X+VG7X", "height": 3.201584339141846, "hmax": 0.0, "ratio": 0.0, "vulnClass": "none"}}, {"type": "Feature", "geometry": {"type": "MultiPolygon", "coordinates": [[[[71.99924460781615, 34.469800896853194], [71.99922051364106, 34.46971395306965], [71.99877846099923, 34.46979800489066], [71.99880255472594, 34.46988494873775], [71.99924460781615, 34.469800896853194]]]]}, "properties": {"id": "8J6HFX9X+WJ6V", "height": 3.766647815704346, "hmax": 0.0, "ratio": 0.0, "vulnClass": "none"}}]}