{"type": "FeatureCollection", "features": [{"type": "Feature", "geometry": {"type": "MultiPolygon", "coordinates": [[[[72.06570345024265, 34.53454871473192], [72.06569551002367, 34.53449876718957], [72.06564269836261, 34.53450452801362], [72.06565074738032, 34.53455447817493], [72.06570345024265, 34.53454871473192]]]]}, "properties": {"id": "Pakistan_123102132_580123", "height": 2.589646100997925, "hmax": 0.0, "ratio": 0.0, "vulnClass": "none"}}, {"type": "Feature", "geometry": {"type": "MultiPolygon", "coordinates": [[[[72.06785657224621, 34.53271864424286], [72.06785827507888, 34.532753929451054], [72.06801900690927, 34.53274868757602], [72.06801654154647, 34.532697880163155], [72.06796027250401, 34.53269977312366], [72.0679583979735, 34.532660066986075], [72.06789940509674, 34.53266198460871], [72.06790215402755, 34.53271712550093], [72.06785657224621, 34.53271864424286]]]]}, "properties": {"id": "Pakistan_123102132_457631", "height": 3.659922361373901, "hmax": 0.0, "ratio": 0.0, "vulnClass": "none"}}, {"type": "Feature", "geometry": {"type": "MultiPolygon", "coordinates": [[[[72.07394437889516, 34.5336223957893], [72.07393328042123, 34.53353496522362], [72.07359362310825, 34.53356413746583], [72.07358313543052, 34.53348104819833], [72.07353539395099, 34.53348513129515], [72.07354613237707, 34.533570389915226], [72.07335778445297, 34.53358660463825], [72.0733685227019, 34.5336718632642], [72.07394437889516, 34.5336223957893]]]]}, "properties": {"id": "Pakistan_123102132_121657", "height": 4.011622428894043, "hmax": 0.0, "ratio": 0.0, "vulnClass": "none"}}]}