{"type": "FeatureCollection", "features": [{"type": "Feature", "geometry": {"type": "MultiPolygon", "coordinates": [[[[72.18464627683288, 34.56902459117126], [72.18447470944066, 34.56895167256446], [72.18447356284582, 34.56895335879094], [72.18442908548127, 34.568934484046316], [72.18440835256129, 34.56896762833294], [72.18444219298462, 34.568982020888505], [72.18442687549606, 34.56900645629194], [72.1846090799255, 34.56908385715344], [72.18464627683288, 34.56902459117126]]]]}, "properties": {"id": "Pakistan_123102132_254718", "height": 2.517545700073242, "hmax": 0.0, "ratio": 0.0, "vulnClass": "none"}}, {"type": "Feature", "geometry": {"type": "MultiPolygon", "coordinates": [[[[72.19551816097056, 34.569841408976274], [72.19555817991792, 34.56987306754595], [72.19562113080856, 34.56981898740716], [72.19558111186035, 34.56978732885801], [72.19551816097056, 34.569841408976274]]]]}, "properties": {"id": "Pakistan_123102132_20669", "height": 3.965181589126587, "hmax": 0.0, "ratio": 0.0, "vulnClass": "none"}}, {"type": "Feature", "geometry": {"type": "MultiPolygon", "coordinates": [[[[72.19649620250054, 34.56528927123438], [72.19638363694702, 34.56513686786262], [72.19632489757518, 34.56516625624628], [72.19643746305339, 34.565318659668364], [72.19649620250054, 34.56528927123438]]]]}, "properties": {"id": "Pakistan_123102132_14494", "height": 4.143491268157959, "hmax": 0.0, "ratio": 0.0, "vulnClass": "none"}}]}