{"type": "FeatureCollection", "features": [{"type": "Feature", "geometry": {"type": "MultiPolygon", "coordinates": [[[[72.28722066973864, 34.09337066102293], [72.28722244883944, 34.09332851013913], [72.28714482713444, 34.09332625403357], [72.2871430479953, 34.0933684049144], [72.28722066973864, 34.09337066102293]]]]}, "properties": {"id": "Pakistan_123102310_462103", "height": 2.453402519226074, "hmax": 0.0, "ratio": 0.0, "vulnClass": "none"}}, {"type": "Feature", "geometry": {"type": "MultiPolygon", "coordinates": [[[[72.28730513790815, 34.09270361448055], [72.28730608993429, 34.09266360891567], [72.28709566018534, 34.092660131075235], [72.28709470806032, 34.092700136633695], [72.28730513790815, 34.09270361448055]]]]}, "properties": {"id": "Pakistan_123102310_81736", "height": 3.115475654602051, "hmax": 0.0, "ratio": 0.0, "vulnClass": "none"}}, {"type": "Feature", "geometry": {"type": "MultiPolygon", "coordinates": [[[[72.28695080321317, 34.09219797639109], [72.28694988279803, 34.09216910805214], [72.28690434126139, 34.09217008494228], [72.286905261661, 34.09219895328083], [72.28695080321317, 34.09219797639109]]]]}, "properties": {"id": "Pakistan_123102310_566187", "height": 5.796762466430664, "hmax": 0.0, "ratio": 0.0, "vulnClass": "none"}}, {"type": "Feature", "geometry": {"type": "MultiPolygon", "coordinates": [[[[72.28694072717377, 34.09232351296953], [72.28693984045813, 34.092344498323186], [72.28710190668578, 34.0923490713146], [72.28710329565747, 34.09231574650726], [72.28700293859065, 34.092312897793], [72.28700446565306, 34.09227524883927], [72.2868931750674, 34.09227206827568], [72.28689114275318, 34.09232214676033], [72.28694072717377, 34.09232351296953]]]]}, "properties": {"id": "Pakistan_123102310_36115", "height": 2.952302932739258, "hmax": 0.0, "ratio": 0.0, "vulnClass": "none"}}, {"type": "Feature", "geometry": {"type": "MultiPolygon", "coordinates": [[[[72.28236214855647, 34.09022326364483], [72.28236407104835, 34.09017669870575], [72.28222744936222, 34.09017286311397], [72.2822255267958, 34.09021942804732], [72.28236214855647, 34.09022326364483]]]]}, "properties": {"id": "Pakistan_123102310_570983", "height": 2.44106912612915, "hmax": 0.0, "ratio": 0.0, "vulnClass": "none"}}, {"type": "Feature", "geometry": {"type": "MultiPolygon", "coordinates": [[[[72.28202797668628, 34.08997606748289], [72.28202266799343, 34.09009801290214], [72.28207354448159, 34.09009958994955], [72.28207689421481, 34.090021954903534], [72.28233042177062, 34.09002946028844], [72.28232486118178, 34.090155907650015], [72.28238223443506, 34.09015762838019], [72.28238964826696, 34.08998677813735], [72.28202797668628, 34.08997606748289]]]]}, "properties": {"id": "Pakistan_123102310_138946", "height": 3.178628921508789, "hmax": 0.0, "ratio": 0.0, "vulnClass": "none"}}, {"type": "Feature", "geometry": {"type": "MultiPolygon", "coordinates": [[[[72.28205879234051, 34.08628159513819], [72.28230009517073, 34.08628477293365], [72.28230135763144, 34.08621818007571], [72.28206005499003, 34.086215002291844], [72.28205879234051, 34.08628159513819]]]]}, "properties": {"id": "Pakistan_123102310_670673", "height": 3.181241035461426, "hmax": 0.0, "ratio": 0.0, "vulnClass": "none"}}, {"type": "Feature", "geometry": {"type": "MultiPolygon", "coordinates": [[[[72.28197919639679, 34.08613460159464], [72.28225145636743, 34.086138735226314], [72.28225082774637, 34.08616856094022], [72.28228570045937, 34.086169062393935], [72.28228664710112, 34.08612590152829], [72.28224495317798, 34.08612524908758], [72.28224766522597, 34.086003155955886], [72.28210969336334, 34.086001093520025], [72.28210902843925, 34.08602866468052], [72.28198156194105, 34.08602674449718], [72.28197919639679, 34.08613460159464]]]]}, "properties": {"id": "Pakistan_123102310_72104", "height": 2.817531108856201, "hmax": 0.0, "ratio": 0.0, "vulnClass": "none"}}, {"type": "Feature", "geometry": {"type": "MultiPolygon", "coordinates": [[[[72.28209522542038, 34.0862197474374], [72.28209718357323, 34.086168675773294], [72.28203558171597, 34.08616713182194], [72.28203362640697, 34.086218113397145], [72.28209522542038, 34.0862197474374]]]]}, "properties": {"id": "Pakistan_123102310_746940", "height": 4.068747520446777, "hmax": 0.0, "ratio": 0.0, "vulnClass": "none"}}, {"type": "Feature", "geometry": {"type": "MultiPolygon", "coordinates": [[[[72.28656079749699, 34.08643282774117], [72.28640637622476, 34.08649459342544], [72.28694049829835, 34.08740915968498], [72.28696442443128, 34.087399591576265], [72.28695497207333, 34.08738342614835], [72.28708536316024, 34.087331135500335], [72.28656079749699, 34.08643282774117]]]]}, "properties": {"id": "Pakistan_123102310_627870", "height": 6.145948886871338, "hmax": 0.223, "ratio": 0.036, "vulnClass": "low"}}, {"type": "Feature", "geometry": {"type": "MultiPolygon", "coordinates": [[[[72.28484402055759, 34.085217335594834], [72.28479601661797, 34.08521411044593], [72.28479218354542, 34.08525270003841], [72.28484018462885, 34.08525601527622], [72.28484402055759, 34.085217335594834]]]]}, "properties": {"id": "Pakistan_123102310_594678", "height": 3.023383855819702, "hmax": 0.0, "ratio": 0.0, "vulnClass": "none"}}, {"type": "Feature", "geometry": {"type": "MultiPolygon", "coordinates": [[[[72.28405181347247, 34.084442915097014], [72.28403377768836, 34.08458351075288], [72.2841372831875, 34.08459265165106], [72.28415015458087, 34.08449160774769], [72.28421519877875, 34.084497283494784], [72.28422025470117, 34.08445772932011], [72.28405181347247, 34.084442915097014]]]]}, "properties": {"id": "Pakistan_123102310_301092", "height": 2.505396842956543, "hmax": 0.0, "ratio": 0.0, "vulnClass": "none"}}, {"type": "Feature", "geometry": {"type": "MultiPolygon", "coordinates": [[[[72.28404682025953, 34.08475517440754], [72.28418898724063, 34.084775086951765], [72.28417729814043, 34.084832344105024], [72.2841994133057, 34.08483535746635], [72.28419170234717, 34.08487323021119], [72.2842594410278, 34.084882751841214], [72.28429640851823, 34.08470236797672], [72.28406428260585, 34.08466982802057], [72.28404682025953, 34.08475517440754]]]]}, "properties": {"id": "Pakistan_123102310_846099", "height": 3.896153450012207, "hmax": 0.0, "ratio": 0.0, "vulnClass": "none"}}, {"type": "Feature", "geometry": {"type": "MultiPolygon", "coordinates": [[[[72.27806831618788, 34.08317020015007], [72.27800395805984, 34.083170215825525], [72.27800401861123, 34.08321907838648], [72.27806837677629, 34.0832190627128], [72.27806831618788, 34.08317020015007]]]]}, "properties": {"id": "Pakistan_123102310_784709", "height": 2.923192977905273, "hmax": 0.0, "ratio": 0.0, "vulnClass": "none"}}, {"type": "Feature", "geometry": {"type": "MultiPolygon", "coordinates": [[[[72.27670961984009, 34.08722268632993], [72.27695553872474, 34.08725770982602], [72.27696949374122, 34.087190767595175], [72.27672346388006, 34.087155831820034], [72.27670961984009, 34.08722268632993]]]]}, "properties": {"id": "Pakistan_123102310_158859", "height": 4.84574556350708, "hmax": 0.0, "ratio": 0.0, "vulnClass": "none"}}, {"type": "Feature", "geometry": {"type": "MultiPolygon", "coordinates": [[[[72.27519351005144, 34.08878253520268], [72.27502325241467, 34.08876334088969], [72.27501693873889, 34.088801424232784], [72.27522768162788, 34.088825213195705], [72.27524328872128, 34.088730451622], [72.27520280358637, 34.08872585699161], [72.27519351005144, 34.08878253520268]]]]}, "properties": {"id": "Pakistan_123102310_836612", "height": 2.806325435638428, "hmax": 0.0, "ratio": 0.0, "vulnClass": "none"}}, {"type": "Feature", "geometry": {"type": "MultiPolygon", "coordinates": [[[[72.27508953733454, 34.08892302478159], [72.27509173138596, 34.088824179252036], [72.27475751295088, 34.08881919511376], [72.27475531851138, 34.08891804061851], [72.27508953733454, 34.08892302478159]]]]}, "properties": {"id": "Pakistan_123102310_499785", "height": 3.539513111114502, "hmax": 0.0, "ratio": 0.0, "vulnClass": "none"}}, {"type": "Feature", "geometry": {"type": "MultiPolygon", "coordinates": [[[[72.27470196090198, 34.08866948546776], [72.27470150287672, 34.08869390586813], [72.27457109808111, 34.08869227324902], [72.27456951288248, 34.088778871912766], [72.27481255679609, 34.08878201313702], [72.27481459974031, 34.08867099405577], [72.27470196090198, 34.08866948546776]]]]}, "properties": {"id": "Pakistan_123102310_817750", "height": 3.658806324005127, "hmax": 0.0, "ratio": 0.0, "vulnClass": "none"}}, {"type": "Feature", "geometry": {"type": "MultiPolygon", "coordinates": [[[[72.27427257503322, 34.08877029668917], [72.274261492017, 34.08848409584039], [72.27416237486271, 34.0884866732425], [72.27417334637856, 34.088772961765514], [72.27427257503322, 34.08877029668917]]]]}, "properties": {"id": "Pakistan_123102310_339076", "height": 4.172331809997559, "hmax": 0.0, "ratio": 0.0, "vulnClass": "none"}}, {"type": "Feature", "geometry": {"type": "MultiPolygon", "coordinates": [[[[72.2744401786744, 34.088726959391096], [72.27437325966923, 34.088728989640316], [72.2743750851298, 34.08877004827235], [72.27444200416741, 34.08876801802373], [72.2744401786744, 34.088726959391096]]]]}, "properties": {"id": "Pakistan_123102310_935925", "height": 3.447558403015137, "hmax": 0.0, "ratio": 0.0, "vulnClass": "none"}}, {"type": "Feature", "geometry": {"type": "MultiPolygon", "coordinates": [[[[72.27490840456313, 34.08951669701004], [72.27489673319019, 34.089451530174536], [72.27464469400981, 34.08948217582067], [72.27465203594674, 34.08952353720313], [72.27480693895487, 34.08950461852641], [72.27481391719368, 34.08954380823574], [72.27485851880706, 34.08953830745994], [72.27485586406952, 34.08952310338652], [72.27490840456313, 34.08951669701004]]]]}, "properties": {"id": "Pakistan_123102310_499784", "height": 4.200572967529297, "hmax": 0.0, "ratio": 0.0, "vulnClass": "none"}}, {"type": "Feature", "geometry": {"type": "MultiPolygon", "coordinates": [[[[72.27463612429148, 34.089479100799096], [72.27449860479864, 34.089499937707515], [72.27450522213692, 34.08953010445097], [72.27454148064118, 34.08952459887932], [72.27466354441098, 34.09007695111157], [72.27479072065448, 34.09005768744723], [72.2747608236879, 34.08992225004413], [72.27473480089517, 34.08992617989026], [72.27463612429148, 34.089479100799096]]]]}, "properties": {"id": "Pakistan_123102310_699155", "height": 4.098382949829102, "hmax": 0.0, "ratio": 0.0, "vulnClass": "none"}}, {"type": "Feature", "geometry": {"type": "MultiPolygon", "coordinates": [[[[72.27486279721815, 34.089587353706385], [72.27485926798393, 34.08954535576473], [72.27481660818393, 34.08954774440348], [72.27482002911978, 34.08958973994195], [72.27486279721815, 34.089587353706385]]]]}, "properties": {"id": "Pakistan_123102310_120825", "height": 2.685769319534302, "hmax": 0.0, "ratio": 0.0, "vulnClass": "none"}}, {"type": "Feature", "geometry": {"type": "MultiPolygon", "coordinates": [[[[72.27503824558224, 34.08956636657768], [72.27486133502074, 34.08956875041497], [72.27486599619955, 34.08980522635829], [72.27492496847609, 34.08980437172296], [72.27492278568698, 34.08969334900681], [72.27501937345399, 34.08969197698202], [72.27501833320217, 34.08963993752087], [72.27503968982307, 34.089639600183936], [72.27503824558224, 34.08956636657768]]]]}, "properties": {"id": "Pakistan_123102310_139857", "height": 3.978319406509399, "hmax": 0.0, "ratio": 0.0, "vulnClass": "none"}}, {"type": "Feature", "geometry": {"type": "MultiPolygon", "coordinates": [[[[72.2750556187102, 34.089592264534986], [72.27505784293795, 34.089634413808454], [72.27513811543429, 34.08963159777709], [72.27513599655538, 34.08958954099185], [72.2750556187102, 34.089592264534986]]]]}, "properties": {"id": "Pakistan_123102310_670634", "height": 3.746122360229492, "hmax": 0.0, "ratio": 0.0, "vulnClass": "none"}}, {"type": "Feature", "geometry": {"type": "MultiPolygon", "coordinates": [[[[72.27514996297676, 34.08971155305369], [72.27508346209129, 34.089693760017724], [72.2750458020288, 34.089790285830716], [72.27511230297912, 34.08980807889013], [72.27514996297676, 34.08971155305369]]]]}, "properties": {"id": "Pakistan_123102310_381593", "height": 4.688472747802734, "hmax": 0.0, "ratio": 0.0, "vulnClass": "none"}}, {"type": "Feature", "geometry": {"type": "MultiPolygon", "coordinates": [[[[72.27430208287078, 34.08979622406194], [72.27422476854076, 34.0897912621954], [72.27421752234581, 34.089868539883064], [72.27429483674511, 34.089873501757516], [72.27430208287078, 34.08979622406194]]]]}, "properties": {"id": "Pakistan_123102310_92567", "height": 4.989105224609375, "hmax": 0.0, "ratio": 0.0, "vulnClass": "none"}}, {"type": "Feature", "geometry": {"type": "MultiPolygon", "coordinates": [[[[72.27412694634084, 34.08972977186526], [72.27413160011812, 34.08976034577756], [72.27421878528573, 34.089751463502964], [72.27421413436647, 34.089720799506914], [72.27412694634084, 34.08972977186526]]]]}, "properties": {"id": "Pakistan_123102310_490408", "height": 5.666233062744141, "hmax": 0.0, "ratio": 0.0, "vulnClass": "none"}}, {"type": "Feature", "geometry": {"type": "MultiPolygon", "coordinates": [[[[72.27428074958883, 34.089512049422154], [72.27433432740749, 34.089750332537555], [72.27443026292764, 34.089735514197336], [72.27437668484325, 34.089497231110684], [72.27428074958883, 34.089512049422154]]]]}, "properties": {"id": "Pakistan_123102310_476356", "height": 2.64181923866272, "hmax": 0.0, "ratio": 0.0, "vulnClass": "none"}}, {"type": "Feature", "geometry": {"type": "MultiPolygon", "coordinates": [[[[72.27440648044126, 34.090189881471275], [72.27439426525945, 34.09011803145288], [72.27404187898017, 34.09015906897089], [72.27403221043315, 34.09010242061068], [72.2739795699255, 34.09010855392987], [72.27400145327778, 34.09023705233442], [72.27411978558978, 34.090223272438934], [72.27412836291438, 34.09027340578978], [72.27419144443866, 34.090266061826775], [72.27418297535488, 34.090215930882515], [72.27440648044126, 34.090189881471275]]]]}, "properties": {"id": "Pakistan_123102310_594630", "height": 3.719424724578857, "hmax": 0.0, "ratio": 0.0, "vulnClass": "none"}}, {"type": "Feature", "geometry": {"type": "MultiPolygon", "coordinates": [[[[72.27427699384242, 34.08995009344215], [72.27429183813013, 34.09001091343047], [72.2743707107944, 34.08999769962226], [72.27433851317356, 34.089866448092266], [72.27415919330873, 34.08989663365688], [72.27417643816261, 34.0899670628195], [72.27427699384242, 34.08995009344215]]]]}, "properties": {"id": "Pakistan_123102310_320201", "height": 3.46900463104248, "hmax": 0.0, "ratio": 0.0, "vulnClass": "none"}}, {"type": "Feature", "geometry": {"type": "MultiPolygon", "coordinates": [[[[72.27437124214634, 34.08992369853851], [72.27437252744025, 34.08997484193626], [72.27448137688351, 34.08997293121166], [72.27448008863479, 34.0899218778974], [72.27437124214634, 34.08992369853851]]]]}, "properties": {"id": "Pakistan_123102310_737310", "height": 5.131102561950684, "hmax": 0.0, "ratio": 0.0, "vulnClass": "none"}}, {"type": "Feature", "geometry": {"type": "MultiPolygon", "coordinates": [[[[72.27473707261008, 34.09014592508808], [72.27472066898218, 34.090072900325296], [72.27467406318982, 34.09008006939794], [72.27469046677814, 34.09015309416501], [72.27473707261008, 34.09014592508808]]]]}, "properties": {"id": "Pakistan_123102310_921740", "height": 3.755707979202271, "hmax": 0.0, "ratio": 0.0, "vulnClass": "none"}}, {"type": "Feature", "geometry": {"type": "MultiPolygon", "coordinates": [[[[72.27347214196001, 34.09040244263772], [72.27347619462557, 34.09048889599467], [72.27377610125518, 34.090479419147435], [72.27377215656146, 34.09039296818983], [72.27347214196001, 34.09040244263772]]]]}, "properties": {"id": "Pakistan_123102310_234289", "height": 3.621522903442383, "hmax": 0.0, "ratio": 0.0, "vulnClass": "none"}}, {"type": "Feature", "geometry": {"type": "MultiPolygon", "coordinates": [[[[72.27405810885023, 34.09116306542771], [72.27405519092304, 34.0911121562378], [72.27391068001066, 34.09111778218404], [72.27391359496104, 34.091168781458634], [72.27405810885023, 34.09116306542771]]]]}, "properties": {"id": "Pakistan_123102310_272045", "height": 3.737667560577393, "hmax": 0.0, "ratio": 0.0, "vulnClass": "none"}}, {"type": "Feature", "geometry": {"type": "MultiPolygon", "coordinates": [[[[72.27558889089694, 34.09082743069194], [72.2755853044487, 34.09065200994646], [72.27552904142074, 34.090652834856186], [72.27553262775255, 34.09082825559764], [72.27558889089694, 34.09082743069194]]]]}, "properties": {"id": "Pakistan_123102310_158841", "height": 4.018764972686768, "hmax": 0.0, "ratio": 0.0, "vulnClass": "none"}}, {"type": "Feature", "geometry": {"type": "MultiPolygon", "coordinates": [[[[72.27603492220625, 34.09258064253074], [72.27603171436553, 34.092525219447566], [72.27596748492458, 34.092527760912574], [72.27596631123664, 34.09250691029286], [72.27589134177441, 34.09250984446341], [72.2758880661769, 34.092453157779474], [72.27585063416666, 34.09245467109183], [72.27585405699024, 34.09251352463533], [72.2759048335826, 34.092511496075694], [72.2759091760423, 34.09258560532052], [72.27603492220625, 34.09258064253074]]]]}, "properties": {"id": "Pakistan_123102310_177611", "height": 3.264565944671631, "hmax": 0.0, "ratio": 0.0, "vulnClass": "none"}}, {"type": "Feature", "geometry": {"type": "MultiPolygon", "coordinates": [[[[72.27589444809739, 34.092642794023384], [72.27594623970049, 34.09264628710134], [72.2759495763397, 34.09261318605206], [72.27589767647532, 34.09260969057384], [72.27589444809739, 34.092642794023384]]]]}, "properties": {"id": "Pakistan_123102310_376906", "height": 3.52412748336792, "hmax": 0.0, "ratio": 0.0, "vulnClass": "none"}}, {"type": "Feature", "geometry": {"type": "MultiPolygon", "coordinates": [[[[72.27267008840451, 34.09168566724906], [72.27266535323858, 34.09161037728796], [72.27261185864886, 34.091612704734224], [72.2726165937672, 34.091687994695064], [72.27267008840451, 34.09168566724906]]]]}, "properties": {"id": "Pakistan_123102310_864941", "height": 2.706005096435547, "hmax": 0.0, "ratio": 0.0, "vulnClass": "none"}}, {"type": "Feature", "geometry": {"type": "MultiPolygon", "coordinates": [[[[72.27641703703468, 34.097251210472706], [72.27642000710189, 34.09720250540827], [72.2763889489383, 34.097201185300925], [72.27638597885343, 34.09724989036376], [72.27641703703468, 34.097251210472706]]]]}, "properties": {"id": "Pakistan_123102310_912376", "height": 2.842233419418335, "hmax": 0.0, "ratio": 0.0, "vulnClass": "none"}}, {"type": "Feature", "geometry": {"type": "MultiPolygon", "coordinates": [[[[72.28399619130971, 34.09681232893773], [72.28360484137454, 34.096803670065846], [72.28360352799938, 34.09684474933653], [72.28399487812318, 34.09685340822171], [72.28399619130971, 34.09681232893773]]]]}, "properties": {"id": "Pakistan_123102310_684984", "height": 3.668061256408691, "hmax": 0.0, "ratio": 0.0, "vulnClass": "none"}}, {"type": "Feature", "geometry": {"type": "MultiPolygon", "coordinates": [[[[72.28358512836866, 34.09685083299079], [72.28358613485663, 34.09697526205413], [72.28365051517338, 34.09697488361251], [72.2836495057108, 34.09685054463126], [72.28358512836866, 34.09685083299079]]]]}, "properties": {"id": "Pakistan_123102310_206199", "height": 3.614182710647583, "hmax": 0.0, "ratio": 0.0, "vulnClass": "none"}}, {"type": "Feature", "geometry": {"type": "MultiPolygon", "coordinates": [[[[72.28373112633902, 34.0965718944136], [72.2837289167851, 34.09661728105268], [72.28385372556717, 34.09662148492805], [72.2838559379347, 34.09657600819739], [72.28373112633902, 34.0965718944136]]]]}, "properties": {"id": "Pakistan_123102310_34800", "height": 2.799653053283691, "hmax": 0.0, "ratio": 0.0, "vulnClass": "none"}}, {"type": "Feature", "geometry": {"type": "MultiPolygon", "coordinates": [[[[72.28372931138232, 34.09657104290689], [72.2836139990927, 34.09657146637985], [72.28361448273235, 34.09665802094096], [72.2837297951396, 34.096657597473246], [72.28372931138232, 34.09657104290689]]]]}, "properties": {"id": "Pakistan_123102310_433535", "height": 2.876547336578369, "hmax": 0.0, "ratio": 0.0, "vulnClass": "none"}}]}