{"type": "FeatureCollection", "features": [{"type": "Feature", "geometry": {"type": "MultiPolygon", "coordinates": [[[[72.28736614140324, 34.11261032840765], [72.28737234417922, 34.11276561326044], [72.28754645456078, 34.112760806840186], [72.28754322181402, 34.11267878924697], [72.28742671510811, 34.11268198398231], [72.28742385316788, 34.112608719111805], [72.28736614140324, 34.11261032840765]]]]}, "properties": {"id": "Pakistan_123102310_590021", "height": 4.608850955963135, "hmax": 0.0, "ratio": 0.0, "vulnClass": "none"}}, {"type": "Feature", "geometry": {"type": "MultiPolygon", "coordinates": [[[[72.2848107659507, 34.114850838579116], [72.28481294782998, 34.11481311413299], [72.28471660646821, 34.114809269900505], [72.28471442454641, 34.11484699434288], [72.2848107659507, 34.114850838579116]]]]}, "properties": {"id": "Pakistan_123102310_599417", "height": 4.804483413696289, "hmax": 0.0, "ratio": 0.0, "vulnClass": "none"}}, {"type": "Feature", "geometry": {"type": "MultiPolygon", "coordinates": [[[[72.28502468674981, 34.114984124398134], [72.28502321767485, 34.114945327536375], [72.28505261300813, 34.11494462554849], [72.2850508892774, 34.11490023377282], [72.28493036922254, 34.114903427420025], [72.28492710566195, 34.11481906527066], [72.28485475037667, 34.11482098044505], [72.28485874894571, 34.11492302819193], [72.28473812055401, 34.114926219252176], [72.28474058089053, 34.114991632198596], [72.28502468674981, 34.114984124398134]]]]}, "properties": {"id": "Pakistan_123102310_234397", "height": 3.87172269821167, "hmax": 0.0, "ratio": 0.0, "vulnClass": "none"}}, {"type": "Feature", "geometry": {"type": "MultiPolygon", "coordinates": [[[[72.28550589190975, 34.11698869904725], [72.28550426221418, 34.11704644894264], [72.28559438739191, 34.11704817184436], [72.28559601414604, 34.11699051203082], [72.28550589190975, 34.11698869904725]]]]}, "properties": {"id": "Pakistan_123102310_262757", "height": 4.272424697875977, "hmax": 0.0, "ratio": 0.0, "vulnClass": "none"}}, {"type": "Feature", "geometry": {"type": "MultiPolygon", "coordinates": [[[[72.28756060303348, 34.114706461372535], [72.28755902265604, 34.11466432650871], [72.28739294634556, 34.11466858921319], [72.28739452664031, 34.11471072407514], [72.28756060303348, 34.114706461372535]]]]}, "properties": {"id": "Pakistan_123102310_632570", "height": 3.524666309356689, "hmax": 0.094, "ratio": 0.027, "vulnClass": "none"}}, {"type": "Feature", "geometry": {"type": "MultiPolygon", "coordinates": [[[[72.28623342378458, 34.115187460484464], [72.28642481988656, 34.11518457054836], [72.28642396082788, 34.115143623581595], [72.28638264546802, 34.11514424264306], [72.28637990533248, 34.11502311098391], [72.28633002197472, 34.11502390118775], [72.2863318033509, 34.115103813226085], [72.28633614153901, 34.11510372884651], [72.28633692036371, 34.1151370113129], [72.28623227377263, 34.11513866406016], [72.28623342378458, 34.115187460484464]]]]}, "properties": {"id": "Pakistan_123102310_779992", "height": 2.801366090774536, "hmax": 0.0, "ratio": 0.0, "vulnClass": "none"}}, {"type": "Feature", "geometry": {"type": "MultiPolygon", "coordinates": [[[[72.28643341696329, 34.115013926906094], [72.28643583337069, 34.11506040743916], [72.28654455934576, 34.11505659096271], [72.28654203744702, 34.11501001794818], [72.28643341696329, 34.115013926906094]]]]}, "properties": {"id": "Pakistan_123102310_358060", "height": 3.19597053527832, "hmax": 0.0, "ratio": 0.0, "vulnClass": "none"}}, {"type": "Feature", "geometry": {"type": "MultiPolygon", "coordinates": [[[[72.28621810610856, 34.11520551232955], [72.28621419672643, 34.11513114252215], [72.28601713869045, 34.115138234114845], [72.2860181586293, 34.115157188107894], [72.28583076035558, 34.11516386195833], [72.28583364950276, 34.11521927776903], [72.28621810610856, 34.11520551232955]]]]}, "properties": {"id": "Pakistan_123102310_537782", "height": 2.959650039672852, "hmax": 0.0, "ratio": 0.0, "vulnClass": "none"}}, {"type": "Feature", "geometry": {"type": "MultiPolygon", "coordinates": [[[[72.28592888914376, 34.114854114017206], [72.285927257027, 34.11497298539171], [72.28608816441455, 34.11497447012633], [72.28608979630619, 34.114855598738814], [72.28592888914376, 34.114854114017206]]]]}, "properties": {"id": "Pakistan_123102310_580513", "height": 2.892740726470947, "hmax": 0.0, "ratio": 0.0, "vulnClass": "none"}}, {"type": "Feature", "geometry": {"type": "MultiPolygon", "coordinates": [[[[72.28595643154391, 34.1147316687251], [72.28595864693887, 34.11480816467111], [72.28609541056076, 34.11480541934285], [72.28609308673197, 34.11472892099832], [72.28595643154391, 34.1147316687251]]]]}, "properties": {"id": "Pakistan_123102310_139000", "height": 3.453085899353027, "hmax": 0.0, "ratio": 0.0, "vulnClass": "none"}}, {"type": "Feature", "geometry": {"type": "MultiPolygon", "coordinates": [[[[72.28625568372286, 34.11479282646852], [72.28625427675631, 34.11474528645632], [72.28622586203322, 34.11474583011797], [72.28622505511946, 34.11472020975555], [72.28627060876606, 34.11471923370601], [72.28626651874858, 34.11458608228209], [72.2861271473931, 34.114589040597636], [72.28613355640546, 34.11479544486852], [72.28625568372286, 34.11479282646852]]]]}, "properties": {"id": "Pakistan_123102310_17087", "height": 2.926287889480591, "hmax": 0.0, "ratio": 0.0, "vulnClass": "none"}}, {"type": "Feature", "geometry": {"type": "MultiPolygon", "coordinates": [[[[72.28642296662574, 34.11460838269017], [72.28641987184072, 34.11457973680194], [72.28635175700016, 34.11458463141342], [72.28635485176211, 34.11461327730225], [72.28642296662574, 34.11460838269017]]]]}, "properties": {"id": "Pakistan_123102310_81720", "height": 2.578286409378052, "hmax": 0.0, "ratio": 0.0, "vulnClass": "none"}}, {"type": "Feature", "geometry": {"type": "MultiPolygon", "coordinates": [[[[72.28629172699898, 34.114682468813825], [72.28629319953826, 34.11472117560362], [72.28637900251145, 34.11471901600819], [72.28638112987181, 34.11477793081411], [72.2864374293076, 34.114776471095425], [72.28643382930376, 34.11467884949737], [72.28629172699898, 34.114682468813825]]]]}, "properties": {"id": "Pakistan_123102310_457236", "height": 3.630815029144287, "hmax": 0.0, "ratio": 0.0, "vulnClass": "none"}}, {"type": "Feature", "geometry": {"type": "MultiPolygon", "coordinates": [[[[72.28707769367016, 34.11465702351714], [72.28708029505768, 34.11471468670569], [72.28721688513373, 34.11471058403753], [72.2872142836531, 34.11465292084736], [72.28707769367016, 34.11465702351714]]]]}, "properties": {"id": "Pakistan_123102310_784767", "height": 3.868026494979858, "hmax": 0.094, "ratio": 0.024, "vulnClass": "none"}}, {"type": "Feature", "geometry": {"type": "MultiPolygon", "coordinates": [[[[72.28749274954906, 34.11371250304128], [72.28749102329577, 34.113783502905704], [72.28752742092969, 34.113784127015286], [72.28752915003048, 34.11371303706272], [72.28749274954906, 34.11371250304128]]]]}, "properties": {"id": "Pakistan_123102310_485798", "height": 3.938469409942627, "hmax": 0.0, "ratio": 0.0, "vulnClass": "none"}}, {"type": "Feature", "geometry": {"type": "MultiPolygon", "coordinates": [[[[72.28752234624818, 34.11387173058506], [72.2875187312991, 34.113818642630406], [72.28746109536017, 34.11382124527246], [72.28746459908582, 34.11387442091947], [72.28752234624818, 34.11387173058506]]]]}, "properties": {"id": "Pakistan_123102310_732639", "height": 3.915285587310791, "hmax": 0.0, "ratio": 0.0, "vulnClass": "none"}}, {"type": "Feature", "geometry": {"type": "MultiPolygon", "coordinates": [[[[72.28553219130286, 34.12067468872971], [72.28552915096704, 34.12079010315966], [72.28564571833508, 34.120792140547074], [72.28564875851275, 34.120676726106595], [72.28553219130286, 34.12067468872971]]]]}, "properties": {"id": "Pakistan_123102310_386361", "height": 3.611445188522339, "hmax": 0.0, "ratio": 0.0, "vulnClass": "none"}}, {"type": "Feature", "geometry": {"type": "MultiPolygon", "coordinates": [[[[72.28598790133135, 34.12074525806672], [72.28585138970863, 34.12074999188745], [72.28585439348828, 34.120811991122785], [72.28599101064883, 34.12080734978499], [72.28598790133135, 34.12074525806672]]]]}, "properties": {"id": "Pakistan_123102310_623033", "height": 2.765249252319336, "hmax": 0.0, "ratio": 0.0, "vulnClass": "none"}}, {"type": "Feature", "geometry": {"type": "MultiPolygon", "coordinates": [[[[72.28557307274042, 34.11990129772872], [72.28572427032364, 34.11990842814788], [72.28571449980632, 34.12005127954057], [72.2857786828165, 34.12005423161303], [72.28579088502015, 34.119876005180814], [72.28574001646425, 34.119873618042156], [72.28574302094268, 34.119830502810416], [72.28557850918396, 34.11982280748426], [72.28557307274042, 34.11990129772872]]]]}, "properties": {"id": "Pakistan_123102310_723099", "height": 3.263843297958374, "hmax": 0.0, "ratio": 0.0, "vulnClass": "none"}}, {"type": "Feature", "geometry": {"type": "MultiPolygon", "coordinates": [[[[72.28579372485385, 34.119607512178426], [72.28556861973536, 34.1196134415714], [72.2855717783507, 34.11969771120319], [72.28574600258659, 34.119693180689644], [72.28574721436222, 34.11972647271099], [72.28579809260873, 34.119725163923015], [72.28579372485385, 34.119607512178426]]]]}, "properties": {"id": "Pakistan_123102310_111521", "height": 3.134277105331421, "hmax": 0.0, "ratio": 0.0, "vulnClass": "none"}}, {"type": "Feature", "geometry": {"type": "MultiPolygon", "coordinates": [[[[72.28742526407132, 34.11914595870297], [72.28742683435105, 34.119229111436375], [72.28770693147933, 34.11922538561422], [72.28770535804631, 34.11914232295722], [72.28742526407132, 34.11914595870297]]]]}, "properties": {"id": "Pakistan_123102310_827198", "height": 4.399944305419922, "hmax": 0.174, "ratio": 0.04, "vulnClass": "low"}}, {"type": "Feature", "geometry": {"type": "MultiPolygon", "coordinates": [[[[72.28740743695808, 34.11902882080511], [72.28740098273452, 34.119067983417736], [72.28752204792356, 34.11908183783593], [72.28752850209318, 34.11904267521435], [72.28740743695808, 34.11902882080511]]]]}, "properties": {"id": "Pakistan_123102310_367511", "height": 6.33800220489502, "hmax": 0.144, "ratio": 0.023, "vulnClass": "low"}}, {"type": "Feature", "geometry": {"type": "MultiPolygon", "coordinates": [[[[72.28739621162403, 34.11746690922426], [72.2873210580198, 34.117468132899475], [72.28732394901854, 34.11758458008655], [72.28739899729058, 34.117583263934435], [72.28739621162403, 34.11746690922426]]]]}, "properties": {"id": "Pakistan_123102310_120953", "height": 3.81705904006958, "hmax": 0.0, "ratio": 0.0, "vulnClass": "none"}}, {"type": "Feature", "geometry": {"type": "MultiPolygon", "coordinates": [[[[72.2874389766296, 34.117492194861185], [72.28754460963533, 34.11749029251045], [72.28754350180134, 34.11745033169743], [72.28743786884547, 34.11745223404961], [72.2874389766296, 34.117492194861185]]]]}, "properties": {"id": "Pakistan_123102310_632568", "height": 5.032662391662598, "hmax": 0.0, "ratio": 0.0, "vulnClass": "none"}}, {"type": "Feature", "geometry": {"type": "MultiPolygon", "coordinates": [[[[72.28754539854259, 34.11790662136603], [72.28754685359928, 34.11787465037423], [72.28762990482808, 34.11787729725297], [72.28763268535411, 34.11781740913883], [72.28758720773457, 34.1178159532894], [72.28758481756094, 34.11786701535619], [72.28751519444839, 34.11786475538298], [72.28751323779544, 34.117905640110195], [72.28754539854259, 34.11790662136603]]]]}, "properties": {"id": "Pakistan_123102310_813030", "height": 2.94896125793457, "hmax": 0.082, "ratio": 0.028, "vulnClass": "none"}}, {"type": "Feature", "geometry": {"type": "MultiPolygon", "coordinates": [[[[72.28748957749713, 34.117774309929274], [72.28748695409934, 34.11767661979936], [72.28739042788446, 34.117678452930484], [72.28739305404932, 34.11777605297097], [72.28748957749713, 34.117774309929274]]]]}, "properties": {"id": "Pakistan_123102310_471619", "height": 3.451070308685303, "hmax": 0.082, "ratio": 0.024, "vulnClass": "none"}}, {"type": "Feature", "geometry": {"type": "MultiPolygon", "coordinates": [[[[72.28605851626419, 34.11804827972251], [72.28605859356792, 34.117995002972464], [72.28597535051351, 34.117994965124694], [72.28597537859198, 34.11804833435346], [72.28605851626419, 34.11804827972251]]]]}, "properties": {"id": "Pakistan_123102310_419390", "height": 2.793716430664062, "hmax": 0.0, "ratio": 0.0, "vulnClass": "none"}}, {"type": "Feature", "geometry": {"type": "MultiPolygon", "coordinates": [[[[72.2859775973508, 34.11805352195146], [72.28597873723922, 34.118089066131304], [72.28605108669836, 34.11808742068603], [72.28604994677954, 34.11805187650538], [72.2859775973508, 34.11805352195146]]]]}, "properties": {"id": "Pakistan_123102310_926489", "height": 2.793716430664062, "hmax": 0.0, "ratio": 0.0, "vulnClass": "none"}}, {"type": "Feature", "geometry": {"type": "MultiPolygon", "coordinates": [[[[72.28300606885956, 34.11978039686271], [72.28300784563777, 34.11986373440385], [72.28328274515943, 34.11985990369225], [72.28328170817066, 34.1198110196643], [72.28305918620079, 34.119814116821246], [72.28305844623135, 34.11977966330199], [72.28300606885956, 34.11978039686271]]]]}, "properties": {"id": "Pakistan_123102310_608773", "height": 4.400129318237305, "hmax": 0.0, "ratio": 0.0, "vulnClass": "none"}}, {"type": "Feature", "geometry": {"type": "MultiPolygon", "coordinates": [[[[72.28303980597158, 34.11965763885289], [72.28298402512095, 34.11966650066815], [72.28300477492945, 34.11975647857936], [72.2830605558384, 34.119747616757536], [72.28303980597158, 34.11965763885289]]]]}, "properties": {"id": "Pakistan_123102310_301085", "height": 3.360442876815796, "hmax": 0.0, "ratio": 0.0, "vulnClass": "none"}}, {"type": "Feature", "geometry": {"type": "MultiPolygon", "coordinates": [[[[72.28316460026274, 34.11967689896521], [72.28314750285648, 34.11963874779111], [72.28307448322396, 34.119661291349146], [72.2830916889168, 34.11969944492991], [72.28316460026274, 34.11967689896521]]]]}, "properties": {"id": "Pakistan_123102310_177689", "height": 3.155283689498901, "hmax": 0.0, "ratio": 0.0, "vulnClass": "none"}}, {"type": "Feature", "geometry": {"type": "MultiPolygon", "coordinates": [[[[72.28317358260921, 34.119518164106125], [72.2830094522404, 34.11956970206392], [72.28305301805835, 34.11966478272039], [72.28321714859277, 34.11961324471261], [72.28317358260921, 34.119518164106125]]]]}, "properties": {"id": "Pakistan_123102310_604084", "height": 3.471535205841064, "hmax": 0.0, "ratio": 0.0, "vulnClass": "none"}}, {"type": "Feature", "geometry": {"type": "MultiPolygon", "coordinates": [[[[72.28313109371487, 34.11941652641083], [72.2829315282604, 34.11944068567596], [72.28293941905252, 34.11948539426505], [72.28313898749487, 34.11946114490646], [72.28313109371487, 34.11941652641083]]]]}, "properties": {"id": "Pakistan_123102310_233494", "height": 2.481995820999146, "hmax": 0.0, "ratio": 0.0, "vulnClass": "none"}}, {"type": "Feature", "geometry": {"type": "MultiPolygon", "coordinates": [[[[72.28286816038482, 34.119540971432855], [72.28293520064479, 34.11953930046571], [72.28292980696675, 34.11939286829246], [72.2828627668228, 34.119394539262295], [72.28286816038482, 34.119540971432855]]]]}, "properties": {"id": "Pakistan_123102310_779959", "height": 4.710373878479004, "hmax": 0.0, "ratio": 0.0, "vulnClass": "none"}}, {"type": "Feature", "geometry": {"type": "MultiPolygon", "coordinates": [[[[72.28596422793424, 34.12324512465485], [72.28596831369735, 34.1234393972855], [72.28605030256558, 34.12343814544634], [72.28604729429152, 34.123294921326114], [72.28624141672287, 34.12329209245248], [72.28624386333067, 34.12340203894569], [72.28666638146396, 34.12339578583565], [72.28666419369051, 34.12329467972358], [72.2866159331553, 34.12329541564744], [72.2866172302338, 34.12335656577784], [72.28635977312105, 34.123360338637276], [72.28635724733381, 34.12323930198697], [72.28596422793424, 34.12324512465485]]]]}, "properties": {"id": "Pakistan_123102310_836658", "height": 3.388049840927124, "hmax": 0.082, "ratio": 0.024, "vulnClass": "none"}}, {"type": "Feature", "geometry": {"type": "MultiPolygon", "coordinates": [[[[72.28744948702455, 34.124751279478936], [72.28745236650619, 34.12467814162045], [72.28728719978938, 34.12467367925442], [72.28728442560977, 34.124746909582775], [72.28744948702455, 34.124751279478936]]]]}, "properties": {"id": "Pakistan_123102310_36127", "height": 2.971118688583374, "hmax": 0.0, "ratio": 0.0, "vulnClass": "none"}}, {"type": "Feature", "geometry": {"type": "MultiPolygon", "coordinates": [[[[72.28756409968533, 34.12504869234846], [72.28756677613296, 34.124941202986925], [72.28746764583887, 34.124939462565834], [72.28746425811141, 34.125069203159754], [72.28762416959033, 34.125071926456584], [72.2876247695005, 34.12504976290479], [72.28756409968533, 34.12504869234846]]]]}, "properties": {"id": "Pakistan_123102310_561461", "height": 3.955394983291626, "hmax": 0.0, "ratio": 0.0, "vulnClass": "none"}}, {"type": "Feature", "geometry": {"type": "MultiPolygon", "coordinates": [[[[72.2875573584984, 34.12486617062171], [72.28755794836393, 34.12474934972388], [72.28750429385885, 34.12474924555327], [72.28750377518341, 34.12485705305853], [72.28721947338154, 34.1248560873456], [72.28721976333625, 34.124796144249935], [72.28708666185885, 34.12479572598405], [72.28708618050192, 34.12489217544492], [72.28712639435759, 34.124892253116876], [72.28712619552508, 34.12492560408392], [72.28756072586174, 34.1249270059105], [72.28756081295857, 34.12490392952761], [72.28767082737471, 34.12490428774726], [72.28767095041337, 34.12486651776582], [72.2875573584984, 34.12486617062171]]]]}, "properties": {"id": "Pakistan_123102310_699214", "height": 3.723579883575439, "hmax": 0.0, "ratio": 0.0, "vulnClass": "none"}}, {"type": "Feature", "geometry": {"type": "MultiPolygon", "coordinates": [[[[72.281321764292, 34.12470402306297], [72.28147181096999, 34.124699954911854], [72.28147294862833, 34.124728737796744], [72.2815308852177, 34.1247271364805], [72.28152971135272, 34.124696099056656], [72.28156985417043, 34.124695005034326], [72.28157552663974, 34.124836034324], [72.28165320977804, 34.1248338787392], [72.28164977065495, 34.12474834085159], [72.28169631318877, 34.124747118104764], [72.28169751885206, 34.124777164588515], [72.28178594030774, 34.124774796038636], [72.28177960523347, 34.12461382903562], [72.28164453027657, 34.12461750802347], [72.28164141060027, 34.12453891872003], [72.28159584308268, 34.12454016304768], [72.28160057302738, 34.124656470503915], [72.28143002173162, 34.124661076211396], [72.2814202007, 34.12441267713775], [72.28145936559724, 34.12441165163321], [72.28145778708657, 34.124372942538486], [72.28136936317246, 34.12437540095722], [72.28137236695106, 34.12445083246329], [72.28131182793447, 34.12445246620367], [72.281321764292, 34.12470402306297]]]]}, "properties": {"id": "Pakistan_123102310_770484", "height": 2.847867012023926, "hmax": 0.0, "ratio": 0.0, "vulnClass": "none"}}, {"type": "Feature", "geometry": {"type": "MultiPolygon", "coordinates": [[[[72.28224092814563, 34.1247364631951], [72.28237857740123, 34.1247404131214], [72.28238264739554, 34.12464377284185], [72.28224499829595, 34.124639822927634], [72.28224092814563, 34.1247364631951]]]]}, "properties": {"id": "Pakistan_123102310_15922", "height": 2.941486835479736, "hmax": 0.0, "ratio": 0.0, "vulnClass": "none"}}, {"type": "Feature", "geometry": {"type": "MultiPolygon", "coordinates": [[[[72.28134622743295, 34.12473557644503], [72.28134148056388, 34.12483977421764], [72.28138977806259, 34.12484129495291], [72.28139452487268, 34.1247370971756], [72.28134622743295, 34.12473557644503]]]]}, "properties": {"id": "Pakistan_123102310_656293", "height": 2.842287302017212, "hmax": 0.0, "ratio": 0.0, "vulnClass": "none"}}, {"type": "Feature", "geometry": {"type": "MultiPolygon", "coordinates": [[[[72.28089865468122, 34.12493832256508], [72.28089710357197, 34.12488861584572], [72.28065054545888, 34.12489379001171], [72.28065198810049, 34.12494349432673], [72.28089865468122, 34.12493832256508]]]]}, "properties": {"id": "Pakistan_123102310_575836", "height": 6.268889427185059, "hmax": 0.0, "ratio": 0.0, "vulnClass": "none"}}, {"type": "Feature", "geometry": {"type": "MultiPolygon", "coordinates": [[[[72.28074016937288, 34.12508734362285], [72.280882118461, 34.12508228543099], [72.28087996821176, 34.12504112963479], [72.28074778845891, 34.125045773260986], [72.28074284646506, 34.12494965458575], [72.28068923687329, 34.12495153170842], [72.28069603846258, 34.12508095673854], [72.28050156582006, 34.12508782567052], [72.28050565067032, 34.12516670680817], [72.28063045020764, 34.12516235064912], [72.28063205991621, 34.12519330758024], [72.28069728043619, 34.12519105673544], [72.2807037901704, 34.125316057971794], [72.2808563755244, 34.12531060446936], [72.28085410966034, 34.12526629088148], [72.2807497093623, 34.12527001750524], [72.28074016937288, 34.12508734362285]]]]}, "properties": {"id": "Pakistan_123102310_25450", "height": 7.237142562866211, "hmax": 0.0, "ratio": 0.0, "vulnClass": "none"}}, {"type": "Feature", "geometry": {"type": "MultiPolygon", "coordinates": [[[[72.28063110108697, 34.1230173488828], [72.28062564132193, 34.1228900269943], [72.28053461063243, 34.12289269753389], [72.28053780148443, 34.12296903469402], [72.28043874058208, 34.12297197795522], [72.28044090097804, 34.123022960279435], [72.28063110108697, 34.1230173488828]]]]}, "properties": {"id": "Pakistan_123102310_485751", "height": 2.466921329498291, "hmax": 0.0, "ratio": 0.0, "vulnClass": "none"}}, {"type": "Feature", "geometry": {"type": "MultiPolygon", "coordinates": [[[[72.28057853513148, 34.122891958065836], [72.28058345213978, 34.122863669943285], [72.28052815964759, 34.122857215986386], [72.28052335094168, 34.122885506506286], [72.28057853513148, 34.122891958065836]]]]}, "properties": {"id": "Pakistan_123102310_641959", "height": 2.443127155303955, "hmax": 0.0, "ratio": 0.0, "vulnClass": "none"}}, {"type": "Feature", "geometry": {"type": "MultiPolygon", "coordinates": [[[[72.27936597046032, 34.121685746707335], [72.28001647650154, 34.12168835676937], [72.28001677728692, 34.12163499495098], [72.27966009042814, 34.12163366968774], [72.279660289104, 34.12159364773218], [72.27942694388965, 34.12159271196416], [72.27942670896834, 34.12163047937663], [72.279366340952, 34.12163022285981], [72.27936597046032, 34.121685746707335]]]]}, "properties": {"id": "Pakistan_123102310_176814", "height": 6.501458168029785, "hmax": 0.0, "ratio": 0.0, "vulnClass": "none"}}, {"type": "Feature", "geometry": {"type": "MultiPolygon", "coordinates": [[[[72.2750189100524, 34.12146200682711], [72.27503081003505, 34.12151338573467], [72.27525721037898, 34.12147739474861], [72.27524531026116, 34.12142601585632], [72.2750189100524, 34.12146200682711]]]]}, "properties": {"id": "Pakistan_123102310_110330", "height": 2.695322513580322, "hmax": 0.0, "ratio": 0.0, "vulnClass": "none"}}, {"type": "Feature", "geometry": {"type": "MultiPolygon", "coordinates": [[[[72.27534764072573, 34.12145623415334], [72.27531521007587, 34.12146362755834], [72.2753310314918, 34.12151103678661], [72.27536346215898, 34.12150364337828], [72.27534764072573, 34.12145623415334]]]]}, "properties": {"id": "Pakistan_123102310_641935", "height": 2.61297869682312, "hmax": 0.0, "ratio": 0.0, "vulnClass": "none"}}, {"type": "Feature", "geometry": {"type": "MultiPolygon", "coordinates": [[[[72.27377572060352, 34.12114835194584], [72.27360552481268, 34.12115223363242], [72.27360724785348, 34.12120320626349], [72.27377744374685, 34.12119932457951], [72.27377572060352, 34.12114835194584]]]]}, "properties": {"id": "Pakistan_123102310_547101", "height": 2.809295654296875, "hmax": 0.0, "ratio": 0.0, "vulnClass": "none"}}, {"type": "Feature", "geometry": {"type": "MultiPolygon", "coordinates": [[[[72.27373283435588, 34.12234187733888], [72.27368469361457, 34.12233215352115], [72.27367727309444, 34.12235732061508], [72.27372541384877, 34.12236704443635], [72.27373283435588, 34.12234187733888]]]]}, "properties": {"id": "Pakistan_123102310_395803", "height": 2.704885959625244, "hmax": 0.0, "ratio": 0.0, "vulnClass": "none"}}, {"type": "Feature", "geometry": {"type": "MultiPolygon", "coordinates": [[[[72.27256418785129, 34.12356727122375], [72.2725656195188, 34.12362391676482], [72.27275054021618, 34.12362072450153], [72.2727491084249, 34.12356407895661], [72.27256418785129, 34.12356727122375]]]]}, "properties": {"id": "Pakistan_123102310_703910", "height": 3.21077036857605, "hmax": 0.0, "ratio": 0.0, "vulnClass": "none"}}, {"type": "Feature", "geometry": {"type": "MultiPolygon", "coordinates": [[[[72.27307408607625, 34.12312542262602], [72.2730797539566, 34.12327627813079], [72.27313334795123, 34.123274854716186], [72.27312767708115, 34.123124089294194], [72.27307408607625, 34.12312542262602]]]]}, "properties": {"id": "Pakistan_123102310_713557", "height": 3.23719310760498, "hmax": 0.0, "ratio": 0.0, "vulnClass": "none"}}, {"type": "Feature", "geometry": {"type": "MultiPolygon", "coordinates": [[[[72.2726334278946, 34.12267750451382], [72.2726346434565, 34.12272738406464], [72.2727514537826, 34.122725292324006], [72.27275079119671, 34.12269868356915], [72.27270100900594, 34.12269956049523], [72.2727004559748, 34.12267628969753], [72.2726334278946, 34.12267750451382]]]]}, "properties": {"id": "Pakistan_123102310_233384", "height": 2.465016603469849, "hmax": 0.0, "ratio": 0.0, "vulnClass": "none"}}, {"type": "Feature", "geometry": {"type": "MultiPolygon", "coordinates": [[[[72.2727941493949, 34.12263122385904], [72.27279912114173, 34.122753125991245], [72.27288905964636, 34.12275070738227], [72.27288409066426, 34.12262871516246], [72.2727941493949, 34.12263122385904]]]]}, "properties": {"id": "Pakistan_123102310_400550", "height": 4.090756416320801, "hmax": 0.0, "ratio": 0.0, "vulnClass": "none"}}, {"type": "Feature", "geometry": {"type": "MultiPolygon", "coordinates": [[[[72.27326795896876, 34.12230702835446], [72.2732691561926, 34.12223601732914], [72.27266982592725, 34.12222955045806], [72.27266873362663, 34.12230065394548], [72.27326795896876, 34.12230702835446]]]]}, "properties": {"id": "Pakistan_123102310_280536", "height": 2.556880950927734, "hmax": 0.0, "ratio": 0.0, "vulnClass": "none"}}, {"type": "Feature", "geometry": {"type": "MultiPolygon", "coordinates": [[[[72.2731235732024, 34.12194944332027], [72.27312141215825, 34.12205045263439], [72.2733948715141, 34.1220545454583], [72.27339714055165, 34.12195353853026], [72.2731235732024, 34.12194944332027]]]]}, "properties": {"id": "Pakistan_123102310_62616", "height": 3.09481406211853, "hmax": 0.0, "ratio": 0.0, "vulnClass": "none"}}, {"type": "Feature", "geometry": {"type": "MultiPolygon", "coordinates": [[[[72.2735539569728, 34.12105012076529], [72.27355299884866, 34.1210090815498], [72.27337068630193, 34.12101224297578], [72.2733716443377, 34.121053282188406], [72.2735539569728, 34.12105012076529]]]]}, "properties": {"id": "Pakistan_123102310_362670", "height": 2.826358556747437, "hmax": 0.0, "ratio": 0.0, "vulnClass": "none"}}, {"type": "Feature", "geometry": {"type": "MultiPolygon", "coordinates": [[[[72.27387157076403, 34.11887592383811], [72.27386871144176, 34.11878607159138], [72.27369450987158, 34.118789954694655], [72.27369308238421, 34.11874665130748], [72.27359394429793, 34.11874877609676], [72.27359665487243, 34.118833125929534], [72.27317308557484, 34.11884246637974], [72.27317466122472, 34.118891272165385], [72.27387157076403, 34.11887592383811]]]]}, "properties": {"id": "Pakistan_123102310_176758", "height": 4.557083606719971, "hmax": 0.0, "ratio": 0.0, "vulnClass": "none"}}, {"type": "Feature", "geometry": {"type": "MultiPolygon", "coordinates": [[[[72.27308386720343, 34.118583017569115], [72.27316542638405, 34.118581494244125], [72.27316392182374, 34.11852710077893], [72.2730823626955, 34.11852862410547], [72.27308386720343, 34.118583017569115]]]]}, "properties": {"id": "Pakistan_123102310_742167", "height": 4.917304515838623, "hmax": 0.0, "ratio": 0.0, "vulnClass": "none"}}, {"type": "Feature", "geometry": {"type": "MultiPolygon", "coordinates": [[[[72.27301283082389, 34.118408803210265], [72.27290822703132, 34.11840900301843], [72.27290847878979, 34.11849564209598], [72.27301308558302, 34.11849535220779], [72.27301283082389, 34.118408803210265]]]]}, "properties": {"id": "Pakistan_123102310_912352", "height": 3.85103178024292, "hmax": 0.0, "ratio": 0.0, "vulnClass": "none"}}, {"type": "Feature", "geometry": {"type": "MultiPolygon", "coordinates": [[[[72.27291945610659, 34.11840023761024], [72.27301217720908, 34.118398782113395], [72.27301011873156, 34.11831102109468], [72.27291739483131, 34.118312566679656], [72.27291945610659, 34.11840023761024]]]]}, "properties": {"id": "Pakistan_123102310_120799", "height": 3.85103178024292, "hmax": 0.0, "ratio": 0.0, "vulnClass": "none"}}, {"type": "Feature", "geometry": {"type": "MultiPolygon", "coordinates": [[[[72.27291163925975, 34.11796536394205], [72.27272115938625, 34.11796654010094], [72.27272199140658, 34.118055355656864], [72.272645777719, 34.11805582555274], [72.27264581367916, 34.11805808008448], [72.27260938569096, 34.11805835232463], [72.27261044694104, 34.118173767015364], [72.2727283990241, 34.118173052744034], [72.27272809524266, 34.11813527343468], [72.27303652754196, 34.11813338271292], [72.27303615127924, 34.11809785552283], [72.27295571042707, 34.11809832183222], [72.27295495050944, 34.11800725414126], [72.2729120179561, 34.11800756223483], [72.27291163925975, 34.11796536394205]]]]}, "properties": {"id": "Pakistan_123102310_627781", "height": 2.840205192565918, "hmax": 0.0, "ratio": 0.0, "vulnClass": "none"}}, {"type": "Feature", "geometry": {"type": "MultiPolygon", "coordinates": [[[[72.27309681770916, 34.11818322267834], [72.27309535040213, 34.118134419296204], [72.27290499415469, 34.118138483255976], [72.27290656966538, 34.1181872890419], [72.27309681770916, 34.11818322267834]]]]}, "properties": {"id": "Pakistan_123102310_400554", "height": 2.599386692047119, "hmax": 0.0, "ratio": 0.0, "vulnClass": "none"}}, {"type": "Feature", "geometry": {"type": "MultiPolygon", "coordinates": [[[[72.27361672445488, 34.11793820867461], [72.27361882372688, 34.11803146971894], [72.27369657696026, 34.11803031222241], [72.2736955814384, 34.11798368290203], [72.27378407210928, 34.11798231312946], [72.27378296822476, 34.1179356814011], [72.27361672445488, 34.11793820867461]]]]}, "properties": {"id": "Pakistan_123102310_305904", "height": 2.916525602340698, "hmax": 0.0, "ratio": 0.0, "vulnClass": "none"}}, {"type": "Feature", "geometry": {"type": "MultiPolygon", "coordinates": [[[[72.2739265763986, 34.117983224885876], [72.27392955234401, 34.117934430047235], [72.2738775938164, 34.117932284255616], [72.27387462073416, 34.11798098900649], [72.2739265763986, 34.117983224885876]]]]}, "properties": {"id": "Pakistan_123102310_580451", "height": 2.548385620117188, "hmax": 0.0, "ratio": 0.0, "vulnClass": "none"}}, {"type": "Feature", "geometry": {"type": "MultiPolygon", "coordinates": [[[[72.27482381060646, 34.11778471969691], [72.27471763483709, 34.11778326347648], [72.27471502157886, 34.117911938736974], [72.27482119461713, 34.1179134850526], [72.27482381060646, 34.11778471969691]]]]}, "properties": {"id": "Pakistan_123102310_542472", "height": 8.049339294433594, "hmax": 0.0, "ratio": 0.0, "vulnClass": "none"}}, {"type": "Feature", "geometry": {"type": "MultiPolygon", "coordinates": [[[[72.2750666196567, 34.117915959636925], [72.27528271362787, 34.11791372581371], [72.27528152328557, 34.117835990621494], [72.27516355417215, 34.11783724788348], [72.27516284674988, 34.117788371214886], [72.27506472214701, 34.1177893477858], [72.2750666196567, 34.117915959636925]]]]}, "properties": {"id": "Pakistan_123102310_737313", "height": 2.852480888366699, "hmax": 0.0, "ratio": 0.0, "vulnClass": "none"}}, {"type": "Feature", "geometry": {"type": "MultiPolygon", "coordinates": [[[[72.27505617222702, 34.11763698580428], [72.27515800664708, 34.117638615785644], [72.27515953400226, 34.117570767214694], [72.27505769677192, 34.11756922732371], [72.27505617222702, 34.11763698580428]]]]}, "properties": {"id": "Pakistan_123102310_841286", "height": 5.848601818084717, "hmax": 0.0, "ratio": 0.0, "vulnClass": "none"}}, {"type": "Feature", "geometry": {"type": "MultiPolygon", "coordinates": [[[[72.27492441981467, 34.11764893502971], [72.27480387881243, 34.11765265902677], [72.27480731017359, 34.11772810009316], [72.27465465345529, 34.117732823629964], [72.27465048929825, 34.117639697014575], [72.27457280421828, 34.11764211873129], [72.27457952220549, 34.11779074391757], [72.27493040832097, 34.11777978458913], [72.27492441981467, 34.11764893502971]]]]}, "properties": {"id": "Pakistan_123102310_158833", "height": 8.042466163635254, "hmax": 0.0, "ratio": 0.0, "vulnClass": "none"}}, {"type": "Feature", "geometry": {"type": "MultiPolygon", "coordinates": [[[[72.2746617810878, 34.11746352545945], [72.27466467076249, 34.117538954499125], [72.27482272542088, 34.117534891699535], [72.27481847666321, 34.1174207584009], [72.27470327222711, 34.11742369931346], [72.27470473942914, 34.11746240597323], [72.2746617810878, 34.11746352545945]]]]}, "properties": {"id": "Pakistan_123102310_195518", "height": 4.090274810791016, "hmax": 0.0, "ratio": 0.0, "vulnClass": "none"}}, {"type": "Feature", "geometry": {"type": "MultiPolygon", "coordinates": [[[[72.27577815709121, 34.11740735708405], [72.27599529980266, 34.11740280136329], [72.27599386974836, 34.11735616238016], [72.27577672715658, 34.117360718104194], [72.27577815709121, 34.11740735708405]]]]}, "properties": {"id": "Pakistan_123102310_723043", "height": 4.152487277984619, "hmax": 0.0, "ratio": 0.0, "vulnClass": "none"}}, {"type": "Feature", "geometry": {"type": "MultiPolygon", "coordinates": [[[[72.27589036361516, 34.11756878112173], [72.27563559562019, 34.11756700230764], [72.27563446007811, 34.117683450114214], [72.27577392837925, 34.117684382462244], [72.27577181428603, 34.11789212988696], [72.27588711461134, 34.11789297638793], [72.27589036361516, 34.11756878112173]]]]}, "properties": {"id": "Pakistan_123102310_827155", "height": 5.022860050201416, "hmax": 0.0, "ratio": 0.0, "vulnClass": "none"}}, {"type": "Feature", "geometry": {"type": "MultiPolygon", "coordinates": [[[[72.2758926395191, 34.11768701750086], [72.2759516730461, 34.11768823767958], [72.27594886033806, 34.11778265181879], [72.27602392429162, 34.117784227777136], [72.27602840914905, 34.117634318716384], [72.27589431183915, 34.117631522591125], [72.2758926395191, 34.11768701750086]]]]}, "properties": {"id": "Pakistan_123102310_841292", "height": 2.712183713912964, "hmax": 0.0, "ratio": 0.0, "vulnClass": "none"}}, {"type": "Feature", "geometry": {"type": "MultiPolygon", "coordinates": [[[[72.27634545631763, 34.11762062094798], [72.27616138286338, 34.11757416547171], [72.27611803908894, 34.11769202039304], [72.27623824584721, 34.117722364160116], [72.27625771734859, 34.11766951800427], [72.2763215842328, 34.117685629777235], [72.27634545631763, 34.11762062094798]]]]}, "properties": {"id": "Pakistan_123102310_196561", "height": 2.577802658081055, "hmax": 0.0, "ratio": 0.0, "vulnClass": "none"}}, {"type": "Feature", "geometry": {"type": "MultiPolygon", "coordinates": [[[[72.27632801654634, 34.11768784596633], [72.27638923632357, 34.11770200581966], [72.27641187796813, 34.11763480608387], [72.27635065534389, 34.11762073632916], [72.27632801654634, 34.11768784596633]]]]}, "properties": {"id": "Pakistan_123102310_73563", "height": 2.616101741790771, "hmax": 0.0, "ratio": 0.0, "vulnClass": "none"}}, {"type": "Feature", "geometry": {"type": "MultiPolygon", "coordinates": [[[[72.27624617800763, 34.117414319373594], [72.27613891505214, 34.117416356095504], [72.27614012581996, 34.117456319155586], [72.27624739171635, 34.117454192349825], [72.27624617800763, 34.117414319373594]]]]}, "properties": {"id": "Pakistan_123102310_836618", "height": 3.17772364616394, "hmax": 0.0, "ratio": 0.0, "vulnClass": "none"}}, {"type": "Feature", "geometry": {"type": "MultiPolygon", "coordinates": [[[[72.27602795453262, 34.11743904501759], [72.27603238726198, 34.117719778496244], [72.27613431145896, 34.11771861502976], [72.27612961734472, 34.11742237004645], [72.27608028011562, 34.11742298785699], [72.27608054115369, 34.11743849934861], [72.27602795453262, 34.11743904501759]]]]}, "properties": {"id": "Pakistan_123102310_632498", "height": 7.095571517944336, "hmax": 0.0, "ratio": 0.0, "vulnClass": "none"}}, {"type": "Feature", "geometry": {"type": "MultiPolygon", "coordinates": [[[[72.27624629550427, 34.117251872740674], [72.27624758133014, 34.11729625478883], [72.27636287372292, 34.11729394541508], [72.2763605963435, 34.117216276226706], [72.27611396128586, 34.11722116968386], [72.27611495268194, 34.117254456819616], [72.27624629550427, 34.117251872740674]]]]}, "properties": {"id": "Pakistan_123102310_585308", "height": 2.587588548660278, "hmax": 0.0, "ratio": 0.0, "vulnClass": "none"}}, {"type": "Feature", "geometry": {"type": "MultiPolygon", "coordinates": [[[[72.27681985080024, 34.11749312943184], [72.27674487942296, 34.11749543244725], [72.2767490054322, 34.11758982029877], [72.27682397689314, 34.1175875172849], [72.27681985080024, 34.11749312943184]]]]}, "properties": {"id": "Pakistan_123102310_542488", "height": 3.631860256195068, "hmax": 0.0, "ratio": 0.0, "vulnClass": "none"}}, {"type": "Feature", "geometry": {"type": "MultiPolygon", "coordinates": [[[[72.27653066170949, 34.117452725957094], [72.27652761787122, 34.1175881529853], [72.27658124726824, 34.117588892336094], [72.27658428813119, 34.1174535553877], [72.27653066170949, 34.117452725957094]]]]}, "properties": {"id": "Pakistan_123102310_561405", "height": 2.762742519378662, "hmax": 0.0, "ratio": 0.0, "vulnClass": "none"}}, {"type": "Feature", "geometry": {"type": "MultiPolygon", "coordinates": [[[[72.27647946658992, 34.11772411154382], [72.27647890567388, 34.11775511049448], [72.27654748529112, 34.11775609148501], [72.27654949879931, 34.11765616046458], [72.27640464372037, 34.1176542079615], [72.27640330218904, 34.11772305234081], [72.27647946658992, 34.11772411154382]]]]}, "properties": {"id": "Pakistan_123102310_405238", "height": 3.136856555938721, "hmax": 0.0, "ratio": 0.0, "vulnClass": "none"}}, {"type": "Feature", "geometry": {"type": "MultiPolygon", "coordinates": [[[[72.27699049618748, 34.117802792769034], [72.27698934719139, 34.11775751226278], [72.27676408867495, 34.11776161919025], [72.2767653458639, 34.11780690209619], [72.27699049618748, 34.117802792769034]]]]}, "properties": {"id": "Pakistan_123102310_376910", "height": 3.960811614990234, "hmax": 0.0, "ratio": 0.0, "vulnClass": "none"}}, {"type": "Feature", "geometry": {"type": "MultiPolygon", "coordinates": [[[[72.27639168836448, 34.11778436664932], [72.2763946145419, 34.11769653591227], [72.276244495421, 34.11769311415461], [72.27624156908877, 34.1177809448806], [72.27639168836448, 34.11778436664932]]]]}, "properties": {"id": "Pakistan_123102310_270966", "height": 2.627384424209595, "hmax": 0.0, "ratio": 0.0, "vulnClass": "none"}}, {"type": "Feature", "geometry": {"type": "MultiPolygon", "coordinates": [[[[72.27677288968106, 34.11904157556988], [72.27686675685126, 34.11904158499229], [72.27686672301257, 34.118890583978306], [72.27696059002072, 34.1188905933208], [72.27696060931743, 34.11885282114428], [72.27677287538977, 34.11885280239152], [72.27677288968106, 34.11904157556988]]]]}, "properties": {"id": "Pakistan_123102310_656266", "height": 3.226659297943115, "hmax": 0.0, "ratio": 0.0, "vulnClass": "none"}}, {"type": "Feature", "geometry": {"type": "MultiPolygon", "coordinates": [[[[72.27704228059348, 34.1188106403418], [72.27704642095559, 34.118708592915375], [72.27705984906383, 34.118708980999905], [72.27706152629892, 34.11866682828502], [72.27698117143187, 34.11866459465083], [72.27697524828984, 34.11880870229437], [72.27704228059348, 34.1188106403418]]]]}, "properties": {"id": "Pakistan_123102310_120849", "height": 5.197192192077637, "hmax": 0.0, "ratio": 0.0, "vulnClass": "none"}}, {"type": "Feature", "geometry": {"type": "MultiPolygon", "coordinates": [[[[72.27468902146, 34.120676692566356], [72.27491952541072, 34.12068163092581], [72.2749208788648, 34.12063947109002], [72.27469037502824, 34.12063453273864], [72.27468902146, 34.120676692566356]]]]}, "properties": {"id": "Pakistan_123102310_817749", "height": 4.014748573303223, "hmax": 0.0, "ratio": 0.0, "vulnClass": "none"}}, {"type": "Feature", "geometry": {"type": "MultiPolygon", "coordinates": [[[[72.2750686238641, 34.12054142387956], [72.27507513872777, 34.12042626752619], [72.27501895427156, 34.120424028345795], [72.27501232812368, 34.1205392723725], [72.2750686238641, 34.12054142387956]]]]}, "properties": {"id": "Pakistan_123102310_148382", "height": 4.758570671081543, "hmax": 0.0, "ratio": 0.0, "vulnClass": "none"}}, {"type": "Feature", "geometry": {"type": "MultiPolygon", "coordinates": [[[[72.27516847506169, 34.12056780097736], [72.27508469395255, 34.12057432461444], [72.27509036935248, 34.12062376232164], [72.27517415051057, 34.120617238683074], [72.27516847506169, 34.12056780097736]]]]}, "properties": {"id": "Pakistan_123102310_72044", "height": 5.474273681640625, "hmax": 0.0, "ratio": 0.0, "vulnClass": "none"}}, {"type": "Feature", "geometry": {"type": "MultiPolygon", "coordinates": [[[[72.27496979596188, 34.12053382048684], [72.27490547612564, 34.12053176120371], [72.27490068725383, 34.12063703943984], [72.27496501006136, 34.12063900864422], [72.27496979596188, 34.12053382048684]]]]}, "properties": {"id": "Pakistan_123102310_91162", "height": 3.737348794937134, "hmax": 0.0, "ratio": 0.0, "vulnClass": "none"}}, {"type": "Feature", "geometry": {"type": "MultiPolygon", "coordinates": [[[[72.27971623533641, 34.12051084054614], [72.27971520342764, 34.120468627719276], [72.27957312919567, 34.120471067652986], [72.27957416103358, 34.120513280477624], [72.27971623533641, 34.12051084054614]]]]}, "properties": {"id": "Pakistan_123102310_779942", "height": 2.675938606262207, "hmax": 0.0, "ratio": 0.0, "vulnClass": "none"}}, {"type": "Feature", "geometry": {"type": "MultiPolygon", "coordinates": [[[[72.27993294086711, 34.118389017413534], [72.2799957068326, 34.11838878584012], [72.27999488696395, 34.118214779123214], [72.27993212401368, 34.11821492061692], [72.27993294086711, 34.118389017413534]]]]}, "properties": {"id": "Pakistan_123102310_362691", "height": 2.887076616287231, "hmax": 0.0, "ratio": 0.0, "vulnClass": "none"}}, {"type": "Feature", "geometry": {"type": "MultiPolygon", "coordinates": [[[[72.2797151747163, 34.118186312541674], [72.2796979613434, 34.11825669835295], [72.27975456359785, 34.118266156572915], [72.27977177692682, 34.118195770751605], [72.2797151747163, 34.118186312541674]]]]}, "properties": {"id": "Pakistan_123102310_751585", "height": 3.094672203063965, "hmax": 0.0, "ratio": 0.0, "vulnClass": "none"}}, {"type": "Feature", "geometry": {"type": "MultiPolygon", "coordinates": [[[[72.27896654663128, 34.118831323507685], [72.27896819780784, 34.118877877244195], [72.27913969774426, 34.118873746440535], [72.27913804647335, 34.11882719270176], [72.27896654663128, 34.118831323507685]]]]}, "properties": {"id": "Pakistan_123102310_585326", "height": 4.033768177032471, "hmax": 0.0, "ratio": 0.0, "vulnClass": "none"}}, {"type": "Feature", "geometry": {"type": "MultiPolygon", "coordinates": [[[[72.27819334475434, 34.11836613498137], [72.27825210853078, 34.11822364984694], [72.27805370767402, 34.11816759401728], [72.27801632919419, 34.1182583568336], [72.27805714768692, 34.118269899792786], [72.27803587044421, 34.11832162441316], [72.27819334475434, 34.11836613498137]]]]}, "properties": {"id": "Pakistan_123102310_452480", "height": 3.326549768447876, "hmax": 0.0, "ratio": 0.0, "vulnClass": "none"}}, {"type": "Feature", "geometry": {"type": "MultiPolygon", "coordinates": [[[[72.27939326220466, 34.1179763403996], [72.27939098506467, 34.11790534226877], [72.27929607779089, 34.11790738519497], [72.27929835485126, 34.11797838332368], [72.27939326220466, 34.1179763403996]]]]}, "properties": {"id": "Pakistan_123102310_168307", "height": 2.472795486450195, "hmax": 0.0, "ratio": 0.0, "vulnClass": "none"}}, {"type": "Feature", "geometry": {"type": "MultiPolygon", "coordinates": [[[[72.27773698150074, 34.11792446751175], [72.2777261860766, 34.11796704903854], [72.27797033505875, 34.1180093355616], [72.27798102205504, 34.11796675160554], [72.27773698150074, 34.11792446751175]]]]}, "properties": {"id": "Pakistan_123102310_490430", "height": 4.514925003051758, "hmax": 0.0, "ratio": 0.0, "vulnClass": "none"}}, {"type": "Feature", "geometry": {"type": "MultiPolygon", "coordinates": [[[[72.27855154576515, 34.11740686498003], [72.27854682402923, 34.117287041772094], [72.2784852041625, 34.11728874043077], [72.27849205193344, 34.11746396256101], [72.2786324284853, 34.117460224012206], [72.27863030515876, 34.11740473500057], [72.27855154576515, 34.11740686498003]]]]}, "properties": {"id": "Pakistan_123102310_504611", "height": 3.228044986724854, "hmax": 0.0, "ratio": 0.0, "vulnClass": "none"}}, {"type": "Feature", "geometry": {"type": "MultiPolygon", "coordinates": [[[[72.2796399483015, 34.11802066314778], [72.27963837681637, 34.11793101971165], [72.27953644932136, 34.11793227616605], [72.27953812901245, 34.11802192199923], [72.2796399483015, 34.11802066314778]]]]}, "properties": {"id": "Pakistan_123102310_551921", "height": 2.956707954406738, "hmax": 0.0, "ratio": 0.0, "vulnClass": "none"}}, {"type": "Feature", "geometry": {"type": "MultiPolygon", "coordinates": [[[[72.27863736884042, 34.11543954261748], [72.27863885872287, 34.115386297298436], [72.27844854003409, 34.115382618023446], [72.27844694172215, 34.11543586093265], [72.27863736884042, 34.11543954261748]]]]}, "properties": {"id": "Pakistan_123102310_798780", "height": 2.954556226730347, "hmax": 0.0, "ratio": 0.0, "vulnClass": "none"}}, {"type": "Feature", "geometry": {"type": "MultiPolygon", "coordinates": [[[[72.27811835719119, 34.1155967029058], [72.27811411696281, 34.11550582833599], [72.27804717385537, 34.11550794964745], [72.27805141401184, 34.11559882421609], [72.27811835719119, 34.1155967029058]]]]}, "properties": {"id": "Pakistan_123102310_794048", "height": 4.356847286224365, "hmax": 0.0, "ratio": 0.0, "vulnClass": "none"}}, {"type": "Feature", "geometry": {"type": "MultiPolygon", "coordinates": [[[[72.27811145714568, 34.11562260307877], [72.27865310718408, 34.115614691470675], [72.27865085916477, 34.11550898641111], [72.27847128609001, 34.11551158544678], [72.27847247067476, 34.11556930739136], [72.278110502451, 34.11557462238028], [72.27811145714568, 34.11562260307877]]]]}, "properties": {"id": "Pakistan_123102310_176802", "height": 4.422096729278564, "hmax": 0.0, "ratio": 0.0, "vulnClass": "none"}}, {"type": "Feature", "geometry": {"type": "MultiPolygon", "coordinates": [[[[72.27809531983931, 34.11542274437832], [72.27803912263244, 34.115424382812385], [72.27804117772432, 34.115471847019364], [72.27809748616126, 34.11547012090256], [72.27809531983931, 34.11542274437832]]]]}, "properties": {"id": "Pakistan_123102310_281553", "height": 4.43916130065918, "hmax": 0.0, "ratio": 0.0, "vulnClass": "none"}}, {"type": "Feature", "geometry": {"type": "MultiPolygon", "coordinates": [[[[72.27753614532425, 34.11571017891359], [72.27752421799525, 34.11541963304766], [72.2774455658917, 34.115421854893334], [72.27745749295056, 34.11571240075377], [72.27753614532425, 34.11571017891359]]]]}, "properties": {"id": "Pakistan_123102310_17003", "height": 3.661727905273438, "hmax": 0.0, "ratio": 0.0, "vulnClass": "none"}}, {"type": "Feature", "geometry": {"type": "MultiPolygon", "coordinates": [[[[72.27787458172672, 34.115712006415556], [72.27781141489363, 34.11571466209796], [72.277815214364, 34.11577532681786], [72.2778783812424, 34.11577267113571], [72.27787458172672, 34.115712006415556]]]]}, "properties": {"id": "Pakistan_123102310_17005", "height": 2.910101175308228, "hmax": 0.0, "ratio": 0.0, "vulnClass": "none"}}, {"type": "Feature", "geometry": {"type": "MultiPolygon", "coordinates": [[[[72.27882114797245, 34.117067570529684], [72.27881747132689, 34.116790008883775], [72.27871923940478, 34.116790986035554], [72.27872614829118, 34.11730246710415], [72.27883880085469, 34.11730135895638], [72.27883638880995, 34.11712298979266], [72.27878434677028, 34.11712345857632], [72.27878363428802, 34.117067910695454], [72.27882114797245, 34.117067570529684]]]]}, "properties": {"id": "Pakistan_123102310_528300", "height": 4.482533931732178, "hmax": 0.0, "ratio": 0.0, "vulnClass": "none"}}, {"type": "Feature", "geometry": {"type": "MultiPolygon", "coordinates": [[[[72.27823974319696, 34.116898629224075], [72.2782379956821, 34.11687199637464], [72.27818187694236, 34.11687453808367], [72.27818672516825, 34.11694983026469], [72.27825890595594, 34.11694665312031], [72.27825580807374, 34.11689790370306], [72.27823974319696, 34.116898629224075]]]]}, "properties": {"id": "Pakistan_123102310_860206", "height": 3.309545993804932, "hmax": 0.0, "ratio": 0.0, "vulnClass": "none"}}, {"type": "Feature", "geometry": {"type": "MultiPolygon", "coordinates": [[[[72.27818253114057, 34.11687103676287], [72.27832995854737, 34.11686709430842], [72.27832655431072, 34.11678056546708], [72.27817923536685, 34.11678451032688], [72.27818253114057, 34.11687103676287]]]]}, "properties": {"id": "Pakistan_123102310_242790", "height": 2.456570625305176, "hmax": 0.0, "ratio": 0.0, "vulnClass": "none"}}, {"type": "Feature", "geometry": {"type": "MultiPolygon", "coordinates": [[[[72.27750099272443, 34.116924703986456], [72.27735096286544, 34.116928677854624], [72.2773531286987, 34.11698281557078], [72.2775031586537, 34.116978841704636], [72.27750099272443, 34.116924703986456]]]]}, "properties": {"id": "Pakistan_123102310_935939", "height": 4.026670455932617, "hmax": 0.0, "ratio": 0.0, "vulnClass": "none"}}, {"type": "Feature", "geometry": {"type": "MultiPolygon", "coordinates": [[[[72.27687776977007, 34.11692421942752], [72.27687443738049, 34.11697742380288], [72.27699209481696, 34.11698246840551], [72.2769954271334, 34.11692926402341], [72.27687776977007, 34.11692421942752]]]]}, "properties": {"id": "Pakistan_123102310_138908", "height": 6.682164669036865, "hmax": 0.0, "ratio": 0.0, "vulnClass": "none"}}, {"type": "Feature", "geometry": {"type": "MultiPolygon", "coordinates": [[[[72.27723800486724, 34.1169122888776], [72.27713074251045, 34.11691432649913], [72.27713265388003, 34.116983152928846], [72.27723980801171, 34.11698111290696], [72.27723800486724, 34.1169122888776]]]]}, "properties": {"id": "Pakistan_123102310_556627", "height": 4.99648904800415, "hmax": 0.0, "ratio": 0.0, "vulnClass": "none"}}, {"type": "Feature", "geometry": {"type": "MultiPolygon", "coordinates": [[[[72.27747335667301, 34.1167758852279], [72.27726154592614, 34.11677307950094], [72.27725999136015, 34.116848590248715], [72.27747191060733, 34.11685139839021], [72.27747335667301, 34.1167758852279]]]]}, "properties": {"id": "Pakistan_123102310_320217", "height": 3.134368181228638, "hmax": 0.0, "ratio": 0.0, "vulnClass": "none"}}, {"type": "Feature", "geometry": {"type": "MultiPolygon", "coordinates": [[[[72.27550210340412, 34.11669085186243], [72.27550068168647, 34.11666422622844], [72.27545510691309, 34.116665828816984], [72.2754565286164, 34.116692454450806], [72.27550210340412, 34.11669085186243]]]]}, "properties": {"id": "Pakistan_123102310_334350", "height": 2.708801746368408, "hmax": 0.0, "ratio": 0.0, "vulnClass": "none"}}, {"type": "Feature", "geometry": {"type": "MultiPolygon", "coordinates": [[[[72.27544493675305, 34.11682399553018], [72.27551299424266, 34.11682433444317], [72.27551384385113, 34.11671004386721], [72.27544589476494, 34.11670970736363], [72.27544493675305, 34.11682399553018]]]]}, "properties": {"id": "Pakistan_123102310_400569", "height": 5.293624877929688, "hmax": 0.0, "ratio": 0.0, "vulnClass": "none"}}, {"type": "Feature", "geometry": {"type": "MultiPolygon", "coordinates": [[[[72.27595990851646, 34.11682352708325], [72.27581527426162, 34.11682824987778], [72.27582355928303, 34.117002422131414], [72.27593607849961, 34.11699869935214], [72.27593388739353, 34.11695213362405], [72.2758963449049, 34.11695337376097], [72.27589214603496, 34.1168646636943], [72.27596180376898, 34.1168624235454], [72.27595990851646, 34.11682352708325]]]]}, "properties": {"id": "Pakistan_123102310_490424", "height": 3.095026016235352, "hmax": 0.0, "ratio": 0.0, "vulnClass": "none"}}, {"type": "Feature", "geometry": {"type": "MultiPolygon", "coordinates": [[[[72.27625499033952, 34.116926806619965], [72.27625418204808, 34.11697564966507], [72.27633197623378, 34.1169765648139], [72.27633278737059, 34.11692763168084], [72.27625499033952, 34.116926806619965]]]]}, "properties": {"id": "Pakistan_123102310_320214", "height": 4.68864917755127, "hmax": 0.0, "ratio": 0.0, "vulnClass": "none"}}, {"type": "Feature", "geometry": {"type": "MultiPolygon", "coordinates": [[[[72.27651419358294, 34.117222749935316], [72.27651124113399, 34.117091787456395], [72.27640659252431, 34.11709343169248], [72.27640762135219, 34.11713907013049], [72.27622261780247, 34.11714190585855], [72.27622375910647, 34.11719079217037], [72.27626128147128, 34.11719018253502], [72.27626191344567, 34.11721778228137], [72.27642544527119, 34.11721528134259], [72.27642655351842, 34.117261823036685], [72.27670275806423, 34.11725758509819], [72.2767017997216, 34.11721988137269], [72.27651419358294, 34.117222749935316]]]]}, "properties": {"id": "Pakistan_123102310_462044", "height": 2.765441417694092, "hmax": 0.0, "ratio": 0.0, "vulnClass": "none"}}, {"type": "Feature", "geometry": {"type": "MultiPolygon", "coordinates": [[[[72.2760166761674, 34.117168977517046], [72.27601834954096, 34.1174309888324], [72.27607092748553, 34.11743071342305], [72.27606952592903, 34.11721089806043], [72.27613922867565, 34.11721064210412], [72.27613895666138, 34.1171684461427], [72.2760166761674, 34.117168977517046]]]]}, "properties": {"id": "Pakistan_123102310_315399", "height": 6.322204113006592, "hmax": 0.0, "ratio": 0.0, "vulnClass": "none"}}, {"type": "Feature", "geometry": {"type": "MultiPolygon", "coordinates": [[[[72.27601144369046, 34.1171800399065], [72.27601011374186, 34.11711338997544], [72.27582674941554, 34.117115810742746], [72.2758280821105, 34.11718237058353], [72.27601144369046, 34.1171800399065]]]]}, "properties": {"id": "Pakistan_123102310_808325", "height": 4.947662830352783, "hmax": 0.0, "ratio": 0.0, "vulnClass": "none"}}, {"type": "Feature", "geometry": {"type": "MultiPolygon", "coordinates": [[[[72.27582513482533, 34.11700398964348], [72.27582392535228, 34.11703154851449], [72.27591758654702, 34.117034528964545], [72.27591890430205, 34.11700697249527], [72.27582513482533, 34.11700398964348]]]]}, "properties": {"id": "Pakistan_123102310_102135", "height": 3.095026016235352, "hmax": 0.0, "ratio": 0.0, "vulnClass": "none"}}, {"type": "Feature", "geometry": {"type": "MultiPolygon", "coordinates": [[[[72.27561350872098, 34.11290488558618], [72.27520075095276, 34.112895722747155], [72.27519918410704, 34.11294454895471], [72.2749900433471, 34.11293990568809], [72.2749888319818, 34.11297765140258], [72.27561073391263, 34.11299136745914], [72.27561350872098, 34.11290488558618]]]]}, "properties": {"id": "Pakistan_123102310_779922", "height": 2.457415103912354, "hmax": 0.0, "ratio": 0.0, "vulnClass": "none"}}, {"type": "Feature", "geometry": {"type": "MultiPolygon", "coordinates": [[[[72.27518449225657, 34.11268973093153], [72.27509073338805, 34.112686567578436], [72.27508912509329, 34.112719797012325], [72.27518288399831, 34.11272296036841], [72.27518449225657, 34.11268973093153]]]]}, "properties": {"id": "Pakistan_123102310_523714", "height": 3.001007080078125, "hmax": 0.0, "ratio": 0.0, "vulnClass": "none"}}, {"type": "Feature", "geometry": {"type": "MultiPolygon", "coordinates": [[[[72.27314867815323, 34.11319388758297], [72.27314952655094, 34.11315397026013], [72.27305842006196, 34.11315257710698], [72.27305757162151, 34.11319249442711], [72.27314867815323, 34.11319388758297]]]]}, "properties": {"id": "Pakistan_123102310_476344", "height": 2.906247615814209, "hmax": 0.079, "ratio": 0.027, "vulnClass": "none"}}, {"type": "Feature", "geometry": {"type": "MultiPolygon", "coordinates": [[[[72.27299596110664, 34.11321086824033], [72.27299856424527, 34.11329855126449], [72.27315940665535, 34.1132951833904], [72.27315680335013, 34.11320750036154], [72.27299596110664, 34.11321086824033]]]]}, "properties": {"id": "Pakistan_123102310_186859", "height": 3.974765777587891, "hmax": 0.079, "ratio": 0.02, "vulnClass": "none"}}, {"type": "Feature", "geometry": {"type": "MultiPolygon", "coordinates": [[[[72.27287647956106, 34.113158180542904], [72.27287515818558, 34.113108208433594], [72.27280011138097, 34.11310960596431], [72.27280132440514, 34.11315957566564], [72.27287647956106, 34.113158180542904]]]]}, "properties": {"id": "Pakistan_123102310_53312", "height": 3.122905254364014, "hmax": 0.178, "ratio": 0.057, "vulnClass": "low"}}, {"type": "Feature", "geometry": {"type": "MultiPolygon", "coordinates": [[[[72.27278954806016, 34.11308079389425], [72.27278567977459, 34.1129987621669], [72.27257140052103, 34.11300562985642], [72.27256906404958, 34.112956897280974], [72.27252620764379, 34.112958288791134], [72.27253241212675, 34.11308905308952], [72.27278954806016, 34.11308079389425]]]]}, "properties": {"id": "Pakistan_123102310_841265", "height": 2.867864847183228, "hmax": 0.178, "ratio": 0.062, "vulnClass": "low"}}, {"type": "Feature", "geometry": {"type": "MultiPolygon", "coordinates": [[[[72.27329693749371, 34.1129782086195], [72.27313609604356, 34.11297481550857], [72.27313424285744, 34.11303589561099], [72.27329508442295, 34.113039288729944], [72.27329693749371, 34.1129782086195]]]]}, "properties": {"id": "Pakistan_123102310_138878", "height": 2.844478130340576, "hmax": 0.166, "ratio": 0.058, "vulnClass": "low"}}, {"type": "Feature", "geometry": {"type": "MultiPolygon", "coordinates": [[[[72.27298450723869, 34.112862186433624], [72.27300455013584, 34.11285569026], [72.2731748503685, 34.11285478621756], [72.27317469432685, 34.112829270476944], [72.27331951931201, 34.11282852143388], [72.27331925272632, 34.112789570978464], [72.27315805615265, 34.11279049718635], [72.27311260552166, 34.112805173375], [72.27298404104852, 34.11280583271785], [72.27298426772832, 34.1128325219686], [72.27291456580268, 34.11283286639097], [72.2729154071394, 34.112945030900725], [72.27283356319197, 34.11294546608275], [72.27279479437102, 34.11295794673621], [72.27279429023012, 34.11288590619069], [72.27275004244096, 34.112900248371716], [72.27275017685045, 34.11292305914767], [72.27277990847226, 34.1129861031639], [72.27275318647621, 34.11299470461903], [72.27277584285717, 34.1129945770133], [72.27279664534335, 34.11303867154726], [72.27279712750978, 34.11309114919121], [72.27297827046694, 34.11309012576674], [72.27297785271857, 34.11304576299511], [72.27313200402656, 34.11304486080678], [72.27313127577352, 34.11294604091232], [72.27304010875267, 34.11294653954333], [72.27304018990247, 34.112967636299466], [72.27298533746995, 34.11296795009288], [72.27298450723869, 34.112862186433624]]]]}, "properties": {"id": "Pakistan_123102310_481058", "height": 3.564517021179199, "hmax": 0.107, "ratio": 0.03, "vulnClass": "low"}}, {"type": "Feature", "geometry": {"type": "MultiPolygon", "coordinates": [[[[72.27778719947203, 34.12674489703652], [72.27777139859461, 34.12700093125058], [72.27778861073304, 34.1270016736826], [72.27778636295456, 34.12703795400388], [72.2778638746683, 34.12704120603749], [72.27785903967644, 34.127120971101675], [72.27796069067934, 34.12712529946184], [72.2779656339016, 34.12704553679202], [72.27806187434338, 34.12704956474722], [72.27806520393912, 34.126996450485436], [72.27797849039099, 34.12699281416294], [72.27799098702795, 34.12678908338439], [72.27785837573747, 34.12678343721602], [72.27786048625066, 34.12674805533977], [72.27778719947203, 34.12674489703652]]]]}, "properties": {"id": "Pakistan_123102310_808333", "height": 3.789137363433838, "hmax": 0.075, "ratio": 0.02, "vulnClass": "none"}}, {"type": "Feature", "geometry": {"type": "MultiPolygon", "coordinates": [[[[72.27814249003985, 34.12659438582737], [72.27814638017927, 34.12650351140987], [72.2780060262628, 34.12649931636253], [72.27800431008895, 34.126539304608606], [72.27794377110374, 34.12653751096749], [72.27794159406302, 34.12658848720968], [72.27814249003985, 34.12659438582737]]]]}, "properties": {"id": "Pakistan_123102310_594648", "height": 2.693684101104736, "hmax": 0.0, "ratio": 0.0, "vulnClass": "none"}}, {"type": "Feature", "geometry": {"type": "MultiPolygon", "coordinates": [[[[72.27828441283448, 34.126563186819965], [72.27828066721588, 34.12634872855301], [72.2781932624512, 34.126349764835375], [72.27819809649353, 34.12663167896302], [72.27843406819518, 34.12662888941422], [72.2784333591491, 34.126586773933965], [72.27825367162072, 34.126588828596674], [72.27825328899836, 34.12656357828849], [72.27828441283448, 34.126563186819965]]]]}, "properties": {"id": "Pakistan_123102310_91198", "height": 2.507463932037354, "hmax": 0.0, "ratio": 0.0, "vulnClass": "none"}}, {"type": "Feature", "geometry": {"type": "MultiPolygon", "coordinates": [[[[72.27831720767195, 34.12622675556653], [72.27843880377266, 34.12622431392188], [72.27843626631014, 34.12613780439679], [72.27831467322274, 34.12614015595965], [72.27831720767195, 34.12622675556653]]]]}, "properties": {"id": "Pakistan_123102310_727787", "height": 3.693122148513794, "hmax": 0.0, "ratio": 0.0, "vulnClass": "none"}}, {"type": "Feature", "geometry": {"type": "MultiPolygon", "coordinates": [[[[72.27881778082687, 34.12607874330079], [72.27880709155342, 34.126151797711486], [72.27891654952796, 34.126162789127534], [72.2789056003492, 34.12623719002551], [72.27896903072664, 34.12624346461996], [72.27897429659284, 34.12620770192967], [72.27918046228831, 34.12622841002443], [72.27920890405305, 34.12603440809954], [72.27910311765069, 34.12602385895522], [72.27909615628963, 34.12607193452613], [72.27899998759598, 34.12606231974011], [72.27899498750253, 34.126096555786276], [72.27881778082687, 34.12607874330079]]]]}, "properties": {"id": "Pakistan_123102310_329652", "height": 3.669185638427734, "hmax": 0.0, "ratio": 0.0, "vulnClass": "none"}}, {"type": "Feature", "geometry": {"type": "MultiPolygon", "coordinates": [[[[72.2791303007325, 34.126450688002194], [72.27916849320869, 34.126233193007], [72.27910013766382, 34.12622500632216], [72.27907533500263, 34.12636635150794], [72.27890990187606, 34.126346456314614], [72.27892010585285, 34.12628853623046], [72.27878350597057, 34.12627207486131], [72.2787725133086, 34.126334304612364], [72.27861334293438, 34.12631517894821], [72.2786299339137, 34.12622034914363], [72.27860531398673, 34.12621736911541], [72.27859137766038, 34.12629702254434], [72.27845736897014, 34.12628088872605], [72.27844290386089, 34.12636350533525], [72.27873975463665, 34.12639920690837], [72.2787162887524, 34.126532648500536], [72.27881606586489, 34.12654468742416], [72.27883874300495, 34.12641555548876], [72.2791303007325, 34.126450688002194]]]]}, "properties": {"id": "Pakistan_123102310_570967", "height": 3.688961029052734, "hmax": 0.0, "ratio": 0.0, "vulnClass": "none"}}, {"type": "Feature", "geometry": {"type": "MultiPolygon", "coordinates": [[[[72.27847552202745, 34.12586353912568], [72.27847884371093, 34.12600334432745], [72.27857537044923, 34.12600178893715], [72.2785731188184, 34.12590636095938], [72.27869372222366, 34.12590443793027], [72.27869564323129, 34.125986516468906], [72.27874390515034, 34.12598578374005], [72.27874194798488, 34.125901450664486], [72.27884650213373, 34.12589971247403], [72.2788454678921, 34.12585758977586], [72.27847552202745, 34.12586353912568]]]]}, "properties": {"id": "Pakistan_123102310_310696", "height": 2.652179718017578, "hmax": 0.0, "ratio": 0.0, "vulnClass": "none"}}, {"type": "Feature", "geometry": {"type": "MultiPolygon", "coordinates": [[[[72.28090922834713, 34.125197015340056], [72.28090480162662, 34.1250949582216], [72.28084317026803, 34.1250968379621], [72.28084759691416, 34.125198895079166], [72.28090922834713, 34.125197015340056]]]]}, "properties": {"id": "Pakistan_123102310_879206", "height": 2.561428785324097, "hmax": 0.0, "ratio": 0.0, "vulnClass": "none"}}, {"type": "Feature", "geometry": {"type": "MultiPolygon", "coordinates": [[[[72.28114744824984, 34.12501225850896], [72.28100703580141, 34.12500995880396], [72.28100629294485, 34.125043297643586], [72.2811467083342, 34.12504550726658], [72.28114744824984, 34.12501225850896]]]]}, "properties": {"id": "Pakistan_123102310_343852", "height": 4.507865428924561, "hmax": 0.0, "ratio": 0.0, "vulnClass": "none"}}, {"type": "Feature", "geometry": {"type": "MultiPolygon", "coordinates": [[[[72.2826300770445, 34.125386675036935], [72.28285605663993, 34.1254080861203], [72.28286467169882, 34.12534553282019], [72.28289547179138, 34.12534846853045], [72.28290601863996, 34.12527297647021], [72.28264913389775, 34.12524853724862], [72.2826300770445, 34.125386675036935]]]]}, "properties": {"id": "Pakistan_123102310_158909", "height": 3.547029256820679, "hmax": 0.0, "ratio": 0.0, "vulnClass": "none"}}, {"type": "Feature", "geometry": {"type": "MultiPolygon", "coordinates": [[[[72.28136116746526, 34.12679365897266], [72.28137226811701, 34.12714422564848], [72.2822675379175, 34.127124751697515], [72.28226213762082, 34.126954880644085], [72.28220052219973, 34.12695622048902], [72.28220294463267, 34.12703290118877], [72.28146855055792, 34.12704881702372], [72.28146183042958, 34.12683898053007], [72.28167466182758, 34.12683441000403], [72.28167564792501, 34.12686454176624], [72.28213027990824, 34.126854598838364], [72.28212778094486, 34.12677692479812], [72.28136116746526, 34.12679365897266]]]]}, "properties": {"id": "Pakistan_123102310_471580", "height": 3.387262105941772, "hmax": 0.177, "ratio": 0.052, "vulnClass": "low"}}, {"type": "Feature", "geometry": {"type": "MultiPolygon", "coordinates": [[[[72.28574989131066, 34.125361333759805], [72.2858668400709, 34.12535842130845], [72.28586529988951, 34.12531845097558], [72.285701808286, 34.12532258770052], [72.28570599301209, 34.12543239230554], [72.2857524276472, 34.125431165638524], [72.28574989131066, 34.125361333759805]]]]}, "properties": {"id": "Pakistan_123102310_462094", "height": 3.613361358642578, "hmax": 0.0, "ratio": 0.0, "vulnClass": "none"}}, {"type": "Feature", "geometry": {"type": "MultiPolygon", "coordinates": [[[[72.28580862409594, 34.12549416107226], [72.28580784566738, 34.12546087865784], [72.28573810985421, 34.12546195055632], [72.28573888825535, 34.125495232969854], [72.28580862409594, 34.12549416107226]]]]}, "properties": {"id": "Pakistan_123102310_130277", "height": 3.62483811378479, "hmax": 0.0, "ratio": 0.0, "vulnClass": "none"}}, {"type": "Feature", "geometry": {"type": "MultiPolygon", "coordinates": [[[[72.28627484107948, 34.125369157446244], [72.28621699214384, 34.12537139398386], [72.286220168951, 34.12542798803584], [72.28627801792535, 34.125425751498604], [72.28627484107948, 34.125369157446244]]]]}, "properties": {"id": "Pakistan_123102310_718376", "height": 2.720530033111572, "hmax": 0.0, "ratio": 0.0, "vulnClass": "none"}}, {"type": "Feature", "geometry": {"type": "MultiPolygon", "coordinates": [[[[72.286447322427, 34.12542967571349], [72.28644182871342, 34.12530992570669], [72.28636956123599, 34.12531220408052], [72.28637494652328, 34.12543195169018], [72.286447322427, 34.12542967571349]]]]}, "properties": {"id": "Pakistan_123102310_17089", "height": 2.741763591766357, "hmax": 0.0, "ratio": 0.0, "vulnClass": "none"}}, {"type": "Feature", "geometry": {"type": "MultiPolygon", "coordinates": [[[[72.28621178942785, 34.12543240035466], [72.2862140206243, 34.125349061318865], [72.28616136950242, 34.125348077243366], [72.2861590299305, 34.12543141388012], [72.28621178942785, 34.12543240035466]]]]}, "properties": {"id": "Pakistan_123102310_551961", "height": 3.313278198242188, "hmax": 0.0, "ratio": 0.0, "vulnClass": "none"}}, {"type": "Feature", "geometry": {"type": "MultiPolygon", "coordinates": [[[[72.28683083826631, 34.12530437369876], [72.28659755381561, 34.12530119893191], [72.2865966392161, 34.12534336872589], [72.2867013088301, 34.1253447815944], [72.28670116770967, 34.12534919580511], [72.28677354531361, 34.12535025520678], [72.28677242121613, 34.12540576251484], [72.28682876693196, 34.125406467416575], [72.28683083826631, 34.12530437369876]]]]}, "properties": {"id": "Pakistan_123102310_514263", "height": 3.092665195465088, "hmax": 0.0, "ratio": 0.0, "vulnClass": "none"}}, {"type": "Feature", "geometry": {"type": "MultiPolygon", "coordinates": [[[[72.2877650974085, 34.12522432912731], [72.28776532224883, 34.125179980472275], [72.28763667291291, 34.12517930059106], [72.28763723392507, 34.12509051559531], [72.28753968799761, 34.125090072342154], [72.28753982188424, 34.12507231582281], [72.28739599879607, 34.12507157074357], [72.28739542748835, 34.12514710350815], [72.28737667886115, 34.1251469595174], [72.28737610753105, 34.12522249228019], [72.2877650974085, 34.12522432912731]]]]}, "properties": {"id": "Pakistan_123102310_874483", "height": 3.690724849700928, "hmax": 0.0, "ratio": 0.0, "vulnClass": "none"}}, {"type": "Feature", "geometry": {"type": "MultiPolygon", "coordinates": [[[[72.2875312276337, 34.12544976268239], [72.28743193083966, 34.125449821529294], [72.28743190883218, 34.12547425159281], [72.28753120565483, 34.12547419274731], [72.2875312276337, 34.12544976268239]]]]}, "properties": {"id": "Pakistan_123102310_646774", "height": 3.916955471038818, "hmax": 0.0, "ratio": 0.0, "vulnClass": "none"}}, {"type": "Feature", "geometry": {"type": "MultiPolygon", "coordinates": [[[[72.28754389866704, 34.12545013291157], [72.28754650301885, 34.12556197602352], [72.2876403157234, 34.12556053377688], [72.28763767885725, 34.12544292036823], [72.28757867860512, 34.1254438700063], [72.28757882219462, 34.125449552607165], [72.28754389866704, 34.12545013291157]]]]}, "properties": {"id": "Pakistan_123102310_703997", "height": 2.727581024169922, "hmax": 0.0, "ratio": 0.0, "vulnClass": "none"}}, {"type": "Feature", "geometry": {"type": "MultiPolygon", "coordinates": [[[[72.28762796998606, 34.12533290351345], [72.28755292060012, 34.12533403930153], [72.28755403834933, 34.125387252292946], [72.28762908490341, 34.12538620659249], [72.28762796998606, 34.12533290351345]]]]}, "properties": {"id": "Pakistan_123102310_26551", "height": 3.276692390441895, "hmax": 0.0, "ratio": 0.0, "vulnClass": "none"}}, {"type": "Feature", "geometry": {"type": "MultiPolygon", "coordinates": [[[[72.28678175741302, 34.12762626345951], [72.28678404396315, 34.127703932811976], [72.28707355714137, 34.127698163631166], [72.2870712703255, 34.127620494271255], [72.28678175741302, 34.12762626345951]]]]}, "properties": {"id": "Pakistan_123102310_296427", "height": 3.238389253616333, "hmax": 0.0, "ratio": 0.0, "vulnClass": "none"}}]}