{"type": "FeatureCollection", "features": [{"type": "Feature", "geometry": {"type": "MultiPolygon", "coordinates": [[[[72.3168826092657, 34.12707992573162], [72.31688037345448, 34.12705120901016], [72.31683758941035, 34.12705351894768], [72.31683993353577, 34.12708223803786], [72.3168826092657, 34.12707992573162]]]]}, "properties": {"id": "Pakistan_123102310_926664", "height": 3.764295816421509, "hmax": 0.0, "ratio": 0.0, "vulnClass": "none"}}, {"type": "Feature", "geometry": {"type": "MultiPolygon", "coordinates": [[[[72.31669763212867, 34.127070922807675], [72.31669867721058, 34.12702758330711], [72.31658719278714, 34.127025596244344], [72.31658652926069, 34.127053438214155], [72.31648728880104, 34.12705162865142], [72.31648599863007, 34.12710271572331], [72.31659325832499, 34.12710461049743], [72.3165941639722, 34.1270691110367], [72.31669763212867, 34.127070922807675]]]]}, "properties": {"id": "Pakistan_123102310_101220", "height": 3.037792921066284, "hmax": 0.0, "ratio": 0.0, "vulnClass": "none"}}, {"type": "Feature", "geometry": {"type": "MultiPolygon", "coordinates": [[[[72.31588736479985, 34.12737783405616], [72.31588605265907, 34.12733020594658], [72.3158350696607, 34.127331254387485], [72.31583649295114, 34.127378794777734], [72.31588736479985, 34.12737783405616]]]]}, "properties": {"id": "Pakistan_123102310_561613", "height": 4.955646991729736, "hmax": 0.0, "ratio": 0.0, "vulnClass": "none"}}, {"type": "Feature", "geometry": {"type": "MultiPolygon", "coordinates": [[[[72.31617431072182, 34.127069304913384], [72.3161783748186, 34.12701620505764], [72.31612231473828, 34.12701326611653], [72.31611814227814, 34.127066363599496], [72.31617431072182, 34.127069304913384]]]]}, "properties": {"id": "Pakistan_123102310_348791", "height": 2.756028890609741, "hmax": 0.0, "ratio": 0.0, "vulnClass": "none"}}, {"type": "Feature", "geometry": {"type": "MultiPolygon", "coordinates": [[[[72.31657716536196, 34.12697245867519], [72.31657849845591, 34.12693029743018], [72.31639521231237, 34.126926109007954], [72.31639377364777, 34.1269681777895], [72.31657716536196, 34.12697245867519]]]]}, "properties": {"id": "Pakistan_123102310_149747", "height": 2.669567823410034, "hmax": 0.0, "ratio": 0.0, "vulnClass": "none"}}, {"type": "Feature", "geometry": {"type": "MultiPolygon", "coordinates": [[[[72.31620316313627, 34.12692821949037], [72.31619816215536, 34.126890968148], [72.31613086469319, 34.12689715908815], [72.31613586564453, 34.12693441043182], [72.31620316313627, 34.12692821949037]]]]}, "properties": {"id": "Pakistan_123102310_177242", "height": 5.394241809844971, "hmax": 0.0, "ratio": 0.0, "vulnClass": "none"}}, {"type": "Feature", "geometry": {"type": "MultiPolygon", "coordinates": [[[[72.31608721341063, 34.12571343096031], [72.31596118646891, 34.12571202681611], [72.31596214606888, 34.12565426138719], [72.31590677111208, 34.125653681266186], [72.31590406876862, 34.125817966365474], [72.31608546808336, 34.125820040734446], [72.31608721341063, 34.12571343096031]]]]}, "properties": {"id": "Pakistan_123102310_519233", "height": 3.915805339813232, "hmax": 0.0, "ratio": 0.0, "vulnClass": "none"}}, {"type": "Feature", "geometry": {"type": "MultiPolygon", "coordinates": [[[[72.31559485232053, 34.125627746552404], [72.31559660634208, 34.12568539103185], [72.31575476059027, 34.12568208927305], [72.31575300931019, 34.12562435470263], [72.31559485232053, 34.125627746552404]]]]}, "properties": {"id": "Pakistan_123102310_310891", "height": 3.996057748794556, "hmax": 0.0, "ratio": 0.0, "vulnClass": "none"}}, {"type": "Feature", "geometry": {"type": "MultiPolygon", "coordinates": [[[[72.31592931694748, 34.125478921985454], [72.31593073172063, 34.12552330693545], [72.31598703303494, 34.125522014145695], [72.3159879629195, 34.12555088261811], [72.31609253801433, 34.12554848199341], [72.31608915214076, 34.12544644781323], [72.31614545340658, 34.125445154948174], [72.31614002219628, 34.125280962390505], [72.3160864348968, 34.125282134311924], [72.31609030286317, 34.12539977506119], [72.31576866174798, 34.12540707397996], [72.31577115452242, 34.12548249425219], [72.31592931694748, 34.125478921985454]]]]}, "properties": {"id": "Pakistan_123102310_931402", "height": 3.34764289855957, "hmax": 0.0, "ratio": 0.0, "vulnClass": "none"}}, {"type": "Feature", "geometry": {"type": "MultiPolygon", "coordinates": [[[[72.31578293954628, 34.12516127564721], [72.31578703241436, 34.12528550229662], [72.31601754787097, 34.12528035722144], [72.31601553979596, 34.125220453420766], [72.31598343248032, 34.1252211034397], [72.315981239047, 34.125156778213814], [72.31578293954628, 34.12516127564721]]]]}, "properties": {"id": "Pakistan_123102310_822624", "height": 4.331408500671387, "hmax": 0.0, "ratio": 0.0, "vulnClass": "none"}}, {"type": "Feature", "geometry": {"type": "MultiPolygon", "coordinates": [[[[72.31584689258682, 34.12504142218027], [72.31584538413782, 34.12501713872299], [72.31568853109437, 34.125023894809765], [72.3156900394983, 34.12504817826682], [72.31584689258682, 34.12504142218027]]]]}, "properties": {"id": "Pakistan_123102310_234739", "height": 2.860878705978394, "hmax": 0.0, "ratio": 0.0, "vulnClass": "none"}}, {"type": "Feature", "geometry": {"type": "MultiPolygon", "coordinates": [[[[72.31610294619047, 34.125013666853945], [72.31610221459144, 34.1249271064415], [72.31558461657798, 34.124930028913134], [72.31558510494266, 34.124989989621994], [72.31555659242102, 34.12499008711392], [72.31555809453275, 34.12517222380665], [72.31562520828159, 34.12517179875349], [72.31562416027641, 34.12505412953816], [72.31568324925858, 34.12505379936329], [72.31568292652392, 34.12501601927912], [72.31610294619047, 34.125013666853945]]]]}, "properties": {"id": "Pakistan_123102310_751775", "height": 3.282409906387329, "hmax": 0.0, "ratio": 0.0, "vulnClass": "none"}}, {"type": "Feature", "geometry": {"type": "MultiPolygon", "coordinates": [[[[72.31329085088497, 34.124824028570245], [72.3133026629132, 34.124680317060786], [72.31336401495501, 34.12468382385976], [72.31336666357927, 34.12465151786758], [72.31323854613528, 34.124644295572864], [72.3132284760315, 34.12476722048057], [72.31314667039238, 34.12476263473587], [72.31314238795868, 34.124815729679476], [72.31329085088497, 34.124824028570245]]]]}, "properties": {"id": "Pakistan_123102310_414821", "height": 2.84758472442627, "hmax": 0.0, "ratio": 0.0, "vulnClass": "none"}}, {"type": "Feature", "geometry": {"type": "MultiPolygon", "coordinates": [[[[72.31485007475449, 34.12386496863819], [72.31490096730184, 34.12386671323696], [72.31490567864472, 34.1237691834283], [72.31485478615551, 34.12376743883426], [72.31485007475449, 34.12386496863819]]]]}, "properties": {"id": "Pakistan_123102310_931398", "height": 4.211009979248047, "hmax": 0.0, "ratio": 0.0, "vulnClass": "none"}}, {"type": "Feature", "geometry": {"type": "MultiPolygon", "coordinates": [[[[72.31566773731124, 34.12392306390301], [72.31566944561102, 34.12396844693589], [72.31589185021681, 34.12396258368539], [72.31589003347308, 34.12391719828061], [72.31566773731124, 34.12392306390301]]]]}, "properties": {"id": "Pakistan_123102310_281907", "height": 2.654746532440186, "hmax": 0.0, "ratio": 0.0, "vulnClass": "none"}}, {"type": "Feature", "geometry": {"type": "MultiPolygon", "coordinates": [[[[72.31601289362995, 34.12365186816633], [72.3160108796752, 34.12358529309291], [72.31603496183357, 34.1235847379857], [72.31603179259285, 34.12348270852016], [72.3159754954825, 34.12348391130737], [72.31597829381822, 34.12357367220039], [72.31571665978447, 34.12357921846335], [72.31571915263146, 34.12365806446965], [72.31601289362995, 34.12365186816633]]]]}, "properties": {"id": "Pakistan_123102310_907783", "height": 2.868620872497559, "hmax": 0.0, "ratio": 0.0, "vulnClass": "none"}}, {"type": "Feature", "geometry": {"type": "MultiPolygon", "coordinates": [[[[72.31618267060637, 34.12310602409868], [72.31652744155534, 34.123100581893944], [72.31652552373158, 34.12302066664771], [72.31618086143159, 34.1230261112316], [72.31618267060637, 34.12310602409868]]]]}, "properties": {"id": "Pakistan_123102310_280998", "height": 2.831893444061279, "hmax": 0.0, "ratio": 0.0, "vulnClass": "none"}}, {"type": "Feature", "geometry": {"type": "MultiPolygon", "coordinates": [[[[72.31639469098582, 34.12298967876551], [72.31639229228554, 34.122938691301556], [72.31635214426382, 34.122939976962094], [72.31635454293989, 34.12299096442567], [72.31639469098582, 34.12298967876551]]]]}, "properties": {"id": "Pakistan_123102310_344041", "height": 3.839818954467773, "hmax": 0.0, "ratio": 0.0, "vulnClass": "none"}}, {"type": "Feature", "geometry": {"type": "MultiPolygon", "coordinates": [[[[72.31741110053339, 34.12215411912788], [72.31741070882944, 34.122197382804174], [72.31757164471155, 34.122198466555126], [72.31757325403119, 34.122027486228475], [72.31751960884311, 34.12202712500747], [72.31751839391168, 34.12215475156072], [72.31741110053339, 34.12215411912788]]]]}, "properties": {"id": "Pakistan_123102310_206527", "height": 3.229212284088135, "hmax": 0.0, "ratio": 0.0, "vulnClass": "none"}}, {"type": "Feature", "geometry": {"type": "MultiPolygon", "coordinates": [[[[72.317100588287, 34.12287971374673], [72.31709957197272, 34.12283641929745], [72.31691997210324, 34.12283934421263], [72.31692309492018, 34.122970310977976], [72.3169686448975, 34.12296959398572], [72.31696653825583, 34.12288192166528], [72.317100588287, 34.12287971374673]]]]}, "properties": {"id": "Pakistan_123102310_945555", "height": 4.65504789352417, "hmax": 0.0, "ratio": 0.0, "vulnClass": "none"}}, {"type": "Feature", "geometry": {"type": "MultiPolygon", "coordinates": [[[[72.31710373405697, 34.12284191931718], [72.31710557970601, 34.122879552416975], [72.31716721275558, 34.1228775642453], [72.31716536992656, 34.1228398410569], [72.31710373405697, 34.12284191931718]]]]}, "properties": {"id": "Pakistan_123102310_936159", "height": 2.878483295440674, "hmax": 0.0, "ratio": 0.0, "vulnClass": "none"}}, {"type": "Feature", "geometry": {"type": "MultiPolygon", "coordinates": [[[[72.3175209335849, 34.12308281626955], [72.3175207879947, 34.12300510336463], [72.31745368728767, 34.12300516918471], [72.31745376005262, 34.12304402563585], [72.31723381480093, 34.123044175921976], [72.3172337495682, 34.122974217721385], [72.31709423467902, 34.1229744131495], [72.3170942553184, 34.1229943368566], [72.31691463507, 34.122994466645025], [72.31691475195908, 34.12308335756756], [72.3175209335849, 34.12308281626955]]]]}, "properties": {"id": "Pakistan_123102310_827347", "height": 5.89931583404541, "hmax": 0.0, "ratio": 0.0, "vulnClass": "none"}}, {"type": "Feature", "geometry": {"type": "MultiPolygon", "coordinates": [[[[72.31739205755154, 34.122201031874184], [72.31739173263814, 34.12227648073685], [72.31786917873522, 34.12227790140332], [72.31786950607069, 34.122202362430855], [72.31739205755154, 34.122201031874184]]]]}, "properties": {"id": "Pakistan_123102310_168739", "height": 2.705011367797852, "hmax": 0.0, "ratio": 0.0, "vulnClass": "none"}}, {"type": "Feature", "geometry": {"type": "MultiPolygon", "coordinates": [[[[72.3164584989064, 34.120923382820756], [72.31644496843901, 34.120861063421806], [72.31638136734576, 34.12087049072259], [72.31639478659805, 34.12093289784586], [72.3164584989064, 34.120923382820756]]]]}, "properties": {"id": "Pakistan_123102310_120532", "height": 6.368528366088867, "hmax": 0.0, "ratio": 0.0, "vulnClass": "none"}}, {"type": "Feature", "geometry": {"type": "MultiPolygon", "coordinates": [[[[72.3163161395824, 34.12081136805194], [72.31629362404311, 34.12073839469993], [72.31607712091645, 34.12078414432534], [72.31609383496183, 34.12083832968814], [72.3161593087494, 34.12082452611729], [72.31616500175697, 34.120843311766194], [72.3163161395824, 34.12081136805194]]]]}, "properties": {"id": "Pakistan_123102310_16254", "height": 2.811378002166748, "hmax": 0.0, "ratio": 0.0, "vulnClass": "none"}}, {"type": "Feature", "geometry": {"type": "MultiPolygon", "coordinates": [[[[72.31270265714038, 34.12106161578162], [72.31272272352666, 34.120787276812166], [72.31267726891062, 34.12078501938], [72.31267359660661, 34.120835964082715], [72.31262273165146, 34.12083340785651], [72.31260644561185, 34.1210568044678], [72.31270265714038, 34.12106161578162]]]]}, "properties": {"id": "Pakistan_123102310_509680", "height": 3.207168102264404, "hmax": 0.0, "ratio": 0.0, "vulnClass": "none"}}, {"type": "Feature", "geometry": {"type": "MultiPolygon", "coordinates": [[[[72.31283487269317, 34.119483904021855], [72.31283949176924, 34.11960507714876], [72.31301783886246, 34.1196004177578], [72.31301358714738, 34.119488177564335], [72.31292246255674, 34.11949050964955], [72.31292209209838, 34.11948166679874], [72.31283487269317, 34.119483904021855]]]]}, "properties": {"id": "Pakistan_123102310_737541", "height": 3.592399597167969, "hmax": 0.0, "ratio": 0.0, "vulnClass": "none"}}, {"type": "Feature", "geometry": {"type": "MultiPolygon", "coordinates": [[[[72.31267702057912, 34.11931709512142], [72.3128175753177, 34.11931124786376], [72.31281467130704, 34.11926259321058], [72.31267401118275, 34.119268348008994], [72.31267702057912, 34.11931709512142]]]]}, "properties": {"id": "Pakistan_123102310_846233", "height": 3.209244728088379, "hmax": 0.0, "ratio": 0.0, "vulnClass": "none"}}, {"type": "Feature", "geometry": {"type": "MultiPolygon", "coordinates": [[[[72.31365448729858, 34.119222020363985], [72.31359290256398, 34.1192225654858], [72.31359403953053, 34.119320223284056], [72.31365573265465, 34.11931968053606], [72.31365448729858, 34.119222020363985]]]]}, "properties": {"id": "Pakistan_123102310_813156", "height": 2.707063674926758, "hmax": 0.0, "ratio": 0.0, "vulnClass": "none"}}, {"type": "Feature", "geometry": {"type": "MultiPolygon", "coordinates": [[[[72.31329281495171, 34.11921743878879], [72.31332112596853, 34.11921679646], [72.3133223172058, 34.11925450541299], [72.31340930834479, 34.11925262344087], [72.31340837926025, 34.11922375496775], [72.31334676887153, 34.11922511075786], [72.31334577140485, 34.11919497868184], [72.31340467096128, 34.1191936536995], [72.31340243090074, 34.11912400853711], [72.31328983971572, 34.11912650203379], [72.31329281495171, 34.11921743878879]]]]}, "properties": {"id": "Pakistan_123102310_571134", "height": 2.69825005531311, "hmax": 0.0, "ratio": 0.0, "vulnClass": "none"}}, {"type": "Feature", "geometry": {"type": "MultiPolygon", "coordinates": [[[[72.31341386340125, 34.11925596857023], [72.31332001683413, 34.119258692123765], [72.31332644644885, 34.11941172798619], [72.313507196124, 34.11940648941458], [72.31349603777555, 34.11914255516967], [72.3135404112399, 34.11914127274335], [72.31353907735989, 34.11910806818835], [72.31340780128, 34.11911186564213], [72.31341386340125, 34.11925596857023]]]]}, "properties": {"id": "Pakistan_123102310_737545", "height": 3.839282274246216, "hmax": 0.0, "ratio": 0.0, "vulnClass": "none"}}, {"type": "Feature", "geometry": {"type": "MultiPolygon", "coordinates": [[[[72.31411386065727, 34.11559026650061], [72.31411662782045, 34.11548908806528], [72.31404253554336, 34.11548764690904], [72.31404102509633, 34.11554224504489], [72.31395425721672, 34.115540616583104], [72.3139530716165, 34.11558494467098], [72.31397711728513, 34.115585470916635], [72.31397495699238, 34.11566403485489], [72.31408490703153, 34.11566608048243], [72.31408699882475, 34.1155896786521], [72.31411386065727, 34.11559026650061]]]]}, "properties": {"id": "Pakistan_123102310_784891", "height": 2.663904666900635, "hmax": 0.0, "ratio": 0.0, "vulnClass": "none"}}, {"type": "Feature", "geometry": {"type": "MultiPolygon", "coordinates": [[[[72.31541101684425, 34.11576297764336], [72.31536613049097, 34.11582852689233], [72.31596809153352, 34.11611070182777], [72.31601297760125, 34.116045152346075], [72.31541101684425, 34.11576297764336]]]]}, "properties": {"id": "Pakistan_123102310_443114", "height": 2.976895809173584, "hmax": 0.0, "ratio": 0.0, "vulnClass": "none"}}, {"type": "Feature", "geometry": {"type": "MultiPolygon", "coordinates": [[[[72.31624442222747, 34.11583150831586], [72.31608453124848, 34.11576003841564], [72.316043068645, 34.11582358933468], [72.31620284853929, 34.11589514701209], [72.31624442222747, 34.11583150831586]]]]}, "properties": {"id": "Pakistan_123102310_168719", "height": 2.724239587783813, "hmax": 0.0, "ratio": 0.0, "vulnClass": "none"}}, {"type": "Feature", "geometry": {"type": "MultiPolygon", "coordinates": [[[[72.31603573752068, 34.11562004941133], [72.31619737220814, 34.11567749401449], [72.31618375106682, 34.11570379056794], [72.31637164396096, 34.11577064389115], [72.3164348926398, 34.115648791055676], [72.31624699995238, 34.11558193783869], [72.31622322357016, 34.11562775530438], [72.3160615889553, 34.11557031073858], [72.31603573752068, 34.11562004941133]]]]}, "properties": {"id": "Pakistan_123102310_63032", "height": 2.792011976242065, "hmax": 0.0, "ratio": 0.0, "vulnClass": "none"}}, {"type": "Feature", "geometry": {"type": "MultiPolygon", "coordinates": [[[[72.31561414300772, 34.11564283253659], [72.3158786344565, 34.11575526523677], [72.31585351230954, 34.115795644160116], [72.31599789681661, 34.11585703899477], [72.31606824945695, 34.115743635569025], [72.31594728683794, 34.11569221884407], [72.31596738962189, 34.11565975352834], [72.3159037544166, 34.115632668975984], [72.31588948322059, 34.11565552555817], [72.31566542203582, 34.115560204254166], [72.31561414300772, 34.11564283253659]]]]}, "properties": {"id": "Pakistan_123102310_656470", "height": 3.940608501434326, "hmax": 0.0, "ratio": 0.0, "vulnClass": "none"}}, {"type": "Feature", "geometry": {"type": "MultiPolygon", "coordinates": [[[[72.31446547656154, 34.11478146773022], [72.31450762172818, 34.11478888073464], [72.31450020545157, 34.11481774692345], [72.31455399144687, 34.11482721763097], [72.31458449442073, 34.114709246975266], [72.31454601482204, 34.1147024551047], [72.31456083591594, 34.11464508306996], [72.31450327903623, 34.114634898805605], [72.31446547656154, 34.11478146773022]]]]}, "properties": {"id": "Pakistan_123102310_936146", "height": 2.698288440704346, "hmax": 0.0, "ratio": 0.0, "vulnClass": "none"}}, {"type": "Feature", "geometry": {"type": "MultiPolygon", "coordinates": [[[[72.31719532903529, 34.115179504168914], [72.31706157557682, 34.11516585249135], [72.31705413532316, 34.11521608401544], [72.31718777769827, 34.11522982342547], [72.31719532903529, 34.115179504168914]]]]}, "properties": {"id": "Pakistan_123102310_666155", "height": 2.477116584777832, "hmax": 0.052, "ratio": 0.021, "vulnClass": "none"}}, {"type": "Feature", "geometry": {"type": "MultiPolygon", "coordinates": [[[[72.31480148274203, 34.11302998274856], [72.31480232427505, 34.11307534687596], [72.31500877006302, 34.11307283151261], [72.3150080367301, 34.113027469750726], [72.31480148274203, 34.11302998274856]]]]}, "properties": {"id": "Pakistan_123102310_362884", "height": 3.933409214019775, "hmax": 0.0, "ratio": 0.0, "vulnClass": "none"}}, {"type": "Feature", "geometry": {"type": "MultiPolygon", "coordinates": [[[[72.31478987146147, 34.113266914761226], [72.31479148679956, 34.11321583475214], [72.31472985791322, 34.113214486432355], [72.31472824253815, 34.11326556643886], [72.31478987146147, 34.113266914761226]]]]}, "properties": {"id": "Pakistan_123102310_646915", "height": 3.023068428039551, "hmax": 0.0, "ratio": 0.0, "vulnClass": "none"}}, {"type": "Feature", "geometry": {"type": "MultiPolygon", "coordinates": [[[[72.31466738582252, 34.113041022280086], [72.31467010621931, 34.11312978991661], [72.31486044800972, 34.11312584066389], [72.31485903355627, 34.113081455658296], [72.31479883849588, 34.11308275310916], [72.3147975352334, 34.11303828038555], [72.31466738582252, 34.113041022280086]]]]}, "properties": {"id": "Pakistan_123102310_148822", "height": 3.933409214019775, "hmax": 0.0, "ratio": 0.0, "vulnClass": "none"}}, {"type": "Feature", "geometry": {"type": "MultiPolygon", "coordinates": [[[[72.30443155633672, 34.11308601688086], [72.30461866383529, 34.113095174461506], [72.30462216050095, 34.1130464799662], [72.30443505310869, 34.11303732239595], [72.30443155633672, 34.11308601688086]]]]}, "properties": {"id": "Pakistan_123102310_252520", "height": 2.918566226959229, "hmax": 0.0, "ratio": 0.0, "vulnClass": "none"}}, {"type": "Feature", "geometry": {"type": "MultiPolygon", "coordinates": [[[[72.30446432614154, 34.11316336428393], [72.30446183598926, 34.11320766351474], [72.30451801739453, 34.11320988901518], [72.3045205103775, 34.113165499694375], [72.30446432614154, 34.11316336428393]]]]}, "properties": {"id": "Pakistan_123102310_301202", "height": 2.959768772125244, "hmax": 0.0, "ratio": 0.0, "vulnClass": "none"}}, {"type": "Feature", "geometry": {"type": "MultiPolygon", "coordinates": [[[[72.30716167167986, 34.11461377343188], [72.30724470931581, 34.11462361866626], [72.30726856531707, 34.1144865726943], [72.30742621492936, 34.11450535691002], [72.30743190937856, 34.11447275727368], [72.30744767433855, 34.11447463568327], [72.30745788271282, 34.11441590133142], [72.30735011899459, 34.11440307972764], [72.30735581632011, 34.11437039000778], [72.30725863293921, 34.11435888224861], [72.30725028936104, 34.11440665915658], [72.30719878181118, 34.114400570819186], [72.30716167167986, 34.11461377343188]]]]}, "properties": {"id": "Pakistan_123102310_860344", "height": 3.716715812683105, "hmax": 0.0, "ratio": 0.0, "vulnClass": "none"}}, {"type": "Feature", "geometry": {"type": "MultiPolygon", "coordinates": [[[[72.30760078431256, 34.1143597173156], [72.30749776871626, 34.11435439232725], [72.30749309546017, 34.114416313222414], [72.30759611113082, 34.114421638218225], [72.30760078431256, 34.1143597173156]]]]}, "properties": {"id": "Pakistan_123102310_101120", "height": 3.274942636489868, "hmax": 0.188, "ratio": 0.058, "vulnClass": "low"}}, {"type": "Feature", "geometry": {"type": "MultiPolygon", "coordinates": [[[[72.30762929879653, 34.11444147811451], [72.30753611734937, 34.114426812950065], [72.30750416672616, 34.1145662056187], [72.3075974594862, 34.114580783102596], [72.30762929879653, 34.11444147811451]]]]}, "properties": {"id": "Pakistan_123102310_737503", "height": 3.406121492385864, "hmax": 0.0, "ratio": 0.0, "vulnClass": "none"}}, {"type": "Feature", "geometry": {"type": "MultiPolygon", "coordinates": [[[[72.30724055785858, 34.114604145268736], [72.30723574673479, 34.11467724175963], [72.30738012933536, 34.11468374497484], [72.30738494033591, 34.11461064847241], [72.30724055785858, 34.114604145268736]]]]}, "properties": {"id": "Pakistan_123102310_888818", "height": 3.824955463409424, "hmax": 0.0, "ratio": 0.0, "vulnClass": "none"}}, {"type": "Feature", "geometry": {"type": "MultiPolygon", "coordinates": [[[[72.30765276264111, 34.114562884403696], [72.30759860690625, 34.11455827069492], [72.30758525415503, 34.11466489604777], [72.30773388619691, 34.11467753213732], [72.30774391062529, 34.1145972477977], [72.30764943447218, 34.11458922543784], [72.30765276264111, 34.114562884403696]]]]}, "properties": {"id": "Pakistan_123102310_499957", "height": 3.038893938064575, "hmax": 0.0, "ratio": 0.0, "vulnClass": "none"}}, {"type": "Feature", "geometry": {"type": "MultiPolygon", "coordinates": [[[[72.30742171646247, 34.11467113478981], [72.30747900734342, 34.114679423369346], [72.30748985939564, 34.11462773486158], [72.30743267685985, 34.114619448664854], [72.30742171646247, 34.11467113478981]]]]}, "properties": {"id": "Pakistan_123102310_798925", "height": 2.777905225753784, "hmax": 0.0, "ratio": 0.0, "vulnClass": "none"}}, {"type": "Feature", "geometry": {"type": "MultiPolygon", "coordinates": [[[[72.30778052890992, 34.11492592774331], [72.30777366839122, 34.115046578674985], [72.30785550700531, 34.11504981623314], [72.30786237026496, 34.11492907520371], [72.30778052890992, 34.11492592774331]]]]}, "properties": {"id": "Pakistan_123102310_111721", "height": 2.924661874771118, "hmax": 0.0, "ratio": 0.0, "vulnClass": "none"}}, {"type": "Feature", "geometry": {"type": "MultiPolygon", "coordinates": [[[[72.30815059021144, 34.11475076906021], [72.3081402374772, 34.11480039512959], [72.30821317670316, 34.114810829583305], [72.30823835559328, 34.11469012960969], [72.30794045112677, 34.11464744541246], [72.30792551352467, 34.114718606973376], [72.30815059021144, 34.11475076906021]]]]}, "properties": {"id": "Pakistan_123102310_433668", "height": 3.033548355102539, "hmax": 0.0, "ratio": 0.0, "vulnClass": "none"}}, {"type": "Feature", "geometry": {"type": "MultiPolygon", "coordinates": [[[[72.30801826761461, 34.11473650788924], [72.3079174122729, 34.114727985212035], [72.30788813488543, 34.114964258066266], [72.30798899050178, 34.11497278078056], [72.30801826761461, 34.11473650788924]]]]}, "properties": {"id": "Pakistan_123102310_476527", "height": 3.684648513793945, "hmax": 0.0, "ratio": 0.0, "vulnClass": "none"}}, {"type": "Feature", "geometry": {"type": "MultiPolygon", "coordinates": [[[[72.30831893398224, 34.114281802932084], [72.30826272308924, 34.114280480011445], [72.30826134958906, 34.114320386487265], [72.30831766882011, 34.11432171178517], [72.30831893398224, 34.114281802932084]]]]}, "properties": {"id": "Pakistan_123102310_627996", "height": 2.485772848129272, "hmax": 0.086, "ratio": 0.035, "vulnClass": "none"}}, {"type": "Feature", "geometry": {"type": "MultiPolygon", "coordinates": [[[[72.30926636188843, 34.11430861732671], [72.30944456886817, 34.1143148679762], [72.30944818645733, 34.11424517089489], [72.30937164148243, 34.114242501220296], [72.30937693099757, 34.114140566962696], [72.30930341884589, 34.11413796373423], [72.30929805787174, 34.114242150178924], [72.3092697999393, 34.11424117007744], [72.30926636188843, 34.11430861732671]]]]}, "properties": {"id": "Pakistan_123102310_452614", "height": 2.671428442001343, "hmax": 0.166, "ratio": 0.062, "vulnClass": "low"}}, {"type": "Feature", "geometry": {"type": "MultiPolygon", "coordinates": [[[[72.30994978456415, 34.11410543431594], [72.30993327092334, 34.114147713507315], [72.31016487598376, 34.11420985474029], [72.3101861044155, 34.11415559869091], [72.31012054801737, 34.11413793489167], [72.31011583026553, 34.11415000179886], [72.30994978456415, 34.11410543431594]]]]}, "properties": {"id": "Pakistan_123102310_35074", "height": 3.67346715927124, "hmax": 0.0, "ratio": 0.0, "vulnClass": "none"}}, {"type": "Feature", "geometry": {"type": "MultiPolygon", "coordinates": [[[[72.31007197243619, 34.11408377171209], [72.31006916020883, 34.11412806406837], [72.31012793061005, 34.114130704357876], [72.31013085111859, 34.11408641437257], [72.31007197243619, 34.11408377171209]]]]}, "properties": {"id": "Pakistan_123102310_514385", "height": 3.37646222114563, "hmax": 0.0, "ratio": 0.0, "vulnClass": "none"}}, {"type": "Feature", "geometry": {"type": "MultiPolygon", "coordinates": [[[[72.31022447094439, 34.11419331102268], [72.31018448177456, 34.1141760272682], [72.31012161699978, 34.114275257360404], [72.31016160334683, 34.1142926312246], [72.31022447094439, 34.11419331102268]]]]}, "properties": {"id": "Pakistan_123102310_680420", "height": 3.091859340667725, "hmax": 0.0, "ratio": 0.0, "vulnClass": "none"}}, {"type": "Feature", "geometry": {"type": "MultiPolygon", "coordinates": [[[[72.31157402786435, 34.114442215610104], [72.31102755815104, 34.11445873181887], [72.31102663531725, 34.114436534599726], [72.31081768099769, 34.11444286466403], [72.31082115582554, 34.11452137165099], [72.31081041579945, 34.11452167723264], [72.31081406147834, 34.114605056084116], [72.3110593607338, 34.11459762915249], [72.31105721874755, 34.11454890100329], [72.31157797625153, 34.11453317372537], [72.31157402786435, 34.114442215610104]]]]}, "properties": {"id": "Pakistan_123102310_747084", "height": 3.367812156677246, "hmax": 0.0, "ratio": 0.0, "vulnClass": "none"}}, {"type": "Feature", "geometry": {"type": "MultiPolygon", "coordinates": [[[[72.31128207082938, 34.11460187717917], [72.31127588718459, 34.11475265350834], [72.31132949047353, 34.114754188382804], [72.31133567402354, 34.114603412046414], [72.31128207082938, 34.11460187717917]]]]}, "properties": {"id": "Pakistan_123102310_917314", "height": 3.706948757171631, "hmax": 0.0, "ratio": 0.0, "vulnClass": "none"}}, {"type": "Feature", "geometry": {"type": "MultiPolygon", "coordinates": [[[[72.3123129034285, 34.114384023909274], [72.31222972842457, 34.114371654881616], [72.31222045564273, 34.11441463387864], [72.31230363068659, 34.11442700291445], [72.3123129034285, 34.114384023909274]]]]}, "properties": {"id": "Pakistan_123102310_310871", "height": 2.871228456497192, "hmax": 0.0, "ratio": 0.0, "vulnClass": "none"}}, {"type": "Feature", "geometry": {"type": "MultiPolygon", "coordinates": [[[[72.31209434254157, 34.11445072688491], [72.31222302601131, 34.11445327455714], [72.31222460309462, 34.1144000301819], [72.31209592255728, 34.11439739242718], [72.31209434254157, 34.11445072688491]]]]}, "properties": {"id": "Pakistan_123102310_533203", "height": 4.737824440002441, "hmax": 0.0, "ratio": 0.0, "vulnClass": "none"}}, {"type": "Feature", "geometry": {"type": "MultiPolygon", "coordinates": [[[[72.31101932162949, 34.114896772495015], [72.31102347504155, 34.11497439284017], [72.31134738497902, 34.11496264754364], [72.31134480958134, 34.11491390990271], [72.31127894393575, 34.11491625332079], [72.31127065946653, 34.114760291920405], [72.31119459259331, 34.114763042870415], [72.31120140411888, 34.11489021402293], [72.31101932162949, 34.114896772495015]]]]}, "properties": {"id": "Pakistan_123102310_547281", "height": 2.964900732040405, "hmax": 0.0, "ratio": 0.0, "vulnClass": "none"}}, {"type": "Feature", "geometry": {"type": "MultiPolygon", "coordinates": [[[[72.31075779530691, 34.11479710569857], [72.31075529123554, 34.11475639300149], [72.31056806414156, 34.11476455094217], [72.31057056526923, 34.11480535372658], [72.31075779530691, 34.11479710569857]]]]}, "properties": {"id": "Pakistan_123102310_253575", "height": 3.123247146606445, "hmax": 0.0, "ratio": 0.0, "vulnClass": "none"}}, {"type": "Feature", "geometry": {"type": "MultiPolygon", "coordinates": [[[[72.31028380064606, 34.114838645617446], [72.31029042160962, 34.11492046696478], [72.31023015968721, 34.11492383412736], [72.31023302282748, 34.114960047177945], [72.31072966933296, 34.11493225591978], [72.31072524179586, 34.11487698686324], [72.3105409787023, 34.11488737331039], [72.31053614955262, 34.114827678080204], [72.31054570673955, 34.11482707615302], [72.3105393761002, 34.114749768693834], [72.31042721538728, 34.114755965306976], [72.3104333151589, 34.114830292747214], [72.31028380064606, 34.114838645617446]]]]}, "properties": {"id": "Pakistan_123102310_120462", "height": 3.870847940444946, "hmax": 0.0, "ratio": 0.0, "vulnClass": "none"}}, {"type": "Feature", "geometry": {"type": "MultiPolygon", "coordinates": [[[[72.31062036150612, 34.11469781366108], [72.31059117642003, 34.11463370826733], [72.31053337685546, 34.1146517339051], [72.31056266736103, 34.11471593177193], [72.31062036150612, 34.11469781366108]]]]}, "properties": {"id": "Pakistan_123102310_571124", "height": 3.414405345916748, "hmax": 0.0, "ratio": 0.0, "vulnClass": "none"}}, {"type": "Feature", "geometry": {"type": "MultiPolygon", "coordinates": [[[[72.30871208765122, 34.11469790409182], [72.3088513764135, 34.11471466116897], [72.30885786012546, 34.11467766139222], [72.3087843279481, 34.11466883702768], [72.3087945354374, 34.11461010252301], [72.30872888441134, 34.11460226229083], [72.30871208765122, 34.11469790409182]]]]}, "properties": {"id": "Pakistan_123102310_670819", "height": 2.569185256958008, "hmax": 0.0, "ratio": 0.0, "vulnClass": "none"}}, {"type": "Feature", "geometry": {"type": "MultiPolygon", "coordinates": [[[[72.30911662233372, 34.115459529424875], [72.30907178655292, 34.11545494038814], [72.30907758629175, 34.115415581697036], [72.30901686847636, 34.11540938232], [72.30900709388249, 34.11547497775632], [72.30911275585095, 34.11548576855392], [72.30911662233372, 34.115459529424875]]]]}, "properties": {"id": "Pakistan_123102310_91570", "height": 2.494526863098145, "hmax": 0.0, "ratio": 0.0, "vulnClass": "none"}}, {"type": "Feature", "geometry": {"type": "MultiPolygon", "coordinates": [[[[72.3092158185131, 34.11549307656066], [72.30913116200318, 34.11545903684999], [72.30910687193698, 34.1155004242066], [72.30919152847613, 34.11553446393535], [72.3092158185131, 34.11549307656066]]]]}, "properties": {"id": "Pakistan_123102310_855705", "height": 2.494526863098145, "hmax": 0.0, "ratio": 0.0, "vulnClass": "none"}}, {"type": "Feature", "geometry": {"type": "MultiPolygon", "coordinates": [[[[72.31082493916313, 34.11544225071495], [72.31095633754535, 34.115444678941245], [72.31095793567412, 34.11538395258823], [72.31082653738568, 34.11538152436813], [72.31082493916313, 34.11544225071495]]]]}, "properties": {"id": "Pakistan_123102310_367630", "height": 3.198888778686523, "hmax": 0.0, "ratio": 0.0, "vulnClass": "none"}}, {"type": "Feature", "geometry": {"type": "MultiPolygon", "coordinates": [[[[72.31088498094188, 34.11650328408448], [72.31088379074377, 34.116465575146435], [72.31095353409303, 34.11646403813688], [72.31095133876501, 34.116393041683814], [72.31077172442824, 34.11639685911792], [72.31077510975473, 34.11650556450373], [72.31088498094188, 34.11650328408448]]]]}, "properties": {"id": "Pakistan_123102310_26789", "height": 3.60297966003418, "hmax": 0.0, "ratio": 0.0, "vulnClass": "none"}}, {"type": "Feature", "geometry": {"type": "MultiPolygon", "coordinates": [[[[72.3107980234984, 34.11660342898757], [72.31080021869117, 34.116674425435335], [72.31106724959382, 34.11666891722045], [72.31106516249191, 34.116597923139814], [72.3107980234984, 34.11660342898757]]]]}, "properties": {"id": "Pakistan_123102310_499978", "height": 4.312856674194336, "hmax": 0.0, "ratio": 0.0, "vulnClass": "none"}}, {"type": "Feature", "geometry": {"type": "MultiPolygon", "coordinates": [[[[72.31117856618799, 34.11666549625578], [72.31117896977777, 34.11670408946408], [72.31132652630122, 34.116702904723304], [72.31132612264425, 34.116664311512274], [72.31117856618799, 34.11666549625578]]]]}, "properties": {"id": "Pakistan_123102310_542653", "height": 2.681090831756592, "hmax": 0.0, "ratio": 0.0, "vulnClass": "none"}}, {"type": "Feature", "geometry": {"type": "MultiPolygon", "coordinates": [[[[72.3113659084717, 34.116664101293935], [72.31137011743695, 34.116702327115405], [72.31141531342239, 34.11669898998623], [72.3114111072896, 34.116660674077416], [72.3113659084717, 34.116664101293935]]]]}, "properties": {"id": "Pakistan_123102310_770637", "height": 2.902733087539673, "hmax": 0.0, "ratio": 0.0, "vulnClass": "none"}}, {"type": "Feature", "geometry": {"type": "MultiPolygon", "coordinates": [[[[72.31097473431277, 34.116756319426344], [72.31097563076389, 34.11679988170208], [72.31110608221131, 34.11679805200644], [72.31110518569308, 34.11675448972846], [72.31097473431277, 34.116756319426344]]]]}, "properties": {"id": "Pakistan_123102310_685130", "height": 3.537069797515869, "hmax": 0.0, "ratio": 0.0, "vulnClass": "none"}}, {"type": "Feature", "geometry": {"type": "MultiPolygon", "coordinates": [[[[72.3108470553449, 34.11670484070732], [72.31077198451136, 34.116703466255444], [72.3107671553175, 34.116883300590224], [72.3108422263097, 34.11688467505263], [72.3108470553449, 34.11670484070732]]]]}, "properties": {"id": "Pakistan_123102310_813138", "height": 2.871692657470703, "hmax": 0.0, "ratio": 0.0, "vulnClass": "none"}}, {"type": "Feature", "geometry": {"type": "MultiPolygon", "coordinates": [[[[72.3102954493244, 34.116571681265334], [72.31029159732984, 34.11666931984241], [72.31035766084563, 34.116671038094765], [72.31036140159578, 34.116573487226134], [72.3102954493244, 34.116571681265334]]]]}, "properties": {"id": "Pakistan_123102310_926620", "height": 2.64829158782959, "hmax": 0.0, "ratio": 0.0, "vulnClass": "none"}}, {"type": "Feature", "geometry": {"type": "MultiPolygon", "coordinates": [[[[72.31036559896394, 34.116533372147245], [72.31037153289324, 34.116476076404005], [72.31032102987062, 34.11647244541711], [72.3103149875931, 34.116529738782575], [72.31036559896394, 34.116533372147245]]]]}, "properties": {"id": "Pakistan_123102310_286918", "height": 3.067321300506592, "hmax": 0.0, "ratio": 0.0, "vulnClass": "none"}}, {"type": "Feature", "geometry": {"type": "MultiPolygon", "coordinates": [[[[72.3047773813041, 34.11618738727858], [72.30477553600151, 34.11622502954581], [72.3048424482062, 34.11622731030088], [72.30484440179308, 34.11618967040978], [72.3047773813041, 34.11618738727858]]]]}, "properties": {"id": "Pakistan_123102310_381757", "height": 4.623895168304443, "hmax": 0.0, "ratio": 0.0, "vulnClass": "none"}}, {"type": "Feature", "geometry": {"type": "MultiPolygon", "coordinates": [[[[72.30497576983305, 34.11635356346065], [72.30497858479103, 34.11625464033025], [72.30491694847866, 34.116253467156334], [72.30491413630878, 34.11635230019447], [72.30497576983305, 34.11635356346065]]]]}, "properties": {"id": "Pakistan_123102310_353475", "height": 3.812976837158203, "hmax": 0.0, "ratio": 0.0, "vulnClass": "none"}}, {"type": "Feature", "geometry": {"type": "MultiPolygon", "coordinates": [[[[72.30392575648824, 34.11712634774606], [72.3039268622036, 34.11715296634008], [72.30407159176546, 34.117148663156854], [72.30406960181135, 34.11710210194792], [72.30398758131282, 34.117104537278784], [72.3039883571718, 34.117124477513116], [72.30392575648824, 34.11712634774606]]]]}, "properties": {"id": "Pakistan_123102310_775418", "height": 2.941222429275513, "hmax": 0.0, "ratio": 0.0, "vulnClass": "none"}}, {"type": "Feature", "geometry": {"type": "MultiPolygon", "coordinates": [[[[72.30404921377894, 34.116621153581676], [72.30403900269322, 34.11667988750509], [72.30410994494576, 34.116688387408615], [72.30412624548914, 34.11659489911303], [72.30401330067535, 34.116581329658715], [72.3040214011248, 34.116534449198646], [72.30393642108736, 34.11652428862186], [72.3039471656002, 34.11646241116842], [72.30385095531837, 34.116450922033806], [72.30384790908751, 34.11646834425065], [72.30381022478323, 34.11646382023528], [72.30380786029843, 34.11647684006854], [72.30384036269852, 34.11648070934692], [72.30383015149306, 34.11653944324803], [72.30377929288872, 34.11653336770279], [72.30376976052976, 34.11658778930168], [72.30404921377894, 34.116621153581676]]]]}, "properties": {"id": "Pakistan_123102310_869880", "height": 3.439364433288574, "hmax": 0.0, "ratio": 0.0, "vulnClass": "none"}}, {"type": "Feature", "geometry": {"type": "MultiPolygon", "coordinates": [[[[72.30403495356121, 34.11671865329185], [72.30376212716152, 34.11666091370589], [72.30375633012954, 34.116679627740105], [72.30379164265187, 34.116687164775904], [72.30377546344793, 34.11673927674732], [72.30401308582624, 34.116789481729725], [72.30403495356121, 34.11671865329185]]]]}, "properties": {"id": "Pakistan_123102310_16150", "height": 3.134613513946533, "hmax": 0.151, "ratio": 0.048, "vulnClass": "low"}}, {"type": "Feature", "geometry": {"type": "MultiPolygon", "coordinates": [[[[72.30353576363191, 34.117160601232754], [72.30359030733037, 34.11717351911402], [72.30360618387152, 34.11712753073736], [72.30355164019925, 34.11711461286437], [72.30353576363191, 34.117160601232754]]]]}, "properties": {"id": "Pakistan_123102310_405391", "height": 2.5456702709198, "hmax": 0.0, "ratio": 0.0, "vulnClass": "none"}}, {"type": "Feature", "geometry": {"type": "MultiPolygon", "coordinates": [[[[72.30456331740804, 34.11633062265658], [72.3043433236298, 34.116322635654306], [72.30433884468502, 34.11640908147403], [72.30442718888202, 34.116412283942125], [72.30442921416868, 34.116372391883054], [72.30454971328999, 34.116376751237276], [72.30454644289904, 34.11643879290565], [72.30474987354452, 34.11644614536343], [72.30474786842353, 34.11648540682267], [72.30480848250966, 34.11650512858191], [72.30480548648238, 34.116561947573665], [72.30484378861361, 34.11657432792137], [72.30489164563407, 34.11647350910646], [72.3049147051086, 34.11647437608123], [72.30491690997748, 34.116432234196544], [72.30479965729621, 34.11642803664423], [72.30475696011887, 34.11641411736297], [72.30475962192114, 34.11636441289925], [72.3046617518342, 34.11636082116995], [72.30467244315608, 34.1163381578119], [72.30467490516928, 34.116291333769986], [72.30469604827276, 34.116246722990546], [72.30469875299765, 34.116195667217276], [72.30459969165946, 34.11619204928229], [72.30459606990313, 34.11626174600593], [72.30456331740804, 34.11633062265658]]]]}, "properties": {"id": "Pakistan_123102310_428902", "height": 2.679855585098267, "hmax": 0.0, "ratio": 0.0, "vulnClass": "none"}}, {"type": "Feature", "geometry": {"type": "MultiPolygon", "coordinates": [[[[72.30294204608295, 34.11490723347981], [72.30276902739882, 34.114894596555], [72.30276297737133, 34.11495197940954], [72.30339807548283, 34.11499802845118], [72.30340554623992, 34.11492661333941], [72.30323101103394, 34.11491394374474], [72.3032276181094, 34.11494569220996], [72.30303221302799, 34.11493148196064], [72.30304676966443, 34.11479396219844], [72.3031292799758, 34.11479992217003], [72.3031340798115, 34.11475459194389], [72.30305005604, 34.114748508569605], [72.30305982418255, 34.11465595867248], [72.30313703567384, 34.11466153174869], [72.30314186696806, 34.11461521056031], [72.30306357240211, 34.11460961368881], [72.30306804689515, 34.11456770202294], [72.3029786163235, 34.11456122934544], [72.30294204608295, 34.11490723347981]]]]}, "properties": {"id": "Pakistan_123102310_495316", "height": 3.402232885360718, "hmax": 0.067, "ratio": 0.02, "vulnClass": "none"}}, {"type": "Feature", "geometry": {"type": "MultiPolygon", "coordinates": [[[[72.30374477693779, 34.114589421948295], [72.30375534562292, 34.11444433198833], [72.30365102493056, 34.11443915539722], [72.30363803199954, 34.114619621115175], [72.30383314632225, 34.114629316484475], [72.30383567862275, 34.114593943080735], [72.30374477693779, 34.114589421948295]]]]}, "properties": {"id": "Pakistan_123102310_348715", "height": 3.732967376708984, "hmax": 0.0, "ratio": 0.0, "vulnClass": "none"}}, {"type": "Feature", "geometry": {"type": "MultiPolygon", "coordinates": [[[[72.30377657519617, 34.11436627752924], [72.30376955849925, 34.11443364589354], [72.30386385733196, 34.11444040523479], [72.30385269478249, 34.1145461766715], [72.30386750772561, 34.11454731342522], [72.30385691857684, 34.11464868009646], [72.30396343686238, 34.114656338848434], [72.30397960709118, 34.11450208643514], [72.30407120395915, 34.11450860596613], [72.30407711041744, 34.11445230166892], [72.30398821853571, 34.11444593171271], [72.30399072385421, 34.114421646187], [72.30404663220216, 34.11442566893023], [72.30405113480032, 34.114382856329755], [72.30407503443618, 34.11438455325466], [72.30408154574643, 34.11432285322878], [72.30396172559189, 34.11431427134355], [72.30395500576608, 34.11437912203804], [72.30377657519617, 34.11436627752924]]]]}, "properties": {"id": "Pakistan_123102310_110660", "height": 3.456462621688843, "hmax": 0.0, "ratio": 0.0, "vulnClass": "none"}}, {"type": "Feature", "geometry": {"type": "MultiPolygon", "coordinates": [[[[72.30400664210389, 34.114705428126626], [72.30400176011206, 34.114876245689786], [72.30418243603857, 34.11487985374516], [72.30418356625411, 34.11484084352647], [72.30409247014408, 34.11483902288083], [72.30409622455926, 34.11470712543397], [72.30400664210389, 34.114705428126626]]]]}, "properties": {"id": "Pakistan_123102310_623113", "height": 3.884388446807861, "hmax": 0.055, "ratio": 0.014, "vulnClass": "none"}}, {"type": "Feature", "geometry": {"type": "MultiPolygon", "coordinates": [[[[72.30438187316561, 34.11448712245719], [72.30532380010173, 34.11467701851833], [72.30535977162955, 34.114554482741376], [72.30441784593518, 34.11436458701455], [72.30438187316561, 34.11448712245719]]]]}, "properties": {"id": "Pakistan_123102310_808475", "height": 3.634222030639648, "hmax": 0.077, "ratio": 0.021, "vulnClass": "none"}}, {"type": "Feature", "geometry": {"type": "MultiPolygon", "coordinates": [[[[72.30397349634407, 34.114045972404604], [72.30396554660055, 34.114224655811604], [72.30418947697784, 34.11423137756489], [72.30419156593592, 34.11418265217678], [72.30403358286806, 34.11417782978951], [72.30403748349175, 34.114089117502665], [72.30416070998979, 34.114092815863316], [72.30416255869231, 34.11405165781693], [72.30397349634407, 34.114045972404604]]]]}, "properties": {"id": "Pakistan_123102310_504756", "height": 3.761525392532349, "hmax": 0.143, "ratio": 0.038, "vulnClass": "low"}}, {"type": "Feature", "geometry": {"type": "MultiPolygon", "coordinates": [[[[72.30462049116382, 34.11377170202823], [72.30482558018288, 34.113805144037265], [72.30483471360745, 34.11376667014465], [72.30462962467567, 34.113733228155], [72.30462049116382, 34.11377170202823]]]]}, "properties": {"id": "Pakistan_123102310_817923", "height": 2.529498100280762, "hmax": 0.0, "ratio": 0.0, "vulnClass": "none"}}, {"type": "Feature", "geometry": {"type": "MultiPolygon", "coordinates": [[[[72.30443465424065, 34.11343568755508], [72.3044292585954, 34.11348956904707], [72.30470351891245, 34.11350866395], [72.30470731083008, 34.11347115456839], [72.3046514001961, 34.113467222241894], [72.30465457873224, 34.113435378857524], [72.3045892565738, 34.113430879219486], [72.30458768445263, 34.11344626038565], [72.30443465424065, 34.11343568755508]]]]}, "properties": {"id": "Pakistan_123102310_419479", "height": 4.203856945037842, "hmax": 0.0, "ratio": 0.0, "vulnClass": "none"}}, {"type": "Feature", "geometry": {"type": "MultiPolygon", "coordinates": [[[[72.30440997128895, 34.113670347426435], [72.30479137030673, 34.11370144122693], [72.30479859915167, 34.11364101900284], [72.30474270841647, 34.11363645610035], [72.30474060012813, 34.113655070903356], [72.30449346842708, 34.11363494916741], [72.30450764411039, 34.11351617202514], [72.30447575261756, 34.11351357847132], [72.3044690912181, 34.1135697760727], [72.3044223869218, 34.113566045830744], [72.30440997128895, 34.113670347426435]]]]}, "properties": {"id": "Pakistan_123102310_940873", "height": 3.508042097091675, "hmax": 0.0, "ratio": 0.0, "vulnClass": "none"}}, {"type": "Feature", "geometry": {"type": "MultiPolygon", "coordinates": [[[[72.30303631970573, 34.11408902853819], [72.30295881486002, 34.114085883020614], [72.30295429028486, 34.114163493059266], [72.30303179806238, 34.11416654849573], [72.30303631970573, 34.11408902853819]]]]}, "properties": {"id": "Pakistan_123102310_519160", "height": 3.999400854110718, "hmax": 0.107, "ratio": 0.027, "vulnClass": "low"}}, {"type": "Feature", "geometry": {"type": "MultiPolygon", "coordinates": [[[[72.30373612798675, 34.117343049840954], [72.30374063426447, 34.11729672149983], [72.303693691321, 34.11729361673749], [72.30368918501804, 34.1173399450757], [72.30373612798675, 34.117343049840954]]]]}, "properties": {"id": "Pakistan_123102310_149645", "height": 2.508902549743652, "hmax": 0.0, "ratio": 0.0, "vulnClass": "none"}}, {"type": "Feature", "geometry": {"type": "MultiPolygon", "coordinates": [[[[72.30463546913565, 34.11765299789204], [72.3046333968928, 34.11773192395345], [72.30470576038206, 34.11773324273249], [72.30470783255778, 34.11765431666666], [72.30463546913565, 34.11765299789204]]]]}, "properties": {"id": "Pakistan_123102310_233698", "height": 2.662522315979004, "hmax": 0.125, "ratio": 0.047, "vulnClass": "low"}}, {"type": "Feature", "geometry": {"type": "MultiPolygon", "coordinates": [[[[72.30454823244398, 34.11744076156084], [72.30454820060802, 34.11744517822129], [72.30442483190936, 34.117445804211116], [72.30442551276263, 34.117526774038495], [72.30478217953333, 34.11752487101639], [72.30478153016318, 34.11743948451355], [72.30454823244398, 34.11744076156084]]]]}, "properties": {"id": "Pakistan_123102310_590101", "height": 4.536845207214355, "hmax": 0.0, "ratio": 0.0, "vulnClass": "none"}}, {"type": "Feature", "geometry": {"type": "MultiPolygon", "coordinates": [[[[72.3040015735022, 34.11750357890747], [72.30393462601698, 34.117502378694795], [72.30392932976099, 34.117699871538356], [72.30399638571723, 34.11770107414077], [72.3040015735022, 34.11750357890747]]]]}, "properties": {"id": "Pakistan_123102310_6696", "height": 5.840981483459473, "hmax": 0.053, "ratio": 0.009, "vulnClass": "none"}}, {"type": "Feature", "geometry": {"type": "MultiPolygon", "coordinates": [[[[72.30401333066015, 34.117461015841755], [72.30400803030368, 34.11749822158372], [72.30404239163082, 34.11750159075248], [72.30404769197264, 34.11746438500836], [72.30401333066015, 34.117461015841755]]]]}, "properties": {"id": "Pakistan_123102310_537876", "height": 5.527300357818604, "hmax": 0.0, "ratio": 0.0, "vulnClass": "none"}}, {"type": "Feature", "geometry": {"type": "MultiPolygon", "coordinates": [[[[72.30396405853054, 34.11731280837327], [72.30396250795543, 34.117361635709784], [72.30411263568968, 34.11736484338639], [72.3041141861787, 34.11731601604387], [72.30396405853054, 34.11731280837327]]]]}, "properties": {"id": "Pakistan_123102310_17249", "height": 2.560938596725464, "hmax": 0.0, "ratio": 0.0, "vulnClass": "none"}}, {"type": "Feature", "geometry": {"type": "MultiPolygon", "coordinates": [[[[72.30394152586061, 34.117486483536254], [72.30395012799676, 34.1173180015161], [72.30389556005557, 34.11731608158097], [72.30388684949642, 34.11748456121266], [72.30394152586061, 34.117486483536254]]]]}, "properties": {"id": "Pakistan_123102310_55135", "height": 2.848248481750488, "hmax": 0.0, "ratio": 0.0, "vulnClass": "none"}}, {"type": "Feature", "geometry": {"type": "MultiPolygon", "coordinates": [[[[72.30451693417862, 34.117395539966616], [72.3045144540272, 34.117320029780416], [72.30445815835549, 34.117321317556694], [72.304460641317, 34.11739673765425], [72.30451693417862, 34.117395539966616]]]]}, "properties": {"id": "Pakistan_123102310_167744", "height": 3.001309871673584, "hmax": 0.0, "ratio": 0.0, "vulnClass": "none"}}, {"type": "Feature", "geometry": {"type": "MultiPolygon", "coordinates": [[[[72.30476621249571, 34.11767615300507], [72.30470732023487, 34.117673868008445], [72.30469832130863, 34.11783440818093], [72.30475721368008, 34.11783669318715], [72.30476621249571, 34.11767615300507]]]]}, "properties": {"id": "Pakistan_123102310_827285", "height": 3.14388370513916, "hmax": 0.125, "ratio": 0.04, "vulnClass": "low"}}, {"type": "Feature", "geometry": {"type": "MultiPolygon", "coordinates": [[[[72.31127419346367, 34.11942312763272], [72.31132230917017, 34.119532993245485], [72.31144082797705, 34.1194973659464], [72.31142364352915, 34.11945813467821], [72.31141412280908, 34.11946099121817], [72.31138319141802, 34.119390356911104], [72.31127419346367, 34.11942312763272]]]]}, "properties": {"id": "Pakistan_123102310_110746", "height": 3.311048984527588, "hmax": 0.0, "ratio": 0.0, "vulnClass": "none"}}, {"type": "Feature", "geometry": {"type": "MultiPolygon", "coordinates": [[[[72.31128859609609, 34.11972472566823], [72.31126090826156, 34.119664619835085], [72.31121174810306, 34.11968013046234], [72.31123932758743, 34.11974023393188], [72.31128859609609, 34.11972472566823]]]]}, "properties": {"id": "Pakistan_123102310_102489", "height": 2.613718271255493, "hmax": 0.0, "ratio": 0.0, "vulnClass": "none"}}, {"type": "Feature", "geometry": {"type": "MultiPolygon", "coordinates": [[[[72.31253039497997, 34.1207883841212], [72.3125255385256, 34.12073977686799], [72.3124109326432, 34.120747634403294], [72.31241579188398, 34.12079615156995], [72.31253039497997, 34.1207883841212]]]]}, "properties": {"id": "Pakistan_123102310_879357", "height": 3.213557720184326, "hmax": 0.0, "ratio": 0.0, "vulnClass": "none"}}, {"type": "Feature", "geometry": {"type": "MultiPolygon", "coordinates": [[[[72.31250019791989, 34.12086227720814], [72.31258038064456, 34.12086664744911], [72.31258687271215, 34.120784842917935], [72.31252281267841, 34.12078136665085], [72.31251835345712, 34.12083662133228], [72.31240094848968, 34.12083017379931], [72.31238560890162, 34.12102023545557], [72.31254315830161, 34.121028914375295], [72.31254583269613, 34.12099579760192], [72.31248978252576, 34.12099267701787], [72.31250019791989, 34.12086227720814]]]]}, "properties": {"id": "Pakistan_123102310_931388", "height": 3.717058658599854, "hmax": 0.0, "ratio": 0.0, "vulnClass": "none"}}, {"type": "Feature", "geometry": {"type": "MultiPolygon", "coordinates": [[[[72.31233444115148, 34.12076020301285], [72.31218703393786, 34.12077698806904], [72.31219340405269, 34.12081544148992], [72.31234091965327, 34.120798658801526], [72.31233444115148, 34.12076020301285]]]]}, "properties": {"id": "Pakistan_123102310_410085", "height": 2.638461589813232, "hmax": 0.0, "ratio": 0.0, "vulnClass": "none"}}, {"type": "Feature", "geometry": {"type": "MultiPolygon", "coordinates": [[[[72.31209237196973, 34.12501919293367], [72.31209747193856, 34.1249060758396], [72.31214566254086, 34.12490758211591], [72.3121469004684, 34.12487876112738], [72.3120879885105, 34.12487692986812], [72.31208908665806, 34.124852523184586], [72.31203547981622, 34.1248508982507], [72.3120263207235, 34.12505795321031], [72.3121263880252, 34.125060956391145], [72.31212821921322, 34.12502024855573], [72.31209237196973, 34.12501919293367]]]]}, "properties": {"id": "Pakistan_123102310_225319", "height": 2.858428478240967, "hmax": 0.183, "ratio": 0.064, "vulnClass": "low"}}, {"type": "Feature", "geometry": {"type": "MultiPolygon", "coordinates": [[[[72.3126806450299, 34.12523888156412], [72.31267999634471, 34.12502656332449], [72.31260758055114, 34.12502669035476], [72.31260723843356, 34.12488685969611], [72.31255086635475, 34.12488697743733], [72.31255099978465, 34.12491357470737], [72.31249733868206, 34.12491366164248], [72.31249758787696, 34.12499137668438], [72.31239297371985, 34.124991609790484], [72.31239304132991, 34.12502713049987], [72.31236084576892, 34.12502714658506], [72.3123610945939, 34.125115138751795], [72.31247372786649, 34.125114991147946], [72.31247380413973, 34.12514681588391], [72.31253277621023, 34.12514675512209], [72.3125325980901, 34.12507706501681], [72.31261140799874, 34.12507698790768], [72.31261180666588, 34.12523899678274], [72.3126806450299, 34.12523888156412]]]]}, "properties": {"id": "Pakistan_123102310_457365", "height": 2.811099767684937, "hmax": 0.0, "ratio": 0.0, "vulnClass": "none"}}, {"type": "Feature", "geometry": {"type": "MultiPolygon", "coordinates": [[[[72.31230101582146, 34.12502349231399], [72.31230217813811, 34.12493544090377], [72.31222707712055, 34.12493478769753], [72.31222602305176, 34.12502284147592], [72.31230101582146, 34.12502349231399]]]]}, "properties": {"id": "Pakistan_123102310_874589", "height": 2.71263599395752, "hmax": 0.0, "ratio": 0.0, "vulnClass": "none"}}, {"type": "Feature", "geometry": {"type": "MultiPolygon", "coordinates": [[[[72.30415064698923, 34.12737964487595], [72.30411757673028, 34.127369632896134], [72.30414886652241, 34.12729919189629], [72.3040874524355, 34.12728053386638], [72.30404834084965, 34.127368562570645], [72.30408849778615, 34.12738071356097], [72.30405288497015, 34.12746097607445], [72.30410732080801, 34.127477497515834], [72.30415064698923, 34.12737964487595]]]]}, "properties": {"id": "Pakistan_123102310_158144", "height": 4.280750274658203, "hmax": 0.0, "ratio": 0.0, "vulnClass": "none"}}, {"type": "Feature", "geometry": {"type": "MultiPolygon", "coordinates": [[[[72.31235427498602, 34.12502583072259], [72.31215042295173, 34.12502767645912], [72.31215099776439, 34.12506771579102], [72.31235474442204, 34.12506577759785], [72.31235427498602, 34.12502583072259]]]]}, "properties": {"id": "Pakistan_123102310_879354", "height": 3.207715272903442, "hmax": 0.142, "ratio": 0.044, "vulnClass": "low"}}, {"type": "Feature", "geometry": {"type": "MultiPolygon", "coordinates": [[[[72.31226655159341, 34.125238917955556], [72.31252131729327, 34.12524161276911], [72.31252190244392, 34.12520601620447], [72.31241191166114, 34.12520486946742], [72.31241277380211, 34.12515025725199], [72.31233063425998, 34.125149359804354], [72.31232990345713, 34.12519297655499], [72.31226726824983, 34.12519232593597], [72.31226655159341, 34.125238917955556]]]]}, "properties": {"id": "Pakistan_123102310_528489", "height": 4.298189163208008, "hmax": 0.0, "ratio": 0.0, "vulnClass": "none"}}, {"type": "Feature", "geometry": {"type": "MultiPolygon", "coordinates": [[[[72.31100142699486, 34.12594637816692], [72.31099804835347, 34.125888788254954], [72.31093910993023, 34.125891192908654], [72.31094248853147, 34.125948782820316], [72.31100142699486, 34.12594637816692]]]]}, "properties": {"id": "Pakistan_123102310_742353", "height": 2.58609676361084, "hmax": 0.0, "ratio": 0.0, "vulnClass": "none"}}, {"type": "Feature", "geometry": {"type": "MultiPolygon", "coordinates": [[[[72.31117933935623, 34.12640409306476], [72.31117854524548, 34.12644626599435], [72.3113500703833, 34.126448671956396], [72.3113509727363, 34.12640650139506], [72.31117933935623, 34.12640409306476]]]]}, "properties": {"id": "Pakistan_123102310_121213", "height": 3.340006828308105, "hmax": 0.0, "ratio": 0.0, "vulnClass": "none"}}, {"type": "Feature", "geometry": {"type": "MultiPolygon", "coordinates": [[[[72.31143164155391, 34.12643333059043], [72.31169436732866, 34.12642781763829], [72.31169637780324, 34.12649439259643], [72.31177144318555, 34.126492791625786], [72.31176802007761, 34.12638183177722], [72.31143033748421, 34.126388948079565], [72.31143164155391, 34.12643333059043]]]]}, "properties": {"id": "Pakistan_123102310_159205", "height": 4.035683631896973, "hmax": 0.0, "ratio": 0.0, "vulnClass": "none"}}, {"type": "Feature", "geometry": {"type": "MultiPolygon", "coordinates": [[[[72.31180829740724, 34.12611983584038], [72.31181188775508, 34.126170759258464], [72.3118921212697, 34.12616683736137], [72.31188842254643, 34.12611591157037], [72.31180829740724, 34.12611983584038]]]]}, "properties": {"id": "Pakistan_123102310_405431", "height": 2.907789945602417, "hmax": 0.0, "ratio": 0.0, "vulnClass": "none"}}, {"type": "Feature", "geometry": {"type": "MultiPolygon", "coordinates": [[[[72.31189712545182, 34.126416122403946], [72.31189795935482, 34.12636583680517], [72.31182817083999, 34.12636511939336], [72.31182733974916, 34.12641531490191], [72.31189712545182, 34.126416122403946]]]]}, "properties": {"id": "Pakistan_123102310_912545", "height": 3.077177286148071, "hmax": 0.0, "ratio": 0.0, "vulnClass": "none"}}, {"type": "Feature", "geometry": {"type": "MultiPolygon", "coordinates": [[[[72.31190703197946, 34.12659961496181], [72.31189873192085, 34.12655706250693], [72.31181665054838, 34.12656797564208], [72.31182484509192, 34.126610435639726], [72.31190703197946, 34.12659961496181]]]]}, "properties": {"id": "Pakistan_123102310_272461", "height": 2.538289546966553, "hmax": 0.0, "ratio": 0.0, "vulnClass": "none"}}, {"type": "Feature", "geometry": {"type": "MultiPolygon", "coordinates": [[[[72.31168258430313, 34.12654655788901], [72.3113286979651, 34.126541599377575], [72.31132720443651, 34.126612695224516], [72.3116812022519, 34.126617566039776], [72.31168258430313, 34.12654655788901]]]]}, "properties": {"id": "Pakistan_123102310_632685", "height": 2.582271337509155, "hmax": 0.0, "ratio": 0.0, "vulnClass": "none"}}, {"type": "Feature", "geometry": {"type": "MultiPolygon", "coordinates": [[[[72.31200997916609, 34.12723733943951], [72.31201175273534, 34.12732166881025], [72.31209754053853, 34.12732039268041], [72.31209650995703, 34.1272707874458], [72.31217687557697, 34.12726957279175], [72.31217613247078, 34.1272348486517], [72.31200997916609, 34.12723733943951]]]]}, "properties": {"id": "Pakistan_123102310_770644", "height": 3.747313737869263, "hmax": 0.0, "ratio": 0.0, "vulnClass": "none"}}, {"type": "Feature", "geometry": {"type": "MultiPolygon", "coordinates": [[[[72.30802884092336, 34.12763769134012], [72.30801698006583, 34.12769720071011], [72.30805616051794, 34.127702567732506], [72.30806802134926, 34.127643058357506], [72.30802884092336, 34.12763769134012]]]]}, "properties": {"id": "Pakistan_123102310_353490", "height": 3.640908002853394, "hmax": 0.0, "ratio": 0.0, "vulnClass": "none"}}, {"type": "Feature", "geometry": {"type": "MultiPolygon", "coordinates": [[[[72.30841675623792, 34.12762258121217], [72.3083229119273, 34.12762494013722], [72.30832494617918, 34.127680427121675], [72.30841879055137, 34.12767806819803], [72.30841675623792, 34.12762258121217]]]]}, "properties": {"id": "Pakistan_123102310_381780", "height": 2.697811603546143, "hmax": 0.0, "ratio": 0.0, "vulnClass": "none"}}]}