{"type": "FeatureCollection", "features": [{"type": "Feature", "geometry": {"type": "MultiPolygon", "coordinates": [[[[72.39291078047891, 34.2803545711843], [72.39289786311213, 34.28025594177367], [72.39250286633914, 34.28029134518741], [72.3925051480815, 34.280308883004494], [72.39217908534908, 34.28033818046146], [72.39217503954552, 34.28030744307512], [72.39212210945448, 34.280312265853055], [72.3921079436583, 34.28020486517958], [72.39206024262808, 34.28020916823389], [72.39207923322456, 34.28035372358746], [72.39198644688565, 34.28036202475417], [72.3919925182745, 34.28040804074668], [72.39192619416889, 34.28041402059965], [72.39192998390202, 34.28044249877137], [72.39291078047891, 34.2803545711843]]]]}, "properties": {"id": "Pakistan_123102310_519834", "height": 4.170156955718994, "hmax": 0.323, "ratio": 0.077, "vulnClass": "low"}}, {"type": "Feature", "geometry": {"type": "MultiPolygon", "coordinates": [[[[72.39112879750024, 34.2791188796518], [72.3910810841238, 34.278986603820464], [72.39095293733753, 34.27901813099958], [72.3909338320666, 34.27896516612944], [72.39086488732323, 34.2789821781321], [72.39093170563784, 34.27916741890535], [72.39112879750024, 34.2791188796518]]]]}, "properties": {"id": "Pakistan_123102310_709535", "height": 4.354659557342529, "hmax": 0.0, "ratio": 0.0, "vulnClass": "none"}}, {"type": "Feature", "geometry": {"type": "MultiPolygon", "coordinates": [[[[72.39096083282145, 34.27889975109137], [72.39087076385445, 34.27891505094276], [72.39087868278908, 34.278946952690944], [72.39096875178949, 34.2789316528353], [72.39096083282145, 34.27889975109137]]]]}, "properties": {"id": "Pakistan_123102310_306751", "height": 2.684022426605225, "hmax": 0.0, "ratio": 0.0, "vulnClass": "none"}}, {"type": "Feature", "geometry": {"type": "MultiPolygon", "coordinates": [[[[72.39201043778719, 34.27906220226924], [72.3920183420754, 34.27899619999469], [72.3919400197921, 34.27898984417703], [72.39193533654701, 34.278976221836224], [72.39188019790114, 34.27897171197484], [72.39188737441246, 34.278992509321135], [72.39187758020908, 34.27907397725244], [72.3918531789722, 34.27900259913337], [72.39188107126621, 34.27899616141076], [72.39182842322873, 34.27899188487007], [72.3918335750322, 34.27894818135862], [72.39182033233786, 34.27890931482786], [72.39173621026333, 34.278928979057554], [72.3916939616397, 34.27892555500487], [72.3915974809837, 34.278948021038545], [72.39163583140319, 34.27905999366386], [72.39145041397047, 34.279103283229766], [72.39142690909972, 34.279034538497314], [72.39138834488745, 34.27903137312065], [72.39141732036646, 34.279116371359585], [72.39128539721368, 34.279147097239154], [72.39120566677327, 34.27914062080146], [72.39119302260954, 34.279103479823064], [72.39114729781515, 34.279114135181764], [72.39119460490255, 34.27925253257945], [72.39201043778719, 34.27906220226924]]]]}, "properties": {"id": "Pakistan_123102310_112114", "height": 2.555652141571045, "hmax": 0.0, "ratio": 0.0, "vulnClass": "none"}}, {"type": "Feature", "geometry": {"type": "MultiPolygon", "coordinates": [[[[72.39134131754956, 34.27870826301904], [72.39133039702963, 34.27862590313044], [72.39129598201423, 34.278629046510076], [72.39130690528555, 34.27871131630883], [72.39134131754956, 34.27870826301904]]]]}, "properties": {"id": "Pakistan_123102310_178388", "height": 2.915793895721436, "hmax": 0.0, "ratio": 0.0, "vulnClass": "none"}}, {"type": "Feature", "geometry": {"type": "MultiPolygon", "coordinates": [[[[72.39139466061127, 34.278732207416795], [72.39137517507424, 34.27862829937657], [72.39133745126473, 34.27863308514931], [72.39135693675559, 34.2787369931934], [72.39139466061127, 34.278732207416795]]]]}, "properties": {"id": "Pakistan_123102310_272624", "height": 2.957537651062012, "hmax": 0.0, "ratio": 0.0, "vulnClass": "none"}}, {"type": "Feature", "geometry": {"type": "MultiPolygon", "coordinates": [[[[72.39164359833244, 34.27878763358844], [72.39166050859905, 34.27869378629733], [72.39165177419953, 34.27865312260726], [72.39165572624066, 34.27863066911076], [72.39157848368761, 34.27864209575146], [72.3915873237953, 34.27868285184814], [72.39157761342783, 34.27873700588204], [72.3915555618694, 34.278635296976894], [72.39149326579766, 34.27864451769971], [72.39150799367592, 34.27871262471708], [72.39150301462045, 34.27874019492052], [72.39148451456346, 34.278737907699785], [72.39137214159976, 34.278754535855825], [72.39137034411061, 34.278745933252914], [72.3912879754738, 34.27875806186992], [72.39125400305385, 34.27875391246008], [72.39124764230307, 34.278724297692065], [72.39120079667602, 34.27871852177824], [72.39122083606865, 34.27881153340777], [72.39121716780318, 34.27883182931569], [72.39122106049025, 34.27884994237379], [72.39155010118759, 34.27880141851883], [72.39155010118759, 34.27880141851883], [72.39164359833244, 34.27878763358844]]]]}, "properties": {"id": "Pakistan_123102310_785486", "height": 2.960708856582642, "hmax": 0.0, "ratio": 0.0, "vulnClass": "none"}}, {"type": "Feature", "geometry": {"type": "MultiPolygon", "coordinates": [[[[72.39118805316738, 34.278758367354826], [72.39114946393494, 34.278759528605086], [72.39115156934848, 34.2788038374351], [72.39119005285689, 34.27880258378178], [72.39118805316738, 34.278758367354826]]]]}, "properties": {"id": "Pakistan_123102310_879978", "height": 2.606464862823486, "hmax": 0.0, "ratio": 0.0, "vulnClass": "none"}}, {"type": "Feature", "geometry": {"type": "MultiPolygon", "coordinates": [[[[72.39122271214538, 34.27890190434366], [72.39120492588043, 34.27884491082963], [72.39107505968518, 34.278872344735866], [72.39104543652473, 34.27877669484694], [72.39098750088596, 34.27878889302348], [72.3910035951847, 34.27884089223296], [72.39096238150658, 34.278849660317384], [72.39097808067565, 34.27890038900234], [72.39105460012274, 34.27888425950985], [72.39107010736143, 34.278934172739426], [72.39122271214538, 34.27890190434366]]]]}, "properties": {"id": "Pakistan_123102310_358834", "height": 2.797485828399658, "hmax": 0.0, "ratio": 0.0, "vulnClass": "none"}}, {"type": "Feature", "geometry": {"type": "MultiPolygon", "coordinates": [[[[72.39081932177035, 34.278790989437574], [72.39075792407607, 34.278809784890896], [72.39081328985873, 34.27893338911373], [72.39087468763437, 34.278914593636564], [72.39081932177035, 34.278790989437574]]]]}, "properties": {"id": "Pakistan_123102310_330447", "height": 3.44010329246521, "hmax": 0.0, "ratio": 0.0, "vulnClass": "none"}}, {"type": "Feature", "geometry": {"type": "MultiPolygon", "coordinates": [[[[72.39071612896198, 34.27872496412183], [72.39075022137771, 34.27880601474816], [72.39081969203441, 34.278786039040085], [72.39082464785774, 34.278797864213566], [72.39085817542738, 34.27878830136452], [72.39083146237782, 34.278724987367276], [72.39085776012631, 34.27871743409682], [72.39084531908934, 34.27868777991834], [72.39071612896198, 34.27872496412183]]]]}, "properties": {"id": "Pakistan_123102310_84747", "height": 4.078499794006348, "hmax": 0.0, "ratio": 0.0, "vulnClass": "none"}}, {"type": "Feature", "geometry": {"type": "MultiPolygon", "coordinates": [[[[72.39093156849172, 34.27881357464245], [72.39091297805457, 34.27866668374687], [72.39085352327713, 34.27867181774456], [72.39087222214016, 34.278818710956614], [72.39093156849172, 34.27881357464245]]]]}, "properties": {"id": "Pakistan_123102310_141515", "height": 4.078499794006348, "hmax": 0.0, "ratio": 0.0, "vulnClass": "none"}}, {"type": "Feature", "geometry": {"type": "MultiPolygon", "coordinates": [[[[72.39077214676476, 34.278637810013855], [72.3907753428453, 34.27868196178268], [72.39083038124994, 34.27867916779739], [72.39082718514051, 34.27863501602867], [72.39077214676476, 34.278637810013855]]]]}, "properties": {"id": "Pakistan_123102310_17446", "height": 2.901619672775269, "hmax": 0.0, "ratio": 0.0, "vulnClass": "none"}}, {"type": "Feature", "geometry": {"type": "MultiPolygon", "coordinates": [[[[72.39093058320842, 34.27862766298344], [72.39093642290432, 34.27877247921236], [72.39099261619675, 34.27877097186937], [72.39098677640409, 34.278626155638676], [72.39093058320842, 34.27862766298344]]]]}, "properties": {"id": "Pakistan_123102310_264241", "height": 3.777629852294922, "hmax": 0.0, "ratio": 0.0, "vulnClass": "none"}}, {"type": "Feature", "geometry": {"type": "MultiPolygon", "coordinates": [[[[72.39118683204052, 34.27873814759142], [72.39116886552766, 34.278658883017066], [72.39110928264266, 34.278668161341386], [72.39109197007966, 34.27859233641396], [72.39099353913903, 34.278607638526594], [72.39102882076662, 34.2787626379632], [72.39118683204052, 34.27873814759142]]]]}, "properties": {"id": "Pakistan_123102310_699997", "height": 2.684208393096924, "hmax": 0.0, "ratio": 0.0, "vulnClass": "none"}}, {"type": "Feature", "geometry": {"type": "MultiPolygon", "coordinates": [[[[72.39119210045997, 34.27850098325641], [72.3909784775504, 34.27854682655148], [72.39099479165108, 34.27859874029456], [72.39120841468707, 34.278552896977004], [72.39119210045997, 34.27850098325641]]]]}, "properties": {"id": "Pakistan_123102310_168976", "height": 2.804654598236084, "hmax": 0.0, "ratio": 0.0, "vulnClass": "none"}}, {"type": "Feature", "geometry": {"type": "MultiPolygon", "coordinates": [[[[72.39120026683302, 34.27843706009307], [72.391275246832, 34.278425044586875], [72.39126123971602, 34.27836524676073], [72.39118625976936, 34.27837726226079], [72.39120026683302, 34.27843706009307]]]]}, "properties": {"id": "Pakistan_123102310_287570", "height": 2.817443132400513, "hmax": 0.0, "ratio": 0.0, "vulnClass": "none"}}, {"type": "Feature", "geometry": {"type": "MultiPolygon", "coordinates": [[[[72.39128977545344, 34.27843986833329], [72.39132431873519, 34.27853796689526], [72.39144543803994, 34.278508903983536], [72.39142457396557, 34.2784495911707], [72.39134546690106, 34.2784686407597], [72.39133179037958, 34.27842976493984], [72.39128977545344, 34.27843986833329]]]]}, "properties": {"id": "Pakistan_123102310_217075", "height": 2.535315990447998, "hmax": 0.0, "ratio": 0.0, "vulnClass": "none"}}, {"type": "Feature", "geometry": {"type": "MultiPolygon", "coordinates": [[[[72.39130944719389, 34.278548287886224], [72.39129144108485, 34.27849137985019], [72.3912145825218, 34.27850795303106], [72.391232588581, 34.27856486107605], [72.39130944719389, 34.278548287886224]]]]}, "properties": {"id": "Pakistan_123102310_894195", "height": 2.535315990447998, "hmax": 0.0, "ratio": 0.0, "vulnClass": "none"}}, {"type": "Feature", "geometry": {"type": "MultiPolygon", "coordinates": [[[[72.3914889233303, 34.27857771370129], [72.39147407557897, 34.27852051236033], [72.39129717216773, 34.27855190288525], [72.39131201980173, 34.27860910424216], [72.3914889233303, 34.27857771370129]]]]}, "properties": {"id": "Pakistan_123102310_235967", "height": 2.618987560272217, "hmax": 0.0, "ratio": 0.0, "vulnClass": "none"}}, {"type": "Feature", "geometry": {"type": "MultiPolygon", "coordinates": [[[[72.39168292582873, 34.27860798955333], [72.39167668195762, 34.27857107508756], [72.39174763524053, 34.27856285000848], [72.39173808853639, 34.27850630250168], [72.39164599152984, 34.27851696206051], [72.39165582477541, 34.27857477778553], [72.39151380963816, 34.278591225482], [72.39151987258185, 34.278626964141665], [72.39168292582873, 34.27860798955333]]]]}, "properties": {"id": "Pakistan_123102310_330455", "height": 2.631194591522217, "hmax": 0.0, "ratio": 0.0, "vulnClass": "none"}}, {"type": "Feature", "geometry": {"type": "MultiPolygon", "coordinates": [[[[72.39161648527433, 34.27839291731689], [72.39147712844122, 34.27839012935235], [72.3914726613622, 34.27854518352321], [72.39152888228075, 34.27854629088778], [72.39153103219233, 34.27847322447802], [72.39161416829052, 34.27847490509003], [72.39161648527433, 34.27839291731689]]]]}, "properties": {"id": "Pakistan_123102310_657135", "height": 3.159021377563477, "hmax": 0.0, "ratio": 0.0, "vulnClass": "none"}}, {"type": "Feature", "geometry": {"type": "MultiPolygon", "coordinates": [[[[72.39163288436832, 34.2783893901236], [72.3916354260779, 34.27847580861599], [72.39173192526127, 34.27847380713807], [72.39173103536343, 34.278442866499006], [72.39169082947353, 34.27844363288927], [72.3916891748046, 34.278388245125434], [72.39163288436832, 34.2783893901236]]]]}, "properties": {"id": "Pakistan_123102310_179219", "height": 3.159021377563477, "hmax": 0.0, "ratio": 0.0, "vulnClass": "none"}}, {"type": "Feature", "geometry": {"type": "MultiPolygon", "coordinates": [[[[72.39191175895157, 34.27874817937277], [72.39190140514472, 34.278689631372934], [72.39183044062553, 34.27869821690236], [72.3918133281445, 34.2786018419657], [72.39188941852005, 34.27859255425346], [72.39187257309975, 34.278498078174735], [72.39178329230253, 34.278508978116186], [72.39179283074965, 34.27856228001957], [72.39171401602502, 34.278571870250516], [72.39172077471352, 34.27860969718642], [72.39167248459628, 34.27861552012702], [72.39168044530386, 34.2786601339674], [72.39167096147861, 34.2786612842338], [72.39169133768975, 34.2787750376302], [72.39191175895157, 34.27874817937277]]]]}, "properties": {"id": "Pakistan_123102310_870538", "height": 2.769184589385986, "hmax": 0.0, "ratio": 0.0, "vulnClass": "none"}}, {"type": "Feature", "geometry": {"type": "MultiPolygon", "coordinates": [[[[72.39209351793077, 34.278942718849734], [72.39264782958261, 34.278973994457715], [72.39264853649637, 34.278965174739405], [72.39341739847647, 34.27900849716141], [72.39342291678682, 34.278942353832925], [72.39328946121161, 34.27893482537806], [72.3932882924119, 34.27894805265563], [72.39265657373343, 34.27891242739467], [72.39266004148459, 34.27887049099653], [72.39268941964008, 34.278872198285555], [72.39269271203703, 34.27883242176942], [72.39263395018786, 34.2788291873701], [72.39263738175715, 34.27878842216118], [72.39253861705409, 34.278782893600315], [72.39253501009867, 34.27882581868793], [72.39247093866341, 34.27882220070762], [72.39246488803273, 34.2788950037935], [72.39216220155107, 34.2788779207187], [72.3921689900262, 34.278795306940545], [72.39213809250202, 34.27879356717231], [72.39214265992364, 34.27873713995004], [72.39211067712654, 34.278735377064535], [72.39209351793077, 34.278942718849734]]]]}, "properties": {"id": "Pakistan_123102310_301902", "height": 3.613986968994141, "hmax": 0.209, "ratio": 0.058, "vulnClass": "low"}}, {"type": "Feature", "geometry": {"type": "MultiPolygon", "coordinates": [[[[72.39187474541788, 34.27839967988391], [72.39188299097458, 34.27855103819905], [72.39202923012088, 34.27854549810724], [72.39202775008106, 34.27851959333924], [72.3919733326809, 34.27850229748796], [72.39204269960312, 34.2784997179455], [72.39202427995804, 34.27816450599707], [72.39201362464907, 34.278164910138365], [72.39191091799344, 34.27813234208334], [72.39191328542091, 34.278175214082204], [72.39196985647087, 34.278193096724294], [72.39182622819803, 34.27819851206376], [72.39182267737628, 34.278197444782776], [72.39184036269026, 34.278159327087245], [72.39173826763924, 34.27816319279369], [72.39174160583451, 34.27822384515514], [72.39181988859569, 34.27822091471965], [72.39184085959344, 34.278227581744844], [72.39182433473151, 34.278263290085754], [72.39182710825852, 34.27831410399432], [72.39175032028903, 34.27828975060947], [72.39176486097273, 34.27825850755525], [72.39171039055171, 34.27826050271005], [72.39171775678683, 34.27839462352193], [72.39174851485679, 34.278404383833895], [72.39187474541788, 34.27839967988391]]]]}, "properties": {"id": "Pakistan_123102310_642813", "height": 2.785485982894897, "hmax": 0.0, "ratio": 0.0, "vulnClass": "none"}}, {"type": "Feature", "geometry": {"type": "MultiPolygon", "coordinates": [[[[72.3917027746561, 34.27822932866653], [72.3916464259199, 34.2782288497195], [72.39164563423888, 34.27829662617454], [72.39144184195514, 34.27829498997062], [72.39144086893135, 34.278375654104316], [72.39170101024504, 34.27837776927121], [72.3917027746561, 34.27822932866653]]]]}, "properties": {"id": "Pakistan_123102310_301898", "height": 3.621153354644775, "hmax": 0.0, "ratio": 0.0, "vulnClass": "none"}}, {"type": "Feature", "geometry": {"type": "MultiPolygon", "coordinates": [[[[72.39127046143328, 34.27815827694506], [72.39127276378792, 34.278231348039185], [72.39144696102774, 34.27822775645009], [72.39144476983535, 34.27815459757264], [72.39127046143328, 34.27815827694506]]]]}, "properties": {"id": "Pakistan_123102310_898996", "height": 3.187748908996582, "hmax": 0.0, "ratio": 0.0, "vulnClass": "none"}}, {"type": "Feature", "geometry": {"type": "MultiPolygon", "coordinates": [[[[72.39142026162085, 34.27840640728953], [72.39138900886263, 34.278251043010336], [72.3912689309936, 34.27826750696557], [72.39130018353264, 34.27842287126517], [72.39142026162085, 34.27840640728953]]]]}, "properties": {"id": "Pakistan_123102310_695282", "height": 3.019637584686279, "hmax": 0.0, "ratio": 0.0, "vulnClass": "none"}}, {"type": "Feature", "geometry": {"type": "MultiPolygon", "coordinates": [[[[72.39121974731431, 34.27829170143485], [72.39121395152442, 34.27826137749406], [72.39116422843081, 34.27826789091765], [72.39117002420295, 34.27829821485996], [72.39121974731431, 34.27829170143485]]]]}, "properties": {"id": "Pakistan_123102310_188601", "height": 3.177436590194702, "hmax": 0.0, "ratio": 0.0, "vulnClass": "none"}}, {"type": "Feature", "geometry": {"type": "MultiPolygon", "coordinates": [[[[72.3910634761543, 34.27841800904978], [72.39108529893674, 34.27841468762592], [72.39109435863055, 34.278455358280304], [72.39119299808148, 34.27844033097516], [72.39118240240533, 34.27839313675775], [72.39117356420984, 34.27839448104118], [72.3911586751963, 34.27832808341887], [72.39109746182777, 34.278337417160195], [72.39108257288184, 34.2782710195313], [72.39103227092329, 34.27827869252766], [72.3910634761543, 34.27841800904978]]]]}, "properties": {"id": "Pakistan_123102310_65779", "height": 3.572527885437012, "hmax": 0.0, "ratio": 0.0, "vulnClass": "none"}}, {"type": "Feature", "geometry": {"type": "MultiPolygon", "coordinates": [[[[72.39073723519792, 34.27823201925542], [72.39087913540888, 34.27822629793044], [72.39087570034573, 34.278168798770345], [72.3907339087605, 34.27817452240818], [72.39073723519792, 34.27823201925542]]]]}, "properties": {"id": "Pakistan_123102310_515039", "height": 2.740731954574585, "hmax": 0.0, "ratio": 0.0, "vulnClass": "none"}}, {"type": "Feature", "geometry": {"type": "MultiPolygon", "coordinates": [[[[72.39173237279999, 34.27820985545299], [72.39172946761776, 34.27806140554022], [72.39145166202125, 34.27806513459953], [72.39145273491123, 34.27812177208233], [72.39133637817949, 34.2781232602071], [72.39133498568535, 34.27805237210951], [72.3912545882137, 34.27805345417666], [72.39125583051, 34.278118659581196], [72.39105733701803, 34.278121282552796], [72.3910552918465, 34.27801179606464], [72.39078976413073, 34.278015334432375], [72.39079072826097, 34.278064937841116], [72.39100790800737, 34.27806208233934], [72.3910111731292, 34.27823046320445], [72.3912686592755, 34.27822711367382], [72.3912671472602, 34.278153067758], [72.39145760136472, 34.278150543657354], [72.39145880490591, 34.27821349447033], [72.39173237279999, 34.27820985545299]]]]}, "properties": {"id": "Pakistan_123102310_420155", "height": 3.166616439819336, "hmax": 0.0, "ratio": 0.0, "vulnClass": "none"}}, {"type": "Feature", "geometry": {"type": "MultiPolygon", "coordinates": [[[[72.38488750641044, 34.27860640659313], [72.38488724027093, 34.27851336558815], [72.384701088249, 34.278513717535155], [72.38470077007722, 34.27838731973665], [72.38465623991998, 34.2783874505605], [72.3846568239099, 34.2786068893498], [72.38488750641044, 34.27860640659313]]]]}, "properties": {"id": "Pakistan_123102310_368213", "height": 3.486284017562866, "hmax": 0.0, "ratio": 0.0, "vulnClass": "none"}}, {"type": "Feature", "geometry": {"type": "MultiPolygon", "coordinates": [[[[72.38482860778356, 34.278421872866105], [72.38482590111354, 34.278467160770134], [72.38490876666604, 34.27847055302279], [72.3849145672702, 34.27837448629714], [72.38488517561039, 34.278373227611176], [72.38488207882271, 34.27842409651829], [72.38482860778356, 34.278421872866105]]]]}, "properties": {"id": "Pakistan_123102310_8863", "height": 3.343934774398804, "hmax": 0.0, "ratio": 0.0, "vulnClass": "none"}}, {"type": "Feature", "geometry": {"type": "MultiPolygon", "coordinates": [[[[72.38489314432022, 34.27860670728744], [72.38498160674907, 34.278604719829964], [72.38498290524622, 34.27864342212507], [72.38504984830881, 34.278641966759054], [72.3850487385745, 34.278607685869495], [72.38508090495567, 34.278607020454736], [72.38507834171544, 34.27852501890854], [72.38503008800313, 34.27852615216501], [72.38502967168141, 34.27851505476255], [72.38489035095306, 34.27851811984069], [72.38489314432022, 34.27860670728744]]]]}, "properties": {"id": "Pakistan_123102310_141411", "height": 3.996252536773682, "hmax": 0.0, "ratio": 0.0, "vulnClass": "none"}}, {"type": "Feature", "geometry": {"type": "MultiPolygon", "coordinates": [[[[72.38508828064815, 34.278537221149016], [72.38509157496212, 34.278599134741626], [72.38522812991523, 34.27859420737357], [72.38522472697204, 34.27853229146273], [72.38508828064815, 34.278537221149016]]]]}, "properties": {"id": "Pakistan_123102310_244384", "height": 3.496744155883789, "hmax": 0.0, "ratio": 0.0, "vulnClass": "none"}}, {"type": "Feature", "geometry": {"type": "MultiPolygon", "coordinates": [[[[72.38533607548125, 34.27858380090051], [72.38533052934865, 34.27840879048218], [72.3852742362163, 34.27841002264175], [72.38528085856325, 34.278620395040114], [72.38524336589082, 34.278621217235504], [72.38524619836731, 34.27871205928012], [72.38534270042781, 34.278709972769086], [72.38534021442491, 34.278632480398], [72.38537238360976, 34.278631724816044], [72.38537085212836, 34.27858301083881], [72.38533607548125, 34.27858380090051]]]]}, "properties": {"id": "Pakistan_123102310_358783", "height": 2.483714580535889, "hmax": 0.0, "ratio": 0.0, "vulnClass": "none"}}, {"type": "Feature", "geometry": {"type": "MultiPolygon", "coordinates": [[[[72.38562869098912, 34.27859284273162], [72.38563064109155, 34.27841772189103], [72.38573259126245, 34.27841854603675], [72.38573278479072, 34.27840178216954], [72.38578099099581, 34.278402180178475], [72.38578169155778, 34.278348014663926], [72.38553653104108, 34.2783461165755], [72.38553368924607, 34.27859207668556], [72.38562869098912, 34.27859284273162]]]]}, "properties": {"id": "Pakistan_123102310_941488", "height": 4.291821956634521, "hmax": 0.0, "ratio": 0.0, "vulnClass": "none"}}, {"type": "Feature", "geometry": {"type": "MultiPolygon", "coordinates": [[[[72.38556224798555, 34.27869383526836], [72.38556422146144, 34.27859858829739], [72.38552134422504, 34.278597943366826], [72.38552063986519, 34.278631193871895], [72.38548036730487, 34.278630604534], [72.38547909531971, 34.27869269108615], [72.38556224798555, 34.27869383526836]]]]}, "properties": {"id": "Pakistan_123102310_141427", "height": 5.631609916687012, "hmax": 0.0, "ratio": 0.0, "vulnClass": "none"}}, {"type": "Feature", "geometry": {"type": "MultiPolygon", "coordinates": [[[[72.38576522297281, 34.27874991476991], [72.38576823559045, 34.27867019586414], [72.38571723539167, 34.2786688366964], [72.38571433125502, 34.278748557915534], [72.38576522297281, 34.27874991476991]]]]}, "properties": {"id": "Pakistan_123102310_941489", "height": 2.949637413024902, "hmax": 0.0, "ratio": 0.0, "vulnClass": "none"}}, {"type": "Feature", "geometry": {"type": "MultiPolygon", "coordinates": [[[[72.3850059314922, 34.27874145666256], [72.3850056523097, 34.27883457617384], [72.3857620149781, 34.27883594004071], [72.38576227562704, 34.27875390862619], [72.38553259729025, 34.27875351295709], [72.3855326255293, 34.27874909618447], [72.3853893893106, 34.278748832811786], [72.38538957128719, 34.27870790836236], [72.3853332112959, 34.27870778685895], [72.38533312732636, 34.27874204226201], [72.3850059314922, 34.27874145666256]]]]}, "properties": {"id": "Pakistan_123102310_794819", "height": 3.327637195587158, "hmax": 0.0, "ratio": 0.0, "vulnClass": "none"}}, {"type": "Feature", "geometry": {"type": "MultiPolygon", "coordinates": [[[[72.38495302500374, 34.27901889197707], [72.38504423983461, 34.27901921702196], [72.38504400044694, 34.27904796992112], [72.38510839182497, 34.279048263054705], [72.38510818388339, 34.27909703003805], [72.38514836208427, 34.27909716673668], [72.38514886621888, 34.27900729744589], [72.3851917604011, 34.279007401970944], [72.38519227388281, 34.2789067148162], [72.38507423851382, 34.27890626794592], [72.3850745242877, 34.278858494279426], [72.38499405958882, 34.27885821851349], [72.38499390812464, 34.278898151952795], [72.38495362149312, 34.27889801289031], [72.38495302500374, 34.27901889197707]]]]}, "properties": {"id": "Pakistan_123102310_860939", "height": 2.584534645080566, "hmax": 0.0, "ratio": 0.0, "vulnClass": "none"}}, {"type": "Feature", "geometry": {"type": "MultiPolygon", "coordinates": [[[[72.38570616536423, 34.279218969319814], [72.38569687528015, 34.27910869721222], [72.3855553323856, 34.279116854165736], [72.3855478883271, 34.27902762653178], [72.38550251995228, 34.279030263975045], [72.38550607793118, 34.279073161430766], [72.38547779330374, 34.27907472118159], [72.38548404757698, 34.279149769785406], [72.38537362219677, 34.279156066652796], [72.38537473127423, 34.279169342457294], [72.38528127554744, 34.27917473944179], [72.38527309787483, 34.27907765304093], [72.3852304510798, 34.27908007803986], [72.38524432963143, 34.279245530099], [72.38570616536423, 34.279218969319814]]]]}, "properties": {"id": "Pakistan_123102310_141429", "height": 3.074072599411011, "hmax": 0.0, "ratio": 0.0, "vulnClass": "none"}}, {"type": "Feature", "geometry": {"type": "MultiPolygon", "coordinates": [[[[72.3854967043586, 34.27902518153731], [72.38537716022343, 34.27902785801219], [72.38537871961319, 34.27907567107756], [72.38549826660756, 34.279072904513356], [72.3854967043586, 34.27902518153731]]]]}, "properties": {"id": "Pakistan_123102310_903713", "height": 2.638917446136475, "hmax": 0.0, "ratio": 0.0, "vulnClass": "none"}}, {"type": "Feature", "geometry": {"type": "MultiPolygon", "coordinates": [[[[72.38538227267328, 34.27887687490326], [72.38527074594886, 34.278880173205636], [72.38527667114438, 34.27901841029895], [72.38548287500475, 34.27901235536629], [72.38548057046624, 34.27895704389898], [72.38538578504665, 34.278959798216334], [72.38538227267328, 34.27887687490326]]]]}, "properties": {"id": "Pakistan_123102310_26962", "height": 2.967188358306885, "hmax": 0.0, "ratio": 0.0, "vulnClass": "none"}}, {"type": "Feature", "geometry": {"type": "MultiPolygon", "coordinates": [[[[72.38554191787327, 34.27892238356444], [72.38554377389657, 34.27901320476048], [72.38571532867525, 34.27901082708156], [72.38571358099607, 34.27892000819641], [72.38554191787327, 34.27892238356444]]]]}, "properties": {"id": "Pakistan_123102310_179129", "height": 2.646285533905029, "hmax": 0.0, "ratio": 0.0, "vulnClass": "none"}}, {"type": "Feature", "geometry": {"type": "MultiPolygon", "coordinates": [[[[72.38585178911254, 34.27922983091773], [72.38631001415538, 34.279218155762464], [72.38631347352828, 34.27931333840962], [72.38647965549474, 34.27930913214101], [72.38647377163355, 34.279151964330616], [72.3861120634853, 34.279161102567265], [72.3861082681924, 34.27905924160893], [72.38607609604723, 34.27906008746805], [72.38607841152704, 34.27912207030591], [72.38585864677081, 34.279127656460204], [72.38585614261748, 34.27906125221896], [72.38584548999212, 34.2790615657256], [72.38585178911254, 34.27922983091773]]]]}, "properties": {"id": "Pakistan_123102310_728585", "height": 3.832669258117676, "hmax": 0.0, "ratio": 0.0, "vulnClass": "none"}}, {"type": "Feature", "geometry": {"type": "MultiPolygon", "coordinates": [[[[72.38630956265811, 34.27906092359077], [72.38644361912321, 34.2790595475784], [72.38644431117217, 34.279103826263324], [72.38650873054875, 34.27910321775228], [72.38650726883209, 34.2790101511976], [72.38630890166861, 34.27901213804259], [72.38630956265811, 34.27906092359077]]]]}, "properties": {"id": "Pakistan_123102310_429546", "height": 2.923359870910645, "hmax": 0.0, "ratio": 0.0, "vulnClass": "none"}}, {"type": "Feature", "geometry": {"type": "MultiPolygon", "coordinates": [[[[72.38606611994831, 34.278768598160184], [72.38577111759881, 34.278773479740046], [72.3857730198016, 34.278848796035795], [72.38606791388597, 34.278843912147], [72.38606611994831, 34.278768598160184]]]]}, "properties": {"id": "Pakistan_123102310_941490", "height": 2.829927206039429, "hmax": 0.0, "ratio": 0.0, "vulnClass": "none"}}, {"type": "Feature", "geometry": {"type": "MultiPolygon", "coordinates": [[[[72.38597898565241, 34.278633045035626], [72.38597735832013, 34.27859442587119], [72.38584507784006, 34.27859809306444], [72.38584659658277, 34.278636709911126], [72.38597898565241, 34.278633045035626]]]]}, "properties": {"id": "Pakistan_123102310_263296", "height": 2.849853515625, "hmax": 0.0, "ratio": 0.0, "vulnClass": "none"}}, {"type": "Feature", "geometry": {"type": "MultiPolygon", "coordinates": [[[[72.38657929829812, 34.278016877038965], [72.38658093128439, 34.27795362619628], [72.38630220344533, 34.277948579267964], [72.38630400405066, 34.27787992297787], [72.38626113273696, 34.277879098141014], [72.38625758755163, 34.278011093030926], [72.38657929829812, 34.278016877038965]]]]}, "properties": {"id": "Pakistan_123102310_780739", "height": 3.256101369857788, "hmax": 0.0, "ratio": 0.0, "vulnClass": "none"}}, {"type": "Feature", "geometry": {"type": "MultiPolygon", "coordinates": [[[[72.39064604503578, 34.27764788330038], [72.39055094956662, 34.277643152553665], [72.39052487425795, 34.278001757188214], [72.39061997012732, 34.27800648797347], [72.39064604503578, 34.27764788330038]]]]}, "properties": {"id": "Pakistan_123102310_339896", "height": 3.289612293243408, "hmax": 0.0, "ratio": 0.0, "vulnClass": "none"}}, {"type": "Feature", "geometry": {"type": "MultiPolygon", "coordinates": [[[[72.39080814685803, 34.27894517942413], [72.3907666491482, 34.27886829826522], [72.39065701342479, 34.27890878384859], [72.39059209161056, 34.27878867212099], [72.39069942022701, 34.278749038941704], [72.39067343034985, 34.27870097578231], [72.39052139265542, 34.2787570553526], [72.39065391033887, 34.27900211380729], [72.39080814685803, 34.27894517942413]]]]}, "properties": {"id": "Pakistan_123102310_306750", "height": 2.807899475097656, "hmax": 0.0, "ratio": 0.0, "vulnClass": "none"}}, {"type": "Feature", "geometry": {"type": "MultiPolygon", "coordinates": [[[[72.39073315944619, 34.27917517875332], [72.39056859989459, 34.27884947400865], [72.39051151821819, 34.27886917265659], [72.39055634353818, 34.27895784438579], [72.3904640253659, 34.278989683727005], [72.39043220052865, 34.27892662132649], [72.3903888382067, 34.27894165397463], [72.39046323994219, 34.279088832702506], [72.39062307014025, 34.27903364046686], [72.39066032687948, 34.27910718588502], [72.3905149868785, 34.27915736804181], [72.39055510689896, 34.279236653992676], [72.39073315944619, 34.27917517875332]]]]}, "properties": {"id": "Pakistan_123102310_776002", "height": 3.903010129928589, "hmax": 0.0, "ratio": 0.0, "vulnClass": "none"}}, {"type": "Feature", "geometry": {"type": "MultiPolygon", "coordinates": [[[[72.39017920192708, 34.2790516778891], [72.39019101546242, 34.279112150275466], [72.39025633688537, 34.279103445454155], [72.39024452330354, 34.27904297307191], [72.39017920192708, 34.2790516778891]]]]}, "properties": {"id": "Pakistan_123102310_562203", "height": 2.444069147109985, "hmax": 0.0, "ratio": 0.0, "vulnClass": "none"}}, {"type": "Feature", "geometry": {"type": "MultiPolygon", "coordinates": [[[[72.39026258841224, 34.27921734878554], [72.39011130782569, 34.27923837534932], [72.39012799600002, 34.27932031732732], [72.39031843406059, 34.279293814656135], [72.3902821275873, 34.279115804798494], [72.39024308165675, 34.27912119310586], [72.39026258841224, 34.27921734878554]]]]}, "properties": {"id": "Pakistan_123102310_898985", "height": 3.666632175445557, "hmax": 0.0, "ratio": 0.0, "vulnClass": "none"}}, {"type": "Feature", "geometry": {"type": "MultiPolygon", "coordinates": [[[[72.39018405283576, 34.279112542798245], [72.3901688383921, 34.27906020164207], [72.39009278899232, 34.27907516863072], [72.39010800060389, 34.279127599885435], [72.39018405283576, 34.279112542798245]]]]}, "properties": {"id": "Pakistan_123102310_804302", "height": 2.743619203567505, "hmax": 0.0, "ratio": 0.0, "vulnClass": "none"}}, {"type": "Feature", "geometry": {"type": "MultiPolygon", "coordinates": [[[[72.39016065445068, 34.279412606373086], [72.39018683363514, 34.27952828664563], [72.39044851035531, 34.27948788618413], [72.39043208310689, 34.27941505501815], [72.39021176527011, 34.27944903465393], [72.39020211883452, 34.27940627797852], [72.39016065445068, 34.279412606373086]]]]}, "properties": {"id": "Pakistan_123102310_903745", "height": 3.017868280410767, "hmax": 0.0, "ratio": 0.0, "vulnClass": "none"}}, {"type": "Feature", "geometry": {"type": "MultiPolygon", "coordinates": [[[[72.39054375738615, 34.27967742910818], [72.39056964283513, 34.2798553069929], [72.39071246161681, 34.27984104119216], [72.39069676709362, 34.279733968424814], [72.39060166322808, 34.27974348128337], [72.39059081823063, 34.27966923652136], [72.39054844103767, 34.279673472129964], [72.39054145776954, 34.27962536318668], [72.39049385163051, 34.27963011841114], [72.39048910804001, 34.27959738279911], [72.3904388888256, 34.279602352773004], [72.3904511581372, 34.279686724768084], [72.39054375738615, 34.27967742910818]]]]}, "properties": {"id": "Pakistan_123102310_661994", "height": 2.573970079421997, "hmax": 0.0, "ratio": 0.0, "vulnClass": "none"}}, {"type": "Feature", "geometry": {"type": "MultiPolygon", "coordinates": [[[[72.39013719187949, 34.27971122614968], [72.39025392675966, 34.279701092819394], [72.3902646653179, 34.27978579280896], [72.39054321461526, 34.27976170839232], [72.390533613652, 34.27968586742336], [72.39044246986761, 34.27969375167982], [72.39044272859437, 34.27969592080841], [72.39044098653262, 34.27969606398781], [72.39043296031203, 34.27963251705613], [72.39021016574183, 34.279651749343536], [72.39019794723384, 34.27955520807703], [72.39011834680882, 34.27956207598711], [72.39013719187949, 34.27971122614968]]]]}, "properties": {"id": "Pakistan_123102310_297215", "height": 2.7478928565979, "hmax": 0.0, "ratio": 0.0, "vulnClass": "none"}}, {"type": "Feature", "geometry": {"type": "MultiPolygon", "coordinates": [[[[72.39036300071838, 34.27998784246739], [72.39034753839695, 34.27985922861405], [72.39024301447786, 34.27986781924225], [72.39025847663967, 34.27999643310139], [72.39036300071838, 34.27998784246739]]]]}, "properties": {"id": "Pakistan_123102310_382446", "height": 2.513399362564087, "hmax": 0.0, "ratio": 0.0, "vulnClass": "none"}}, {"type": "Feature", "geometry": {"type": "MultiPolygon", "coordinates": [[[[72.39052569415676, 34.28015267897906], [72.39029504575558, 34.2801519108935], [72.39029462489843, 34.28024277375908], [72.3905745746252, 34.28024369087953], [72.39057542675214, 34.28006512062469], [72.39052623431044, 34.28006497391979], [72.39052569415676, 34.28015267897906]]]]}, "properties": {"id": "Pakistan_123102310_557405", "height": 3.273293256759644, "hmax": 0.0, "ratio": 0.0, "vulnClass": "none"}}, {"type": "Feature", "geometry": {"type": "MultiPolygon", "coordinates": [[[[72.38606836072066, 34.2805123374274], [72.38606996233614, 34.28055879912874], [72.38611549836203, 34.28055778778294], [72.3861140052527, 34.28051132839762], [72.38606836072066, 34.2805123374274]]]]}, "properties": {"id": "Pakistan_123102310_47095", "height": 3.027376651763916, "hmax": 0.0, "ratio": 0.0, "vulnClass": "none"}}, {"type": "Feature", "geometry": {"type": "MultiPolygon", "coordinates": [[[[72.38600146638697, 34.28051217164572], [72.38599942719777, 34.280567480532035], [72.38606106462701, 34.280569066664874], [72.38606310377595, 34.28051375777567], [72.38600146638697, 34.28051217164572]]]]}, "properties": {"id": "Pakistan_123102310_652209", "height": 3.02171516418457, "hmax": 0.0, "ratio": 0.0, "vulnClass": "none"}}, {"type": "Feature", "geometry": {"type": "MultiPolygon", "coordinates": [[[[72.38597917890368, 34.28063213698413], [72.38597518444809, 34.280519183279175], [72.38592160038517, 34.28052056368012], [72.38592734638313, 34.28068214589822], [72.38608004801452, 34.28067846383862], [72.38607840763414, 34.28062974754767], [72.38597917890368, 34.28063213698413]]]]}, "properties": {"id": "Pakistan_123102310_47093", "height": 2.892108917236328, "hmax": 0.0, "ratio": 0.0, "vulnClass": "none"}}, {"type": "Feature", "geometry": {"type": "MultiPolygon", "coordinates": [[[[72.38208398126484, 34.28341616158565], [72.38205181307546, 34.28341682612648], [72.38205280508656, 34.28344785906312], [72.38208497608315, 34.283447104431964], [72.38208398126484, 34.28341616158565]]]]}, "properties": {"id": "Pakistan_123102310_505342", "height": 3.276374816894531, "hmax": 0.0, "ratio": 0.0, "vulnClass": "none"}}, {"type": "Feature", "geometry": {"type": "MultiPolygon", "coordinates": [[[[72.38225386467545, 34.283387429349425], [72.38225550864331, 34.28335194524317], [72.38221796685617, 34.28335078209874], [72.38221643140723, 34.283386268523984], [72.38225386467545, 34.283387429349425]]]]}, "properties": {"id": "Pakistan_123102310_263280", "height": 2.813358783721924, "hmax": 0.0, "ratio": 0.0, "vulnClass": "none"}}, {"type": "Feature", "geometry": {"type": "MultiPolygon", "coordinates": [[[[72.38600731205612, 34.28706803890402], [72.38598232285639, 34.287008727358895], [72.38594407403873, 34.28701981068398], [72.38596906600539, 34.2870790321449], [72.38600731205612, 34.28706803890402]]]]}, "properties": {"id": "Pakistan_123102310_903716", "height": 3.657315254211426, "hmax": 0.0, "ratio": 0.0, "vulnClass": "none"}}, {"type": "Feature", "geometry": {"type": "MultiPolygon", "coordinates": [[[[72.38862693513107, 34.28743224816056], [72.38858767864521, 34.28744781835163], [72.38861334705791, 34.2874922690617], [72.38865270931251, 34.287476791269015], [72.38862693513107, 34.28743224816056]]]]}, "properties": {"id": "Pakistan_123102310_159448", "height": 2.825296878814697, "hmax": 0.0, "ratio": 0.0, "vulnClass": "none"}}, {"type": "Feature", "geometry": {"type": "MultiPolygon", "coordinates": [[[[72.38776563036468, 34.28784299299444], [72.38777787258478, 34.28788959150542], [72.38782909350518, 34.287880497203616], [72.38781695979826, 34.287833901011965], [72.38776563036468, 34.28784299299444]]]]}, "properties": {"id": "Pakistan_123102310_709510", "height": 5.927979469299316, "hmax": 0.0, "ratio": 0.0, "vulnClass": "none"}}, {"type": "Feature", "geometry": {"type": "MultiPolygon", "coordinates": [[[[72.38700056867908, 34.2890209823391], [72.3869859816118, 34.28889581269121], [72.38692479116523, 34.28890063709594], [72.3869393781415, 34.28902580674691], [72.38700056867908, 34.2890209823391]]]]}, "properties": {"id": "Pakistan_123102310_562179", "height": 2.569412469863892, "hmax": 0.0, "ratio": 0.0, "vulnClass": "none"}}, {"type": "Feature", "geometry": {"type": "MultiPolygon", "coordinates": [[[[72.3879463760447, 34.28892640068073], [72.38792235705805, 34.288856742892676], [72.38786863323747, 34.28886947999305], [72.38785019052862, 34.28881616823357], [72.38792864010712, 34.28879764806899], [72.38791019458269, 34.288744426407945], [72.38765482087801, 34.28880478821979], [72.38771583898965, 34.28898089174259], [72.3879463760447, 34.28892640068073]]]]}, "properties": {"id": "Pakistan_123102310_168938", "height": 3.730521202087402, "hmax": 0.0, "ratio": 0.0, "vulnClass": "none"}}, {"type": "Feature", "geometry": {"type": "MultiPolygon", "coordinates": [[[[72.38732905994526, 34.28881271263249], [72.3873092419785, 34.28876874710232], [72.38726220030807, 34.288783159072565], [72.38728190692024, 34.28882721238416], [72.38732905994526, 34.28881271263249]]]]}, "properties": {"id": "Pakistan_123102310_832697", "height": 3.155142545700073, "hmax": 0.0, "ratio": 0.0, "vulnClass": "none"}}, {"type": "Feature", "geometry": {"type": "MultiPolygon", "coordinates": [[[[72.38891333164712, 34.287436191976475], [72.38884360408304, 34.28743614750059], [72.38884364978138, 34.28746274287443], [72.38881410725978, 34.28746274394535], [72.38881406606802, 34.28754478002632], [72.3889133390608, 34.28754473334572], [72.38891333164712, 34.287436191976475]]]]}, "properties": {"id": "Pakistan_123102310_600143", "height": 4.115226745605469, "hmax": 0.0, "ratio": 0.0, "vulnClass": "none"}}, {"type": "Feature", "geometry": {"type": "MultiPolygon", "coordinates": [[[[72.38721619926139, 34.28689487764834], [72.38717325916264, 34.28689612501213], [72.38717559286722, 34.28694701967283], [72.38721842445234, 34.286945769993444], [72.38721619926139, 34.28689487764834]]]]}, "properties": {"id": "Pakistan_123102310_709501", "height": 2.704611301422119, "hmax": 0.0, "ratio": 0.0, "vulnClass": "none"}}, {"type": "Feature", "geometry": {"type": "MultiPolygon", "coordinates": [[[[72.38728855760209, 34.283825445153795], [72.38725378435068, 34.283826055479224], [72.38725613245488, 34.2839080523895], [72.38729101706576, 34.283907354289724], [72.38728855760209, 34.283825445153795]]]]}, "properties": {"id": "Pakistan_123102310_169821", "height": 2.662988185882568, "hmax": 0.0, "ratio": 0.0, "vulnClass": "none"}}, {"type": "Feature", "geometry": {"type": "MultiPolygon", "coordinates": [[[[72.38745076722068, 34.28391824513137], [72.38745164204438, 34.28394260443346], [72.38727208424852, 34.28394706730994], [72.38727428917747, 34.284009137902686], [72.38754504261522, 34.284002293412875], [72.38754185131097, 34.283915951288606], [72.38745076722068, 34.28391824513137]]]]}, "properties": {"id": "Pakistan_123102310_571748", "height": 4.286798477172852, "hmax": 0.0, "ratio": 0.0, "vulnClass": "none"}}, {"type": "Feature", "geometry": {"type": "MultiPolygon", "coordinates": [[[[72.38519537341736, 34.28230085679015], [72.38517927979348, 34.28224543120764], [72.3849586486539, 34.28228922083539], [72.38497474213725, 34.28234464644025], [72.38519537341736, 34.28230085679015]]]]}, "properties": {"id": "Pakistan_123102310_443652", "height": 3.029914379119873, "hmax": 0.0, "ratio": 0.0, "vulnClass": "none"}}, {"type": "Feature", "geometry": {"type": "MultiPolygon", "coordinates": [[[[72.3907539424247, 34.28390465293672], [72.39080211013854, 34.2839064004816], [72.39080494783111, 34.283853272091726], [72.39075666882532, 34.283851612327915], [72.3907539424247, 34.28390465293672]]]]}, "properties": {"id": "Pakistan_123102310_311493", "height": 2.645732164382935, "hmax": 0.0, "ratio": 0.0, "vulnClass": "none"}}, {"type": "Feature", "geometry": {"type": "MultiPolygon", "coordinates": [[[[72.3893044293755, 34.2924304841966], [72.38924144120085, 34.29234241639512], [72.38920868411965, 34.292358485908416], [72.38917297242827, 34.2923085924262], [72.38916006609752, 34.2923149883552], [72.38910009493534, 34.29223122188941], [72.3889729326866, 34.2922934185714], [72.3891316090135, 34.29251496631711], [72.3893044293755, 34.2924304841966]]]]}, "properties": {"id": "Pakistan_123102310_794844", "height": 3.253339290618896, "hmax": 0.0, "ratio": 0.0, "vulnClass": "none"}}, {"type": "Feature", "geometry": {"type": "MultiPolygon", "coordinates": [[[[72.38932465960194, 34.29221554609328], [72.38928227885972, 34.29212494273645], [72.38923795759285, 34.292139142976986], [72.38919792016901, 34.292053547834236], [72.38907889239583, 34.292091577463275], [72.3891612045391, 34.29226768364004], [72.38932465960194, 34.29221554609328]]]]}, "properties": {"id": "Pakistan_123102310_316191", "height": 3.121455192565918, "hmax": 0.0, "ratio": 0.0, "vulnClass": "none"}}, {"type": "Feature", "geometry": {"type": "MultiPolygon", "coordinates": [[[[72.3892687471357, 34.291316365116785], [72.3890938728203, 34.290979530314466], [72.38894890899581, 34.29103088998105], [72.38897125550288, 34.2910739175313], [72.38870164516177, 34.29116940689809], [72.38873372882274, 34.29123121314471], [72.38883114081548, 34.29119668947289], [72.38880971548033, 34.29115548455266], [72.38889131278691, 34.29112657349805], [72.38890586722574, 34.29115465021601], [72.38892761017289, 34.291147000341546], [72.38899075097514, 34.29126869766679], [72.38880361707471, 34.291334934216955], [72.38886778749317, 34.291458456568584], [72.3892687471357, 34.291316365116785]]]]}, "properties": {"id": "Pakistan_123102310_552709", "height": 4.549534797668457, "hmax": 0.0, "ratio": 0.0, "vulnClass": "none"}}, {"type": "Feature", "geometry": {"type": "MultiPolygon", "coordinates": [[[[72.38834294980495, 34.289518494005144], [72.38831020700222, 34.28942187552521], [72.38810782373285, 34.28946858380344], [72.38814034922837, 34.289565197696405], [72.38834294980495, 34.289518494005144]]]]}, "properties": {"id": "Pakistan_123102310_187728", "height": 3.88451361656189, "hmax": 0.0, "ratio": 0.0, "vulnClass": "none"}}]}