{"type": "FeatureCollection", "features": [{"type": "Feature", "geometry": {"type": "MultiPolygon", "coordinates": [[[[71.97421613510659, 34.31451974309093], [71.97401343430005, 34.31451346908211], [71.97401019226656, 34.31458558978502], [71.97421289647995, 34.31459177374992], [71.97421613510659, 34.31451974309093]]]]}, "properties": {"id": "8J6H8X7F+RJH4", "height": 2.940234184265137, "hmax": 0.0, "ratio": 0.0, "vulnClass": "none"}}, {"type": "Feature", "geometry": {"type": "MultiPolygon", "coordinates": [[[[71.97461794895175, 34.31533407286233], [71.9744908050316, 34.31531407358301], [71.97447561085767, 34.31538022008057], [71.97460275487167, 34.31540021938062], [71.97461794895175, 34.31533407286233]]]]}, "properties": {"id": "8J6H8X8F+4RV7", "height": 2.654791593551636, "hmax": 0.0, "ratio": 0.0, "vulnClass": "none"}}, {"type": "Feature", "geometry": {"type": "MultiPolygon", "coordinates": [[[[71.97448281550135, 34.315415552189954], [71.97443158715808, 34.315411220916985], [71.97442713297521, 34.3154475267116], [71.97447836457414, 34.31545176792912], [71.97448281550135, 34.315415552189954]]]]}, "properties": {"id": "8J6H8X8F+5QG8", "height": 3.566164493560791, "hmax": 0.0, "ratio": 0.0, "vulnClass": "none"}}, {"type": "Feature", "geometry": {"type": "MultiPolygon", "coordinates": [[[[71.9732377497251, 34.31628371320476], [71.97312592641993, 34.31626057601999], [71.97308793423286, 34.31638673137], [71.97319975768984, 34.316409868597475], [71.9732377497251, 34.31628371320476]]]]}, "properties": {"id": "8J6H8X8F+G7MC", "height": 2.635776281356812, "hmax": 0.0, "ratio": 0.0, "vulnClass": "none"}}, {"type": "Feature", "geometry": {"type": "MultiPolygon", "coordinates": [[[[71.97332215087086, 34.31603296262772], [71.97327358040482, 34.31602418967953], [71.97325760886811, 34.3160847281826], [71.9733060675926, 34.31609358851264], [71.97332215087086, 34.31603296262772]]]]}, "properties": {"id": "8J6H8X8F+C8F7", "height": 2.93670392036438, "hmax": 0.0, "ratio": 0.0, "vulnClass": "none"}}, {"type": "Feature", "geometry": {"type": "MultiPolygon", "coordinates": [[[[71.97415904795885, 34.31613045703063], [71.97401505150329, 34.31610174778639], [71.97393218686634, 34.31638841197321], [71.974033687925, 34.31640858903255], [71.97409497214026, 34.3161964764346], [71.97413757965982, 34.316204921339505], [71.97415904795885, 34.31613045703063]]]]}, "properties": {"id": "8J6H8X8F+FJVR", "height": 3.707611322402954, "hmax": 0.0, "ratio": 0.0, "vulnClass": "none"}}, {"type": "Feature", "geometry": {"type": "MultiPolygon", "coordinates": [[[[71.97441662889426, 34.31620587188826], [71.97436921833693, 34.31620109413842], [71.9743589699278, 34.31627168953445], [71.9744063805237, 34.316276467290294], [71.97441662889426, 34.31620587188826]]]]}, "properties": {"id": "8J6H8X8F+FQRF", "height": 2.958998441696167, "hmax": 0.0, "ratio": 0.0, "vulnClass": "none"}}, {"type": "Feature", "geometry": {"type": "MultiPolygon", "coordinates": [[[[71.97442623686652, 34.31615310805591], [71.97437885868061, 34.316147429726904], [71.97436966866297, 34.316200654580655], [71.97441704687766, 34.31620633291475], [71.97442623686652, 34.31615310805591]]]]}, "properties": {"id": "8J6H8X8F+FQC4", "height": 2.493408441543579, "hmax": 0.0, "ratio": 0.0, "vulnClass": "none"}}, {"type": "Feature", "geometry": {"type": "MultiPolygon", "coordinates": [[[[71.97428119773187, 34.31548493146966], [71.97424734976309, 34.31547760459445], [71.97423643174609, 34.31551239848034], [71.9742701711897, 34.31551972267558], [71.97428119773187, 34.31548493146966]]]]}, "properties": {"id": "8J6H8X8F+5PRV", "height": 3.664447069168091, "hmax": 0.0, "ratio": 0.0, "vulnClass": "none"}}, {"type": "Feature", "geometry": {"type": "MultiPolygon", "coordinates": [[[[71.97454644543124, 34.31557973505312], [71.97423643174609, 34.31551239848034], [71.97421461185384, 34.315581535955054], [71.9745246290017, 34.315648782536655], [71.97454644543124, 34.31557973505312]]]]}, "properties": {"id": "8J6H8X8F+6QJ6", "height": 3.138909578323364, "hmax": 0.0, "ratio": 0.0, "vulnClass": "none"}}, {"type": "Feature", "geometry": {"type": "MultiPolygon", "coordinates": [[[[71.97526121100819, 34.31609848388483], [71.97512565663357, 34.31605853702868], [71.97510845700934, 34.3160988544462], [71.9752440114378, 34.31613880132423], [71.97526121100819, 34.31609848388483]]]]}, "properties": {"id": "8J6H8X8G+C3MX", "height": 3.152153015136719, "hmax": 0.0, "ratio": 0.0, "vulnClass": "none"}}, {"type": "Feature", "geometry": {"type": "MultiPolygon", "coordinates": [[[[71.97553006110358, 34.31528504931538], [71.97547547640136, 34.315283429820454], [71.97547174088585, 34.31536932957656], [71.97552621710578, 34.31537094639356], [71.97553006110358, 34.31528504931538]]]]}, "properties": {"id": "8J6H8X8G+46J2", "height": 3.063925266265869, "hmax": 0.0, "ratio": 0.0, "vulnClass": "none"}}, {"type": "Feature", "geometry": {"type": "MultiPolygon", "coordinates": [[[[71.97480829582332, 34.31481615595143], [71.97482754723661, 34.314652129214224], [71.97478844309828, 34.31464899920546], [71.9747829854438, 34.31469510530457], [71.97472882701915, 34.314690701733376], [71.97472364784235, 34.31473510208274], [71.97477780952862, 34.31473941559922], [71.97477482572933, 34.31476503129041], [71.97472066726067, 34.314760627713284], [71.97471503311158, 34.31480862235134], [71.97480829582332, 34.31481615595143]]]]}, "properties": {"id": "8J6H8X7F+VWRQ", "height": 3.996441841125488, "hmax": 0.0, "ratio": 0.0, "vulnClass": "none"}}, {"type": "Feature", "geometry": {"type": "MultiPolygon", "coordinates": [[[[71.97423697174604, 34.314353952899175], [71.97403584042532, 34.31433726168854], [71.97403040180119, 34.314382827384605], [71.97423153322832, 34.31439951860982], [71.97423697174604, 34.314353952899175]]]]}, "properties": {"id": "8J6H8X7F+PMRM", "height": 2.614407777786255, "hmax": 0.0, "ratio": 0.0, "vulnClass": "none"}}, {"type": "Feature", "geometry": {"type": "MultiPolygon", "coordinates": [[[[71.98153256164296, 34.31797345093551], [71.98144391982248, 34.31790050558249], [71.98140203126476, 34.31793561786598], [71.98149067308125, 34.31800856324901], [71.98153256164296, 34.31797345093551]]]]}, "properties": {"id": "8J6H8X9J+5HP5", "height": 3.044298887252808, "hmax": 0.0, "ratio": 0.0, "vulnClass": "none"}}, {"type": "Feature", "geometry": {"type": "MultiPolygon", "coordinates": [[[[71.98292181031519, 34.31914760473379], [71.98292840475983, 34.31900291453579], [71.9828403988829, 34.319000113679245], [71.98283697474311, 34.31907448376411], [71.98255136008343, 34.31906545810503], [71.98254807762191, 34.31913586556804], [71.98292181031519, 34.31914760473379]]]]}, "properties": {"id": "8J6H8X9M+J4JP", "height": 2.645091533660889, "hmax": 0.0, "ratio": 0.0, "vulnClass": "none"}}, {"type": "Feature", "geometry": {"type": "MultiPolygon", "coordinates": [[[[71.9729674522891, 34.3196037632521], [71.97280721388312, 34.319600610487065], [71.97280558648211, 34.31965798833895], [71.97296582499696, 34.319661141111894], [71.9729674522891, 34.3196037632521]]]]}, "properties": {"id": "8J6H8X9F+V527", "height": 3.375229835510254, "hmax": 0.0, "ratio": 0.0, "vulnClass": "none"}}, {"type": "Feature", "geometry": {"type": "MultiPolygon", "coordinates": [[[[71.97323929097107, 34.31965150051488], [71.97312065148779, 34.31963955203653], [71.97311258938177, 34.31969460740723], [71.97323122894029, 34.31970655589737], [71.97323929097107, 34.31965150051488]]]]}, "properties": {"id": "8J6H8X9F+V77W", "height": 2.685102462768555, "hmax": 0.0, "ratio": 0.0, "vulnClass": "none"}}, {"type": "Feature", "geometry": {"type": "MultiPolygon", "coordinates": [[[[71.97310973879421, 34.31952904291503], [71.97301335252918, 34.319520619363914], [71.97298808687505, 34.319718839514906], [71.97308458190457, 34.319727265782646], [71.97310973879421, 34.31952904291503]]]]}, "properties": {"id": "8J6H8X9F+R6VW", "height": 6.043684959411621, "hmax": 0.0, "ratio": 0.0, "vulnClass": "none"}}, {"type": "Feature", "geometry": {"type": "MultiPolygon", "coordinates": [[[[71.9728610557954, 34.31948088669087], [71.97285444641989, 34.31952876691329], [71.97298014744493, 34.319540710053], [71.97298675675091, 34.31949282982011], [71.9728610557954, 34.31948088669087]]]]}, "properties": {"id": "8J6H8X9F+R53F", "height": 5.996461868286133, "hmax": 0.0, "ratio": 0.0, "vulnClass": "none"}}, {"type": "Feature", "geometry": {"type": "MultiPolygon", "coordinates": [[[[71.97334703866579, 34.31955537402216], [71.97329864297164, 34.319550751716186], [71.9732829549345, 34.31966384784209], [71.97333135069186, 34.319668470157616], [71.97334703866579, 34.31955537402216]]]]}, "properties": {"id": "8J6H8X9F+R8W6", "height": 3.554008960723877, "hmax": 0.0, "ratio": 0.0, "vulnClass": "none"}}, {"type": "Feature", "geometry": {"type": "MultiPolygon", "coordinates": [[[[71.97377343471571, 34.31961017786981], [71.97373406597183, 34.31960830285355], [71.97373166196401, 34.31964195514284], [71.97377103072346, 34.31964383016069], [71.97377343471571, 34.31961017786981]]]]}, "properties": {"id": "8J6H8X9F+VG22", "height": 5.540065765380859, "hmax": 0.0, "ratio": 0.0, "vulnClass": "none"}}, {"type": "Feature", "geometry": {"type": "MultiPolygon", "coordinates": [[[[71.97269240401941, 34.31877471712684], [71.97262876269285, 34.31876809490809], [71.97261239984357, 34.31887576594232], [71.97267604124895, 34.31888238817376], [71.97269240401941, 34.31877471712684]]]]}, "properties": {"id": "8J6H8X9F+G3J5", "height": 2.667116165161133, "hmax": 0.0, "ratio": 0.0, "vulnClass": "none"}}, {"type": "Feature", "geometry": {"type": "MultiPolygon", "coordinates": [[[[71.9858924364383, 34.321634366250585], [71.98584061554034, 34.32176487254215], [71.98598747378931, 34.321805086306405], [71.98603929771636, 34.32167448988323], [71.9858924364383, 34.321634366250585]]]]}, "properties": {"id": "8J6H8XCP+M9PJ", "height": 2.84667444229126, "hmax": 0.0, "ratio": 0.0, "vulnClass": "none"}}, {"type": "Feature", "geometry": {"type": "MultiPolygon", "coordinates": [[[[71.9868086500205, 34.321840003110154], [71.98674484585904, 34.32184086566366], [71.98674569166714, 34.3218809982239], [71.98680949585909, 34.32188013567158], [71.9868086500205, 34.321840003110154]]]]}, "properties": {"id": "8J6H8XCP+PPRH", "height": 2.6806800365448, "hmax": 0.0, "ratio": 0.0, "vulnClass": "none"}}, {"type": "Feature", "geometry": {"type": "MultiPolygon", "coordinates": [[[[71.98675179226404, 34.32209919402241], [71.98674698199503, 34.322066625627436], [71.98666978245353, 34.32207445950369], [71.98667459269265, 34.32210702790011], [71.98675179226404, 34.32209919402241]]]]}, "properties": {"id": "8J6H8XCP+RMPG", "height": 3.008699893951416, "hmax": 0.0, "ratio": 0.0, "vulnClass": "none"}}, {"type": "Feature", "geometry": {"type": "MultiPolygon", "coordinates": [[[[71.98681859852194, 34.32206604559586], [71.98678797525716, 34.32206565205021], [71.98678752792873, 34.32209637833889], [71.98681815120466, 34.32209677188523], [71.98681859852194, 34.32206604559586]]]]}, "properties": {"id": "8J6H8XCP+RPM8", "height": 2.455360174179077, "hmax": 0.0, "ratio": 0.0, "vulnClass": "none"}}, {"type": "Feature", "geometry": {"type": "MultiPolygon", "coordinates": [[[[71.98759224699697, 34.32200829599932], [71.98753918984497, 34.32200635882338], [71.98753287161801, 34.32212834127376], [71.98768770463177, 34.32213395580535], [71.9876900265435, 34.322090295672524], [71.98758814226294, 34.32208661565603], [71.98759224699697, 34.32200829599932]]]]}, "properties": {"id": "8J6H8XCQ+R2PH", "height": 2.927655220031738, "hmax": 0.0, "ratio": 0.0, "vulnClass": "none"}}, {"type": "Feature", "geometry": {"type": "MultiPolygon", "coordinates": [[[[71.98588627258347, 34.3184910773831], [71.9858736888324, 34.31809280491292], [71.9857688801212, 34.318095090777234], [71.98578146337495, 34.318493363231816], [71.98588627258347, 34.3184910773831]]]]}, "properties": {"id": "8J6H8X9P+888M", "height": 5.51312780380249, "hmax": 0.0, "ratio": 0.0, "vulnClass": "none"}}, {"type": "Feature", "geometry": {"type": "MultiPolygon", "coordinates": [[[[71.98644100754025, 34.316744059642616], [71.98639231818333, 34.31675070266801], [71.98639792760176, 34.31677914438206], [71.98644661375356, 34.31677259141472], [71.98644100754025, 34.316744059642616]]]]}, "properties": {"id": "8J6H8X8P+PH3F", "height": 4.600118160247803, "hmax": 0.0, "ratio": 0.0, "vulnClass": "none"}}, {"type": "Feature", "geometry": {"type": "MultiPolygon", "coordinates": [[[[71.98673832743309, 34.31693589523876], [71.98669019650978, 34.31693299742117], [71.98675034765193, 34.31704327608794], [71.98682774605307, 34.317047976211754], [71.98683062941524, 34.31701595780464], [71.98690781071787, 34.31702065253145], [71.98691186709424, 34.31697406052162], [71.98673593072257, 34.31696341868757], [71.98673832743309, 34.31693589523876]]]]}, "properties": {"id": "8J6H8X8P+QPVW", "height": 2.444397926330566, "hmax": 0.0, "ratio": 0.0, "vulnClass": "none"}}, {"type": "Feature", "geometry": {"type": "MultiPolygon", "coordinates": [[[[71.98699640658394, 34.316171563251636], [71.98696894599709, 34.31617088712663], [71.98696654003054, 34.31623816156375], [71.98704034720221, 34.31623997880736], [71.98704175145461, 34.31620071286829], [71.98699540491315, 34.316199571753046], [71.98699640658394, 34.316171563251636]]]]}, "properties": {"id": "8J6H8X8P+FQQH", "height": 3.456811904907227, "hmax": 0.0, "ratio": 0.0, "vulnClass": "none"}}, {"type": "Feature", "geometry": {"type": "MultiPolygon", "coordinates": [[[[71.98756856764021, 34.31421854994851], [71.98751327018736, 34.31420952692225], [71.98748548964666, 34.314327195334485], [71.9875407903919, 34.31433612831753], [71.98756856764021, 34.31421854994851]]]]}, "properties": {"id": "8J6H8X7Q+P22X", "height": 3.451910972595215, "hmax": 0.0, "ratio": 0.0, "vulnClass": "none"}}, {"type": "Feature", "geometry": {"type": "MultiPolygon", "coordinates": [[[[71.97805492639648, 34.30923639169789], [71.97802450951122, 34.30922734787696], [71.97801349256403, 34.30925285547605], [71.97804390945689, 34.309261899300104], [71.97805492639648, 34.30923639169789]]]]}, "properties": {"id": "8J6H8X5H+M6VJ", "height": 3.162678956985474, "hmax": 0.0, "ratio": 0.0, "vulnClass": "none"}}, {"type": "Feature", "geometry": {"type": "MultiPolygon", "coordinates": [[[[71.97838533454548, 34.30898585203283], [71.97841554289427, 34.30888861719546], [71.97837544111658, 34.308880055458864], [71.97834523595526, 34.30897720022527], [71.97838533454548, 34.30898585203283]]]]}, "properties": {"id": "8J6H8X5H+H9C6", "height": 2.578282594680786, "hmax": 0.0, "ratio": 0.0, "vulnClass": "none"}}, {"type": "Feature", "geometry": {"type": "MultiPolygon", "coordinates": [[[[71.97455557604115, 34.31053328944922], [71.97459909588717, 34.3104254780395], [71.97455403194304, 34.31041291641411], [71.97452850729852, 34.31047637385914], [71.97433405154521, 34.31042226068461], [71.97431616150612, 34.31046670733939], [71.97455557604115, 34.31053328944922]]]]}, "properties": {"id": "8J6H8X6F+5QQR", "height": 3.143731832504272, "hmax": 0.0, "ratio": 0.0, "vulnClass": "none"}}, {"type": "Feature", "geometry": {"type": "MultiPolygon", "coordinates": [[[[71.97428809476901, 34.31052532454015], [71.97425605822183, 34.31051903402792], [71.97424611779206, 34.31055385212324], [71.97427815435137, 34.31056014263872], [71.97428809476901, 34.31052532454015]]]]}, "properties": {"id": "8J6H8X6F+6P6G", "height": 2.468616247177124, "hmax": 0.0, "ratio": 0.0, "vulnClass": "none"}}, {"type": "Feature", "geometry": {"type": "MultiPolygon", "coordinates": [[[[71.97450288054777, 34.31053964849607], [71.97442221280635, 34.31051728291248], [71.97440147875074, 34.310568329515135], [71.9744822518314, 34.31059078785623], [71.97450288054777, 34.31053964849607]]]]}, "properties": {"id": "8J6H8X6F+6QG3", "height": 2.859690189361572, "hmax": 0.0, "ratio": 0.0, "vulnClass": "none"}}, {"type": "Feature", "geometry": {"type": "MultiPolygon", "coordinates": [[[[71.974634838016, 34.31028619628675], [71.97460017921156, 34.310283356442895], [71.97459755818352, 34.3103049248828], [71.97463232552771, 34.31030776741083], [71.974634838016, 34.31028619628675]]]]}, "properties": {"id": "8J6H8X6F+4R9W", "height": 3.097653865814209, "hmax": 0.0, "ratio": 0.0, "vulnClass": "none"}}, {"type": "Feature", "geometry": {"type": "MultiPolygon", "coordinates": [[[[71.97448410709424, 34.310248668081194], [71.97441511189538, 34.3102430864085], [71.97441215088614, 34.310268071699944], [71.97444561906613, 34.31027079202338], [71.97444310653043, 34.31029236314106], [71.97447852181371, 34.31029531186967], [71.97448410709424, 34.310248668081194]]]]}, "properties": {"id": "8J6H8X6F+4Q4M", "height": 3.361088991165161, "hmax": 0.0, "ratio": 0.0, "vulnClass": "none"}}, {"type": "Feature", "geometry": {"type": "MultiPolygon", "coordinates": [[[[71.97460314339956, 34.310258281085474], [71.97448410709424, 34.310248668081194], [71.97447852181371, 34.31029531186967], [71.97459755818352, 34.3103049248828], [71.97460314339956, 34.310258281085474]]]]}, "properties": {"id": "8J6H8X6F+4R73", "height": 3.880503177642822, "hmax": 0.0, "ratio": 0.0, "vulnClass": "none"}}]}