{"type": "FeatureCollection", "features": [{"type": "Feature", "geometry": {"type": "MultiPolygon", "coordinates": [[[[71.85258430390309, 34.33250581156841], [71.85243208579833, 34.332462145944], [71.85236286653814, 34.332628015054915], [71.85243284741188, 34.33264811291183], [71.85244824377489, 34.33261119338266], [71.85253047785976, 34.33263485128581], [71.8525536367046, 34.33257920322149], [71.85258308913957, 34.33258771253551], [71.85260063115918, 34.33254571052362], [71.85257117537003, 34.332537291262334], [71.85258430390309, 34.33250581156841]]]]}, "properties": {"id": "8J6H8VM2+2XH7", "height": 2.447780609130859, "hmax": 0.0, "ratio": 0.0, "vulnClass": "none"}}, {"type": "Feature", "geometry": {"type": "MultiPolygon", "coordinates": [[[[71.85179259118613, 34.332249287766935], [71.85166525933259, 34.33223456384561], [71.8516533793769, 34.33230528404185], [71.85178071133343, 34.33232000798122], [71.85179259118613, 34.332249287766935]]]]}, "properties": {"id": "8J6H8VJ2+WM92", "height": 2.519629955291748, "hmax": 1.103, "ratio": 0.438, "vulnClass": "moderate"}}, {"type": "Feature", "geometry": {"type": "MultiPolygon", "coordinates": [[[[71.85164029183133, 34.332190386369284], [71.85161378287684, 34.33219033508836], [71.85161368638515, 34.332221969789515], [71.8516401953496, 34.332222021071026], [71.85164029183133, 34.332190386369284]]]]}, "properties": {"id": "8J6H8VJ2+VMJ6", "height": 2.519629955291748, "hmax": 1.047, "ratio": 0.415, "vulnClass": "moderate"}}, {"type": "Feature", "geometry": {"type": "MultiPolygon", "coordinates": [[[[71.85180974816217, 34.33215076167716], [71.85167418790748, 34.33213816951448], [71.85166039988468, 34.332239576449005], [71.8517959602983, 34.33225216863571], [71.85180974816217, 34.33215076167716]]]]}, "properties": {"id": "8J6H8VJ2+VMHW", "height": 2.519629955291748, "hmax": 1.047, "ratio": 0.415, "vulnClass": "moderate"}}, {"type": "Feature", "geometry": {"type": "MultiPolygon", "coordinates": [[[[71.85212925182898, 34.32973400591748], [71.85160749344641, 34.32954887353233], [71.85157364288604, 34.329614431484174], [71.852095398211, 34.32979965407837], [71.85212925182898, 34.32973400591748]]]]}, "properties": {"id": "8J6H8VH2+VP9R", "height": 2.568177700042725, "hmax": 0.0, "ratio": 0.0, "vulnClass": "none"}}, {"type": "Feature", "geometry": {"type": "MultiPolygon", "coordinates": [[[[71.85018205399153, 34.331810789314574], [71.85011734815848, 34.331707812251686], [71.85003054199558, 34.33174541655712], [71.8500952477439, 34.33184839366114], [71.85018205399153, 34.331810789314574]]]]}, "properties": {"id": "8J6H8VJ2+P293", "height": 3.0163254737854, "hmax": 0.0, "ratio": 0.0, "vulnClass": "none"}}, {"type": "Feature", "geometry": {"type": "MultiPolygon", "coordinates": [[[[71.85031158997062, 34.33160393103539], [71.8502858377006, 34.33157785011341], [71.85022664690436, 34.33161787810931], [71.85025239916628, 34.331643959043284], [71.85031158997062, 34.33160393103539]]]]}, "properties": {"id": "8J6H8VJ2+J4RG", "height": 2.67945408821106, "hmax": 0.134, "ratio": 0.05, "vulnClass": "low"}}, {"type": "Feature", "geometry": {"type": "MultiPolygon", "coordinates": [[[[71.84821382624939, 34.33086524342185], [71.84819837446372, 34.33083104496073], [71.84814649085146, 34.33084710419131], [71.848161939247, 34.330881392705386], [71.84821382624939, 34.33086524342185]]]]}, "properties": {"id": "8J6H8RJX+87V9", "height": 2.472997188568115, "hmax": 0.0, "ratio": 0.0, "vulnClass": "none"}}, {"type": "Feature", "geometry": {"type": "MultiPolygon", "coordinates": [[[[71.84799745696132, 34.33096521620075], [71.84798765701002, 34.33091935573691], [71.84791795379773, 34.330929637820645], [71.84792775371135, 34.33097549828798], [71.84799745696132, 34.33096521620075]]]]}, "properties": {"id": "8J6H8RJX+95GW", "height": 2.652905702590942, "hmax": 0.0, "ratio": 0.0, "vulnClass": "none"}}, {"type": "Feature", "geometry": {"type": "MultiPolygon", "coordinates": [[[[71.85125887575823, 34.329039565122194], [71.85115495656817, 34.32921238222944], [71.85123594821297, 34.32924592371663], [71.85132098954718, 34.32910434800729], [71.85159413932952, 34.32921737587127], [71.85161291182638, 34.32918604151137], [71.85125887575823, 34.329039565122194]]]]}, "properties": {"id": "8J6H8VH2+MG4P", "height": 3.434731483459473, "hmax": 0.0, "ratio": 0.0, "vulnClass": "none"}}, {"type": "Feature", "geometry": {"type": "MultiPolygon", "coordinates": [[[[71.8511768777442, 34.32918401328546], [71.85122247301355, 34.32911235818192], [71.85117383706041, 34.32909100640967], [71.85112813658897, 34.32916256865214], [71.8511768777442, 34.32918401328546]]]]}, "properties": {"id": "8J6H8VH2+MF3G", "height": 3.434731483459473, "hmax": 0.0, "ratio": 0.0, "vulnClass": "none"}}, {"type": "Feature", "geometry": {"type": "MultiPolygon", "coordinates": [[[[71.85117007601114, 34.32879355606263], [71.85107585096844, 34.32876526226761], [71.85104828830639, 34.32882827788647], [71.85118655778237, 34.328869963611986], [71.8511905984347, 34.32886069362739], [71.85114654732833, 34.3288474818185], [71.85117007601114, 34.32879355606263]]]]}, "properties": {"id": "8J6H8VH2+GCHG", "height": 3.252418518066406, "hmax": 0.0, "ratio": 0.0, "vulnClass": "none"}}, {"type": "Feature", "geometry": {"type": "MultiPolygon", "coordinates": [[[[71.85098331396607, 34.328732505128855], [71.85095684677415, 34.3287952785192], [71.85105498269102, 34.32882358293362], [71.85108144645444, 34.3287608995665], [71.85098331396607, 34.328732505128855]]]]}, "properties": {"id": "8J6H8VH2+GC64", "height": 3.367308139801025, "hmax": 0.0, "ratio": 0.0, "vulnClass": "none"}}, {"type": "Feature", "geometry": {"type": "MultiPolygon", "coordinates": [[[[71.8468054488357, 34.32857216859075], [71.84667822284332, 34.32856059707593], [71.84667186333385, 34.3286085648819], [71.84679908939682, 34.328620136407224], [71.8468054488357, 34.32857216859075]]]]}, "properties": {"id": "8J6H8RHW+CMQP", "height": 3.592833757400513, "hmax": 0.0, "ratio": 0.0, "vulnClass": "none"}}, {"type": "Feature", "geometry": {"type": "MultiPolygon", "coordinates": [[[[71.84663281119147, 34.32857213552884], [71.84657522100547, 34.32856073634452], [71.84655634919791, 34.328626588759064], [71.846613939425, 34.32863798795452], [71.84663281119147, 34.32857213552884]]]]}, "properties": {"id": "8J6H8RHW+CJQR", "height": 2.89430046081543, "hmax": 0.0, "ratio": 0.0, "vulnClass": "none"}}, {"type": "Feature", "geometry": {"type": "MultiPolygon", "coordinates": [[[[71.84633807119005, 34.328568774510885], [71.84622012707639, 34.328468929905796], [71.84614639318539, 34.32852886125857], [71.84626433728411, 34.3286287059338], [71.84633807119005, 34.328568774510885]]]]}, "properties": {"id": "8J6H8RHW+CF9X", "height": 3.065661907196045, "hmax": 0.0, "ratio": 0.0, "vulnClass": "none"}}, {"type": "Feature", "geometry": {"type": "MultiPolygon", "coordinates": [[[[71.84468563193894, 34.32828568927118], [71.84459671108988, 34.328272489635424], [71.84458579227744, 34.32832322400302], [71.84454894854304, 34.32831776701706], [71.84453631158348, 34.3283766592804], [71.84466207630074, 34.32839531593042], [71.84468563193894, 34.32828568927118]]]]}, "properties": {"id": "8J6H8RHV+8RQG", "height": 3.461609840393066, "hmax": 0.0, "ratio": 0.0, "vulnClass": "none"}}, {"type": "Feature", "geometry": {"type": "MultiPolygon", "coordinates": [[[[71.85090566587834, 34.33208386761103], [71.8508710642168, 34.33207360293269], [71.85085703982043, 34.332105780440884], [71.85089163812471, 34.332116135171496], [71.85090566587834, 34.33208386761103]]]]}, "properties": {"id": "8J6H8VJ2+R9JJ", "height": 3.169011116027832, "hmax": 1.203, "ratio": 0.38, "vulnClass": "moderate"}}, {"type": "Feature", "geometry": {"type": "MultiPolygon", "coordinates": [[[[71.84898890545679, 34.33455268551831], [71.8489439694579, 34.334565949541606], [71.8489915303401, 34.334677048358344], [71.84903657157277, 34.334663877164125], [71.84898890545679, 34.33455268551831]]]]}, "properties": {"id": "8J6H8RMX+RHXG", "height": 2.849964141845703, "hmax": 1.626, "ratio": 0.571, "vulnClass": "moderate"}}, {"type": "Feature", "geometry": {"type": "MultiPolygon", "coordinates": [[[[71.84903928008448, 34.334783104501525], [71.84900079303158, 34.3347140617489], [71.8488435946125, 34.3347743684446], [71.84894175150447, 34.33495031527613], [71.84903269721642, 34.334915432392265], [71.84897313571969, 34.33480853119159], [71.84903928008448, 34.334783104501525]]]]}, "properties": {"id": "8J6H8RMX+WHP3", "height": 2.817682504653931, "hmax": 1.611, "ratio": 0.572, "vulnClass": "moderate"}}, {"type": "Feature", "geometry": {"type": "MultiPolygon", "coordinates": [[[[71.84931197624766, 34.334757679844756], [71.84928597964561, 34.334761336737294], [71.84930813296818, 34.33486907702429], [71.84933358348387, 34.33486549619777], [71.84931197624766, 34.334757679844756]]]]}, "properties": {"id": "8J6H8RMX+WPFH", "height": 2.532932758331299, "hmax": 1.132, "ratio": 0.447, "vulnClass": "moderate"}}, {"type": "Feature", "geometry": {"type": "MultiPolygon", "coordinates": [[[[71.84949583787187, 34.3349226739799], [71.84948037092934, 34.33484530092343], [71.84933358348387, 34.33486549619777], [71.8493786455581, 34.33508982937367], [71.84952532821288, 34.33506954122377], [71.84950792541635, 34.33498292461304], [71.84944883588719, 34.334991137323236], [71.84943675175488, 34.334930796639036], [71.84949583787187, 34.3349226739799]]]]}, "properties": {"id": "8J6H8RMX+XQMP", "height": 3.533291578292847, "hmax": 1.113, "ratio": 0.315, "vulnClass": "moderate"}}, {"type": "Feature", "geometry": {"type": "MultiPolygon", "coordinates": [[[[71.84921604360069, 34.33471969610021], [71.84920394504178, 34.334682970219255], [71.84915233284829, 34.33469462021497], [71.84916443138553, 34.33473134609982], [71.84921604360069, 34.33471969610021]]]]}, "properties": {"id": "8J6H8RMX+VMM9", "height": 2.662476062774658, "hmax": 1.206, "ratio": 0.453, "vulnClass": "moderate"}}, {"type": "Feature", "geometry": {"type": "MultiPolygon", "coordinates": [[[[71.8497715388101, 34.334430790320106], [71.84970347897814, 34.334336109147515], [71.84950620932646, 34.334433601772545], [71.84957426899759, 34.33452828304582], [71.8497715388101, 34.334430790320106]]]]}, "properties": {"id": "8J6H8RMX+QVC7", "height": 2.677085876464844, "hmax": 1.316, "ratio": 0.492, "vulnClass": "moderate"}}, {"type": "Feature", "geometry": {"type": "MultiPolygon", "coordinates": [[[[71.84930523642893, 34.33446745398148], [71.84928537156009, 34.33436824525974], [71.84923283585017, 34.334375545062485], [71.84925270065739, 34.33447475378936], [71.84930523642893, 34.33446745398148]]]]}, "properties": {"id": "8J6H8RMX+QP6W", "height": 2.492134571075439, "hmax": 1.584, "ratio": 0.635, "vulnClass": "high"}}, {"type": "Feature", "geometry": {"type": "MultiPolygon", "coordinates": [[[[71.84925270065739, 34.33447475378936], [71.84924491304633, 34.33443606585406], [71.84919128842822, 34.33444342772611], [71.84919896746538, 34.33448211286765], [71.84925270065739, 34.33447475378936]]]]}, "properties": {"id": "8J6H8RMX+QMQ6", "height": 2.492134571075439, "hmax": 1.582, "ratio": 0.635, "vulnClass": "high"}}, {"type": "Feature", "geometry": {"type": "MultiPolygon", "coordinates": [[[[71.84900917752876, 34.33449876655316], [71.84892515444925, 34.334302272680816], [71.84884165606921, 34.33432689176089], [71.84892578751837, 34.334523388476626], [71.84900917752876, 34.33449876655316]]]]}, "properties": {"id": "8J6H8RMX+QH7G", "height": 2.742208480834961, "hmax": 1.635, "ratio": 0.596, "vulnClass": "moderate"}}, {"type": "Feature", "geometry": {"type": "MultiPolygon", "coordinates": [[[[71.8498047582874, 34.3341876520825], [71.8496829461694, 34.33428086883631], [71.84976052483346, 34.3343505575269], [71.84980828722222, 34.33431402118153], [71.84989311669058, 34.33439029604706], [71.84996716309601, 34.33433370556037], [71.8498047582874, 34.3341876520825]]]]}, "properties": {"id": "8J6H8RMX+PW8M", "height": 2.535745859146118, "hmax": 1.574, "ratio": 0.621, "vulnClass": "high"}}, {"type": "Feature", "geometry": {"type": "MultiPolygon", "coordinates": [[[[71.85158981360019, 34.334327526324145], [71.85151468394808, 34.33432595325863], [71.85150863724162, 34.334519586598525], [71.85163967687228, 34.334522418329215], [71.8516419536411, 34.334449918727806], [71.85158604388282, 34.334448660079545], [71.85158981360019, 34.334327526324145]]]]}, "properties": {"id": "8J6H8VM2+QJGC", "height": 2.75438380241394, "hmax": 0.0, "ratio": 0.0, "vulnClass": "none"}}, {"type": "Feature", "geometry": {"type": "MultiPolygon", "coordinates": [[[[71.85051910510342, 34.33547558780347], [71.85054477777258, 34.33545155194783], [71.85051024367652, 34.335445254782805], [71.8505030253714, 34.335472650055635], [71.85051910510342, 34.33547558780347]]]]}, "properties": {"id": "8J6H8VP2+56J8", "height": 2.488937377929688, "hmax": 0.0, "ratio": 0.0, "vulnClass": "none"}}, {"type": "Feature", "geometry": {"type": "MultiPolygon", "coordinates": [[[[71.8504153685598, 34.33515825793856], [71.85030890415509, 34.33508809630865], [71.85027068455487, 34.335128033247614], [71.85037704042252, 34.335198192116636], [71.8504153685598, 34.33515825793856]]]]}, "properties": {"id": "8J6H8VP2+344Q", "height": 2.665062189102173, "hmax": 0.0, "ratio": 0.0, "vulnClass": "none"}}, {"type": "Feature", "geometry": {"type": "MultiPolygon", "coordinates": [[[[71.85034495829892, 34.335056666366526], [71.85030320100327, 34.335031435225254], [71.85027437255168, 34.335064313080466], [71.85039544139285, 34.33513908706994], [71.8504256027521, 34.33510543229405], [71.8504013754934, 34.33509083770148], [71.85042929170855, 34.33505910807509], [71.85037321701788, 34.3350244948998], [71.85034495829892, 34.335056666366526]]]]}, "properties": {"id": "8J6H8VP2+24Q4", "height": 2.784286737442017, "hmax": 0.0, "ratio": 0.0, "vulnClass": "none"}}, {"type": "Feature", "geometry": {"type": "MultiPolygon", "coordinates": [[[[71.85030662301733, 34.33501547941726], [71.85026675447965, 34.3350007524802], [71.85023778892707, 34.33505471823602], [71.85027765411455, 34.335069535231156], [71.85030662301733, 34.33501547941726]]]]}, "properties": {"id": "8J6H8VP2+246G", "height": 2.784286737442017, "hmax": 0.0, "ratio": 0.0, "vulnClass": "none"}}, {"type": "Feature", "geometry": {"type": "MultiPolygon", "coordinates": [[[[71.85113915807206, 34.33574978495129], [71.85111182643561, 34.335760077804956], [71.8511437625008, 34.335818405599156], [71.85117098223385, 34.33580819999277], [71.85113915807206, 34.33574978495129]]]]}, "properties": {"id": "8J6H8VP2+8F68", "height": 2.448179006576538, "hmax": 0.0, "ratio": 0.0, "vulnClass": "none"}}, {"type": "Feature", "geometry": {"type": "MultiPolygon", "coordinates": [[[[71.8508440596736, 34.336098039014175], [71.85089261107582, 34.335924247937946], [71.85082842388167, 34.33591186957073], [71.85077976380647, 34.336085657820284], [71.8508440596736, 34.336098039014175]]]]}, "properties": {"id": "8J6H8VP2+C845", "height": 4.367429733276367, "hmax": 0.0, "ratio": 0.0, "vulnClass": "none"}}, {"type": "Feature", "geometry": {"type": "MultiPolygon", "coordinates": [[[[71.85077933254897, 34.33601876702101], [71.8508302692548, 34.33591191707682], [71.85080064258476, 34.335902231081405], [71.85076927503474, 34.33596812299306], [71.85071689485487, 34.335950910865726], [71.85069732564907, 34.33599186887481], [71.85077933254897, 34.33601876702101]]]]}, "properties": {"id": "8J6H8VP2+98JP", "height": 2.984060764312744, "hmax": 0.0, "ratio": 0.0, "vulnClass": "none"}}, {"type": "Feature", "geometry": {"type": "MultiPolygon", "coordinates": [[[[71.84924779762923, 34.335711811239456], [71.84916111331712, 34.335711200964234], [71.84916057228217, 34.33576049049893], [71.84924736519602, 34.335761103573205], [71.84924779762923, 34.335711811239456]]]]}, "properties": {"id": "8J6H8RPX+7MWG", "height": 2.440341949462891, "hmax": 0.0, "ratio": 0.0, "vulnClass": "none"}}, {"type": "Feature", "geometry": {"type": "MultiPolygon", "coordinates": [[[[71.84943846733225, 34.33586913916572], [71.84935056448907, 34.33586624427942], [71.84934699043919, 34.33594141438431], [71.84947352749839, 34.33594557468848], [71.8494749147521, 34.33591721810484], [71.84943617207584, 34.3359159498993], [71.84943846733225, 34.33586913916572]]]]}, "properties": {"id": "8J6H8RPX+9Q69", "height": 2.518422365188599, "hmax": 0.0, "ratio": 0.0, "vulnClass": "none"}}, {"type": "Feature", "geometry": {"type": "MultiPolygon", "coordinates": [[[[71.84936278794223, 34.33610865987876], [71.84941596233315, 34.33594787775581], [71.8493346195326, 34.33592937830332], [71.84928144837392, 34.33609007033585], [71.84936278794223, 34.33610865987876]]]]}, "properties": {"id": "8J6H8RPX+CP5J", "height": 2.475003719329834, "hmax": 0.0, "ratio": 0.0, "vulnClass": "none"}}, {"type": "Feature", "geometry": {"type": "MultiPolygon", "coordinates": [[[[71.84903347627629, 34.335701603954675], [71.84898555615007, 34.335707490229375], [71.84899086182216, 34.33573701067969], [71.84903867341423, 34.33573112160778], [71.84903347627629, 34.335701603954675]]]]}, "properties": {"id": "8J6H8RPX+7JJM", "height": 2.821849346160889, "hmax": 0.936, "ratio": 0.332, "vulnClass": "moderate"}}, {"type": "Feature", "geometry": {"type": "MultiPolygon", "coordinates": [[[[71.84927812481826, 34.3358276037399], [71.8492789843121, 34.335734967798224], [71.84924759285983, 34.33573470008201], [71.84924736519602, 34.335761103573205], [71.84921618746634, 34.33576093148764], [71.84921594491486, 34.33578192653598], [71.84918998436811, 34.335781708551266], [71.84919022692607, 34.33576071350332], [71.84910788797723, 34.33576012497676], [71.84910764539873, 34.335781120023405], [71.84910714745185, 34.33582635462232], [71.84927812481826, 34.3358276037399]]]]}, "properties": {"id": "8J6H8RPX+8M8M", "height": 2.656569719314575, "hmax": 0.0, "ratio": 0.0, "vulnClass": "none"}}, {"type": "Feature", "geometry": {"type": "MultiPolygon", "coordinates": [[[[71.84915631182969, 34.335761101837015], [71.84914866575208, 34.335718631903305], [71.84907453160871, 34.33572816946111], [71.84908197402923, 34.335770273615374], [71.84915631182969, 34.335761101837015]]]]}, "properties": {"id": "8J6H8RPX+7JXP", "height": 2.993366956710815, "hmax": 0.936, "ratio": 0.313, "vulnClass": "moderate"}}, {"type": "Feature", "geometry": {"type": "MultiPolygon", "coordinates": [[[[71.84896549215964, 34.33565424484088], [71.84892062228155, 34.33566282355557], [71.84895373830886, 34.33578247360194], [71.84903942471888, 34.33576620320672], [71.84903147672912, 34.335737606174625], [71.8489907654535, 34.33574539068816], [71.84896549215964, 34.33565424484088]]]]}, "properties": {"id": "8J6H8RPX+7HX2", "height": 2.78528356552124, "hmax": 0.936, "ratio": 0.336, "vulnClass": "moderate"}}, {"type": "Feature", "geometry": {"type": "MultiPolygon", "coordinates": [[[[71.84934683450822, 34.3354404438121], [71.84930137090227, 34.33546198672232], [71.8493403202269, 34.335518692895405], [71.84938589240654, 34.335497152767736], [71.84934683450822, 34.3354404438121]]]]}, "properties": {"id": "8J6H8RPX+5PW5", "height": 2.562077522277832, "hmax": 0.0, "ratio": 0.0, "vulnClass": "none"}}, {"type": "Feature", "geometry": {"type": "MultiPolygon", "coordinates": [[[[71.84937585874337, 34.33519332194173], [71.84931487170563, 34.3350577214621], [71.84925749068444, 34.33507544218488], [71.8493184776379, 34.335211042688435], [71.84937585874337, 34.33519332194173]]]]}, "properties": {"id": "8J6H8RPX+3P46", "height": 3.522782802581787, "hmax": 0.0, "ratio": 0.0, "vulnClass": "none"}}, {"type": "Feature", "geometry": {"type": "MultiPolygon", "coordinates": [[[[71.84931487170563, 34.3350577214621], [71.84928316496617, 34.33498750140525], [71.84922589253863, 34.33500522491144], [71.84925749068444, 34.33507544218488], [71.84931487170563, 34.3350577214621]]]]}, "properties": {"id": "8J6H8RPX+2P68", "height": 3.392882823944092, "hmax": 0.0, "ratio": 0.0, "vulnClass": "none"}}, {"type": "Feature", "geometry": {"type": "MultiPolygon", "coordinates": [[[[71.84913700595878, 34.33522313364524], [71.84907882575496, 34.335134475199766], [71.84893835074153, 34.33519791677361], [71.8490188357799, 34.3353205896424], [71.84912062739059, 34.335274629149104], [71.84909821385878, 34.33524061200692], [71.84913700595878, 34.33522313364524]]]]}, "properties": {"id": "8J6H8RPX+3JV3", "height": 3.483753442764282, "hmax": 1.581, "ratio": 0.454, "vulnClass": "moderate"}}, {"type": "Feature", "geometry": {"type": "MultiPolygon", "coordinates": [[[[71.84894947979672, 34.33525183335833], [71.84889977633478, 34.33520377335259], [71.84873164788561, 34.33532382777254], [71.84878135468223, 34.33537179779699], [71.84894947979672, 34.33525183335833]]]]}, "properties": {"id": "8J6H8RPX+4G8H", "height": 2.602631330490112, "hmax": 1.607, "ratio": 0.617, "vulnClass": "high"}}, {"type": "Feature", "geometry": {"type": "MultiPolygon", "coordinates": [[[[71.84900768939667, 34.335307773863896], [71.84894948316733, 34.335251743310835], [71.84891118864765, 34.33527914920262], [71.8489693948675, 34.335335179773345], [71.84900768939667, 34.335307773863896]]]]}, "properties": {"id": "8J6H8RPX+4H8P", "height": 3.386905431747437, "hmax": 1.576, "ratio": 0.465, "vulnClass": "moderate"}}, {"type": "Feature", "geometry": {"type": "MultiPolygon", "coordinates": [[[[71.84797222630287, 34.33584119235687], [71.84797189822429, 34.335800623479095], [71.8478837555351, 34.33580123659567], [71.84788419212207, 34.335841808268405], [71.84797222630287, 34.33584119235687]]]]}, "properties": {"id": "8J6H8RPX+85FW", "height": 3.032147169113159, "hmax": 1.599, "ratio": 0.527, "vulnClass": "moderate"}}, {"type": "Feature", "geometry": {"type": "MultiPolygon", "coordinates": [[[[71.84785097800231, 34.3357016048347], [71.84781746473753, 34.335708673086984], [71.8478379823114, 34.335775901143045], [71.84787149560218, 34.33576883288658], [71.84785097800231, 34.3357016048347]]]]}, "properties": {"id": "8J6H8RPX+74XC", "height": 3.363556146621704, "hmax": 1.598, "ratio": 0.475, "vulnClass": "moderate"}}, {"type": "Feature", "geometry": {"type": "MultiPolygon", "coordinates": [[[[71.84788039317687, 34.33579817552521], [71.84787149560218, 34.33576883288658], [71.84772288037672, 34.33580006557858], [71.84773177790112, 34.33582940822522], [71.84788039317687, 34.33579817552521]]]]}, "properties": {"id": "8J6H8RPX+847W", "height": 3.097998142242432, "hmax": 1.583, "ratio": 0.511, "vulnClass": "moderate"}}, {"type": "Feature", "geometry": {"type": "MultiPolygon", "coordinates": [[[[71.84745703809222, 34.33583386541356], [71.84739360032667, 34.335847913906214], [71.84742016926496, 34.33593053066462], [71.8476742494801, 34.335874254791904], [71.84765983963024, 34.33582962753635], [71.84752178740203, 34.335860230835536], [71.84749930202675, 34.33579042826308], [71.847446820556, 34.33580205510664], [71.84745703809222, 34.33583386541356]]]]}, "properties": {"id": "8J6H8RPX+82RM", "height": 2.50905179977417, "hmax": 1.573, "ratio": 0.627, "vulnClass": "high"}}, {"type": "Feature", "geometry": {"type": "MultiPolygon", "coordinates": [[[[71.847545813959, 34.33553780880613], [71.84748903127502, 34.33553373160254], [71.84747737319138, 34.33564483711522], [71.84753415257676, 34.33564900437565], [71.847545813959, 34.33553780880613]]]]}, "properties": {"id": "8J6H8RPX+62JM", "height": 2.478941917419434, "hmax": 0.843, "ratio": 0.34, "vulnClass": "moderate"}}, {"type": "Feature", "geometry": {"type": "MultiPolygon", "coordinates": [[[[71.84717102375713, 34.33584343945587], [71.84708782431325, 34.33581650818515], [71.84707259695969, 34.33584883444668], [71.84715579642902, 34.33587576572916], [71.84717102375713, 34.33584343945587]]]]}, "properties": {"id": "8J6H8RPW+8RQX", "height": 2.462002754211426, "hmax": 0.0, "ratio": 0.0, "vulnClass": "none"}}, {"type": "Feature", "geometry": {"type": "MultiPolygon", "coordinates": [[[[71.84734020274036, 34.33402717761627], [71.84729413914413, 34.334018329076486], [71.84728747556201, 34.334042493598446], [71.84733343062177, 34.33405133934395], [71.84734020274036, 34.33402717761627]]]]}, "properties": {"id": "8J6H8RMW+JW86", "height": 2.655763149261475, "hmax": 0.0, "ratio": 0.0, "vulnClass": "none"}}, {"type": "Feature", "geometry": {"type": "MultiPolygon", "coordinates": [[[[71.84742253090488, 34.335995127655316], [71.84739545446503, 34.33599569173705], [71.84739687852199, 34.33603890274572], [71.84742406689931, 34.3360382514146], [71.84742253090488, 34.335995127655316]]]]}, "properties": {"id": "8J6H8RPW+CX3J", "height": 2.559590578079224, "hmax": 0.0, "ratio": 0.0, "vulnClass": "none"}}, {"type": "Feature", "geometry": {"type": "MultiPolygon", "coordinates": [[[[71.8474229184799, 34.336739105769006], [71.84731866806487, 34.33669108150405], [71.84725754977764, 34.336782434730374], [71.84736169508297, 34.33683036620624], [71.8474229184799, 34.336739105769006]]]]}, "properties": {"id": "8J6H8RPW+PW4H", "height": 2.736376762390137, "hmax": 1.332, "ratio": 0.487, "vulnClass": "moderate"}}, {"type": "Feature", "geometry": {"type": "MultiPolygon", "coordinates": [[[[71.85116636639147, 34.33762212546949], [71.85101224161322, 34.337608874178414], [71.85100155448143, 34.337694136566164], [71.85115567604353, 34.337707477926756], [71.85116636639147, 34.33762212546949]]]]}, "properties": {"id": "8J6H8VQ2+3C88", "height": 2.677324295043945, "hmax": 0.0, "ratio": 0.0, "vulnClass": "none"}}, {"type": "Feature", "geometry": {"type": "MultiPolygon", "coordinates": [[[[71.85097520051352, 34.33760566728535], [71.85092418632901, 34.33760128946129], [71.8509194096308, 34.33763893278686], [71.85097053239119, 34.33764331340863], [71.85097520051352, 34.33760566728535]]]]}, "properties": {"id": "8J6H8VQ2+29WV", "height": 2.693779468536377, "hmax": 0.0, "ratio": 0.0, "vulnClass": "none"}}, {"type": "Feature", "geometry": {"type": "MultiPolygon", "coordinates": [[[[71.85097053239119, 34.33764331340863], [71.85090543990556, 34.33763767181685], [71.85089942082352, 34.337685288070894], [71.85096451334509, 34.33769092966785], [71.85097053239119, 34.33764331340863]]]]}, "properties": {"id": "8J6H8VQ2+397H", "height": 2.693779468536377, "hmax": 0.0, "ratio": 0.0, "vulnClass": "none"}}, {"type": "Feature", "geometry": {"type": "MultiPolygon", "coordinates": [[[[71.85151017137338, 34.337575362029625], [71.8513930397718, 34.337563694299114], [71.85137222234717, 34.337707733992666], [71.85142808113304, 34.33771331793991], [71.85143144351986, 34.33769023995249], [71.85146359303103, 34.33769350107385], [71.85146034257477, 34.33771649180901], [71.85148946269706, 34.337719404547855], [71.85151017137338, 34.337575362029625]]]]}, "properties": {"id": "8J6H8VQ2+3H4C", "height": 2.593909740447998, "hmax": 0.0, "ratio": 0.0, "vulnClass": "none"}}, {"type": "Feature", "geometry": {"type": "MultiPolygon", "coordinates": [[[[71.85154908037768, 34.33744729105675], [71.85144158325024, 34.337436592424375], [71.85143454709306, 34.33748526414933], [71.85149279054677, 34.337490999576026], [71.85148105129944, 34.33757244929838], [71.85153030844795, 34.337577322473145], [71.85154908037768, 34.33744729105675]]]]}, "properties": {"id": "8J6H8VP2+XJRR", "height": 2.559760570526123, "hmax": 0.0, "ratio": 0.0, "vulnClass": "none"}}, {"type": "Feature", "geometry": {"type": "MultiPolygon", "coordinates": [[[[71.85086560804463, 34.33719498808405], [71.85082130755902, 34.33719123372997], [71.85080566767212, 34.33731593757709], [71.85084996822182, 34.337319691940365], [71.85086560804463, 34.33719498808405]]]]}, "properties": {"id": "8J6H8VP2+W848", "height": 2.685811758041382, "hmax": 0.0, "ratio": 0.0, "vulnClass": "none"}}, {"type": "Feature", "geometry": {"type": "MultiPolygon", "coordinates": [[[[71.84815050669084, 34.33738563986098], [71.84808457889656, 34.33734428208386], [71.84805330326726, 34.3373786285839], [71.84811923444217, 34.33741989633095], [71.84815050669084, 34.33738563986098]]]]}, "properties": {"id": "8J6H8RPX+X657", "height": 2.51509690284729, "hmax": 0.269, "ratio": 0.107, "vulnClass": "low"}}, {"type": "Feature", "geometry": {"type": "MultiPolygon", "coordinates": [[[[71.84945773759802, 34.3370467896398], [71.84939354926307, 34.337046037796284], [71.84939238139961, 34.33711207616522], [71.84945656978488, 34.33711282801215], [71.84945773759802, 34.3370467896398]]]]}, "properties": {"id": "8J6H8RPX+RQM4", "height": 2.593369245529175, "hmax": 0.0, "ratio": 0.0, "vulnClass": "none"}}, {"type": "Feature", "geometry": {"type": "MultiPolygon", "coordinates": [[[[71.84945428834091, 34.336993791963785], [71.84939747488286, 34.33699341033184], [71.84939698250399, 34.33704720783282], [71.84945379599834, 34.337047589467], [71.84945428834091, 34.336993791963785]]]]}, "properties": {"id": "8J6H8RPX+RQ3W", "height": 2.804784297943115, "hmax": 0.0, "ratio": 0.0, "vulnClass": "none"}}, {"type": "Feature", "geometry": {"type": "MultiPolygon", "coordinates": [[[[71.84969540007377, 34.33706634041616], [71.84969583302343, 34.337019932392096], [71.84962815753106, 34.33701945140496], [71.84962842289045, 34.33699494170486], [71.84945428834091, 34.336993791963785], [71.84945220913276, 34.33721772217358], [71.84955247424024, 34.337218411648976], [71.84955396332579, 34.33706540193644], [71.84969540007377, 34.33706634041616]]]]}, "properties": {"id": "8J6H8RPX+RRMC", "height": 2.822057723999023, "hmax": 0.0, "ratio": 0.0, "vulnClass": "none"}}, {"type": "Feature", "geometry": {"type": "MultiPolygon", "coordinates": [[[[71.84960431965291, 34.336892829717925], [71.84950408229076, 34.336865280985634], [71.84947435384069, 34.336939597221715], [71.84957458790758, 34.33696723602998], [71.84960431965291, 34.336892829717925]]]]}, "properties": {"id": "8J6H8RPX+QR7M", "height": 2.693295240402222, "hmax": 0.0, "ratio": 0.0, "vulnClass": "none"}}, {"type": "Feature", "geometry": {"type": "MultiPolygon", "coordinates": [[[[71.84951026107943, 34.33687147911641], [71.84934790795542, 34.336813938174615], [71.84932529235574, 34.33685788203794], [71.84948764891456, 34.336915332965766], [71.84951026107943, 34.33687147911641]]]]}, "properties": {"id": "8J6H8RPX+PQVF", "height": 2.572252750396729, "hmax": 0.0, "ratio": 0.0, "vulnClass": "none"}}, {"type": "Feature", "geometry": {"type": "MultiPolygon", "coordinates": [[[[71.84953833460865, 34.33677170237108], [71.84927036904192, 34.33670540232124], [71.8492547277462, 34.33674880473012], [71.8495226934334, 34.336815104820836], [71.84953833460865, 34.33677170237108]]]]}, "properties": {"id": "8J6H8RPX+PQ2G", "height": 3.873312950134277, "hmax": 0.0, "ratio": 0.0, "vulnClass": "none"}}, {"type": "Feature", "geometry": {"type": "MultiPolygon", "coordinates": [[[[71.84962847243112, 34.33674103460745], [71.84955734637742, 34.336736949485264], [71.84954901594462, 34.33683759524222], [71.84962014208227, 34.33684168037389], [71.84962847243112, 34.33674103460745]]]]}, "properties": {"id": "8J6H8RPX+PR8H", "height": 2.809220790863037, "hmax": 0.0, "ratio": 0.0, "vulnClass": "none"}}, {"type": "Feature", "geometry": {"type": "MultiPolygon", "coordinates": [[[[71.84948731468154, 34.33654685527902], [71.84930976935418, 34.336535252070036], [71.84929171420026, 34.33672442962717], [71.84946936847265, 34.336736035679756], [71.84948731468154, 34.33654685527902]]]]}, "properties": {"id": "8J6H8RPX+MQ2F", "height": 3.992937564849854, "hmax": 0.0, "ratio": 0.0, "vulnClass": "none"}}, {"type": "Feature", "geometry": {"type": "MultiPolygon", "coordinates": [[[[71.84944533830384, 34.336501337970645], [71.8494495254595, 34.336450429787384], [71.84936137387149, 34.33644545539552], [71.8493534659584, 34.33654061382559], [71.84939813546548, 34.33654320645931], [71.84940175096543, 34.336498863360646], [71.84944533830384, 34.336501337970645]]]]}, "properties": {"id": "8J6H8RPX+HQRG", "height": 3.326632976531982, "hmax": 0.0, "ratio": 0.0, "vulnClass": "none"}}, {"type": "Feature", "geometry": {"type": "MultiPolygon", "coordinates": [[[[71.84930240812332, 34.33646484784531], [71.84924223259343, 34.33646140512561], [71.84923625605664, 34.33653398957802], [71.8493534659584, 34.33654061382559], [71.84936137387149, 34.33644545539552], [71.8493043429849, 34.336442183833114], [71.84930240812332, 34.33646484784531]]]]}, "properties": {"id": "8J6H8RPX+HPVP", "height": 3.326632976531982, "hmax": 0.0, "ratio": 0.0, "vulnClass": "none"}}, {"type": "Feature", "geometry": {"type": "MultiPolygon", "coordinates": [[[[71.84846674983216, 34.33675455540758], [71.84839241714165, 34.336775173921566], [71.84843139257424, 34.336871810535015], [71.84850572534441, 34.3368511920018], [71.84846674983216, 34.33675455540758]]]]}, "properties": {"id": "8J6H8RPX+P9GF", "height": 3.401245594024658, "hmax": 1.466, "ratio": 0.431, "vulnClass": "moderate"}}, {"type": "Feature", "geometry": {"type": "MultiPolygon", "coordinates": [[[[71.84836525278175, 34.336778079437465], [71.84825476481217, 34.33678055071508], [71.84825738860079, 34.3368613786266], [71.84836787667686, 34.33685890735252], [71.84836525278175, 34.336778079437465]]]]}, "properties": {"id": "8J6H8RPX+P8FQ", "height": 3.612267017364502, "hmax": 1.444, "ratio": 0.4, "vulnClass": "moderate"}}, {"type": "Feature", "geometry": {"type": "MultiPolygon", "coordinates": [[[[71.84945463045624, 34.33622693802336], [71.84934116368512, 34.33622482687375], [71.8493402989092, 34.33625373771605], [71.84940229875275, 34.33625488387645], [71.84940076949121, 34.3363131613929], [71.84933876960484, 34.33631201522935], [71.84933686758548, 34.33638605664753], [71.84945033794364, 34.33638807776556], [71.84945463045624, 34.33622693802336]]]]}, "properties": {"id": "8J6H8RPX+GQCH", "height": 3.635894298553467, "hmax": 0.0, "ratio": 0.0, "vulnClass": "none"}}, {"type": "Feature", "geometry": {"type": "MultiPolygon", "coordinates": [[[[71.84928557202963, 34.33625277884773], [71.84923692741513, 34.33625188647871], [71.84923477252698, 34.336332681453484], [71.84928341718805, 34.33633357382594], [71.84928557202963, 34.33625277884773]]]]}, "properties": {"id": "8J6H8RPX+GP6M", "height": 2.747849464416504, "hmax": 0.0, "ratio": 0.0, "vulnClass": "none"}}, {"type": "Feature", "geometry": {"type": "MultiPolygon", "coordinates": [[[[71.84933876960484, 34.33631201522935], [71.84928393413576, 34.33631105356239], [71.84928203543868, 34.33638500492955], [71.84933686758548, 34.33638605664753], [71.84933876960484, 34.33631201522935]]]]}, "properties": {"id": "8J6H8RPX+GPMX", "height": 3.364819526672363, "hmax": 0.0, "ratio": 0.0, "vulnClass": "none"}}, {"type": "Feature", "geometry": {"type": "MultiPolygon", "coordinates": [[[[71.84945726565157, 34.33612749760334], [71.84940569021192, 34.33612652982124], [71.84940305495581, 34.33622597023678], [71.84945463045624, 34.33622693802336], [71.84945726565157, 34.33612749760334]]]]}, "properties": {"id": "8J6H8RPX+FQF5", "height": 3.031440734863281, "hmax": 0.0, "ratio": 0.0, "vulnClass": "none"}}, {"type": "Feature", "geometry": {"type": "MultiPolygon", "coordinates": [[[[71.84981597936071, 34.33651259578383], [71.84977837920569, 34.336509824817334], [71.84976338347873, 34.33665212128037], [71.84980087514394, 34.33665488945948], [71.84981597936071, 34.33651259578383]]]]}, "properties": {"id": "8J6H8RPX+JWM7", "height": 2.480918884277344, "hmax": 0.0, "ratio": 0.0, "vulnClass": "none"}}, {"type": "Feature", "geometry": {"type": "MultiPolygon", "coordinates": [[[[71.8499293259762, 34.33652083254376], [71.849858023413, 34.33651566144467], [71.84984292263586, 34.336657865081804], [71.85000448758778, 34.33666968696486], [71.85001302950049, 34.33658950709752], [71.8499227639446, 34.33658294638738], [71.8499293259762, 34.33652083254376]]]]}, "properties": {"id": "8J6H8RPX+JXV3", "height": 2.76371431350708, "hmax": 0.0, "ratio": 0.0, "vulnClass": "none"}}, {"type": "Feature", "geometry": {"type": "MultiPolygon", "coordinates": [[[[71.84984204962872, 34.33666667576441], [71.84965967640139, 34.33665341644593], [71.8496514354987, 34.33673135067179], [71.84983369696958, 34.33674469726383], [71.84984204962872, 34.33666667576441]]]]}, "properties": {"id": "8J6H8RPX+MVHX", "height": 2.775112152099609, "hmax": 0.0, "ratio": 0.0, "vulnClass": "none"}}, {"type": "Feature", "geometry": {"type": "MultiPolygon", "coordinates": [[[[71.84991220987249, 34.3367836741618], [71.84981826079809, 34.3367797225433], [71.84980899015427, 34.33693163054418], [71.84996683980346, 34.33693821915864], [71.8499713162527, 34.3368650552217], [71.84990741590113, 34.336862418247534], [71.84991220987249, 34.3367836741618]]]]}, "properties": {"id": "8J6H8RPX+PXRJ", "height": 2.483001708984375, "hmax": 0.0, "ratio": 0.0, "vulnClass": "none"}}, {"type": "Feature", "geometry": {"type": "MultiPolygon", "coordinates": [[[[71.84969975074829, 34.33683976464647], [71.84969162121848, 34.33687407673149], [71.84977247545689, 34.33688823694405], [71.8497806083259, 34.33685383480442], [71.84969975074829, 34.33683976464647]]]]}, "properties": {"id": "8J6H8RPX+PVXG", "height": 3.439762115478516, "hmax": 0.0, "ratio": 0.0, "vulnClass": "none"}}, {"type": "Feature", "geometry": {"type": "MultiPolygon", "coordinates": [[[[71.84969975074829, 34.33683976464647], [71.84962245858087, 34.33682623692932], [71.84961378625941, 34.336860535029494], [71.84969162121848, 34.33687407673149], [71.84969975074829, 34.33683976464647]]]]}, "properties": {"id": "8J6H8RPX+PVV2", "height": 3.439762115478516, "hmax": 0.0, "ratio": 0.0, "vulnClass": "none"}}, {"type": "Feature", "geometry": {"type": "MultiPolygon", "coordinates": [[[[71.85058577054613, 34.33666761844593], [71.85043561860213, 34.336609221320344], [71.85040466488407, 34.336664037247175], [71.85055481689834, 34.33672243441457], [71.85058577054613, 34.33666761844593]]]]}, "properties": {"id": "8J6H8VP2+M59Q", "height": 2.607287168502808, "hmax": 0.0, "ratio": 0.0, "vulnClass": "none"}}, {"type": "Feature", "geometry": {"type": "MultiPolygon", "coordinates": [[[[71.85166321013165, 34.336304530344016], [71.85162252672527, 34.336302852341404], [71.85161317447515, 34.33645412754447], [71.85165385795405, 34.3364558055542], [71.85166321013165, 34.336304530344016]]]]}, "properties": {"id": "8J6H8VP2+HM23", "height": 2.625694274902344, "hmax": 0.0, "ratio": 0.0, "vulnClass": "none"}}, {"type": "Feature", "geometry": {"type": "MultiPolygon", "coordinates": [[[[71.85222334291625, 34.33664135577192], [71.85218322981946, 34.33664185585224], [71.8521848105069, 34.33672743407342], [71.85222481509201, 34.336726931201554], [71.85222334291625, 34.33664135577192]]]]}, "properties": {"id": "8J6H8VP2+MVG8", "height": 2.559874057769775, "hmax": 0.0, "ratio": 0.0, "vulnClass": "none"}}, {"type": "Feature", "geometry": {"type": "MultiPolygon", "coordinates": [[[[71.85195342152862, 34.336464596605346], [71.85177899681652, 34.33645379836843], [71.85177173228689, 34.336534732360484], [71.85194615716428, 34.33654553061687], [71.85195342152862, 34.336464596605346]]]]}, "properties": {"id": "8J6H8VP2+HPXW", "height": 3.474304676055908, "hmax": 0.0, "ratio": 0.0, "vulnClass": "none"}}, {"type": "Feature", "geometry": {"type": "MultiPolygon", "coordinates": [[[[71.85168541188075, 34.33642849571816], [71.85167520419664, 34.33652711042949], [71.85177132838787, 34.3365339107563], [71.85178142740922, 34.33643529323718], [71.85168541188075, 34.33642849571816]]]]}, "properties": {"id": "8J6H8VP2+HMX7", "height": 3.832411289215088, "hmax": 0.0, "ratio": 0.0, "vulnClass": "none"}}, {"type": "Feature", "geometry": {"type": "MultiPolygon", "coordinates": [[[[71.85170881219891, 34.33658142507341], [71.85165988204933, 34.33657944470331], [71.85165855534473, 34.33660329617019], [71.85170738032359, 34.3366051837001], [71.85170881219891, 34.33658142507341]]]]}, "properties": {"id": "8J6H8VP2+JMMQ", "height": 3.275835514068604, "hmax": 0.0, "ratio": 0.0, "vulnClass": "none"}}, {"type": "Feature", "geometry": {"type": "MultiPolygon", "coordinates": [[[[71.85170573495462, 34.336617219361955], [71.85164826878473, 34.33661105338677], [71.85163939653387, 34.33666815051036], [71.85169686274146, 34.33667431649179], [71.85170573495462, 34.336617219361955]]]]}, "properties": {"id": "8J6H8VP2+MM3P", "height": 2.816523551940918, "hmax": 0.0, "ratio": 0.0, "vulnClass": "none"}}, {"type": "Feature", "geometry": {"type": "MultiPolygon", "coordinates": [[[[71.8517261895198, 34.336677504885806], [71.85163939653387, 34.33666815051036], [71.85162096440122, 34.33678620283416], [71.85170775750483, 34.336795557229166], [71.8517261895198, 34.336677504885806]]]]}, "properties": {"id": "8J6H8VP2+MMV8", "height": 3.15735936164856, "hmax": 0.0, "ratio": 0.0, "vulnClass": "none"}}, {"type": "Feature", "geometry": {"type": "MultiPolygon", "coordinates": [[[[71.85201092527195, 34.33691719905969], [71.85195640741637, 34.33691354272373], [71.85194829218479, 34.336996888462046], [71.85200291864636, 34.33700054759805], [71.85201092527195, 34.33691719905969]]]]}, "properties": {"id": "8J6H8VP2+QQQ7", "height": 2.456346988677979, "hmax": 0.0, "ratio": 0.0, "vulnClass": "none"}}, {"type": "Feature", "geometry": {"type": "MultiPolygon", "coordinates": [[[[71.85194825391889, 34.33688169572629], [71.85180409042539, 34.33685779555904], [71.85178030358283, 34.33695633120966], [71.85185146606524, 34.336968167538636], [71.85185753122222, 34.33694254519264], [71.85193063755536, 34.33695470190414], [71.85194825391889, 34.33688169572629]]]]}, "properties": {"id": "8J6H8VP2+QP9G", "height": 3.352983474731445, "hmax": 0.0, "ratio": 0.0, "vulnClass": "none"}}, {"type": "Feature", "geometry": {"type": "MultiPolygon", "coordinates": [[[[71.85185146606524, 34.336968167538636], [71.8517438013355, 34.3369503442594], [71.85173517778146, 34.336986266209095], [71.85179295044968, 34.33699586514544], [71.85177070192755, 34.33708813097428], [71.85182059408314, 34.337096355339014], [71.85185146606524, 34.336968167538636]]]]}, "properties": {"id": "8J6H8VP2+RP3G", "height": 2.556065797805786, "hmax": 0.0, "ratio": 0.0, "vulnClass": "none"}}, {"type": "Feature", "geometry": {"type": "MultiPolygon", "coordinates": [[[[71.85192886673215, 34.33701657865802], [71.85193389169675, 34.33699552639256], [71.85185041140302, 34.336981840823356], [71.85182360920875, 34.337094179575566], [71.85186745608407, 34.337101346998274], [71.85188923324972, 34.33701006049677], [71.85192886673215, 34.33701657865802]]]]}, "properties": {"id": "8J6H8VP2+RP9G", "height": 2.782953977584839, "hmax": 0.0, "ratio": 0.0, "vulnClass": "none"}}, {"type": "Feature", "geometry": {"type": "MultiPolygon", "coordinates": [[[[71.85241321586679, 34.33739264447391], [71.85228113248856, 34.337385640402715], [71.85227526105018, 34.337461292345736], [71.8524074564665, 34.33746820917515], [71.85241321586679, 34.33739264447391]]]]}, "properties": {"id": "8J6H8VP2+XWH2", "height": 3.463796138763428, "hmax": 0.0, "ratio": 0.0, "vulnClass": "none"}}, {"type": "Feature", "geometry": {"type": "MultiPolygon", "coordinates": [[[[71.85227862326292, 34.3373771933365], [71.8522116382868, 34.33737276562921], [71.85220517448946, 34.337441011303966], [71.8522721628864, 34.33744534896999], [71.85227862326292, 34.3373771933365]]]]}, "properties": {"id": "8J6H8VP2+XV98", "height": 2.484189748764038, "hmax": 0.0, "ratio": 0.0, "vulnClass": "none"}}, {"type": "Feature", "geometry": {"type": "MultiPolygon", "coordinates": [[[[71.8518578658862, 34.33754951875009], [71.85166963918566, 34.337538725627766], [71.85165529192889, 34.33771024262247], [71.85182475940843, 34.337720012189], [71.85182803953428, 34.33768169936036], [71.85171831113468, 34.33767545025754], [71.85172637566662, 34.3375789436258], [71.8518547515905, 34.33758630356393], [71.8518578658862, 34.33754951875009]]]]}, "properties": {"id": "8J6H8VQ2+3M53", "height": 2.548282623291016, "hmax": 0.0, "ratio": 0.0, "vulnClass": "none"}}, {"type": "Feature", "geometry": {"type": "MultiPolygon", "coordinates": [[[[71.85166286922036, 34.33758028360435], [71.85163511577272, 34.337575693529594], [71.85162071463321, 34.33763535237436], [71.85164835954556, 34.337639939659525], [71.85166286922036, 34.33758028360435]]]]}, "properties": {"id": "8J6H8VQ2+2MR8", "height": 2.456977367401123, "hmax": 0.0, "ratio": 0.0, "vulnClass": "none"}}, {"type": "Feature", "geometry": {"type": "MultiPolygon", "coordinates": [[[[71.85243575549045, 34.33758025331705], [71.85233346539526, 34.337558152240874], [71.85231187902873, 34.33762691013695], [71.8524141725662, 34.33764892118754], [71.85243575549045, 34.33758025331705]]]]}, "properties": {"id": "8J6H8VQ2+2WX5", "height": 2.733162879943848, "hmax": 0.0, "ratio": 0.0, "vulnClass": "none"}}, {"type": "Feature", "geometry": {"type": "MultiPolygon", "coordinates": [[[[71.85223888787914, 34.33757969432119], [71.85220482738049, 34.33757232818214], [71.85219546940972, 34.337601741591065], [71.85231187902873, 34.33762691013695], [71.85233346876258, 34.337558062193125], [71.85225133008583, 34.33754044548948], [71.85223888787914, 34.33757969432119]]]]}, "properties": {"id": "8J6H8VQ2+2WJ8", "height": 3.148652791976929, "hmax": 0.0, "ratio": 0.0, "vulnClass": "none"}}, {"type": "Feature", "geometry": {"type": "MultiPolygon", "coordinates": [[[[71.85222870825186, 34.33747127110268], [71.85218709858167, 34.337471101721306], [71.85218644753408, 34.33755824492516], [71.85222805387994, 34.33755850435687], [71.85222870825186, 34.33747127110268]]]]}, "properties": {"id": "8J6H8VQ2+2V4G", "height": 3.049941539764404, "hmax": 0.0, "ratio": 0.0, "vulnClass": "none"}}, {"type": "Feature", "geometry": {"type": "MultiPolygon", "coordinates": [[[[71.83933382560396, 34.330182230057986], [71.83921517572125, 34.330107147507746], [71.839189346261, 34.330135323061036], [71.83930788761351, 34.330210402832705], [71.83933382560396, 34.330182230057986]]]]}, "properties": {"id": "8J6H8RJQ+3P67", "height": 2.892353296279907, "hmax": 0.0, "ratio": 0.0, "vulnClass": "none"}}, {"type": "Feature", "geometry": {"type": "MultiPolygon", "coordinates": [[[[71.83766950818804, 34.32886148043634], [71.83764272902305, 34.32885997702089], [71.83764019519687, 34.32888983601877], [71.83766697437123, 34.32889133943527], [71.83766950818804, 34.32886148043634]]]]}, "properties": {"id": "8J6H8RHQ+H325", "height": 2.460996389389038, "hmax": 0.0, "ratio": 0.0, "vulnClass": "none"}}, {"type": "Feature", "geometry": {"type": "MultiPolygon", "coordinates": [[[[71.83769790146096, 34.32882868450581], [71.83765946543073, 34.328836704390206], [71.83769297957626, 34.328948165128814], [71.8377967827754, 34.328926692326164], [71.83777968800493, 34.32886982656603], [71.83771431754653, 34.32888336951638], [71.83769790146096, 34.32882868450581]]]]}, "properties": {"id": "8J6H8RHQ+H35R", "height": 2.826220273971558, "hmax": 2.162, "ratio": 0.765, "vulnClass": "high"}}, {"type": "Feature", "geometry": {"type": "MultiPolygon", "coordinates": [[[[71.83785181492863, 34.32879498680947], [71.83782926954541, 34.32870967808761], [71.83764373367148, 34.32874354983539], [71.8376663907928, 34.32882877134016], [71.83785181492863, 34.32879498680947]]]]}, "properties": {"id": "8J6H8RHQ+G35Q", "height": 3.616833686828613, "hmax": 0.0, "ratio": 0.0, "vulnClass": "none"}}, {"type": "Feature", "geometry": {"type": "MultiPolygon", "coordinates": [[[[71.83769130995174, 34.328636799058906], [71.83763526643648, 34.32864211046069], [71.83764857678169, 34.32873898805505], [71.83770462036165, 34.32873367665078], [71.83769130995174, 34.328636799058906]]]]}, "properties": {"id": "8J6H8RHQ+F3FF", "height": 3.616833686828613, "hmax": 0.0, "ratio": 0.0, "vulnClass": "none"}}, {"type": "Feature", "geometry": {"type": "MultiPolygon", "coordinates": [[[[71.83788767230013, 34.32836381107324], [71.83780168909045, 34.32837078232939], [71.83784502474882, 34.32873856766928], [71.83793100833579, 34.32873159640367], [71.83793612146806, 34.32877481262665], [71.83805273017424, 34.328765297864386], [71.83803731926287, 34.32863465588114], [71.83792071412002, 34.32864408059221], [71.83788767230013, 34.32836381107324]]]]}, "properties": {"id": "8J6H8RHQ+C5R5", "height": 3.481332302093506, "hmax": 0.0, "ratio": 0.0, "vulnClass": "none"}}, {"type": "Feature", "geometry": {"type": "MultiPolygon", "coordinates": [[[[71.8387620251892, 34.32832691862758], [71.83865155053695, 34.32828882154535], [71.83862935955852, 34.328332954610794], [71.83873983087477, 34.328371141762226], [71.8387620251892, 34.32832691862758]]]]}, "properties": {"id": "8J6H8RHQ+8FP3", "height": 3.119124174118042, "hmax": 0.0, "ratio": 0.0, "vulnClass": "none"}}, {"type": "Feature", "geometry": {"type": "MultiPolygon", "coordinates": [[[[71.83880663063984, 34.32842658773402], [71.83874040334084, 34.32841955854459], [71.8387234981582, 34.328528364196096], [71.8387898340806, 34.32853539620387], [71.83880663063984, 34.32842658773402]]]]}, "properties": {"id": "8J6H8RHQ+9GR3", "height": 2.825542211532593, "hmax": 0.0, "ratio": 0.0, "vulnClass": "none"}}, {"type": "Feature", "geometry": {"type": "MultiPolygon", "coordinates": [[[[71.83852569386111, 34.32850126007627], [71.8384391021922, 34.32849839144424], [71.83842732447516, 34.32874262075125], [71.83851391639377, 34.328745489405456], [71.83852569386111, 34.32850126007627]]]]}, "properties": {"id": "8J6H8RHQ+C9XR", "height": 3.119011163711548, "hmax": 0.0, "ratio": 0.0, "vulnClass": "none"}}, {"type": "Feature", "geometry": {"type": "MultiPolygon", "coordinates": [[[[71.84220409147723, 34.32817461257808], [71.84219435537868, 34.328329932854984], [71.84232744702071, 34.32833571155829], [71.84233707771216, 34.32818029840885], [71.84220409147723, 34.32817461257808]]]]}, "properties": {"id": "8J6H8RHR+8W28", "height": 3.367041826248169, "hmax": 0.0, "ratio": 0.0, "vulnClass": "none"}}, {"type": "Feature", "geometry": {"type": "MultiPolygon", "coordinates": [[[[71.8433008265349, 34.3278453534203], [71.84312461417669, 34.32783639004892], [71.84311910540247, 34.327910879023214], [71.84329531791487, 34.32791984241107], [71.8433008265349, 34.3278453534203]]]]}, "properties": {"id": "8J6H8RHV+5744", "height": 3.224234104156494, "hmax": 0.0, "ratio": 0.0, "vulnClass": "none"}}, {"type": "Feature", "geometry": {"type": "MultiPolygon", "coordinates": [[[[71.84312836337541, 34.32778565110029], [71.8430740354325, 34.32778289721854], [71.84307028620135, 34.32783363616369], [71.84312461417669, 34.32783639004892], [71.84312836337541, 34.32778565110029]]]]}, "properties": {"id": "8J6H8RHV+46H6", "height": 2.639899015426636, "hmax": 0.0, "ratio": 0.0, "vulnClass": "none"}}, {"type": "Feature", "geometry": {"type": "MultiPolygon", "coordinates": [[[[71.84321393068846, 34.327752075734644], [71.84313108373718, 34.327747864929094], [71.84312461417669, 34.32783639004892], [71.84318110958489, 34.32783928997094], [71.84318486212581, 34.32778846097161], [71.8432111018234, 34.32778985910907], [71.84321393068846, 34.327752075734644]]]]}, "properties": {"id": "8J6H8RHV+477C", "height": 2.495625019073486, "hmax": 0.0, "ratio": 0.0, "vulnClass": "none"}}, {"type": "Feature", "geometry": {"type": "MultiPolygon", "coordinates": [[[[71.84304930350477, 34.32781083157444], [71.84301275924803, 34.32780898722952], [71.84301118584165, 34.327830668970925], [71.8430477301077, 34.327832513316835], [71.84304930350477, 34.32781083157444]]]]}, "properties": {"id": "8J6H8RHV+46CX", "height": 2.636165142059326, "hmax": 0.0, "ratio": 0.0, "vulnClass": "none"}}, {"type": "Feature", "geometry": {"type": "MultiPolygon", "coordinates": [[[[71.84312461417669, 34.32783639004892], [71.84296759322197, 34.32782846246361], [71.84296208431036, 34.327902951423226], [71.84300567696819, 34.327905157934616], [71.84300806940958, 34.3278732220296], [71.8431214978013, 34.32787894311362], [71.84312461417669, 34.32783639004892]]]]}, "properties": {"id": "8J6H8RHV+46V6", "height": 3.052028179168701, "hmax": 0.0, "ratio": 0.0, "vulnClass": "none"}}, {"type": "Feature", "geometry": {"type": "MultiPolygon", "coordinates": [[[[71.84289579748581, 34.327885918059984], [71.84281370396513, 34.327884791040745], [71.84281302545881, 34.3279231706977], [71.84286189219847, 34.32792380081502], [71.8428610082643, 34.327970557651604], [71.8428941265608, 34.32797105175634], [71.84289579748581, 34.327885918059984]]]]}, "properties": {"id": "8J6H8RHV+549P", "height": 2.541862964630127, "hmax": 0.0, "ratio": 0.0, "vulnClass": "none"}}, {"type": "Feature", "geometry": {"type": "MultiPolygon", "coordinates": [[[[71.84323480983045, 34.32791674886794], [71.84311910540247, 34.327910879023214], [71.84311616170179, 34.327951723993046], [71.84323175764497, 34.327957591042974], [71.84323480983045, 34.32791674886794]]]]}, "properties": {"id": "8J6H8RHV+57F8", "height": 3.396207809448242, "hmax": 0.0, "ratio": 0.0, "vulnClass": "none"}}, {"type": "Feature", "geometry": {"type": "MultiPolygon", "coordinates": [[[[71.84240292648849, 34.32807284547224], [71.84234950436154, 34.32807200745954], [71.8423476128907, 34.32816010986563], [71.84239995304524, 34.32816082982125], [71.84240097906861, 34.328110291028466], [71.8424020644729, 34.32811031904239], [71.84240292648849, 34.32807284547224]]]]}, "properties": {"id": "8J6H8RHR+6WXQ", "height": 2.706938028335571, "hmax": 0.0, "ratio": 0.0, "vulnClass": "none"}}, {"type": "Feature", "geometry": {"type": "MultiPolygon", "coordinates": [[[[71.84203723761274, 34.32806674158963], [71.84200054084853, 34.32806606474635], [71.84199929365825, 34.328113803660806], [71.84203599044321, 34.3281144805056], [71.84203723761274, 34.32806674158963]]]]}, "properties": {"id": "8J6H8RHR+6RJP", "height": 2.606113195419312, "hmax": 0.0, "ratio": 0.0, "vulnClass": "none"}}, {"type": "Feature", "geometry": {"type": "MultiPolygon", "coordinates": [[[[71.8420875298459, 34.327907691065896], [71.84204331010945, 34.32790772139475], [71.84204324751546, 34.328022370441886], [71.84208746393513, 34.32802243016339], [71.8420875298459, 34.327907691065896]]]]}, "properties": {"id": "8J6H8RHR+5RPJ", "height": 2.562408447265625, "hmax": 0.0, "ratio": 0.0, "vulnClass": "none"}}, {"type": "Feature", "geometry": {"type": "MultiPolygon", "coordinates": [[[[71.84228953610973, 34.327767698958155], [71.84219882081122, 34.32776761087475], [71.84219864022697, 34.32790569176999], [71.8422893590512, 34.32790568981478], [71.84228953610973, 34.327767698958155]]]]}, "properties": {"id": "8J6H8RHR+4VQH", "height": 3.262769222259521, "hmax": 0.225, "ratio": 0.069, "vulnClass": "low"}}, {"type": "Feature", "geometry": {"type": "MultiPolygon", "coordinates": [[[[71.84243954982293, 34.32769883250365], [71.84224012875585, 34.32769747107552], [71.84223924687826, 34.327778929609934], [71.84243877667824, 34.32778029385152], [71.84243954982293, 34.32769883250365]]]]}, "properties": {"id": "8J6H8RHR+3WWH", "height": 2.713552236557007, "hmax": 0.288, "ratio": 0.106, "vulnClass": "low"}}, {"type": "Feature", "geometry": {"type": "MultiPolygon", "coordinates": [[[[71.84284935243919, 34.327455590597154], [71.84276877164388, 34.327451798571204], [71.84276581480204, 34.327495888022106], [71.84284628709943, 34.327499677251375], [71.84284935243919, 34.327455590597154]]]]}, "properties": {"id": "8J6H8RGV+X4V5", "height": 2.509437799453735, "hmax": 0.0, "ratio": 0.0, "vulnClass": "none"}}, {"type": "Feature", "geometry": {"type": "MultiPolygon", "coordinates": [[[[71.84253216009306, 34.327433974797884], [71.84246518687188, 34.32744684804878], [71.84248665330124, 34.32752338519254], [71.84244889984036, 34.32753061302742], [71.84246662282436, 34.327593984102165], [71.84257135301955, 34.32757379295007], [71.84253216009306, 34.327433974797884]]]]}, "properties": {"id": "8J6H8RHV+222V", "height": 2.957925319671631, "hmax": 0.741, "ratio": 0.251, "vulnClass": "low"}}, {"type": "Feature", "geometry": {"type": "MultiPolygon", "coordinates": [[[[71.84248094870273, 34.32762626133929], [71.842437482616, 34.32762937582858], [71.84244302355032, 34.32768152626017], [71.84248648966408, 34.32767841177042], [71.84248094870273, 34.32762626133929]]]]}, "properties": {"id": "8J6H8RHR+3X85", "height": 3.052319526672363, "hmax": 0.738, "ratio": 0.242, "vulnClass": "low"}}, {"type": "Feature", "geometry": {"type": "MultiPolygon", "coordinates": [[[[71.84286114970782, 34.327282927502544], [71.84278068099175, 34.32727904824731], [71.84276877164388, 34.327451798571204], [71.84288644260982, 34.32745735893984], [71.84289016102747, 34.32740454611914], [71.84282682456228, 34.32740155966564], [71.84283141557032, 34.32733416762498], [71.84285754995147, 34.32733547298222], [71.84286114970782, 34.327282927502544]]]]}, "properties": {"id": "8J6H8RGV+X442", "height": 2.933672904968262, "hmax": 0.0, "ratio": 0.0, "vulnClass": "none"}}, {"type": "Feature", "geometry": {"type": "MultiPolygon", "coordinates": [[[[71.84283852726168, 34.327153181403084], [71.84278168308583, 34.32715090327516], [71.84277908565399, 34.32719410066144], [71.8428359264826, 34.32719646883923], [71.84283852726168, 34.327153181403084]]]]}, "properties": {"id": "8J6H8RGV+V47X", "height": 2.614977836608887, "hmax": 0.094, "ratio": 0.036, "vulnClass": "none"}}, {"type": "Feature", "geometry": {"type": "MultiPolygon", "coordinates": [[[[71.84289167361734, 34.3272482924452], [71.84291240062234, 34.327167796661485], [71.84287862026913, 34.32716178729996], [71.84286660072608, 34.32720708503664], [71.84282063307207, 34.327198688071554], [71.84281138961803, 34.32723369200797], [71.84289167361734, 34.3272482924452]]]]}, "properties": {"id": "8J6H8RGV+V4QH", "height": 2.448312520980835, "hmax": 0.094, "ratio": 0.038, "vulnClass": "none"}}, {"type": "Feature", "geometry": {"type": "MultiPolygon", "coordinates": [[[[71.84295693093041, 34.32720004206594], [71.84290630958283, 34.32719116450846], [71.84287921028279, 34.327296733427396], [71.84301444723418, 34.327320593536626], [71.8430266697861, 34.327272777264774], [71.84294217632927, 34.327257437350895], [71.84295693093041, 34.32720004206594]]]]}, "properties": {"id": "8J6H8RGV+W54J", "height": 2.462286472320557, "hmax": 0.0, "ratio": 0.0, "vulnClass": "none"}}, {"type": "Feature", "geometry": {"type": "MultiPolygon", "coordinates": [[[[71.84296785595278, 34.32739258024301], [71.84292198085478, 34.32739040496137], [71.8429121796175, 34.32753301474816], [71.84295805479242, 34.32753519003772], [71.84296785595278, 34.32739258024301]]]]}, "properties": {"id": "8J6H8RGV+X5PC", "height": 2.904695987701416, "hmax": 0.0, "ratio": 0.0, "vulnClass": "none"}}, {"type": "Feature", "geometry": {"type": "MultiPolygon", "coordinates": [[[[71.84296813024929, 34.32731281855015], [71.8428746198797, 34.327309053489685], [71.84287267508361, 34.32734064040804], [71.84292116522793, 34.32734261278645], [71.84291787137035, 34.32739859126205], [71.84296300019967, 34.327400386751215], [71.84296813024929, 34.32731281855015]]]]}, "properties": {"id": "8J6H8RGV+W5MX", "height": 2.941484212875366, "hmax": 0.0, "ratio": 0.0, "vulnClass": "none"}}, {"type": "Feature", "geometry": {"type": "MultiPolygon", "coordinates": [[[[71.84301256684712, 34.32742870606128], [71.84296560633089, 34.32742650278685], [71.84295805479242, 34.32753519003772], [71.84313570113338, 34.32754355969314], [71.84313948692052, 34.327488945915036], [71.84300890977941, 34.32748278234977], [71.84301256684712, 34.32742870606128]]]]}, "properties": {"id": "8J6H8RHV+2632", "height": 2.535183906555176, "hmax": 0.0, "ratio": 0.0, "vulnClass": "none"}}, {"type": "Feature", "geometry": {"type": "MultiPolygon", "coordinates": [[[[71.84285268504702, 34.32707693268178], [71.84279969280693, 34.32706754322907], [71.84277986730318, 34.32714427662002], [71.84283242543101, 34.32715365488001], [71.84285268504702, 34.32707693268178]]]]}, "properties": {"id": "8J6H8RGV+R4WC", "height": 2.545177698135376, "hmax": 0.094, "ratio": 0.037, "vulnClass": "none"}}, {"type": "Feature", "geometry": {"type": "MultiPolygon", "coordinates": [[[[71.84282484730937, 34.32685736846151], [71.84279863829984, 34.326855159833705], [71.84279214175508, 34.32690672921684], [71.84299421965622, 34.326924112000356], [71.84300449583618, 34.32684127342847], [71.84282873566802, 34.326826102100036], [71.84282484730937, 34.32685736846151]]]]}, "properties": {"id": "8J6H8RGV+Q525", "height": 2.783661127090454, "hmax": 1.68, "ratio": 0.604, "vulnClass": "high"}}, {"type": "Feature", "geometry": {"type": "MultiPolygon", "coordinates": [[[[71.84294212577271, 34.32637204770881], [71.84290632739278, 34.3263648145446], [71.8428759380254, 34.32646831562789], [71.84302139755012, 34.32649766727197], [71.84305887815408, 34.32637019315777], [71.84294921720019, 34.32634807473091], [71.84294212577271, 34.32637204770881]]]]}, "properties": {"id": "8J6H8RGV+H59R", "height": 3.685133218765259, "hmax": 2.449, "ratio": 0.664, "vulnClass": "high"}}, {"type": "Feature", "geometry": {"type": "MultiPolygon", "coordinates": [[[[71.84317248336546, 34.32644649379283], [71.84304406151233, 34.3264205563971], [71.84302139755012, 34.32649766727197], [71.84314981951016, 34.32652360469739], [71.84317248336546, 34.32644649379283]]]]}, "properties": {"id": "8J6H8RGV+H6QR", "height": 2.540530920028687, "hmax": 2.087, "ratio": 0.821, "vulnClass": "high"}}, {"type": "Feature", "geometry": {"type": "MultiPolygon", "coordinates": [[[[71.84320620133758, 34.32654110339512], [71.84303041032771, 34.32652097419669], [71.84302283768749, 34.32656647683915], [71.84306589423008, 34.3265713735014], [71.84306042904939, 34.326604131468045], [71.8431630912013, 34.326615884049076], [71.84316855634351, 34.32658312607572], [71.84319862878888, 34.3265866060535], [71.84320620133758, 34.32654110339512]]]]}, "properties": {"id": "8J6H8RGV+J6HP", "height": 2.540530920028687, "hmax": 2.087, "ratio": 0.821, "vulnClass": "high"}}, {"type": "Feature", "geometry": {"type": "MultiPolygon", "coordinates": [[[[71.84286246893546, 34.32656387085369], [71.84281893961227, 34.326551300511944], [71.8427745625809, 34.326656964357525], [71.8428180919496, 34.32666953471754], [71.84286246893546, 34.32656387085369]]]]}, "properties": {"id": "8J6H8RGV+J4WC", "height": 3.26584267616272, "hmax": 2.648, "ratio": 0.811, "vulnClass": "high"}}, {"type": "Feature", "geometry": {"type": "MultiPolygon", "coordinates": [[[[71.84293362971742, 34.326682701367886], [71.84277172907997, 34.32666878895097], [71.84276243142801, 34.32674290973302], [71.84292444074333, 34.32675682497077], [71.84293362971742, 34.326682701367886]]]]}, "properties": {"id": "8J6H8RGV+M4QC", "height": 3.42915940284729, "hmax": 2.064, "ratio": 0.602, "vulnClass": "high"}}, {"type": "Feature", "geometry": {"type": "MultiPolygon", "coordinates": [[[[71.8428264432173, 34.326945200360484], [71.8426960540439, 34.32692245664335], [71.84267449673625, 34.32700770807308], [71.84291379428556, 34.32704948641358], [71.84294300479816, 34.32693396706274], [71.8428340933075, 34.32691502254984], [71.8428264432173, 34.326945200360484]]]]}, "properties": {"id": "8J6H8RGV+Q4W2", "height": 3.740107536315918, "hmax": 0.094, "ratio": 0.025, "vulnClass": "none"}}, {"type": "Feature", "geometry": {"type": "MultiPolygon", "coordinates": [[[[71.83811934478645, 34.32750343039333], [71.8380242489076, 34.32748402744736], [71.83798754327582, 34.32760800455921], [71.83808253074238, 34.32762740473552], [71.83811934478645, 34.32750343039333]]]]}, "properties": {"id": "8J6H8RHQ+26F8", "height": 2.65215802192688, "hmax": 0.0, "ratio": 0.0, "vulnClass": "none"}}, {"type": "Feature", "geometry": {"type": "MultiPolygon", "coordinates": [[[[71.83808318197852, 34.32762742156663], [71.8379883913021, 34.32760856728126], [71.83797801983742, 34.3276446232431], [71.83807281055086, 34.327663477538565], [71.83808318197852, 34.32762742156663]]]]}, "properties": {"id": "8J6H8RHQ+362H", "height": 2.483349561691284, "hmax": 0.0, "ratio": 0.0, "vulnClass": "none"}}, {"type": "Feature", "geometry": {"type": "MultiPolygon", "coordinates": [[[[71.83787338667034, 34.32810484729297], [71.83782873279186, 34.32810486486941], [71.83782875462401, 34.328147679099565], [71.83787340514363, 34.328147751571024], [71.83787338667034, 34.32810484729297]]]]}, "properties": {"id": "8J6H8RHQ+7452", "height": 2.460347652435303, "hmax": 0.0, "ratio": 0.0, "vulnClass": "none"}}, {"type": "Feature", "geometry": {"type": "MultiPolygon", "coordinates": [[[[71.83898088826892, 34.32448492982428], [71.83890072568269, 34.3244382423019], [71.838760207797, 34.32460442429667], [71.83884037044872, 34.3246511119146], [71.83898088826892, 34.32448492982428]]]]}, "properties": {"id": "8J6H8RFQ+RG9Q", "height": 2.565154790878296, "hmax": 0.0, "ratio": 0.0, "vulnClass": "none"}}, {"type": "Feature", "geometry": {"type": "MultiPolygon", "coordinates": [[[[71.84031520880224, 34.32437211740321], [71.84029468042483, 34.324429904041914], [71.84042516123763, 34.32446166598099], [71.8404456895367, 34.32440387931607], [71.84031520880224, 34.32437211740321]]]]}, "properties": {"id": "8J6H8RFR+Q49Q", "height": 2.647564649581909, "hmax": 0.0, "ratio": 0.0, "vulnClass": "none"}}, {"type": "Feature", "geometry": {"type": "MultiPolygon", "coordinates": [[[[71.84017322242903, 34.324473276470385], [71.8401969566837, 34.32444297343217], [71.84011932771064, 34.324401129235504], [71.83984500410281, 34.32475160606329], [71.83994265278535, 34.32480424281348], [71.84013641058618, 34.32455678143101], [71.84015781404702, 34.32456833058144], [71.84017652274989, 34.32454456768121], [71.84012306500561, 34.32451578625571], [71.84016129620058, 34.32446683933343], [71.84017322242903, 34.324473276470385]]]]}, "properties": {"id": "8J6H8RFR+R2R9", "height": 2.625496864318848, "hmax": 0.0, "ratio": 0.0, "vulnClass": "none"}}, {"type": "Feature", "geometry": {"type": "MultiPolygon", "coordinates": [[[[71.84202073085156, 34.32505655488003], [71.84197089235795, 34.32505580925776], [71.84197014124533, 34.32508742697284], [71.84202009167089, 34.325088085350934], [71.84202073085156, 34.32505655488003]]]]}, "properties": {"id": "8J6H8RGR+2QHX", "height": 2.461306571960449, "hmax": 0.0, "ratio": 0.0, "vulnClass": "none"}}, {"type": "Feature", "geometry": {"type": "MultiPolygon", "coordinates": [[[[71.84211214458254, 34.325011864338556], [71.84197185814729, 34.325009775612294], [71.84197089235795, 34.32505580925776], [71.84202073085156, 34.32505655488003], [71.84202009167089, 34.325088085350934], [71.8421105397229, 34.32508942846261], [71.84211214458254, 34.325011864338556]]]]}, "properties": {"id": "8J6H8RGR+2R7W", "height": 2.461306571960449, "hmax": 0.0, "ratio": 0.0, "vulnClass": "none"}}, {"type": "Feature", "geometry": {"type": "MultiPolygon", "coordinates": [[[[71.84238151040636, 34.32479339096949], [71.84229469689552, 34.32478204684188], [71.84227779395243, 34.32487066318429], [71.84236471271042, 34.32488210017699], [71.84238151040636, 34.32479339096949]]]]}, "properties": {"id": "8J6H8RFR+WWP8", "height": 2.48880672454834, "hmax": 0.0, "ratio": 0.0, "vulnClass": "none"}}, {"type": "Feature", "geometry": {"type": "MultiPolygon", "coordinates": [[[[71.84233812943211, 34.32471024922412], [71.84225196194586, 34.32470775489442], [71.84224900607198, 34.32477789315259], [71.84233528216578, 34.32478039028954], [71.84233812943211, 34.32471024922412]]]]}, "properties": {"id": "8J6H8RFR+VWVM", "height": 2.460972309112549, "hmax": 0.0, "ratio": 0.0, "vulnClass": "none"}}, {"type": "Feature", "geometry": {"type": "MultiPolygon", "coordinates": [[[[71.84255034555909, 34.324741053841336], [71.84253563567293, 34.3247219263011], [71.84250194183275, 34.324739714529336], [71.84251665171371, 34.32475884207333], [71.84255034555909, 34.324741053841336]]]]}, "properties": {"id": "8J6H8RFV+V2RQ", "height": 2.487074613571167, "hmax": 0.0, "ratio": 0.0, "vulnClass": "none"}}, {"type": "Feature", "geometry": {"type": "MultiPolygon", "coordinates": [[[[71.8425882325446, 34.324767900116136], [71.842570078374, 34.32473921960019], [71.84252269935126, 34.32475980935586], [71.842540853509, 34.32478848987812], [71.8425882325446, 34.324767900116136]]]]}, "properties": {"id": "8J6H8RFV+W23H", "height": 2.487074613571167, "hmax": 0.0, "ratio": 0.0, "vulnClass": "none"}}, {"type": "Feature", "geometry": {"type": "MultiPolygon", "coordinates": [[[[71.84248677240154, 34.32475022928087], [71.84245316870683, 34.32475981760786], [71.8424722958931, 34.32480600928933], [71.84250601151729, 34.32479633371204], [71.84248677240154, 34.32475022928087]]]]}, "properties": {"id": "8J6H8RFR+WX93", "height": 2.580773830413818, "hmax": 0.0, "ratio": 0.0, "vulnClass": "none"}}, {"type": "Feature", "geometry": {"type": "MultiPolygon", "coordinates": [[[[71.84223931065304, 34.32370946235352], [71.84213933221486, 34.32366100360721], [71.84206232868053, 34.323770512123225], [71.84223860298516, 34.32385582205911], [71.84229609531454, 34.32377411201019], [71.84221980294322, 34.32373717087875], [71.84223931065304, 34.32370946235352]]]]}, "properties": {"id": "8J6H8RFR+GV3G", "height": 2.878279447555542, "hmax": 0.0, "ratio": 0.0, "vulnClass": "none"}}, {"type": "Feature", "geometry": {"type": "MultiPolygon", "coordinates": [[[[71.8419717730277, 34.323847402733975], [71.84178584286879, 34.32374147284277], [71.84173486223658, 34.32380307053276], [71.84192068054324, 34.32390908775013], [71.8419717730277, 34.323847402733975]]]]}, "properties": {"id": "8J6H8RFR+GPQ3", "height": 2.809606552124023, "hmax": 0.0, "ratio": 0.0, "vulnClass": "none"}}, {"type": "Feature", "geometry": {"type": "MultiPolygon", "coordinates": [[[[71.84065988492803, 34.32414441615559], [71.84053571417431, 34.324074780810925], [71.84048594998126, 34.32413577841706], [71.8406102293109, 34.324205416617104], [71.84065988492803, 34.32414441615559]]]]}, "properties": {"id": "8J6H8RFR+M64M", "height": 3.281759262084961, "hmax": 0.0, "ratio": 0.0, "vulnClass": "none"}}, {"type": "Feature", "geometry": {"type": "MultiPolygon", "coordinates": [[[[71.84062004984091, 34.324013143639256], [71.84055108864905, 34.32398351139065], [71.84053063140968, 34.324016242619436], [71.84055062678917, 34.32402478091013], [71.8405304001212, 34.32405715755593], [71.84057924729424, 34.32407851887315], [71.84062004984091, 34.324013143639256]]]]}, "properties": {"id": "8J6H8RFR+J683", "height": 2.456931352615356, "hmax": 0.0, "ratio": 0.0, "vulnClass": "none"}}, {"type": "Feature", "geometry": {"type": "MultiPolygon", "coordinates": [[[[71.8405949574861, 34.32430263754857], [71.84065406413576, 34.32423007357148], [71.8406102293109, 34.324205416617104], [71.84046741684342, 34.324380735125736], [71.84054732566638, 34.324425522272456], [71.8406309195094, 34.32432285490602], [71.8405949574861, 34.32430263754857]]]]}, "properties": {"id": "8J6H8RFR+P6GR", "height": 3.401240587234497, "hmax": 0.0, "ratio": 0.0, "vulnClass": "none"}}, {"type": "Feature", "geometry": {"type": "MultiPolygon", "coordinates": [[[[71.84056618601595, 34.32421527564782], [71.84046669878651, 34.324159527361786], [71.84042683988761, 34.324208432356336], [71.84046248635731, 34.324228371209784], [71.84040520057572, 34.324298728758684], [71.84049372498257, 34.3243484254084], [71.84052766306381, 34.3243067584974], [71.8405029794726, 34.32429287135239], [71.84056618601595, 34.32421527564782]]]]}, "properties": {"id": "8J6H8RFR+P553", "height": 3.364546298980713, "hmax": 0.0, "ratio": 0.0, "vulnClass": "none"}}, {"type": "Feature", "geometry": {"type": "MultiPolygon", "coordinates": [[[[71.84014164444567, 34.32423198301238], [71.84009393630598, 34.32420632449998], [71.83999968433426, 34.32432665290005], [71.8400820008851, 34.324370961725], [71.84015309505979, 34.32428004984271], [71.84011859185713, 34.32426149243985], [71.84014164444567, 34.32423198301238]]]]}, "properties": {"id": "8J6H8RFR+P28P", "height": 2.45442008972168, "hmax": 0.0, "ratio": 0.0, "vulnClass": "none"}}, {"type": "Feature", "geometry": {"type": "MultiPolygon", "coordinates": [[[[71.84141141652329, 34.32310852917079], [71.84134964413204, 34.32306682471958], [71.8413314609669, 34.323085283473404], [71.84135361094175, 34.323100096513286], [71.84125149757348, 34.32320417914549], [71.84129122853798, 34.32323107340179], [71.84141141652329, 34.32310852917079]]]]}, "properties": {"id": "8J6H8RFR+7G84", "height": 2.491987466812134, "hmax": 0.0, "ratio": 0.0, "vulnClass": "none"}}, {"type": "Feature", "geometry": {"type": "MultiPolygon", "coordinates": [[[[71.84128407450727, 34.3231611248396], [71.84124349786485, 34.323148089414296], [71.84122306321221, 34.32319181773091], [71.84126353133748, 34.323204850361854], [71.84128407450727, 34.3231611248396]]]]}, "properties": {"id": "8J6H8RFR+7GC2", "height": 2.491987466812134, "hmax": 0.0, "ratio": 0.0, "vulnClass": "none"}}, {"type": "Feature", "geometry": {"type": "MultiPolygon", "coordinates": [[[[71.83827029127495, 34.32356414597293], [71.83818012377908, 34.323373075049496], [71.83806893215736, 34.32340922958047], [71.83810122923785, 34.32347784508188], [71.83805250632093, 34.3234937113894], [71.83807635594142, 34.323544262033934], [71.83812507888466, 34.3235283957184], [71.83815899089201, 34.32360029776829], [71.83827029127495, 34.32356414597293]]]]}, "properties": {"id": "8J6H8RFQ+97VC", "height": 4.12403678894043, "hmax": 0.0, "ratio": 0.0, "vulnClass": "none"}}, {"type": "Feature", "geometry": {"type": "MultiPolygon", "coordinates": [[[[71.85132789100784, 34.32344849683715], [71.85113958722222, 34.32338830812117], [71.85110307017206, 34.323467137331285], [71.85129137409895, 34.3235273261112], [71.85132789100784, 34.32344849683715]]]]}, "properties": {"id": "8J6H8VF2+9FP9", "height": 3.771317481994629, "hmax": 0.695, "ratio": 0.184, "vulnClass": "low"}}, {"type": "Feature", "geometry": {"type": "MultiPolygon", "coordinates": [[[[71.85113583766086, 34.32352927211871], [71.85115533354211, 34.32348146177962], [71.85112103733694, 34.3234718360686], [71.85110154143932, 34.32351964640132], [71.85113583766086, 34.32352927211871]]]]}, "properties": {"id": "8J6H8VF2+CF22", "height": 4.34079647064209, "hmax": 0.695, "ratio": 0.16, "vulnClass": "low"}}, {"type": "Feature", "geometry": {"type": "MultiPolygon", "coordinates": [[[[71.85107909673066, 34.32366085031313], [71.85103256862493, 34.32365875146332], [71.85103063975087, 34.32368709418593], [71.85107727304087, 34.32368928587856], [71.85107909673066, 34.32366085031313]]]]}, "properties": {"id": "8J6H8VF2+FC7X", "height": 2.873046398162842, "hmax": 0.145, "ratio": 0.05, "vulnClass": "low"}}, {"type": "Feature", "geometry": {"type": "MultiPolygon", "coordinates": [[[[71.85113583766086, 34.32352927211871], [71.85110154143932, 34.32351964640132], [71.85105992610586, 34.323621508947205], [71.85118571077734, 34.32365692424395], [71.85120233583896, 34.32361616064001], [71.85111084409428, 34.32359046113653], [71.85113583766086, 34.32352927211871]]]]}, "properties": {"id": "8J6H8VF2+CCX5", "height": 4.34079647064209, "hmax": 0.404, "ratio": 0.093, "vulnClass": "low"}}, {"type": "Feature", "geometry": {"type": "MultiPolygon", "coordinates": [[[[71.84634895412267, 34.32483181579811], [71.84626300279116, 34.32473360720241], [71.8462196517784, 34.32475980044495], [71.84630549791666, 34.324857916224346], [71.84634895412267, 34.32483181579811]]]]}, "properties": {"id": "8J6H8RFW+WG7R", "height": 2.680394172668457, "hmax": 0.0, "ratio": 0.0, "vulnClass": "none"}}, {"type": "Feature", "geometry": {"type": "MultiPolygon", "coordinates": [[[[71.84490929066611, 34.326941426456], [71.84482542230921, 34.32688040589255], [71.84479377228215, 34.326910325438796], [71.84487752872927, 34.32697143327221], [71.84490929066611, 34.326941426456]]]]}, "properties": {"id": "8J6H8RGV+QWH2", "height": 2.621684074401855, "hmax": 0.0, "ratio": 0.0, "vulnClass": "none"}}, {"type": "Feature", "geometry": {"type": "MultiPolygon", "coordinates": [[[[71.84501889569042, 34.326863582804805], [71.84498716063392, 34.326858077441294], [71.84497770161563, 34.32689596030882], [71.84500944005921, 34.32690137562824], [71.84501889569042, 34.326863582804805]]]]}, "properties": {"id": "8J6H8RGV+QX55", "height": 2.669191837310791, "hmax": 0.0, "ratio": 0.0, "vulnClass": "none"}}, {"type": "Feature", "geometry": {"type": "MultiPolygon", "coordinates": [[[[71.84523429389236, 34.326914024131945], [71.84518454629101, 34.32689922118578], [71.84514839940233, 34.32698247449606], [71.84519814367061, 34.326997367506415], [71.84523429389236, 34.326914024131945]]]]}, "properties": {"id": "8J6H8RGW+Q3GR", "height": 2.72160530090332, "hmax": 0.0, "ratio": 0.0, "vulnClass": "none"}}, {"type": "Feature", "geometry": {"type": "MultiPolygon", "coordinates": [[[[71.84524460145727, 34.32687958822452], [71.84519698754659, 34.32686583178023], [71.84518232153007, 34.326900605965555], [71.84523004399631, 34.32691436521524], [71.84524460145727, 34.32687958822452]]]]}, "properties": {"id": "8J6H8RGW+Q34Q", "height": 2.632888555526733, "hmax": 0.0, "ratio": 0.0, "vulnClass": "none"}}, {"type": "Feature", "geometry": {"type": "MultiPolygon", "coordinates": [[[[71.84518454629101, 34.32689922118578], [71.84522225254635, 34.326812042163525], [71.8451548867812, 34.326791917650716], [71.84511718046839, 34.32687909664907], [71.84518454629101, 34.32689922118578]]]]}, "properties": {"id": "8J6H8RGW+P3MV", "height": 2.496912002563477, "hmax": 0.0, "ratio": 0.0, "vulnClass": "none"}}, {"type": "Feature", "geometry": {"type": "MultiPolygon", "coordinates": [[[[71.84514571960513, 34.32681331348658], [71.84503139801163, 34.32677926912681], [71.8450029673404, 34.326845055057596], [71.84511718046839, 34.32687909664907], [71.84514571960513, 34.32681331348658]]]]}, "properties": {"id": "8J6H8RGW+P2P3", "height": 2.465673208236694, "hmax": 0.0, "ratio": 0.0, "vulnClass": "none"}}, {"type": "Feature", "geometry": {"type": "MultiPolygon", "coordinates": [[[[71.84519814029701, 34.326997457553716], [71.8449665621632, 34.32692649896368], [71.84491745006314, 34.327036818665405], [71.84507426771536, 34.327084938346374], [71.84506406627271, 34.3271078397854], [71.84513871847874, 34.3271306760092], [71.84519814029701, 34.326997457553716]]]]}, "properties": {"id": "8J6H8RGW+R23X", "height": 5.035467147827148, "hmax": 0.0, "ratio": 0.0, "vulnClass": "none"}}, {"type": "Feature", "geometry": {"type": "MultiPolygon", "coordinates": [[[[71.84932910171443, 34.326240062049024], [71.84924627339089, 34.3262121505603], [71.84918028887064, 34.32634673447856], [71.84926300875873, 34.326374643222415], [71.84932910171443, 34.326240062049024]]]]}, "properties": {"id": "8J6H8RGX+GP6J", "height": 2.643777847290039, "hmax": 0.0, "ratio": 0.0, "vulnClass": "none"}}, {"type": "Feature", "geometry": {"type": "MultiPolygon", "coordinates": [[[[71.84953455036646, 34.326451940744576], [71.84957689022538, 34.32630466975481], [71.84949460400286, 34.326288399730366], [71.84942752555816, 34.32652192321297], [71.849484361829, 34.326533121340226], [71.84950920876939, 34.32644687159225], [71.84953455036646, 34.326451940744576]]]]}, "properties": {"id": "8J6H8RGX+HR62", "height": 3.578551054000854, "hmax": 0.0, "ratio": 0.0, "vulnClass": "none"}}, {"type": "Feature", "geometry": {"type": "MultiPolygon", "coordinates": [[[[71.84950981535782, 34.32653810324629], [71.84942752555816, 34.32652192321297], [71.8494137838192, 34.32656979125408], [71.84949607029262, 34.32658606134665], [71.84950981535782, 34.32653810324629]]]]}, "properties": {"id": "8J6H8RGX+JQG5", "height": 2.975258588790894, "hmax": 0.0, "ratio": 0.0, "vulnClass": "none"}}, {"type": "Feature", "geometry": {"type": "MultiPolygon", "coordinates": [[[[71.84979591676104, 34.32672573913702], [71.84975127977415, 34.326710799220734], [71.84973938753005, 34.32673537010846], [71.84978402452715, 34.32675031002963], [71.84979591676104, 34.32672573913702]]]]}, "properties": {"id": "8J6H8RGX+MWR8", "height": 3.059000730514526, "hmax": 0.0, "ratio": 0.0, "vulnClass": "none"}}, {"type": "Feature", "geometry": {"type": "MultiPolygon", "coordinates": [[[[71.84990908526001, 34.32665997058088], [71.84983768474292, 34.326637311109636], [71.84979230013194, 34.326735290397465], [71.84986369734712, 34.32675803994653], [71.84990908526001, 34.32665997058088]]]]}, "properties": {"id": "8J6H8RGX+MWHR", "height": 3.354251146316528, "hmax": 0.0, "ratio": 0.0, "vulnClass": "none"}}, {"type": "Feature", "geometry": {"type": "MultiPolygon", "coordinates": [[[[71.84983706942545, 34.32664504682723], [71.84978911788458, 34.32664029690651], [71.84978527515972, 34.32666750869313], [71.84983311817629, 34.326672255821485], [71.84983706942545, 34.32664504682723]]]]}, "properties": {"id": "8J6H8RGX+MW79", "height": 3.354251146316528, "hmax": 0.0, "ratio": 0.0, "vulnClass": "none"}}, {"type": "Feature", "geometry": {"type": "MultiPolygon", "coordinates": [[[[71.84994669865658, 34.32656061940809], [71.84979470526616, 34.32652578978034], [71.84977586461511, 34.32658217948366], [71.8498142148826, 34.326590918509524], [71.8498040540535, 34.32662148285846], [71.8499177006719, 34.32664748345245], [71.84994669865658, 34.32656061940809]]]]}, "properties": {"id": "8J6H8RGX+JWQG", "height": 2.765721082687378, "hmax": 0.0, "ratio": 0.0, "vulnClass": "none"}}, {"type": "Feature", "geometry": {"type": "MultiPolygon", "coordinates": [[[[71.85138901543704, 34.32615194155901], [71.85134854152295, 34.3261418864927], [71.85133109714913, 34.32619002003395], [71.85137167962228, 34.326200077900445], [71.85138901543704, 34.32615194155901]]]]}, "properties": {"id": "8J6H8VG2+FG9W", "height": 2.910886764526367, "hmax": 0.0, "ratio": 0.0, "vulnClass": "none"}}, {"type": "Feature", "geometry": {"type": "MultiPolygon", "coordinates": [[[[71.85161326512832, 34.326296970290436], [71.8510955303857, 34.326158809774796], [71.85108026438125, 34.32619807602923], [71.8515979993301, 34.32633623662077], [71.85161326512832, 34.326296970290436]]]]}, "properties": {"id": "8J6H8VG2+FGXR", "height": 3.134389162063599, "hmax": 0.0, "ratio": 0.0, "vulnClass": "none"}}, {"type": "Feature", "geometry": {"type": "MultiPolygon", "coordinates": [[[[71.85068942950492, 34.32570832051156], [71.8506956944251, 34.325671526645074], [71.85065924503529, 34.32566716329036], [71.8506529767322, 34.3257040472019], [71.85068942950492, 34.32570832051156]]]]}, "properties": {"id": "8J6H8VG2+77FG", "height": 2.448425054550171, "hmax": 0.0, "ratio": 0.0, "vulnClass": "none"}}]}