{"type": "FeatureCollection", "features": [{"type": "Feature", "geometry": {"type": "MultiPolygon", "coordinates": [[[[71.7835540757249, 34.4296283137769], [71.78355110861422, 34.42953549058525], [71.78306470203194, 34.429545937546486], [71.7830654995681, 34.42957335844767], [71.7831285306339, 34.42957204381052], [71.78313217256886, 34.429686966924145], [71.7832661847074, 34.42968409622101], [71.78326340924842, 34.429594793197644], [71.78330358266507, 34.429593868069816], [71.78330488175929, 34.42963374029131], [71.7835540757249, 34.4296283137769]]]]}, "properties": {"id": "Pakistan_123102132_600016", "height": 2.978963136672974, "hmax": 0.0, "ratio": 0.0, "vulnClass": "none"}}, {"type": "Feature", "geometry": {"type": "MultiPolygon", "coordinates": [[[[71.78302860901813, 34.429474504514566], [71.78302584894493, 34.42952661783139], [71.78306745039998, 34.4295281639274], [71.78307010178251, 34.42947604774689], [71.78302860901813, 34.429474504514566]]]]}, "properties": {"id": "Pakistan_123102132_538783", "height": 2.659835338592529, "hmax": 0.0, "ratio": 0.0, "vulnClass": "none"}}, {"type": "Feature", "geometry": {"type": "MultiPolygon", "coordinates": [[[[71.78389905187846, 34.42909363367766], [71.78421782554814, 34.42910328669539], [71.78422004663172, 34.42905386307815], [71.78400568596486, 34.42904731918122], [71.78400944665489, 34.42896341581582], [71.78390503739503, 34.42896021667992], [71.78389905187846, 34.42909363367766]]]]}, "properties": {"id": "Pakistan_123102132_474425", "height": 2.596824407577515, "hmax": 0.0, "ratio": 0.0, "vulnClass": "none"}}, {"type": "Feature", "geometry": {"type": "MultiPolygon", "coordinates": [[[[71.78404891337362, 34.429256119568024], [71.78404411194964, 34.42936433098411], [71.7843709210016, 34.42937437541391], [71.7843754700284, 34.42927273691394], [71.7842522647749, 34.42926895320613], [71.7842554091572, 34.42919828290613], [71.78417240308411, 34.429195737488925], [71.78417476227932, 34.42914271225763], [71.784059598428, 34.42913914002934], [71.78405661958732, 34.429205488375715], [71.78395753459395, 34.429202429428365], [71.78395526156183, 34.42925320363701], [71.78404891337362, 34.429256119568024]]]]}, "properties": {"id": "Pakistan_123102132_400556", "height": 2.52163553237915, "hmax": 0.0, "ratio": 0.0, "vulnClass": "none"}}, {"type": "Feature", "geometry": {"type": "MultiPolygon", "coordinates": [[[[71.78906546185623, 34.42970010438961], [71.78890971788826, 34.429645537350716], [71.78891699633861, 34.4296315780193], [71.78874879905288, 34.4295727176787], [71.78870978161451, 34.42964857421083], [71.78903361785294, 34.4297619087989], [71.78906546185623, 34.42970010438961]]]]}, "properties": {"id": "Pakistan_123102132_166342", "height": 3.000214099884033, "hmax": 0.0, "ratio": 0.0, "vulnClass": "none"}}, {"type": "Feature", "geometry": {"type": "MultiPolygon", "coordinates": [[[[71.78865868602287, 34.428661914279786], [71.7890072942213, 34.42878157825649], [71.78911486839858, 34.428568540704276], [71.78906000605436, 34.42854970344816], [71.78904565640369, 34.428577897979345], [71.78901140603804, 34.428566182024426], [71.78900376035617, 34.428581213292034], [71.78891690206794, 34.428551440310024], [71.78887369947019, 34.42863719151289], [71.7887011713692, 34.42857785680479], [71.78865868602287, 34.428661914279786]]]]}, "properties": {"id": "Pakistan_123102132_508324", "height": 3.648725509643555, "hmax": 0.0, "ratio": 0.0, "vulnClass": "none"}}, {"type": "Feature", "geometry": {"type": "MultiPolygon", "coordinates": [[[[71.78902674230217, 34.42822805135349], [71.7890743113943, 34.428232816694134], [71.78908020201933, 34.42819259261714], [71.78903263294933, 34.42818782728002], [71.78902674230217, 34.42822805135349]]]]}, "properties": {"id": "Pakistan_123102132_538808", "height": 2.508437156677246, "hmax": 0.0, "ratio": 0.0, "vulnClass": "none"}}, {"type": "Feature", "geometry": {"type": "MultiPolygon", "coordinates": [[[[71.78897689046755, 34.42814652412914], [71.78902180025673, 34.42816392813083], [71.78904757275242, 34.42811863844414], [71.78900266298064, 34.42810123445287], [71.78897689046755, 34.42814652412914]]]]}, "properties": {"id": "Pakistan_123102132_147714", "height": 2.633465528488159, "hmax": 0.0, "ratio": 0.0, "vulnClass": "none"}}, {"type": "Feature", "geometry": {"type": "MultiPolygon", "coordinates": [[[[71.78911233761875, 34.43366126052902], [71.78915026958317, 34.43368199628443], [71.78917436777631, 34.433652075111965], [71.78913632714722, 34.43363133650817], [71.78911233761875, 34.43366126052902]]]]}, "properties": {"id": "Pakistan_123102132_449742", "height": 3.011772871017456, "hmax": 0.0, "ratio": 0.0, "vulnClass": "none"}}, {"type": "Feature", "geometry": {"type": "MultiPolygon", "coordinates": [[[[71.78625848585408, 34.432207749625874], [71.78659983395788, 34.43238374214507], [71.78663488747452, 34.43233761561595], [71.78649791962836, 34.4322670452481], [71.78651842702695, 34.432240004492854], [71.78642775579094, 34.43219327480499], [71.78644941197787, 34.4321646419161], [71.78636845032226, 34.432122854424385], [71.7863359116799, 34.432165802303906], [71.78630305578966, 34.43214889462512], [71.78625848585408, 34.432207749625874]]]]}, "properties": {"id": "Pakistan_123102132_357286", "height": 3.578742265701294, "hmax": 0.0, "ratio": 0.0, "vulnClass": "none"}}, {"type": "Feature", "geometry": {"type": "MultiPolygon", "coordinates": [[[[71.78679644134948, 34.432061736691644], [71.78665681747763, 34.432015071588395], [71.78662413588292, 34.432081630202376], [71.78676376329096, 34.43212820530717], [71.78679644134948, 34.432061736691644]]]]}, "properties": {"id": "Pakistan_123102132_157025", "height": 2.594673633575439, "hmax": 0.0, "ratio": 0.0, "vulnClass": "none"}}, {"type": "Feature", "geometry": {"type": "MultiPolygon", "coordinates": [[[[71.78706921586067, 34.43212812717481], [71.78714140331891, 34.43216896240703], [71.7871952232418, 34.43210431152522], [71.78714496974054, 34.43207586037737], [71.78719628506353, 34.43201411795888], [71.78708683283934, 34.431952203430555], [71.78701545358525, 34.4320379338489], [71.78710308059169, 34.432087467246774], [71.78706921586067, 34.43212812717481]]]]}, "properties": {"id": "Pakistan_123102132_280371", "height": 2.688547611236572, "hmax": 0.0, "ratio": 0.0, "vulnClass": "none"}}, {"type": "Feature", "geometry": {"type": "MultiPolygon", "coordinates": [[[[71.78843803588111, 34.43254411300079], [71.7884094653849, 34.43250902185807], [71.78836512360671, 34.43253354360351], [71.78839369409104, 34.43256863475593], [71.78843803588111, 34.43254411300079]]]]}, "properties": {"id": "Pakistan_123102132_575481", "height": 2.64192008972168, "hmax": 0.0, "ratio": 0.0, "vulnClass": "none"}}, {"type": "Feature", "geometry": {"type": "MultiPolygon", "coordinates": [[[[71.78896002648361, 34.42974924895269], [71.78885882675044, 34.42972468710494], [71.78884067072157, 34.42977558480584], [71.78894187050844, 34.42980014667162], [71.78896002648361, 34.42974924895269]]]]}, "properties": {"id": "Pakistan_123102132_566180", "height": 3.881277322769165, "hmax": 0.0, "ratio": 0.0, "vulnClass": "none"}}, {"type": "Feature", "geometry": {"type": "MultiPolygon", "coordinates": [[[[71.78848854371338, 34.43000058044456], [71.78884212926046, 34.43010117788063], [71.78888427842273, 34.430000347088416], [71.78884349719989, 34.42998872980832], [71.78888983222429, 34.429878004444376], [71.78881311162127, 34.42985615898371], [71.78878053477516, 34.4299342578451], [71.7886882126857, 34.4299079463069], [71.78866677238898, 34.429959388567426], [71.78852290598101, 34.429918472690034], [71.78848854371338, 34.43000058044456]]]]}, "properties": {"id": "Pakistan_123102132_295700", "height": 3.698812246322632, "hmax": 0.0, "ratio": 0.0, "vulnClass": "none"}}, {"type": "Feature", "geometry": {"type": "MultiPolygon", "coordinates": [[[[71.78862788439818, 34.43017675480239], [71.78841214348925, 34.430101051488556], [71.78833200312853, 34.43025658458053], [71.78839790733633, 34.43027967824219], [71.7884403318344, 34.430197241671564], [71.78859028084221, 34.430249764239576], [71.78862788439818, 34.43017675480239]]]]}, "properties": {"id": "Pakistan_123102132_191143", "height": 2.505731105804443, "hmax": 0.0, "ratio": 0.0, "vulnClass": "none"}}, {"type": "Feature", "geometry": {"type": "MultiPolygon", "coordinates": [[[[71.7875261498568, 34.4300134034983], [71.78722728600893, 34.42992118147665], [71.7871929500343, 34.42999689019123], [71.78755535307647, 34.43010862909704], [71.78759052186585, 34.43003104941221], [71.78758342920973, 34.43002878989092], [71.78760897181884, 34.42997249848352], [71.78755252902614, 34.429955151210514], [71.7875261498568, 34.4300134034983]]]]}, "properties": {"id": "Pakistan_123102132_375583", "height": 3.276007652282715, "hmax": 0.0, "ratio": 0.0, "vulnClass": "none"}}, {"type": "Feature", "geometry": {"type": "MultiPolygon", "coordinates": [[[[71.78710565342973, 34.42982803165377], [71.78704412255253, 34.42981289375719], [71.78703341489783, 34.42984253577241], [71.78678578058513, 34.42978167372765], [71.7867569327997, 34.429861762830484], [71.78706609826602, 34.4299377628656], [71.78710565342973, 34.42982803165377]]]]}, "properties": {"id": "Pakistan_123102132_6277", "height": 3.603961706161499, "hmax": 0.0, "ratio": 0.0, "vulnClass": "none"}}, {"type": "Feature", "geometry": {"type": "MultiPolygon", "coordinates": [[[[71.78496137732962, 34.431133144889145], [71.78496735051498, 34.431039745795786], [71.78463830288136, 34.43102549781604], [71.7846323258811, 34.4311189869134], [71.78496137732962, 34.431133144889145]]]]}, "properties": {"id": "Pakistan_123102132_314353", "height": 4.046944618225098, "hmax": 0.0, "ratio": 0.0, "vulnClass": "none"}}, {"type": "Feature", "geometry": {"type": "MultiPolygon", "coordinates": [[[[71.78483591505089, 34.43039076644501], [71.784821617915, 34.4304686241492], [71.78498032246637, 34.430488483605984], [71.78499461946119, 34.43041062587535], [71.78483591505089, 34.43039076644501]]]]}, "properties": {"id": "Pakistan_123102132_132374", "height": 2.447326183319092, "hmax": 0.0, "ratio": 0.0, "vulnClass": "none"}}, {"type": "Feature", "geometry": {"type": "MultiPolygon", "coordinates": [[[[71.7836902077802, 34.42994744731347], [71.78364358717721, 34.429719359538794], [71.78351060761824, 34.4297378505506], [71.7835387197677, 34.42987559020802], [71.78350219413244, 34.429880667355675], [71.7834885442064, 34.42981397136789], [71.78340247892086, 34.42982594612909], [71.78339195052797, 34.4297742941086], [71.7833137609808, 34.42978512419931], [71.78335633833433, 34.42999381752762], [71.7836902077802, 34.42994744731347]]]]}, "properties": {"id": "Pakistan_123102132_252605", "height": 5.654537200927734, "hmax": 0.0, "ratio": 0.0, "vulnClass": "none"}}, {"type": "Feature", "geometry": {"type": "MultiPolygon", "coordinates": [[[[71.78142100594789, 34.43314313386195], [71.78141607251511, 34.43322916927558], [71.78169173801874, 34.43324003701743], [71.78169667117088, 34.43315400157692], [71.78142100594789, 34.43314313386195]]]]}, "properties": {"id": "Pakistan_123102132_258750", "height": 2.665726661682129, "hmax": 0.0, "ratio": 0.0, "vulnClass": "none"}}, {"type": "Feature", "geometry": {"type": "MultiPolygon", "coordinates": [[[[71.78152021706832, 34.433497349349466], [71.78136464114198, 34.43349505311892], [71.78136546808535, 34.43345649877055], [71.78130480259782, 34.43345562145469], [71.78130239424513, 34.43356939365081], [71.78134696972606, 34.43357002730814], [71.78134740739272, 34.43355011985371], [71.78151896483637, 34.43355265689254], [71.78152021706832, 34.433497349349466]]]]}, "properties": {"id": "Pakistan_123102132_116852", "height": 3.016005992889404, "hmax": 0.0, "ratio": 0.0, "vulnClass": "none"}}, {"type": "Feature", "geometry": {"type": "MultiPolygon", "coordinates": [[[[71.78438407324693, 34.4346887711231], [71.78438074918202, 34.43475276693833], [71.78458954079524, 34.43476024559851], [71.78459286815406, 34.43469615972833], [71.78438407324693, 34.4346887711231]]]]}, "properties": {"id": "Pakistan_123102132_425213", "height": 2.779021739959717, "hmax": 0.0, "ratio": 0.0, "vulnClass": "none"}}, {"type": "Feature", "geometry": {"type": "MultiPolygon", "coordinates": [[[[71.7850605526032, 34.43444844000803], [71.78527536493428, 34.434582620226124], [71.78533916167028, 34.43451318546158], [71.78512424072524, 34.43437900249893], [71.7850605526032, 34.43444844000803]]]]}, "properties": {"id": "Pakistan_123102132_181906", "height": 2.655160188674927, "hmax": 0.0, "ratio": 0.0, "vulnClass": "none"}}, {"type": "Feature", "geometry": {"type": "MultiPolygon", "coordinates": [[[[71.78457871410511, 34.43432480695156], [71.78475451344897, 34.43433024520119], [71.78475844665938, 34.43424183982482], [71.78458264749987, 34.43423640159117], [71.78457871410511, 34.43432480695156]]]]}, "properties": {"id": "Pakistan_123102132_308148", "height": 3.793913602828979, "hmax": 0.0, "ratio": 0.0, "vulnClass": "none"}}, {"type": "Feature", "geometry": {"type": "MultiPolygon", "coordinates": [[[[71.78466767998285, 34.43410677765746], [71.78461671665865, 34.4341053461567], [71.78461491299674, 34.434149553130055], [71.78466576767644, 34.43415098177283], [71.78466767998285, 34.43410677765746]]]]}, "properties": {"id": "Pakistan_123102132_541861", "height": 2.717788696289062, "hmax": 0.0, "ratio": 0.0, "vulnClass": "none"}}, {"type": "Feature", "geometry": {"type": "MultiPolygon", "coordinates": [[[[71.78452372203867, 34.434488029293185], [71.78471404408793, 34.434492047243204], [71.78471538721101, 34.434445664997305], [71.78452517393828, 34.43444164991564], [71.78452372203867, 34.434488029293185]]]]}, "properties": {"id": "Pakistan_123102132_434463", "height": 4.016623973846436, "hmax": 0.0, "ratio": 0.0, "vulnClass": "none"}}, {"type": "Feature", "geometry": {"type": "MultiPolygon", "coordinates": [[[[71.78442609590569, 34.43446094389891], [71.78442408575896, 34.43448216196157], [71.78445338221874, 34.43448410481189], [71.78444489825097, 34.434572029855836], [71.78449817667754, 34.43457550526154], [71.78450877593586, 34.43446645504645], [71.78442609590569, 34.43446094389891]]]]}, "properties": {"id": "Pakistan_123102132_261889", "height": 2.787400722503662, "hmax": 0.0, "ratio": 0.0, "vulnClass": "none"}}, {"type": "Feature", "geometry": {"type": "MultiPolygon", "coordinates": [[[[71.7845582789454, 34.43464784026746], [71.78463671198486, 34.434667660548115], [71.7846592724121, 34.43460696509704], [71.78449734032783, 34.4345661095977], [71.78448835958937, 34.434590388908845], [71.78457175003244, 34.43461142129171], [71.7845582789454, 34.43464784026746]]]]}, "properties": {"id": "Pakistan_123102132_587627", "height": 3.95415210723877, "hmax": 0.0, "ratio": 0.0, "vulnClass": "none"}}, {"type": "Feature", "geometry": {"type": "MultiPolygon", "coordinates": [[[[71.78823036160723, 34.4341749885503], [71.78841493567812, 34.43449953701391], [71.78860397161492, 34.4344263626176], [71.78856382008973, 34.43435563555512], [71.78848023487458, 34.434387958538345], [71.78838840046294, 34.43422664266376], [71.78839425316234, 34.43422436298162], [71.7883416611707, 34.43413194766192], [71.78823036160723, 34.4341749885503]]]]}, "properties": {"id": "Pakistan_123102132_514399", "height": 3.701989650726318, "hmax": 0.0, "ratio": 0.0, "vulnClass": "none"}}, {"type": "Feature", "geometry": {"type": "MultiPolygon", "coordinates": [[[[71.78791476286267, 34.43534578916101], [71.78812630807255, 34.43535243289863], [71.78812991892886, 34.43527519513198], [71.78807364008485, 34.43527335490507], [71.78807268306586, 34.435295502055865], [71.78791731162863, 34.43529060566069], [71.78791476286267, 34.43534578916101]]]]}, "properties": {"id": "Pakistan_123102132_188012", "height": 2.488172769546509, "hmax": 0.0, "ratio": 0.0, "vulnClass": "none"}}, {"type": "Feature", "geometry": {"type": "MultiPolygon", "coordinates": [[[[71.78381053611574, 34.43592938091232], [71.78406108053079, 34.43597716689458], [71.78407079503934, 34.435942271459815], [71.78399595738438, 34.435927953312], [71.78400779214715, 34.435885993334686], [71.7839161051022, 34.43586852762288], [71.7839287058849, 34.43582361349066], [71.78406358944204, 34.43584933674198], [71.7840751757343, 34.43580818139628], [71.78394785102331, 34.43578391899537], [71.78398640540104, 34.43564658257182], [71.78391253917617, 34.43563247021705], [71.78388783450119, 34.43572068919911], [71.78387001392764, 34.435717335835804], [71.78381053611574, 34.43592938091232]]]]}, "properties": {"id": "Pakistan_123102132_70719", "height": 2.560702800750732, "hmax": 0.0, "ratio": 0.0, "vulnClass": "none"}}, {"type": "Feature", "geometry": {"type": "MultiPolygon", "coordinates": [[[[71.77952716054659, 34.43683690792977], [71.77951321285789, 34.43706412115952], [71.77962030362708, 34.43706856674941], [71.77963414235384, 34.43684135062636], [71.77952716054659, 34.43683690792977]]]]}, "properties": {"id": "Pakistan_123102132_55381", "height": 5.250190734863281, "hmax": 0.0, "ratio": 0.0, "vulnClass": "none"}}, {"type": "Feature", "geometry": {"type": "MultiPolygon", "coordinates": [[[[71.7801784384049, 34.436528432348766], [71.78027287897118, 34.43653650968194], [71.78029842648839, 34.43633294597521], [71.78037541188846, 34.436339481587595], [71.78038169472123, 34.43628917376328], [71.78030319139401, 34.43628250801763], [71.78029770424675, 34.43632625723824], [71.78020489055808, 34.436318312942596], [71.7801784384049, 34.436528432348766]]]]}, "properties": {"id": "Pakistan_123102132_258746", "height": 3.565663576126099, "hmax": 0.0, "ratio": 0.0, "vulnClass": "none"}}, {"type": "Feature", "geometry": {"type": "MultiPolygon", "coordinates": [[[[71.78022408594113, 34.43621219379906], [71.78021077306316, 34.43629260036678], [71.78028973678627, 34.436301441452905], [71.78030304959124, 34.4362210348725], [71.78022408594113, 34.43621219379906]]]]}, "properties": {"id": "Pakistan_123102132_498977", "height": 2.772635936737061, "hmax": 0.0, "ratio": 0.0, "vulnClass": "none"}}, {"type": "Feature", "geometry": {"type": "MultiPolygon", "coordinates": [[[[71.78078512740264, 34.43319578009073], [71.78079867742257, 34.43313466771502], [71.78051834375988, 34.43309239943766], [71.7805330724418, 34.43302609055235], [71.78026831164702, 34.43298621499863], [71.78024266204305, 34.433101808134296], [71.78028527730096, 34.433108158901135], [71.78026055081956, 34.43321954020523], [71.78037119437937, 34.433236156199676], [71.7803931789469, 34.43313669004692], [71.78078512740264, 34.43319578009073]]]]}, "properties": {"id": "Pakistan_123102132_49170", "height": 2.489615440368652, "hmax": 0.0, "ratio": 0.0, "vulnClass": "none"}}, {"type": "Feature", "geometry": {"type": "MultiPolygon", "coordinates": [[[[71.78042286070627, 34.43137450719131], [71.7803826884145, 34.43137254717508], [71.78037977376857, 34.43141447147659], [71.78041984086924, 34.431416338591006], [71.78042286070627, 34.43137450719131]]]]}, "properties": {"id": "Pakistan_123102132_160046", "height": 2.475777864456177, "hmax": 0.0, "ratio": 0.0, "vulnClass": "none"}}, {"type": "Feature", "geometry": {"type": "MultiPolygon", "coordinates": [[[[71.78025818607566, 34.43114745319485], [71.78020373427704, 34.43116043907726], [71.78029281040442, 34.431415784832204], [71.78034725890534, 34.43140288895912], [71.78025818607566, 34.43114745319485]]]]}, "properties": {"id": "Pakistan_123102132_224811", "height": 2.985505342483521, "hmax": 0.0, "ratio": 0.0, "vulnClass": "none"}}, {"type": "Feature", "geometry": {"type": "MultiPolygon", "coordinates": [[[[71.78000041304676, 34.43075570916048], [71.77999615501244, 34.43067961637755], [71.77984506162868, 34.43068536804923], [71.77984931952523, 34.43076146082968], [71.78000041304676, 34.43075570916048]]]]}, "properties": {"id": "Pakistan_123102132_578461", "height": 3.218008041381836, "hmax": 0.0, "ratio": 0.0, "vulnClass": "none"}}, {"type": "Feature", "geometry": {"type": "MultiPolygon", "coordinates": [[[[71.77947203540441, 34.43070888360794], [71.77929001509251, 34.43071553179524], [71.77929158735142, 34.430745406645315], [71.77923538073158, 34.430747439971], [71.7792379759378, 34.430795998930826], [71.77947631173966, 34.430787320286484], [71.77947203540441, 34.43070888360794]]]]}, "properties": {"id": "Pakistan_123102132_82947", "height": 2.587920904159546, "hmax": 0.0, "ratio": 0.0, "vulnClass": "none"}}, {"type": "Feature", "geometry": {"type": "MultiPolygon", "coordinates": [[[[71.77963326461327, 34.42912736648945], [71.77980618737439, 34.429130933103124], [71.77980801875663, 34.42906906127315], [71.77963509612269, 34.42906549466921], [71.77963326461327, 34.42912736648945]]]]}, "properties": {"id": "Pakistan_123102132_406569", "height": 2.625459432601929, "hmax": 0.0, "ratio": 0.0, "vulnClass": "none"}}, {"type": "Feature", "geometry": {"type": "MultiPolygon", "coordinates": [[[[71.77981287886054, 34.427769407921765], [71.77979173523408, 34.42791783743876], [71.77995309842137, 34.42793344705361], [71.77997424177047, 34.42778501749315], [71.77981287886054, 34.427769407921765]]]]}, "properties": {"id": "Pakistan_123102132_55382", "height": 3.446805238723755, "hmax": 0.0, "ratio": 0.0, "vulnClass": "none"}}, {"type": "Feature", "geometry": {"type": "MultiPolygon", "coordinates": [[[[71.77994604998105, 34.42819923835617], [71.77977601204253, 34.428185743477584], [71.77976697847349, 34.428262387249056], [71.77993712177077, 34.42827597505282], [71.77994604998105, 34.42819923835617]]]]}, "properties": {"id": "Pakistan_123102132_24640", "height": 2.786916732788086, "hmax": 0.0, "ratio": 0.0, "vulnClass": "none"}}, {"type": "Feature", "geometry": {"type": "MultiPolygon", "coordinates": [[[[71.77963819176672, 34.42817453969924], [71.77962833337597, 34.428210332301546], [71.77973298490193, 34.42822985519744], [71.77974284325164, 34.42819406258442], [71.77963819176672, 34.42817453969924]]]]}, "properties": {"id": "Pakistan_123102132_169436", "height": 3.138676643371582, "hmax": 0.0, "ratio": 0.0, "vulnClass": "none"}}, {"type": "Feature", "geometry": {"type": "MultiPolygon", "coordinates": [[[[71.77989711136502, 34.42843418226399], [71.77990263694494, 34.42835257893803], [71.77970349727649, 34.428343454383615], [71.77969610818698, 34.428453760413596], [71.77976027981963, 34.428456713724664], [71.77976225177888, 34.42842801386287], [71.77989711136502, 34.42843418226399]]]]}, "properties": {"id": "Pakistan_123102132_203464", "height": 4.074708938598633, "hmax": 1.355, "ratio": 0.333, "vulnClass": "moderate"}}, {"type": "Feature", "geometry": {"type": "MultiPolygon", "coordinates": [[[[71.78021130773168, 34.42826544557646], [71.78019468153327, 34.428347207028786], [71.780370723246, 34.428371495032756], [71.78038724061815, 34.42828973068373], [71.78021130773168, 34.42826544557646]]]]}, "properties": {"id": "Pakistan_123102132_344952", "height": 3.887796401977539, "hmax": 0.0, "ratio": 0.0, "vulnClass": "none"}}, {"type": "Feature", "geometry": {"type": "MultiPolygon", "coordinates": [[[[71.77967871237587, 34.42853288768803], [71.77966034078605, 34.42858359792433], [71.77990914674466, 34.428644865613705], [71.77992752165984, 34.42859406529261], [71.77967871237587, 34.42853288768803]]]]}, "properties": {"id": "Pakistan_123102132_323345", "height": 3.479343414306641, "hmax": 0.435, "ratio": 0.125, "vulnClass": "low"}}, {"type": "Feature", "geometry": {"type": "MultiPolygon", "coordinates": [[[[71.77767964770977, 34.42868369389011], [71.77762239364564, 34.42867055686237], [71.77757203404235, 34.42882055866025], [71.77762928819723, 34.42883369571665], [71.77767964770977, 34.42868369389011]]]]}, "properties": {"id": "Pakistan_123102132_79854", "height": 2.975637674331665, "hmax": 0.0, "ratio": 0.0, "vulnClass": "none"}}, {"type": "Feature", "geometry": {"type": "MultiPolygon", "coordinates": [[[[71.77854644598979, 34.43843746356841], [71.77866835639256, 34.43844130942433], [71.77867319188167, 34.43833526259559], [71.77861962499225, 34.43833357959182], [71.77861760054702, 34.43837778053611], [71.77854925715117, 34.43837561769425], [71.77854644598979, 34.43843746356841]]]]}, "properties": {"id": "Pakistan_123102132_569170", "height": 2.845049142837524, "hmax": 0.0, "ratio": 0.0, "vulnClass": "none"}}, {"type": "Feature", "geometry": {"type": "MultiPolygon", "coordinates": [[[[71.77866063377621, 34.43845543660474], [71.77862181909418, 34.43845486367584], [71.77862023484906, 34.438530081298836], [71.7786591582421, 34.43853065709609], [71.77866063377621, 34.43845543660474]]]]}, "properties": {"id": "Pakistan_123102132_526622", "height": 3.04053807258606, "hmax": 0.0, "ratio": 0.0, "vulnClass": "none"}}, {"type": "Feature", "geometry": {"type": "MultiPolygon", "coordinates": [[[[71.77973198687408, 34.43800436747434], [71.7797270124863, 34.438097071331164], [71.77987952763593, 34.4381028043333], [71.779884610532, 34.43801010332563], [71.77973198687408, 34.43800436747434]]]]}, "properties": {"id": "Pakistan_123102132_596904", "height": 3.494255542755127, "hmax": 0.0, "ratio": 0.0, "vulnClass": "none"}}, {"type": "Feature", "geometry": {"type": "MultiPolygon", "coordinates": [[[[71.77864760320455, 34.43862471955612], [71.77864339155602, 34.438547456337695], [71.77857105755567, 34.438550055342354], [71.77857267444512, 34.438578759645964], [71.7784053394538, 34.438584982089424], [71.77840793404847, 34.438633541001046], [71.77864760320455, 34.43862471955612]]]]}, "properties": {"id": "Pakistan_123102132_418934", "height": 2.765899896621704, "hmax": 0.0, "ratio": 0.0, "vulnClass": "none"}}, {"type": "Feature", "geometry": {"type": "MultiPolygon", "coordinates": [[[[71.77836491084852, 34.43852731358292], [71.7783117710469, 34.43853150021962], [71.77831801704205, 34.43858412119745], [71.77837116033658, 34.43857984452013], [71.77836491084852, 34.43852731358292]]]]}, "properties": {"id": "Pakistan_123102132_258739", "height": 4.978511333465576, "hmax": 0.0, "ratio": 0.0, "vulnClass": "none"}}, {"type": "Feature", "geometry": {"type": "MultiPolygon", "coordinates": [[[[71.77831291815005, 34.43849881291656], [71.77831693966564, 34.438527220116065], [71.7783606177153, 34.438522964201034], [71.77835659272546, 34.43849464704191], [71.77831291815005, 34.43849881291656]]]]}, "properties": {"id": "Pakistan_123102132_301947", "height": 4.978511333465576, "hmax": 0.0, "ratio": 0.0, "vulnClass": "none"}}, {"type": "Feature", "geometry": {"type": "MultiPolygon", "coordinates": [[[[71.77779019233346, 34.43986916710642], [71.77779133136808, 34.43983386580855], [71.77774578497086, 34.43983293474683], [71.77774704922852, 34.43978871378613], [71.77768008987546, 34.43978730798036], [71.77767768650075, 34.43986683023258], [71.77779019233346, 34.43986916710642]]]]}, "properties": {"id": "Pakistan_123102132_163126", "height": 3.639729022979736, "hmax": 0.0, "ratio": 0.0, "vulnClass": "none"}}, {"type": "Feature", "geometry": {"type": "MultiPolygon", "coordinates": [[[[71.77906230130515, 34.44248451952895], [71.77905952875085, 34.44253969671822], [71.77919066234892, 34.44254432622059], [71.77919354695791, 34.442489061849436], [71.77906230130515, 34.44248451952895]]]]}, "properties": {"id": "Pakistan_123102132_240295", "height": 3.139280319213867, "hmax": 0.0, "ratio": 0.0, "vulnClass": "none"}}, {"type": "Feature", "geometry": {"type": "MultiPolygon", "coordinates": [[[[71.78258675506574, 34.441474200219396], [71.78323526215186, 34.44149100961591], [71.7832350617879, 34.4414962319454], [71.78353132856594, 34.441503943473386], [71.78353593995558, 34.441383739818725], [71.7834405150557, 34.44138131719089], [71.78343943890482, 34.441412203835554], [71.78303905315514, 34.4414018401909], [71.78304074943534, 34.44135763047826], [71.78286761815156, 34.44135316090416], [71.78286631218796, 34.441387196074345], [71.78259036924275, 34.44138001826719], [71.78258675506574, 34.441474200219396]]]]}, "properties": {"id": "Pakistan_123102132_600010", "height": 3.214019060134888, "hmax": 0.142, "ratio": 0.044, "vulnClass": "low"}}]}