{"type": "FeatureCollection", "features": [{"type": "Feature", "geometry": {"type": "MultiPolygon", "coordinates": [[[[71.87599348475001, 34.45755748329964], [71.87598807597242, 34.45759457024754], [71.87605952531764, 34.45760153546591], [71.87606482535334, 34.45756444573254], [71.87599348475001, 34.45755748329964]]]]}, "properties": {"id": "Pakistan_123102132_465656", "height": 3.982962608337402, "hmax": 0.0, "ratio": 0.0, "vulnClass": "none"}}, {"type": "Feature", "geometry": {"type": "MultiPolygon", "coordinates": [[[[71.87582990438034, 34.457628380498555], [71.87582643314612, 34.457683543777875], [71.87589324696292, 34.457686424625464], [71.87589671815354, 34.45763126134187], [71.87582990438034, 34.457628380498555]]]]}, "properties": {"id": "Pakistan_123102132_431815", "height": 2.775531768798828, "hmax": 0.0, "ratio": 0.0, "vulnClass": "none"}}, {"type": "Feature", "geometry": {"type": "MultiPolygon", "coordinates": [[[[71.87583476853983, 34.45755044897555], [71.87619956034537, 34.45755509295217], [71.87620312702086, 34.457357250124524], [71.87607174044788, 34.45735560209531], [71.87607087795261, 34.457402089126994], [71.87615669455421, 34.45740311240016], [71.87615558421315, 34.45746500599158], [71.87583647158544, 34.45746098958494], [71.87583476853983, 34.45755044897555]]]]}, "properties": {"id": "Pakistan_123102132_274695", "height": 4.162602424621582, "hmax": 0.0, "ratio": 0.0, "vulnClass": "none"}}, {"type": "Feature", "geometry": {"type": "MultiPolygon", "coordinates": [[[[71.87782364744875, 34.45733829801246], [71.87769626761323, 34.45734008912021], [71.87769768428025, 34.45741304370391], [71.87782517293816, 34.45741125537981], [71.87782364744875, 34.45733829801246]]]]}, "properties": {"id": "Pakistan_123102132_104889", "height": 2.641798496246338, "hmax": 0.0, "ratio": 0.0, "vulnClass": "none"}}, {"type": "Feature", "geometry": {"type": "MultiPolygon", "coordinates": [[[[71.87848323851128, 34.457333615938076], [71.87842438019766, 34.45733625775648], [71.87842785006973, 34.457389164951714], [71.87848670842071, 34.457386523133664], [71.87848323851128, 34.457333615938076]]]]}, "properties": {"id": "Pakistan_123102132_563623", "height": 2.848008632659912, "hmax": 0.0, "ratio": 0.0, "vulnClass": "none"}}, {"type": "Feature", "geometry": {"type": "MultiPolygon", "coordinates": [[[[71.87822670741481, 34.457650549924566], [71.8785777458391, 34.45767096922692], [71.87858431664993, 34.457593892344846], [71.87845879713413, 34.457586628253885], [71.87846375702965, 34.45752942981571], [71.87851175044018, 34.457532188734305], [71.87851484162067, 34.457495943747645], [71.87845740376167, 34.45749258290685], [71.87846007627684, 34.45746173525995], [71.87841338409086, 34.457459099714285], [71.87840329986867, 34.4575779089468], [71.87818972279997, 34.45756550957719], [71.8781848714255, 34.45762271077242], [71.87822884590103, 34.457625276941585], [71.87822670741481, 34.457650549924566]]]]}, "properties": {"id": "Pakistan_123102132_49747", "height": 2.995772361755371, "hmax": 0.0, "ratio": 0.0, "vulnClass": "none"}}, {"type": "Feature", "geometry": {"type": "MultiPolygon", "coordinates": [[[[71.87822514815515, 34.45740615688649], [71.8782226723268, 34.45745801076774], [71.87829092287932, 34.45746029608303], [71.8782949626314, 34.45737522273835], [71.87818389001623, 34.4573715724595], [71.8781823293614, 34.45740470186724], [71.87822514815515, 34.45740615688649]]]]}, "properties": {"id": "Pakistan_123102132_431826", "height": 2.729727983474731, "hmax": 0.07, "ratio": 0.025, "vulnClass": "none"}}, {"type": "Feature", "geometry": {"type": "MultiPolygon", "coordinates": [[[[71.87839608756387, 34.45745604374393], [71.87846849126592, 34.457454919886125], [71.87846707133372, 34.45739079833848], [71.87839466768723, 34.45739192219847], [71.87839608756387, 34.45745604374393]]]]}, "properties": {"id": "Pakistan_123102132_265502", "height": 2.757748126983643, "hmax": 0.0, "ratio": 0.0, "vulnClass": "none"}}, {"type": "Feature", "geometry": {"type": "MultiPolygon", "coordinates": [[[[71.87851404952251, 34.45740912448415], [71.87867838224103, 34.45743189203416], [71.87871315552188, 34.45726080508767], [71.87857231278636, 34.45724134196602], [71.8785679203033, 34.457262861859135], [71.87851184613625, 34.45725502920253], [71.87849254086093, 34.45734971727168], [71.87852523410442, 34.457354248348324], [71.87851404952251, 34.45740912448415]]]]}, "properties": {"id": "Pakistan_123102132_259303", "height": 3.362395286560059, "hmax": 0.0, "ratio": 0.0, "vulnClass": "none"}}, {"type": "Feature", "geometry": {"type": "MultiPolygon", "coordinates": [[[[71.87907676925587, 34.457577544325055], [71.87918272218143, 34.45758719208743], [71.87919416683735, 34.4575019473682], [71.87907368022621, 34.457491026890104], [71.87907626278704, 34.45747135353961], [71.87901130230462, 34.457465457245235], [71.87900438320405, 34.457516837075566], [71.87908387416748, 34.457524096156156], [71.87907676925587, 34.457577544325055]]]]}, "properties": {"id": "Pakistan_123102132_478043", "height": 3.02260684967041, "hmax": 0.0, "ratio": 0.0, "vulnClass": "none"}}, {"type": "Feature", "geometry": {"type": "MultiPolygon", "coordinates": [[[[71.87816147198018, 34.4552159861741], [71.8781090925757, 34.455202479235226], [71.878074597151, 34.45529308349321], [71.87812708195825, 34.45530668327642], [71.87816147198018, 34.4552159861741]]]]}, "properties": {"id": "Pakistan_123102132_308691", "height": 3.067890167236328, "hmax": 0.0, "ratio": 0.0, "vulnClass": "none"}}, {"type": "Feature", "geometry": {"type": "MultiPolygon", "coordinates": [[[[71.87822817708937, 34.45512241953807], [71.87815545649562, 34.455102894527926], [71.87814680431451, 34.45512484633542], [71.8780401526304, 34.455096071495916], [71.87802117198014, 34.455144078406825], [71.87820043565341, 34.45519237551649], [71.87822817708937, 34.45512241953807]]]]}, "properties": {"id": "Pakistan_123102132_262411", "height": 3.857150554656982, "hmax": 0.0, "ratio": 0.0, "vulnClass": "none"}}, {"type": "Feature", "geometry": {"type": "MultiPolygon", "coordinates": [[[[71.87707364416895, 34.45457454400662], [71.87703543538177, 34.454607096868486], [71.87707707155438, 34.45464024916534], [71.87711528034257, 34.454607696290516], [71.87707364416895, 34.45457454400662]]]]}, "properties": {"id": "Pakistan_123102132_416367", "height": 2.567733526229858, "hmax": 0.0, "ratio": 0.0, "vulnClass": "none"}}, {"type": "Feature", "geometry": {"type": "MultiPolygon", "coordinates": [[[[71.8767703667567, 34.45481745160861], [71.87672543320161, 34.45486109914515], [71.87682988609208, 34.45493425492688], [71.8769344321232, 34.454832643270045], [71.87673633619765, 34.45469408934843], [71.87667683575285, 34.45475196606391], [71.8767703667567, 34.45481745160861]]]]}, "properties": {"id": "Pakistan_123102132_237696", "height": 2.769004344940186, "hmax": 0.0, "ratio": 0.0, "vulnClass": "none"}}, {"type": "Feature", "geometry": {"type": "MultiPolygon", "coordinates": [[[[71.87537453968166, 34.45430953841485], [71.87559717738544, 34.45438220344663], [71.87562477676298, 34.45432486322441], [71.87540213917978, 34.454252198249414], [71.87537453968166, 34.45430953841485]]]]}, "properties": {"id": "Pakistan_123102132_563599", "height": 2.439407348632812, "hmax": 0.0, "ratio": 0.0, "vulnClass": "none"}}, {"type": "Feature", "geometry": {"type": "MultiPolygon", "coordinates": [[[[71.87699332148483, 34.45442908707019], [71.8769371657422, 34.454379699903974], [71.87679577588126, 34.45448893216881], [71.87685204031082, 34.45453832217855], [71.87699332148483, 34.45442908707019]]]]}, "properties": {"id": "Pakistan_123102132_52834", "height": 4.124916076660156, "hmax": 0.0, "ratio": 0.0, "vulnClass": "none"}}, {"type": "Feature", "geometry": {"type": "MultiPolygon", "coordinates": [[[[71.8794040609736, 34.449310971123836], [71.87943485489933, 34.449451195284254], [71.87970751447111, 34.44941038981629], [71.87967950512545, 34.44928303588795], [71.87963683357947, 34.4492894269257], [71.87965301892443, 34.44936320955405], [71.87946460565456, 34.44939147537941], [71.87944552677595, 34.449304819766596], [71.8794040609736, 34.449310971123836]]]]}, "properties": {"id": "Pakistan_123102132_444187", "height": 2.558478832244873, "hmax": 0.0, "ratio": 0.0, "vulnClass": "none"}}, {"type": "Feature", "geometry": {"type": "MultiPolygon", "coordinates": [[[[71.88038100211318, 34.45013280201105], [71.88053333773931, 34.45019690222844], [71.88056216730494, 34.45015022796587], [71.8804098283846, 34.450086217835995], [71.88038100211318, 34.45013280201105]]]]}, "properties": {"id": "Pakistan_123102132_290127", "height": 3.391757011413574, "hmax": 0.0, "ratio": 0.0, "vulnClass": "none"}}, {"type": "Feature", "geometry": {"type": "MultiPolygon", "coordinates": [[[[71.880208749755, 34.45075582596192], [71.8800360267173, 34.4507220304163], [71.880042137483, 34.45070109512866], [71.87999892790643, 34.45069269053796], [71.87997667606851, 34.45077017826237], [71.88019250012294, 34.45081237566059], [71.880208749755, 34.45075582596192]]]]}, "properties": {"id": "Pakistan_123102132_176186", "height": 3.087757110595703, "hmax": 0.0, "ratio": 0.0, "vulnClass": "none"}}, {"type": "Feature", "geometry": {"type": "MultiPolygon", "coordinates": [[[[71.87951075519216, 34.447467840668985], [71.87950444056817, 34.447529331082286], [71.87960829412762, 34.447536581001536], [71.87961460867673, 34.44747509057881], [71.87951075519216, 34.447467840668985]]]]}, "properties": {"id": "Pakistan_123102132_68251", "height": 3.57376766204834, "hmax": 0.0, "ratio": 0.0, "vulnClass": "none"}}, {"type": "Feature", "geometry": {"type": "MultiPolygon", "coordinates": [[[[71.87929812284646, 34.44773470355227], [71.87926240092554, 34.44779409061691], [71.87933023850486, 34.447821872525665], [71.87936596374486, 34.44776239539096], [71.87929812284646, 34.44773470355227]]]]}, "properties": {"id": "Pakistan_123102132_456556", "height": 2.528310775756836, "hmax": 0.0, "ratio": 0.0, "vulnClass": "none"}}, {"type": "Feature", "geometry": {"type": "MultiPolygon", "coordinates": [[[[71.87901352970997, 34.44840010298748], [71.87919026524524, 34.44840488904924], [71.87919393903394, 34.44831205466489], [71.87915382891242, 34.44831102986111], [71.8791571492984, 34.448224766237175], [71.87902051751426, 34.44822118510327], [71.87901352970997, 34.44840010298748]]]]}, "properties": {"id": "Pakistan_123102132_3772", "height": 3.528446674346924, "hmax": 0.0, "ratio": 0.0, "vulnClass": "none"}}, {"type": "Feature", "geometry": {"type": "MultiPolygon", "coordinates": [[[[71.87846650755623, 34.44910611565361], [71.87854406632995, 34.449089079420325], [71.87852514800568, 34.449030279218476], [71.87839351039456, 34.44905909296516], [71.878477497513, 34.449319383295276], [71.8786266919412, 34.4492866015588], [71.87861332229457, 34.44924533903734], [71.87851810161621, 34.44926625038879], [71.87846650755623, 34.44910611565361]]]]}, "properties": {"id": "Pakistan_123102132_560602", "height": 2.537148714065552, "hmax": 0.0, "ratio": 0.0, "vulnClass": "none"}}, {"type": "Feature", "geometry": {"type": "MultiPolygon", "coordinates": [[[[71.8778816060061, 34.448325387743374], [71.87784192264387, 34.44832166939436], [71.87783683834394, 34.44835885493259], [71.87769382268257, 34.44834555491993], [71.87768231340435, 34.4484296261857], [71.87786501597733, 34.44844655452853], [71.8778816060061, 34.448325387743374]]]]}, "properties": {"id": "Pakistan_123102132_376060", "height": 3.603745222091675, "hmax": 0.0, "ratio": 0.0, "vulnClass": "none"}}, {"type": "Feature", "geometry": {"type": "MultiPolygon", "coordinates": [[[[71.87640736561582, 34.44757978421257], [71.87646462207225, 34.44758782815574], [71.87649140399174, 34.44745890029751], [71.87643403892079, 34.4474508535918], [71.87640736561582, 34.44757978421257]]]]}, "properties": {"id": "Pakistan_123102132_6761", "height": 2.56069278717041, "hmax": 0.0, "ratio": 0.0, "vulnClass": "none"}}, {"type": "Feature", "geometry": {"type": "MultiPolygon", "coordinates": [[[[71.87824753105794, 34.44783107121594], [71.87825736025204, 34.44775119323538], [71.87830508707923, 34.447755117006615], [71.87831052460653, 34.44771136067932], [71.87823481727004, 34.44770500926191], [71.87821965582933, 34.44782873638704], [71.87824753105794, 34.44783107121594]]]]}, "properties": {"id": "Pakistan_123102132_200888", "height": 4.041128635406494, "hmax": 0.0, "ratio": 0.0, "vulnClass": "none"}}, {"type": "Feature", "geometry": {"type": "MultiPolygon", "coordinates": [[[[71.87945613166485, 34.44408614506079], [71.87937622571566, 34.444072836989776], [71.87936891737803, 34.44410257482094], [71.87919732155177, 34.444073944907515], [71.879183216616, 34.44413136053296], [71.8794022812618, 34.444167873065524], [71.87941484375817, 34.44411681753125], [71.8794472810566, 34.44412224302271], [71.87945613166485, 34.44408614506079]]]]}, "properties": {"id": "Pakistan_123102132_609828", "height": 3.622731685638428, "hmax": 0.0, "ratio": 0.0, "vulnClass": "none"}}, {"type": "Feature", "geometry": {"type": "MultiPolygon", "coordinates": [[[[71.87921135854728, 34.44394820586754], [71.87920831643336, 34.444053314685846], [71.87927963646243, 34.444054686079745], [71.87928267513536, 34.443949667303315], [71.87921135854728, 34.44394820586754]]]]}, "properties": {"id": "Pakistan_123102132_166838", "height": 3.289539813995361, "hmax": 0.0, "ratio": 0.0, "vulnClass": "none"}}, {"type": "Feature", "geometry": {"type": "MultiPolygon", "coordinates": [[[[71.8792400041249, 34.442737264388434], [71.87930595019078, 34.44273976032252], [71.87931027910838, 34.442661454198415], [71.87935677926707, 34.44266318292041], [71.87935855610588, 34.44263005894272], [71.87929065366329, 34.44262751306025], [71.87928923016014, 34.44265406626961], [71.87924468646942, 34.442652387504374], [71.8792400041249, 34.442737264388434]]]]}, "properties": {"id": "Pakistan_123102132_9830", "height": 2.609269618988037, "hmax": 0.0, "ratio": 0.0, "vulnClass": "none"}}, {"type": "Feature", "geometry": {"type": "MultiPolygon", "coordinates": [[[[71.87910918552879, 34.44273266037712], [71.8791168720926, 34.44267814532839], [71.87907448405018, 34.4426740879518], [71.87906690279993, 34.44272869582186], [71.87910918552879, 34.44273266037712]]]]}, "properties": {"id": "Pakistan_123102132_34308", "height": 2.748445510864258, "hmax": 0.0, "ratio": 0.0, "vulnClass": "none"}}, {"type": "Feature", "geometry": {"type": "MultiPolygon", "coordinates": [[[[71.8790483726365, 34.44287577199327], [71.87927326216324, 34.442884311631175], [71.87927845347461, 34.442791606077925], [71.87905356419476, 34.442783066462994], [71.8790483726365, 34.44287577199327]]]]}, "properties": {"id": "Pakistan_123102132_280919", "height": 3.085672616958618, "hmax": 0.0, "ratio": 0.0, "vulnClass": "none"}}, {"type": "Feature", "geometry": {"type": "MultiPolygon", "coordinates": [[[[71.87323028488859, 34.442817932572915], [71.8733183941107, 34.442862100134775], [71.87334933598063, 34.442820078482235], [71.8732612267829, 34.44277591094398], [71.87323028488859, 34.442817932572915]]]]}, "properties": {"id": "Pakistan_123102132_271609", "height": 3.304307460784912, "hmax": 0.0, "ratio": 0.0, "vulnClass": "none"}}, {"type": "Feature", "geometry": {"type": "MultiPolygon", "coordinates": [[[[71.8737885351007, 34.442633565325444], [71.87371167518774, 34.44280123045294], [71.87393074367775, 34.44286957005944], [71.87400760323669, 34.44270190477507], [71.8737885351007, 34.442633565325444]]]]}, "properties": {"id": "Pakistan_123102132_101756", "height": 3.392818450927734, "hmax": 0.0, "ratio": 0.0, "vulnClass": "none"}}, {"type": "Feature", "geometry": {"type": "MultiPolygon", "coordinates": [[[[71.8736707570227, 34.44273150114946], [71.87361269289428, 34.442826909125216], [71.87365908491849, 34.44284612324598], [71.87371714901087, 34.442750715246255], [71.8736707570227, 34.44273150114946]]]]}, "properties": {"id": "Pakistan_123102132_259279", "height": 2.459415674209595, "hmax": 0.0, "ratio": 0.0, "vulnClass": "none"}}, {"type": "Feature", "geometry": {"type": "MultiPolygon", "coordinates": [[[[71.87416668828286, 34.44287921322692], [71.87413538088369, 34.44297773975649], [71.87422582364587, 34.44299726967925], [71.87425702225764, 34.44289874034011], [71.87416668828286, 34.44287921322692]]]]}, "properties": {"id": "Pakistan_123102132_366897", "height": 3.741790533065796, "hmax": 0.455, "ratio": 0.122, "vulnClass": "low"}}, {"type": "Feature", "geometry": {"type": "MultiPolygon", "coordinates": [[[[71.87463105403509, 34.443403867333835], [71.8746748589472, 34.443416615376], [71.87470941424561, 34.44333601832846], [71.87466561272512, 34.443323180252456], [71.87463105403509, 34.443403867333835]]]]}, "properties": {"id": "Pakistan_123102132_520981", "height": 2.775297164916992, "hmax": 0.0, "ratio": 0.0, "vulnClass": "none"}}, {"type": "Feature", "geometry": {"type": "MultiPolygon", "coordinates": [[[[71.87392432519478, 34.44298919386941], [71.87391742378765, 34.44303714880227], [71.87414495760659, 34.44305937581045], [71.8741518588873, 34.443011420857864], [71.87392432519478, 34.44298919386941]]]]}, "properties": {"id": "Pakistan_123102132_603559", "height": 3.037955284118652, "hmax": 0.455, "ratio": 0.15, "vulnClass": "low"}}, {"type": "Feature", "geometry": {"type": "MultiPolygon", "coordinates": [[[[71.87456418385784, 34.44343199077277], [71.87455172888966, 34.44347133105978], [71.87463375468025, 34.44348902292754], [71.87464621297057, 34.44344959258219], [71.87456418385784, 34.44343199077277]]]]}, "properties": {"id": "Pakistan_123102132_132884", "height": 2.772730588912964, "hmax": 0.0, "ratio": 0.0, "vulnClass": "none"}}, {"type": "Feature", "geometry": {"type": "MultiPolygon", "coordinates": [[[[71.87491999544007, 34.443378180474944], [71.87484817336392, 34.44336111038482], [71.8747916813727, 34.44352235698669], [71.87486350021386, 34.44353951716473], [71.87491999544007, 34.443378180474944]]]]}, "properties": {"id": "Pakistan_123102132_394788", "height": 3.751823663711548, "hmax": 0.0, "ratio": 0.0, "vulnClass": "none"}}, {"type": "Feature", "geometry": {"type": "MultiPolygon", "coordinates": [[[[71.87456367518337, 34.44357988764867], [71.87484189127467, 34.44363180235694], [71.87486607656298, 34.443543368704994], [71.87458796607774, 34.44349154689549], [71.87456367518337, 34.44357988764867]]]]}, "properties": {"id": "Pakistan_123102132_28225", "height": 2.611569881439209, "hmax": 0.0, "ratio": 0.0, "vulnClass": "none"}}, {"type": "Feature", "geometry": {"type": "MultiPolygon", "coordinates": [[[[71.87454213304137, 34.44367037180657], [71.87459775540428, 34.4436842334484], [71.87462961788339, 34.44359707788572], [71.87457399557078, 34.44358321626113], [71.87454213304137, 34.44367037180657]]]]}, "properties": {"id": "Pakistan_123102132_302461", "height": 2.448387384414673, "hmax": 0.0, "ratio": 0.0, "vulnClass": "none"}}, {"type": "Feature", "geometry": {"type": "MultiPolygon", "coordinates": [[[[71.87478413177703, 34.443754078628174], [71.87483075156568, 34.44376428474997], [71.87486028508646, 34.44367247270372], [71.87475344427831, 34.443649188736785], [71.87473450022885, 34.44370792210177], [71.8747947213319, 34.44372099997204], [71.87478413177703, 34.443754078628174]]]]}, "properties": {"id": "Pakistan_123102132_101764", "height": 2.884656429290771, "hmax": 0.0, "ratio": 0.0, "vulnClass": "none"}}, {"type": "Feature", "geometry": {"type": "MultiPolygon", "coordinates": [[[[71.87444859467412, 34.443935225767255], [71.87472450034203, 34.44399077715064], [71.87473221277958, 34.44396483561186], [71.87469582142461, 34.44395750503054], [71.87471250107309, 34.443901147359306], [71.8744728782909, 34.44385292383837], [71.87444859467412, 34.443935225767255]]]]}, "properties": {"id": "Pakistan_123102132_154398", "height": 2.466924428939819, "hmax": 0.0, "ratio": 0.0, "vulnClass": "none"}}, {"type": "Feature", "geometry": {"type": "MultiPolygon", "coordinates": [[[[71.87471496167282, 34.444103651271945], [71.87491075542746, 34.444160217126644], [71.87496691772907, 34.444028255604536], [71.87489673763821, 34.44400798271039], [71.87490842676375, 34.44398043034992], [71.87486397271725, 34.443967575641835], [71.87484977948253, 34.444001012777356], [71.87476851143553, 34.4439775718508], [71.87471496167282, 34.444103651271945]]]]}, "properties": {"id": "Pakistan_123102132_474892", "height": 2.706422328948975, "hmax": 0.0, "ratio": 0.0, "vulnClass": "none"}}, {"type": "Feature", "geometry": {"type": "MultiPolygon", "coordinates": [[[[71.87458698846172, 34.44423864256734], [71.87471124540899, 34.44427922734893], [71.87472870164589, 34.444242899295126], [71.87460433604754, 34.44420231175258], [71.87458698846172, 34.44423864256734]]]]}, "properties": {"id": "Pakistan_123102132_419482", "height": 3.693065881729126, "hmax": 0.0, "ratio": 0.0, "vulnClass": "none"}}, {"type": "Feature", "geometry": {"type": "MultiPolygon", "coordinates": [[[[71.87481050461132, 34.444269508630015], [71.87476789822749, 34.44425670115419], [71.87474721987022, 34.44430358258851], [71.8747898262736, 34.44431639007259], [71.87481050461132, 34.444269508630015]]]]}, "properties": {"id": "Pakistan_123102132_283909", "height": 3.684136629104614, "hmax": 0.0, "ratio": 0.0, "vulnClass": "none"}}, {"type": "Feature", "geometry": {"type": "MultiPolygon", "coordinates": [[[[71.87469527508456, 34.44450334252382], [71.87474170491936, 34.4444135852316], [71.87451941072506, 34.44433533982087], [71.87447298070876, 34.44442509701887], [71.87469527508456, 34.44450334252382]]]]}, "properties": {"id": "Pakistan_123102132_197789", "height": 2.894992351531982, "hmax": 0.0, "ratio": 0.0, "vulnClass": "none"}}, {"type": "Feature", "geometry": {"type": "MultiPolygon", "coordinates": [[[[71.87376920140761, 34.44470723349135], [71.87402602705208, 34.44476392060995], [71.87405946985683, 34.44466067169736], [71.87403799750409, 34.44465588591149], [71.87405201368475, 34.44461261975196], [71.87394842273059, 34.44458968862036], [71.87397116685756, 34.44451951550565], [71.87383951706184, 34.44449045818656], [71.87376920140761, 34.44470723349135]]]]}, "properties": {"id": "Pakistan_123102132_132877", "height": 3.594612121582031, "hmax": 0.0, "ratio": 0.0, "vulnClass": "none"}}, {"type": "Feature", "geometry": {"type": "MultiPolygon", "coordinates": [[[[71.87483238934527, 34.444476295116786], [71.87481842473474, 34.44451235197885], [71.8749157095564, 34.44453809546453], [71.8749296741311, 34.44450203858943], [71.87483238934527, 34.444476295116786]]]]}, "properties": {"id": "Pakistan_123102132_142107", "height": 2.587391376495361, "hmax": 0.0, "ratio": 0.0, "vulnClass": "none"}}, {"type": "Feature", "geometry": {"type": "MultiPolygon", "coordinates": [[[[71.87491883947577, 34.444541690764396], [71.87495986931967, 34.44455301571518], [71.87497604004112, 34.44451322964621], [71.87493501021368, 34.44450190470174], [71.87491883947577, 34.444541690764396]]]]}, "properties": {"id": "Pakistan_123102132_108006", "height": 2.44199538230896, "hmax": 0.0, "ratio": 0.0, "vulnClass": "none"}}, {"type": "Feature", "geometry": {"type": "MultiPolygon", "coordinates": [[[[71.87468261843479, 34.44467066792271], [71.87489339808964, 34.444716350508784], [71.87493097720848, 34.44459842517092], [71.87487571847112, 34.44458646578046], [71.87486450813701, 34.44462160163809], [71.87470898742707, 34.444587878504265], [71.87468261843479, 34.44467066792271]]]]}, "properties": {"id": "Pakistan_123102132_468598", "height": 3.749523162841797, "hmax": 0.0, "ratio": 0.0, "vulnClass": "none"}}, {"type": "Feature", "geometry": {"type": "MultiPolygon", "coordinates": [[[[71.87501454576551, 34.444630217187225], [71.87499353457464, 34.44471521682951], [71.87519194170153, 34.44474841429114], [71.87521284065409, 34.44466350187221], [71.87501454576551, 34.444630217187225]]]]}, "properties": {"id": "Pakistan_123102132_179295", "height": 2.603169441223145, "hmax": 0.0, "ratio": 0.0, "vulnClass": "none"}}, {"type": "Feature", "geometry": {"type": "MultiPolygon", "coordinates": [[[[71.87491374910346, 34.444865051448836], [71.87505465655211, 34.44488803508635], [71.87508376615294, 34.44476673833895], [71.87494285889507, 34.44474375474535], [71.87491374910346, 34.444865051448836]]]]}, "properties": {"id": "Pakistan_123102132_578995", "height": 3.189302444458008, "hmax": 0.664, "ratio": 0.208, "vulnClass": "low"}}, {"type": "Feature", "geometry": {"type": "MultiPolygon", "coordinates": [[[[71.87093716755713, 34.4448506815481], [71.87085137968853, 34.44482883478064], [71.87083252108059, 34.44487936745062], [71.87091831235485, 34.444901124185954], [71.87093716755713, 34.4448506815481]]]]}, "properties": {"id": "Pakistan_123102132_160534", "height": 4.64420223236084, "hmax": 0.0, "ratio": 0.0, "vulnClass": "none"}}, {"type": "Feature", "geometry": {"type": "MultiPolygon", "coordinates": [[[[71.87046955658508, 34.444903057838346], [71.87056012582076, 34.444922143085606], [71.87059488391172, 34.444810005696084], [71.87050420609125, 34.444790917695805], [71.87046955658508, 34.444903057838346]]]]}, "properties": {"id": "Pakistan_123102132_188491", "height": 4.58784008026123, "hmax": 0.575, "ratio": 0.125, "vulnClass": "low"}}, {"type": "Feature", "geometry": {"type": "MultiPolygon", "coordinates": [[[[71.86904436003432, 34.445312247681585], [71.86916108867797, 34.44534462321611], [71.86919354118884, 34.44526514577138], [71.86907681263851, 34.44523277027289], [71.86904436003432, 34.445312247681585]]]]}, "properties": {"id": "Pakistan_123102132_419441", "height": 3.837203979492188, "hmax": 0.0, "ratio": 0.0, "vulnClass": "none"}}, {"type": "Feature", "geometry": {"type": "MultiPolygon", "coordinates": [[[[71.86872698541397, 34.445239666713086], [71.86862627291907, 34.44522708011567], [71.86861565225392, 34.445284223079355], [71.86871647014576, 34.445296902523005], [71.86872698541397, 34.445239666713086]]]]}, "properties": {"id": "Pakistan_123102132_77311", "height": 2.778879165649414, "hmax": 0.0, "ratio": 0.0, "vulnClass": "none"}}, {"type": "Feature", "geometry": {"type": "MultiPolygon", "coordinates": [[[[71.86853111336703, 34.445572647207925], [71.86855077581258, 34.445523938226025], [71.86850489563912, 34.44551140517844], [71.86845382875735, 34.445637725442595], [71.86867600131362, 34.44569876317759], [71.86869123166409, 34.445660936878205], [71.86860432204584, 34.44563707682346], [71.86862039063848, 34.44559719894485], [71.86853111336703, 34.445572647207925]]]]}, "properties": {"id": "Pakistan_123102132_296160", "height": 3.257451057434082, "hmax": 0.0, "ratio": 0.0, "vulnClass": "none"}}, {"type": "Feature", "geometry": {"type": "MultiPolygon", "coordinates": [[[[71.8685751365063, 34.44537566170942], [71.86855169936668, 34.44545843463661], [71.86874257570388, 34.44549514500697], [71.86876590397624, 34.44541236924751], [71.8685751365063, 34.44537566170942]]]]}, "properties": {"id": "Pakistan_123102132_228422", "height": 2.734289884567261, "hmax": 0.0, "ratio": 0.0, "vulnClass": "none"}}, {"type": "Feature", "geometry": {"type": "MultiPolygon", "coordinates": [[[[71.86861640028475, 34.44610599202108], [71.86865974609957, 34.44611647712348], [71.86867202937952, 34.44608182009819], [71.8686286835804, 34.44607133500101], [71.86861640028475, 34.44610599202108]]]]}, "properties": {"id": "Pakistan_123102132_135901", "height": 3.466457366943359, "hmax": 0.0, "ratio": 0.0, "vulnClass": "none"}}, {"type": "Feature", "geometry": {"type": "MultiPolygon", "coordinates": [[[[71.87259696605047, 34.446286297683045], [71.87246943695395, 34.446222552637245], [71.87249672092797, 34.446185304839794], [71.87242708065277, 34.44615053275524], [71.87240083875622, 34.446186094674474], [71.87233333884922, 34.44615227867966], [71.8723523633683, 34.44612644670412], [71.87227578227672, 34.44608816186216], [71.8722436877592, 34.44613186620519], [71.87217116660877, 34.44609557806876], [71.87212955974448, 34.44615219835083], [71.87254344018429, 34.44635910745241], [71.87259696605047, 34.446286297683045]]]]}, "properties": {"id": "Pakistan_123102132_311703", "height": 3.538377523422241, "hmax": 0.0, "ratio": 0.0, "vulnClass": "none"}}, {"type": "Feature", "geometry": {"type": "MultiPolygon", "coordinates": [[[[71.87271925833062, 34.445904196325216], [71.8726872389671, 34.445940061068335], [71.87274979501645, 34.44597807672414], [71.87278181101127, 34.44594230201203], [71.87271925833062, 34.445904196325216]]]]}, "properties": {"id": "Pakistan_123102132_345474", "height": 2.808212757110596, "hmax": 0.0, "ratio": 0.0, "vulnClass": "none"}}, {"type": "Feature", "geometry": {"type": "MultiPolygon", "coordinates": [[[[71.86810526621944, 34.44980423504976], [71.86806511122883, 34.44990631841351], [71.86811498867925, 34.4499196752524], [71.86815514025358, 34.44981768191695], [71.86810526621944, 34.44980423504976]]]]}, "properties": {"id": "Pakistan_123102132_83407", "height": 2.779264211654663, "hmax": 0.0, "ratio": 0.0, "vulnClass": "none"}}, {"type": "Feature", "geometry": {"type": "MultiPolygon", "coordinates": [[[[71.86799815947224, 34.44976462397658], [71.86804545597073, 34.44978007787033], [71.86806798748908, 34.44973324526872], [71.86802058231132, 34.449717788597546], [71.86799815947224, 34.44976462397658]]]]}, "properties": {"id": "Pakistan_123102132_333151", "height": 3.428337574005127, "hmax": 0.0, "ratio": 0.0, "vulnClass": "none"}}, {"type": "Feature", "geometry": {"type": "MultiPolygon", "coordinates": [[[[71.86786099306723, 34.449903427837995], [71.86803913645338, 34.44993755972022], [71.86805305610729, 34.4498882529577], [71.86787490945234, 34.449854211148406], [71.86786099306723, 34.449903427837995]]]]}, "properties": {"id": "Pakistan_123102132_530174", "height": 2.496615171432495, "hmax": 0.0, "ratio": 0.0, "vulnClass": "none"}}, {"type": "Feature", "geometry": {"type": "MultiPolygon", "coordinates": [[[[71.86802324391856, 34.45061621968728], [71.86817279471968, 34.450652682788345], [71.86819976274363, 34.450577391535866], [71.86817507201768, 34.45057135042589], [71.86819256204598, 34.45052258586736], [71.868067810853, 34.45049216672423], [71.86802324391856, 34.45061621968728]]]]}, "properties": {"id": "Pakistan_123102132_46590", "height": 3.582288980484009, "hmax": 0.0, "ratio": 0.0, "vulnClass": "none"}}, {"type": "Feature", "geometry": {"type": "MultiPolygon", "coordinates": [[[[71.86782511200705, 34.451061627318914], [71.8677821895603, 34.45115038992404], [71.8679881308038, 34.45121813360768], [71.86803116178044, 34.45112937370829], [71.86782511200705, 34.451061627318914]]]]}, "properties": {"id": "Pakistan_123102132_173012", "height": 2.909625291824341, "hmax": 0.0, "ratio": 0.0, "vulnClass": "none"}}, {"type": "Feature", "geometry": {"type": "MultiPolygon", "coordinates": [[[[71.86849026130953, 34.45078448595688], [71.86870438756105, 34.45084865265461], [71.86873755791379, 34.450773340010976], [71.86852343182024, 34.450709173379906], [71.86849026130953, 34.45078448595688]]]]}, "properties": {"id": "Pakistan_123102132_566614", "height": 2.515930414199829, "hmax": 0.0, "ratio": 0.0, "vulnClass": "none"}}, {"type": "Feature", "geometry": {"type": "MultiPolygon", "coordinates": [[[[71.86822699171273, 34.450698959026504], [71.86841727903183, 34.45077504356422], [71.86845829838485, 34.45070515999801], [71.86826811651407, 34.45062916836471], [71.86822699171273, 34.450698959026504]]]]}, "properties": {"id": "Pakistan_123102132_517920", "height": 2.608275175094604, "hmax": 0.0, "ratio": 0.0, "vulnClass": "none"}}, {"type": "Feature", "geometry": {"type": "MultiPolygon", "coordinates": [[[[71.86852268316892, 34.45203682400691], [71.86847967618748, 34.45210746780994], [71.86858317975233, 34.452150411245476], [71.86862629874186, 34.45207968014225], [71.86852268316892, 34.45203682400691]]]]}, "properties": {"id": "Pakistan_123102132_403998", "height": 3.961568355560303, "hmax": 0.0, "ratio": 0.0, "vulnClass": "none"}}, {"type": "Feature", "geometry": {"type": "MultiPolygon", "coordinates": [[[[71.86859575651816, 34.45194775254138], [71.86853253502471, 34.452029415226036], [71.86890387573727, 34.452225061371685], [71.86896720575014, 34.452143401271734], [71.86859575651816, 34.45194775254138]]]]}, "properties": {"id": "Pakistan_123102132_145087", "height": 4.382265090942383, "hmax": 0.0, "ratio": 0.0, "vulnClass": "none"}}]}