{"type": "FeatureCollection", "features": [{"type": "Feature", "geometry": {"type": "MultiPolygon", "coordinates": [[[[72.00889880930286, 34.50300458179567], [72.00876939042347, 34.50295174477103], [72.0086939869837, 34.50307825273016], [72.00882351478299, 34.50313109250725], [72.00889880930286, 34.50300458179567]]]]}, "properties": {"id": "8J6JG235+6G7M", "height": 3.221340179443359, "hmax": 0.0, "ratio": 0.0, "vulnClass": "none"}}, {"type": "Feature", "geometry": {"type": "MultiPolygon", "coordinates": [[[[72.00397904292257, 34.503374548033875], [72.00403571872957, 34.50332122573549], [72.00392705932231, 34.50324212236815], [72.00378001374163, 34.50338056949726], [72.00381046701386, 34.50340276966592], [72.00390094555951, 34.503317647431885], [72.00397904292257, 34.503374548033875]]]]}, "properties": {"id": "8J6JG233+8HFV", "height": 3.747412919998169, "hmax": 0.0, "ratio": 0.0, "vulnClass": "none"}}, {"type": "Feature", "geometry": {"type": "MultiPolygon", "coordinates": [[[[72.00397904292257, 34.503374548033875], [72.00390094555951, 34.503317647431885], [72.00383254978718, 34.5033820392949], [72.0039106471572, 34.503438939940885], [72.00397904292257, 34.503374548033875]]]]}, "properties": {"id": "8J6JG233+9H25", "height": 3.747412919998169, "hmax": 0.0, "ratio": 0.0, "vulnClass": "none"}}, {"type": "Feature", "geometry": {"type": "MultiPolygon", "coordinates": [[[[72.00385384235736, 34.50369651011024], [72.00380820113914, 34.503672765369345], [72.00377186932307, 34.5037204575765], [72.00381761611368, 34.503744295059946], [72.00385384235736, 34.50369651011024]]]]}, "properties": {"id": "8J6JG233+FGP6", "height": 2.480840682983398, "hmax": 0.0, "ratio": 0.0, "vulnClass": "none"}}, {"type": "Feature", "geometry": {"type": "MultiPolygon", "coordinates": [[[[72.00728853757559, 34.505349878585115], [72.00722930595104, 34.50523422230543], [72.00706919902248, 34.50529041832295], [72.00712843045352, 34.50540607467002], [72.00728853757559, 34.505349878585115]]]]}, "properties": {"id": "8J6JG244+4VFW", "height": 3.386430501937866, "hmax": 0.0, "ratio": 0.0, "vulnClass": "none"}}, {"type": "Feature", "geometry": {"type": "MultiPolygon", "coordinates": [[[[72.00787592688962, 34.505633789313045], [72.00784738843998, 34.50559757562114], [72.0077926547984, 34.50562706090644], [72.00782119323245, 34.50566327461029], [72.00787592688962, 34.505633789313045]]]]}, "properties": {"id": "8J6JG245+7448", "height": 3.654222726821899, "hmax": 0.0, "ratio": 0.0, "vulnClass": "none"}}, {"type": "Feature", "geometry": {"type": "MultiPolygon", "coordinates": [[[[72.0055747080503, 34.51023240870762], [72.00555680040286, 34.51027334238096], [72.00567411825776, 34.510308579807685], [72.00569202585791, 34.510267646114734], [72.0055747080503, 34.51023240870762]]]]}, "properties": {"id": "8J6JG264+465X", "height": 2.514034748077393, "hmax": 0.0, "ratio": 0.0, "vulnClass": "none"}}]}