{"type": "FeatureCollection", "features": [{"type": "Feature", "geometry": {"type": "MultiPolygon", "coordinates": [[[[72.31763159, 34.19116515], [72.31748831, 34.19113706], [72.31747476, 34.19118433], [72.31761805, 34.19121242], [72.31763159, 34.19116515]]]]}, "properties": {"id": "Pakistan_123102310_547315", "height": 3.327125072479248, "hmax": 0.0, "ratio": 0.0, "vulnClass": "none"}}, {"type": "Feature", "geometry": {"type": "MultiPolygon", "coordinates": [[[[72.31756162, 34.19124598], [72.3175394, 34.19130944], [72.31758041, 34.19131926], [72.31760264, 34.19125581], [72.31756162, 34.19124598]]]]}, "properties": {"id": "Pakistan_123102310_556831", "height": 2.466638565063477, "hmax": 0.0, "ratio": 0.0, "vulnClass": "none"}}, {"type": "Feature", "geometry": {"type": "MultiPolygon", "coordinates": [[[[72.3174936, 34.19137091], [72.31745327, 34.19136246], [72.31744114, 34.19140207], [72.31748147, 34.19141052], [72.3174936, 34.19137091]]]]}, "properties": {"id": "Pakistan_123102310_699382", "height": 2.659523248672485, "hmax": 0.0, "ratio": 0.0, "vulnClass": "none"}}, {"type": "Feature", "geometry": {"type": "MultiPolygon", "coordinates": [[[[72.31718093, 34.19126999], [72.31734363, 34.19128007], [72.31734563, 34.19125801], [72.31726561, 34.19125305], [72.31726881, 34.19121775], [72.31730995, 34.1912203], [72.31731355, 34.19118059], [72.31725487, 34.19117695], [72.31725347, 34.19119239], [72.31718833, 34.19118835], [72.31718093, 34.19126999]]]]}, "properties": {"id": "Pakistan_123102310_846256", "height": 4.030975818634033, "hmax": 0.0, "ratio": 0.0, "vulnClass": "none"}}, {"type": "Feature", "geometry": {"type": "MultiPolygon", "coordinates": [[[[72.31714096, 34.19123304], [72.3170501, 34.1912285], [72.31704654, 34.19127713], [72.31713741, 34.19128167], [72.31714096, 34.19123304]]]]}, "properties": {"id": "Pakistan_123102310_608985", "height": 3.090286016464233, "hmax": 0.0, "ratio": 0.0, "vulnClass": "none"}}, {"type": "Feature", "geometry": {"type": "MultiPolygon", "coordinates": [[[[72.31720747, 34.19133255], [72.31725478, 34.19133814], [72.31726117, 34.19130118], [72.31712561, 34.19128515], [72.31711997, 34.19131776], [72.31700958, 34.1913047], [72.317, 34.19136012], [72.3170383, 34.19136465], [72.31702627, 34.19143422], [72.31710362, 34.19144338], [72.31709479, 34.19149449], [72.31718827, 34.19150555], [72.31719655, 34.19145772], [72.31714511, 34.19145163], [72.31715132, 34.19141574], [72.31719224, 34.19142058], [72.31720747, 34.19133255]]]]}, "properties": {"id": "Pakistan_123102310_272509", "height": 4.632600784301758, "hmax": 0.0, "ratio": 0.0, "vulnClass": "none"}}, {"type": "Feature", "geometry": {"type": "MultiPolygon", "coordinates": [[[[72.3170078, 34.19115318], [72.31700697, 34.19112657], [72.31658078, 34.1911357], [72.31658161, 34.19116231], [72.3170078, 34.19115318]]]]}, "properties": {"id": "Pakistan_123102310_528510", "height": 3.746387958526611, "hmax": 0.0, "ratio": 0.0, "vulnClass": "none"}}, {"type": "Feature", "geometry": {"type": "MultiPolygon", "coordinates": [[[[72.31657416, 34.19107703], [72.3165785, 34.19114117], [72.31726412, 34.19110934], [72.31725947, 34.19104078], [72.31717391, 34.19104475], [72.31717481, 34.19105802], [72.31701705, 34.19106534], [72.31701645, 34.1910565], [72.31657416, 34.19107703]]]]}, "properties": {"id": "Pakistan_123102310_727996", "height": 3.371925592422485, "hmax": 0.0, "ratio": 0.0, "vulnClass": "none"}}, {"type": "Feature", "geometry": {"type": "MultiPolygon", "coordinates": [[[[72.31699856, 34.19100584], [72.31699688, 34.19095707], [72.3169138, 34.19095903], [72.31691548, 34.1910078], [72.31699856, 34.19100584]]]]}, "properties": {"id": "Pakistan_123102310_794251", "height": 3.077078580856323, "hmax": 0.0, "ratio": 0.0, "vulnClass": "none"}}, {"type": "Feature", "geometry": {"type": "MultiPolygon", "coordinates": [[[[72.31703016, 34.19113379], [72.3170292, 34.19119146], [72.31712842, 34.19119259], [72.31712938, 34.19113492], [72.31703016, 34.19113379]]]]}, "properties": {"id": "Pakistan_123102310_377135", "height": 3.372057437896729, "hmax": 0.0, "ratio": 0.0, "vulnClass": "none"}}, {"type": "Feature", "geometry": {"type": "MultiPolygon", "coordinates": [[[[72.31718556, 34.1911313], [72.31718005, 34.19116509], [72.31724439, 34.19117227], [72.3172499, 34.19113848], [72.31718556, 34.1911313]]]]}, "properties": {"id": "Pakistan_123102310_936160", "height": 2.570980310440063, "hmax": 0.0, "ratio": 0.0, "vulnClass": "none"}}, {"type": "Feature", "geometry": {"type": "MultiPolygon", "coordinates": [[[[72.31736006, 34.19082121], [72.31736121, 34.19078242], [72.31722608, 34.19077968], [72.31722493, 34.19081847], [72.31736006, 34.19082121]]]]}, "properties": {"id": "Pakistan_123102310_214776", "height": 3.061278343200684, "hmax": 0.0, "ratio": 0.0, "vulnClass": "none"}}, {"type": "Feature", "geometry": {"type": "MultiPolygon", "coordinates": [[[[72.31747883, 34.19100428], [72.31717941, 34.19093253], [72.31721023, 34.19084452], [72.31712755, 34.19082471], [72.31710031, 34.19090249], [72.31703699, 34.19088732], [72.31701084, 34.190962], [72.31745625, 34.19106875], [72.31747883, 34.19100428]]]]}, "properties": {"id": "Pakistan_123102310_320436", "height": 3.089998483657837, "hmax": 0.0, "ratio": 0.0, "vulnClass": "none"}}, {"type": "Feature", "geometry": {"type": "MultiPolygon", "coordinates": [[[[72.31676077, 34.19090781], [72.31676175, 34.19095101], [72.31697089, 34.19094778], [72.31696991, 34.19090456], [72.31676077, 34.19090781]]]]}, "properties": {"id": "Pakistan_123102310_391218", "height": 2.596605777740479, "hmax": 0.0, "ratio": 0.0, "vulnClass": "none"}}, {"type": "Feature", "geometry": {"type": "MultiPolygon", "coordinates": [[[[72.31723243, 34.19052441], [72.31709924, 34.19055846], [72.31712345, 34.19062327], [72.31725665, 34.19058921], [72.31723243, 34.19052441]]]]}, "properties": {"id": "Pakistan_123102310_187329", "height": 3.406741142272949, "hmax": 0.0, "ratio": 0.0, "vulnClass": "none"}}, {"type": "Feature", "geometry": {"type": "MultiPolygon", "coordinates": [[[[72.31721979, 34.19058784], [72.31722801, 34.19073285], [72.31746194, 34.19072377], [72.31745824, 34.19065846], [72.31733404, 34.19066328], [72.31733109, 34.19061126], [72.31737499, 34.19060956], [72.31737342, 34.19058188], [72.31721979, 34.19058784]]]]}, "properties": {"id": "Pakistan_123102310_168735", "height": 4.209326267242432, "hmax": 0.0, "ratio": 0.0, "vulnClass": "none"}}, {"type": "Feature", "geometry": {"type": "MultiPolygon", "coordinates": [[[[72.31733689, 34.19054086], [72.31729426, 34.19053794], [72.31729228, 34.19055777], [72.3173349, 34.19056069], [72.31733689, 34.19054086]]]]}, "properties": {"id": "Pakistan_123102310_73987", "height": 2.666445255279541, "hmax": 0.0, "ratio": 0.0, "vulnClass": "none"}}, {"type": "Feature", "geometry": {"type": "MultiPolygon", "coordinates": [[[[72.31748449, 34.19050466], [72.31739163, 34.19053494], [72.31741359, 34.19058102], [72.31750645, 34.19055075], [72.31748449, 34.19050466]]]]}, "properties": {"id": "Pakistan_123102310_713779", "height": 2.969127178192139, "hmax": 0.0, "ratio": 0.0, "vulnClass": "none"}}, {"type": "Feature", "geometry": {"type": "MultiPolygon", "coordinates": [[[[72.31768324, 34.19071895], [72.31768201, 34.19067126], [72.31746485, 34.19067511], [72.31746608, 34.19072278], [72.31768324, 34.19071895]]]]}, "properties": {"id": "Pakistan_123102310_301273", "height": 2.929733753204346, "hmax": 0.0, "ratio": 0.0, "vulnClass": "none"}}, {"type": "Feature", "geometry": {"type": "MultiPolygon", "coordinates": [[[[72.31757873, 34.19076701], [72.31757622, 34.19072162], [72.31744397, 34.19072662], [72.31744648, 34.190772], [72.31757873, 34.19076701]]]]}, "properties": {"id": "Pakistan_123102310_177260", "height": 2.854050874710083, "hmax": 0.0, "ratio": 0.0, "vulnClass": "none"}}, {"type": "Feature", "geometry": {"type": "MultiPolygon", "coordinates": [[[[72.31742071, 34.19009969], [72.31750787, 34.19026174], [72.31767132, 34.19020158], [72.31760109, 34.19007101], [72.31755942, 34.19008635], [72.31754248, 34.19005487], [72.31742071, 34.19009969]]]]}, "properties": {"id": "Pakistan_123102310_386528", "height": 3.340075254440308, "hmax": 0.0, "ratio": 0.0, "vulnClass": "none"}}, {"type": "Feature", "geometry": {"type": "MultiPolygon", "coordinates": [[[[72.31744864, 34.19028566], [72.31743243, 34.19023246], [72.31739208, 34.19024088], [72.31740829, 34.19029408], [72.31744864, 34.19028566]]]]}, "properties": {"id": "Pakistan_123102310_822633", "height": 3.959221839904785, "hmax": 0.0, "ratio": 0.0, "vulnClass": "none"}}, {"type": "Feature", "geometry": {"type": "MultiPolygon", "coordinates": [[[[72.31744268, 34.19035667], [72.31745548, 34.19040307], [72.31755236, 34.19038478], [72.31753956, 34.19033838], [72.31744268, 34.19035667]]]]}, "properties": {"id": "Pakistan_123102310_6806", "height": 2.974212408065796, "hmax": 0.0, "ratio": 0.0, "vulnClass": "none"}}, {"type": "Feature", "geometry": {"type": "MultiPolygon", "coordinates": [[[[72.31736234, 34.19027607], [72.31725703, 34.19030633], [72.317272, 34.19034197], [72.3173773, 34.1903117], [72.31736234, 34.19027607]]]]}, "properties": {"id": "Pakistan_123102310_642176", "height": 3.306915521621704, "hmax": 0.0, "ratio": 0.0, "vulnClass": "none"}}, {"type": "Feature", "geometry": {"type": "MultiPolygon", "coordinates": [[[[72.31712057, 34.19021462], [72.31713263, 34.19024585], [72.31719252, 34.19023002], [72.31718046, 34.1901988], [72.31712057, 34.19021462]]]]}, "properties": {"id": "Pakistan_123102310_73983", "height": 4.527632713317871, "hmax": 0.0, "ratio": 0.0, "vulnClass": "none"}}, {"type": "Feature", "geometry": {"type": "MultiPolygon", "coordinates": [[[[72.31712695, 34.19024311], [72.31710546, 34.19020765], [72.31689108, 34.19029651], [72.31691256, 34.19033198], [72.31712695, 34.19024311]]]]}, "properties": {"id": "Pakistan_123102310_808537", "height": 4.225802421569824, "hmax": 0.0, "ratio": 0.0, "vulnClass": "none"}}, {"type": "Feature", "geometry": {"type": "MultiPolygon", "coordinates": [[[[72.31696542, 34.19014955], [72.316943, 34.19010512], [72.31683017, 34.19014406], [72.31685259, 34.1901885], [72.31696542, 34.19014955]]]]}, "properties": {"id": "Pakistan_123102310_64487", "height": 5.294610977172852, "hmax": 0.0, "ratio": 0.0, "vulnClass": "none"}}, {"type": "Feature", "geometry": {"type": "MultiPolygon", "coordinates": [[[[72.31678343, 34.19004502], [72.31680752, 34.19011477], [72.31684224, 34.19010657], [72.31681815, 34.19003682], [72.31678343, 34.19004502]]]]}, "properties": {"id": "Pakistan_123102310_727999", "height": 3.886655330657959, "hmax": 0.0, "ratio": 0.0, "vulnClass": "none"}}, {"type": "Feature", "geometry": {"type": "MultiPolygon", "coordinates": [[[[72.31723268, 34.19017224], [72.31726006, 34.19023761], [72.31745403, 34.19018201], [72.31741918, 34.19009882], [72.31740721, 34.19010225], [72.31739559, 34.19007452], [72.31733093, 34.19009305], [72.31732678, 34.19008315], [72.31725255, 34.19010442], [72.31724176, 34.19007867], [72.31697449, 34.19015528], [72.31700852, 34.19023649], [72.31723268, 34.19017224]]]]}, "properties": {"id": "Pakistan_123102310_233826", "height": 4.740978240966797, "hmax": 0.0, "ratio": 0.0, "vulnClass": "none"}}, {"type": "Feature", "geometry": {"type": "MultiPolygon", "coordinates": [[[[72.31728541, 34.19003994], [72.31725673, 34.18999321], [72.31719784, 34.19001794], [72.31722652, 34.19006467], [72.31728541, 34.19003994]]]]}, "properties": {"id": "Pakistan_123102310_613782", "height": 3.009294509887695, "hmax": 0.0, "ratio": 0.0, "vulnClass": "none"}}, {"type": "Feature", "geometry": {"type": "MultiPolygon", "coordinates": [[[[72.31706129, 34.18991217], [72.31717013, 34.18987926], [72.31714678, 34.18982642], [72.31703794, 34.18985932], [72.31706129, 34.18991217]]]]}, "properties": {"id": "Pakistan_123102310_178011", "height": 2.917232036590576, "hmax": 0.0, "ratio": 0.0, "vulnClass": "none"}}, {"type": "Feature", "geometry": {"type": "MultiPolygon", "coordinates": [[[[72.31698635, 34.1899242], [72.31697294, 34.1898926], [72.31692279, 34.18990716], [72.3169362, 34.18993876], [72.31698635, 34.1899242]]]]}, "properties": {"id": "Pakistan_123102310_93013", "height": 2.556003570556641, "hmax": 0.0, "ratio": 0.0, "vulnClass": "none"}}, {"type": "Feature", "geometry": {"type": "MultiPolygon", "coordinates": [[[[72.31696596, 34.1900705], [72.31695223, 34.19003167], [72.31694976, 34.19003227], [72.3169089, 34.18991677], [72.31684808, 34.18993149], [72.31687666, 34.19001225], [72.31681983, 34.19002601], [72.31684586, 34.19009958], [72.31696596, 34.1900705]]]]}, "properties": {"id": "Pakistan_123102310_177256", "height": 5.419271945953369, "hmax": 0.0, "ratio": 0.0, "vulnClass": "none"}}, {"type": "Feature", "geometry": {"type": "MultiPolygon", "coordinates": [[[[72.31646963, 34.1899067], [72.31649247, 34.18995734], [72.31655695, 34.18993745], [72.31653411, 34.18988681], [72.31646963, 34.1899067]]]]}, "properties": {"id": "Pakistan_123102310_367661", "height": 2.519210577011108, "hmax": 0.0, "ratio": 0.0, "vulnClass": "none"}}, {"type": "Feature", "geometry": {"type": "MultiPolygon", "coordinates": [[[[72.31579703, 34.18918733], [72.31579827, 34.18922502], [72.31583311, 34.18922424], [72.31583188, 34.18918655], [72.31579703, 34.18918733]]]]}, "properties": {"id": "Pakistan_123102310_44464", "height": 3.071510791778564, "hmax": 0.0, "ratio": 0.0, "vulnClass": "none"}}, {"type": "Feature", "geometry": {"type": "MultiPolygon", "coordinates": [[[[72.31582199, 34.18916597], [72.31581754, 34.18912292], [72.31561954, 34.1891369], [72.31562399, 34.18917996], [72.31582199, 34.18916597]]]]}, "properties": {"id": "Pakistan_123102310_780141", "height": 4.090690612792969, "hmax": 0.0, "ratio": 0.0, "vulnClass": "none"}}, {"type": "Feature", "geometry": {"type": "MultiPolygon", "coordinates": [[[[72.31556373, 34.18915539], [72.31551134, 34.18916727], [72.3155257, 34.18921061], [72.31557809, 34.18919873], [72.31556373, 34.18915539]]]]}, "properties": {"id": "Pakistan_123102310_718540", "height": 3.420650959014893, "hmax": 0.0, "ratio": 0.0, "vulnClass": "none"}}, {"type": "Feature", "geometry": {"type": "MultiPolygon", "coordinates": [[[[72.31585072, 34.18931403], [72.31583121, 34.18923399], [72.31562924, 34.18926766], [72.31563339, 34.18928472], [72.31543235, 34.18931824], [72.3154477, 34.18938125], [72.31585072, 34.18931403]]]]}, "properties": {"id": "Pakistan_123102310_789516", "height": 4.357256889343262, "hmax": 0.0, "ratio": 0.0, "vulnClass": "none"}}, {"type": "Feature", "geometry": {"type": "MultiPolygon", "coordinates": [[[[72.31555836, 34.18921393], [72.31556076, 34.18924931], [72.31563296, 34.18924596], [72.31563055, 34.18921058], [72.31555836, 34.18921393]]]]}, "properties": {"id": "Pakistan_123102310_561610", "height": 3.615942239761353, "hmax": 0.0, "ratio": 0.0, "vulnClass": "none"}}, {"type": "Feature", "geometry": {"type": "MultiPolygon", "coordinates": [[[[72.31542157, 34.189253], [72.31542627, 34.18927904], [72.31547087, 34.18927354], [72.31546618, 34.18924749], [72.31542157, 34.189253]]]]}, "properties": {"id": "Pakistan_123102310_424264", "height": 4.148885726928711, "hmax": 0.0, "ratio": 0.0, "vulnClass": "none"}}, {"type": "Feature", "geometry": {"type": "MultiPolygon", "coordinates": [[[[72.31463123, 34.18906248], [72.31450816, 34.18908434], [72.31452082, 34.18913312], [72.31464389, 34.18911126], [72.31463123, 34.18906248]]]]}, "properties": {"id": "Pakistan_123102310_64463", "height": 2.904732704162598, "hmax": 0.0, "ratio": 0.0, "vulnClass": "none"}}, {"type": "Feature", "geometry": {"type": "MultiPolygon", "coordinates": [[[[72.31500581, 34.18902886], [72.31499269, 34.18898495], [72.3147298, 34.18903871], [72.31474292, 34.18908262], [72.31500581, 34.18902886]]]]}, "properties": {"id": "Pakistan_123102310_865158", "height": 2.790239095687866, "hmax": 0.0, "ratio": 0.0, "vulnClass": "none"}}, {"type": "Feature", "geometry": {"type": "MultiPolygon", "coordinates": [[[[72.31556937, 34.18907644], [72.31555129, 34.18897537], [72.31549712, 34.188982], [72.31550276, 34.18901359], [72.31526916, 34.18904218], [72.31528369, 34.18912348], [72.31537294, 34.18911256], [72.31537082, 34.18910074], [72.31556937, 34.18907644]]]]}, "properties": {"id": "Pakistan_123102310_158254", "height": 3.700390338897705, "hmax": 0.0, "ratio": 0.0, "vulnClass": "none"}}, {"type": "Feature", "geometry": {"type": "MultiPolygon", "coordinates": [[[[72.3153483, 34.18874461], [72.31529619, 34.18875202], [72.31528232, 34.18868521], [72.31521979, 34.1886941], [72.31524396, 34.18881048], [72.3153586, 34.18879418], [72.3153483, 34.18874461]]]]}, "properties": {"id": "Pakistan_123102310_945542", "height": 3.293739795684814, "hmax": 0.0, "ratio": 0.0, "vulnClass": "none"}}, {"type": "Feature", "geometry": {"type": "MultiPolygon", "coordinates": [[[[72.31535865, 34.18871283], [72.31537079, 34.18878565], [72.31548661, 34.18877244], [72.31547446, 34.18869961], [72.31535865, 34.18871283]]]]}, "properties": {"id": "Pakistan_123102310_827331", "height": 3.341530323028564, "hmax": 0.0, "ratio": 0.0, "vulnClass": "none"}}, {"type": "Feature", "geometry": {"type": "MultiPolygon", "coordinates": [[[[72.31630503, 34.18850592], [72.31604053, 34.18856321], [72.3160747, 34.18867118], [72.31619268, 34.18864563], [72.31621336, 34.18871096], [72.31616567, 34.18872129], [72.31617653, 34.18875562], [72.31637074, 34.18871356], [72.31630503, 34.18850592]]]]}, "properties": {"id": "Pakistan_123102310_6796", "height": 3.837795257568359, "hmax": 0.0, "ratio": 0.0, "vulnClass": "none"}}, {"type": "Feature", "geometry": {"type": "MultiPolygon", "coordinates": [[[[72.31547879, 34.18869514], [72.31549358, 34.18875937], [72.31579899, 34.18871124], [72.31574032, 34.18845646], [72.31557467, 34.18848256], [72.31559488, 34.18857034], [72.31567253, 34.18855811], [72.3156962, 34.18866087], [72.31547879, 34.18869514]]]]}, "properties": {"id": "Pakistan_123102310_187313", "height": 5.005718231201172, "hmax": 0.0, "ratio": 0.0, "vulnClass": "none"}}, {"type": "Feature", "geometry": {"type": "MultiPolygon", "coordinates": [[[[72.31540249, 34.18786702], [72.31544925, 34.18797523], [72.31581789, 34.18786623], [72.31577114, 34.18775802], [72.31540249, 34.18786702]]]]}, "properties": {"id": "Pakistan_123102310_139308", "height": 3.480156421661377, "hmax": 0.0, "ratio": 0.0, "vulnClass": "none"}}, {"type": "Feature", "geometry": {"type": "MultiPolygon", "coordinates": [[[[72.31531703, 34.18769832], [72.31529804, 34.18763333], [72.31519516, 34.1876539], [72.31518536, 34.18762036], [72.31502215, 34.18765298], [72.31505094, 34.18775151], [72.31531703, 34.18769832]]]]}, "properties": {"id": "Pakistan_123102310_129918", "height": 4.042059421539307, "hmax": 0.0, "ratio": 0.0, "vulnClass": "none"}}, {"type": "Feature", "geometry": {"type": "MultiPolygon", "coordinates": [[[[72.31517826, 34.18774757], [72.31531613, 34.18793458], [72.31503002, 34.18798188], [72.31504806, 34.18805656], [72.31537719, 34.18800214], [72.31534946, 34.1878874], [72.31541639, 34.1879782], [72.31544767, 34.18796242], [72.31538996, 34.18788413], [72.31539519, 34.18790578], [72.31526768, 34.18773279], [72.31517826, 34.18774757]]]]}, "properties": {"id": "Pakistan_123102310_405457", "height": 4.0141282081604, "hmax": 0.0, "ratio": 0.0, "vulnClass": "none"}}, {"type": "Feature", "geometry": {"type": "MultiPolygon", "coordinates": [[[[72.31468492, 34.18789199], [72.31467581, 34.18781955], [72.31460416, 34.18782572], [72.3146014, 34.18780377], [72.31452445, 34.1878104], [72.31453633, 34.18790478], [72.31468492, 34.18789199]]]]}, "properties": {"id": "Pakistan_123102310_874604", "height": 4.223343372344971, "hmax": 0.0, "ratio": 0.0, "vulnClass": "none"}}, {"type": "Feature", "geometry": {"type": "MultiPolygon", "coordinates": [[[[72.31466499, 34.18798922], [72.31468049, 34.1880245], [72.31472077, 34.1880124], [72.31470527, 34.18797712], [72.31466499, 34.18798922]]]]}, "properties": {"id": "Pakistan_123102310_523924", "height": 4.654741287231445, "hmax": 0.0, "ratio": 0.0, "vulnClass": "none"}}, {"type": "Feature", "geometry": {"type": "MultiPolygon", "coordinates": [[[[72.31469822, 34.18796341], [72.3146739, 34.18789035], [72.31463401, 34.18789944], [72.31465832, 34.1879725], [72.31469822, 34.18796341]]]]}, "properties": {"id": "Pakistan_123102310_542675", "height": 3.922632694244385, "hmax": 0.0, "ratio": 0.0, "vulnClass": "none"}}, {"type": "Feature", "geometry": {"type": "MultiPolygon", "coordinates": [[[[72.31449335, 34.18809396], [72.31451851, 34.18824191], [72.31469736, 34.18822109], [72.31468848, 34.18816888], [72.31459905, 34.18817928], [72.31458277, 34.18808355], [72.31449335, 34.18809396]]]]}, "properties": {"id": "Pakistan_123102310_196915", "height": 5.050631046295166, "hmax": 0.0, "ratio": 0.0, "vulnClass": "none"}}, {"type": "Feature", "geometry": {"type": "MultiPolygon", "coordinates": [[[[72.31476007, 34.18835095], [72.31476605, 34.18839026], [72.3148093, 34.18838576], [72.31480332, 34.18834644], [72.31476007, 34.18835095]]]]}, "properties": {"id": "Pakistan_123102310_533219", "height": 3.456353664398193, "hmax": 0.0, "ratio": 0.0, "vulnClass": "none"}}, {"type": "Feature", "geometry": {"type": "MultiPolygon", "coordinates": [[[[72.31476391, 34.18839524], [72.31474189, 34.18831742], [72.31466815, 34.1883317], [72.31467827, 34.18836745], [72.31461215, 34.18838026], [72.31474431, 34.18884722], [72.3148273, 34.18883115], [72.31470701, 34.18840626], [72.31476391, 34.18839524]]]]}, "properties": {"id": "Pakistan_123102310_850939", "height": 4.888983249664307, "hmax": 0.0, "ratio": 0.0, "vulnClass": "none"}}, {"type": "Feature", "geometry": {"type": "MultiPolygon", "coordinates": [[[[72.31440231, 34.18779157], [72.31459005, 34.18780337], [72.31460586, 34.1876313], [72.31464479, 34.18763374], [72.31464884, 34.18758962], [72.31451657, 34.18758131], [72.31451264, 34.18762416], [72.31441822, 34.18761822], [72.31440231, 34.18779157]]]]}, "properties": {"id": "Pakistan_123102310_344029", "height": 5.375104904174805, "hmax": 0.0, "ratio": 0.0, "vulnClass": "none"}}, {"type": "Feature", "geometry": {"type": "MultiPolygon", "coordinates": [[[[72.31254789, 34.18811036], [72.31252232, 34.18819847], [72.31261615, 34.1882171], [72.31264172, 34.18812899], [72.31254789, 34.18811036]]]]}, "properties": {"id": "Pakistan_123102310_680430", "height": 5.775215148925781, "hmax": 0.0, "ratio": 0.0, "vulnClass": "none"}}, {"type": "Feature", "geometry": {"type": "MultiPolygon", "coordinates": [[[[72.31335404, 34.18811755], [72.31309481, 34.18813051], [72.31310806, 34.18831178], [72.31326306, 34.18830403], [72.31326581, 34.18834161], [72.31337004, 34.1883364], [72.31335404, 34.18811755]]]]}, "properties": {"id": "Pakistan_123102310_26817", "height": 5.903736114501953, "hmax": 0.0, "ratio": 0.0, "vulnClass": "none"}}, {"type": "Feature", "geometry": {"type": "MultiPolygon", "coordinates": [[[[72.3131729, 34.18875284], [72.31318017, 34.18878729], [72.31325921, 34.18877588], [72.31325194, 34.18874143], [72.3131729, 34.18875284]]]]}, "properties": {"id": "Pakistan_123102310_893521", "height": 6.73117733001709, "hmax": 0.0, "ratio": 0.0, "vulnClass": "none"}}, {"type": "Feature", "geometry": {"type": "MultiPolygon", "coordinates": [[[[72.31394225, 34.18926693], [72.31389726, 34.1891369], [72.31370885, 34.18918151], [72.31372659, 34.18923278], [72.31361503, 34.1892592], [72.31364227, 34.18933794], [72.31394225, 34.18926693]]]]}, "properties": {"id": "Pakistan_123102310_742369", "height": 2.574878454208374, "hmax": 0.0, "ratio": 0.0, "vulnClass": "none"}}, {"type": "Feature", "geometry": {"type": "MultiPolygon", "coordinates": [[[[72.31428522, 34.18937372], [72.31366416, 34.18949752], [72.31370118, 34.18962459], [72.31432224, 34.18950076], [72.31428522, 34.18937372]]]]}, "properties": {"id": "Pakistan_123102310_808522", "height": 5.987140655517578, "hmax": 0.0, "ratio": 0.0, "vulnClass": "none"}}, {"type": "Feature", "geometry": {"type": "MultiPolygon", "coordinates": [[[[72.31354896, 34.1893512], [72.31352644, 34.18927594], [72.31352552, 34.18927613], [72.31350926, 34.18922177], [72.31332315, 34.18925988], [72.31333504, 34.1892996], [72.31324911, 34.1893172], [72.31326725, 34.18937782], [72.31322176, 34.18938714], [72.31323052, 34.18941641], [72.31354896, 34.1893512]]]]}, "properties": {"id": "Pakistan_123102310_102517", "height": 3.408689022064209, "hmax": 0.0, "ratio": 0.0, "vulnClass": "none"}}, {"type": "Feature", "geometry": {"type": "MultiPolygon", "coordinates": [[[[72.31306512, 34.189474], [72.31304946, 34.18939629], [72.3129242, 34.18941356], [72.3129155, 34.18937039], [72.31301205, 34.18935707], [72.31301336, 34.18936355], [72.31306294, 34.18935671], [72.31305642, 34.18932433], [72.31286235, 34.18935109], [72.31288453, 34.18946119], [72.31283069, 34.18946861], [72.31283808, 34.18950531], [72.31306512, 34.189474]]]]}, "properties": {"id": "Pakistan_123102310_907772", "height": 3.694121122360229, "hmax": 0.0, "ratio": 0.0, "vulnClass": "none"}}, {"type": "Feature", "geometry": {"type": "MultiPolygon", "coordinates": [[[[72.3142894, 34.18999717], [72.31435231, 34.1902505], [72.31521705, 34.19010357], [72.31519379, 34.1900099], [72.31496474, 34.19004882], [72.31496949, 34.19006798], [72.31444448, 34.19015719], [72.31442756, 34.19008907], [72.31452278, 34.19007289], [72.31450322, 34.18999412], [72.31467051, 34.18996569], [72.31467791, 34.1899955], [72.31484005, 34.18996795], [72.31482471, 34.18990621], [72.3142894, 34.18999717]]]]}, "properties": {"id": "Pakistan_123102310_580662", "height": 3.750866413116455, "hmax": 0.0, "ratio": 0.0, "vulnClass": "none"}}, {"type": "Feature", "geometry": {"type": "MultiPolygon", "coordinates": [[[[72.31377968, 34.18964773], [72.31382898, 34.18964024], [72.31382278, 34.18961234], [72.31371899, 34.18962812], [72.31373139, 34.18968392], [72.31378588, 34.18967563], [72.31377968, 34.18964773]]]]}, "properties": {"id": "Pakistan_123102310_6772", "height": 4.213930130004883, "hmax": 0.0, "ratio": 0.0, "vulnClass": "none"}}, {"type": "Feature", "geometry": {"type": "MultiPolygon", "coordinates": [[[[72.31578706, 34.19000059], [72.31578869, 34.18994192], [72.31568414, 34.18993994], [72.31568251, 34.1899986], [72.31578706, 34.19000059]]]]}, "properties": {"id": "Pakistan_123102310_637481", "height": 2.830160856246948, "hmax": 0.0, "ratio": 0.0, "vulnClass": "none"}}, {"type": "Feature", "geometry": {"type": "MultiPolygon", "coordinates": [[[[72.316108, 34.18974645], [72.31574477, 34.18983428], [72.31579791, 34.1899846], [72.31616113, 34.18989675], [72.316108, 34.18974645]]]]}, "properties": {"id": "Pakistan_123102310_428961", "height": 4.547795295715332, "hmax": 0.0, "ratio": 0.0, "vulnClass": "none"}}, {"type": "Feature", "geometry": {"type": "MultiPolygon", "coordinates": [[[[72.31646893, 34.18998319], [72.31622831, 34.19005867], [72.31626524, 34.19013923], [72.31650586, 34.19006374], [72.31646893, 34.18998319]]]]}, "properties": {"id": "Pakistan_123102310_523935", "height": 3.212601900100708, "hmax": 0.0, "ratio": 0.0, "vulnClass": "none"}}, {"type": "Feature", "geometry": {"type": "MultiPolygon", "coordinates": [[[[72.31655522, 34.19008626], [72.31619189, 34.19016173], [72.31622484, 34.19027026], [72.31644183, 34.19022518], [72.31646147, 34.19028988], [72.31656996, 34.19026735], [72.31655095, 34.19020473], [72.3165888, 34.19019687], [72.31655522, 34.19008626]]]]}, "properties": {"id": "Pakistan_123102310_466969", "height": 3.06705379486084, "hmax": 0.0, "ratio": 0.0, "vulnClass": "none"}}, {"type": "Feature", "geometry": {"type": "MultiPolygon", "coordinates": [[[[72.31616256, 34.19056032], [72.31612123, 34.19039431], [72.31605947, 34.19040483], [72.31607696, 34.19047506], [72.31571674, 34.19053644], [72.31570007, 34.1904695], [72.31564861, 34.19047827], [72.315678, 34.19059629], [72.31556068, 34.19061628], [72.315544, 34.19054934], [72.31547864, 34.19056048], [72.31550644, 34.19067211], [72.31616256, 34.19056032]]]]}, "properties": {"id": "Pakistan_123102310_462263", "height": 3.199082374572754, "hmax": 0.0, "ratio": 0.0, "vulnClass": "none"}}, {"type": "Feature", "geometry": {"type": "MultiPolygon", "coordinates": [[[[72.31505431, 34.19037283], [72.31500787, 34.19019475], [72.31514371, 34.19017051], [72.31515698, 34.19022139], [72.31521593, 34.19021088], [72.3151916, 34.1901176], [72.31492762, 34.1901647], [72.31496963, 34.19032582], [72.31475434, 34.19036423], [72.31476982, 34.19042359], [72.31505431, 34.19037283]]]]}, "properties": {"id": "Pakistan_123102310_428957", "height": 3.22757363319397, "hmax": 0.0, "ratio": 0.0, "vulnClass": "none"}}, {"type": "Feature", "geometry": {"type": "MultiPolygon", "coordinates": [[[[72.31477782, 34.19043318], [72.31478599, 34.19045899], [72.31505055, 34.19040169], [72.31504238, 34.19037587], [72.31477782, 34.19043318]]]]}, "properties": {"id": "Pakistan_123102310_315584", "height": 3.080901145935059, "hmax": 0.0, "ratio": 0.0, "vulnClass": "none"}}, {"type": "Feature", "geometry": {"type": "MultiPolygon", "coordinates": [[[[72.3154241, 34.19088014], [72.31542105, 34.19083146], [72.31533813, 34.19083502], [72.31534118, 34.1908837], [72.3154241, 34.19088014]]]]}, "properties": {"id": "Pakistan_123102310_661369", "height": 2.48748254776001, "hmax": 0.0, "ratio": 0.0, "vulnClass": "none"}}, {"type": "Feature", "geometry": {"type": "MultiPolygon", "coordinates": [[[[72.3152866, 34.19070541], [72.31526105, 34.19064139], [72.31521895, 34.19065288], [72.31524449, 34.1907169], [72.3152866, 34.19070541]]]]}, "properties": {"id": "Pakistan_123102310_158250", "height": 3.333552598953247, "hmax": 0.0, "ratio": 0.0, "vulnClass": "none"}}, {"type": "Feature", "geometry": {"type": "MultiPolygon", "coordinates": [[[[72.3152678, 34.1906267], [72.31531966, 34.1908107], [72.31537563, 34.19079991], [72.31530657, 34.19055488], [72.315042, 34.19060592], [72.3150592, 34.19066694], [72.3152678, 34.1906267]]]]}, "properties": {"id": "Pakistan_123102310_798976", "height": 3.442778587341309, "hmax": 0.0, "ratio": 0.0, "vulnClass": "none"}}, {"type": "Feature", "geometry": {"type": "MultiPolygon", "coordinates": [[[[72.31647749, 34.19099498], [72.31646098, 34.1908476], [72.31635726, 34.19085555], [72.31637377, 34.19100293], [72.31647749, 34.19099498]]]]}, "properties": {"id": "Pakistan_123102310_44476", "height": 2.805894613265991, "hmax": 0.0, "ratio": 0.0, "vulnClass": "none"}}, {"type": "Feature", "geometry": {"type": "MultiPolygon", "coordinates": [[[[72.31621206, 34.19087523], [72.31617226, 34.19069594], [72.31607885, 34.19071013], [72.31609959, 34.19080357], [72.31595948, 34.19082485], [72.31594042, 34.190739], [72.31588593, 34.19074728], [72.31592548, 34.19092542], [72.31598256, 34.19091675], [72.31600067, 34.19099831], [72.31593321, 34.19100855], [72.31594083, 34.19104289], [72.31611987, 34.1910157], [72.31609271, 34.19089336], [72.31621206, 34.19087523]]]]}, "properties": {"id": "Pakistan_123102310_912568", "height": 3.618520259857178, "hmax": 0.0, "ratio": 0.0, "vulnClass": "none"}}, {"type": "Feature", "geometry": {"type": "MultiPolygon", "coordinates": [[[[72.31647163, 34.19096136], [72.31647519, 34.19107665], [72.3163921, 34.19107841], [72.31639436, 34.19115158], [72.31656591, 34.19114795], [72.31656009, 34.19095949], [72.31647163, 34.19096136]]]]}, "properties": {"id": "Pakistan_123102310_334564", "height": 2.856842994689941, "hmax": 0.0, "ratio": 0.0, "vulnClass": "none"}}, {"type": "Feature", "geometry": {"type": "MultiPolygon", "coordinates": [[[[72.31638335, 34.19134474], [72.31637893, 34.19126503], [72.31630667, 34.19126777], [72.31631524, 34.19142275], [72.31644487, 34.19141784], [72.3164407, 34.19134257], [72.31638335, 34.19134474]]]]}, "properties": {"id": "Pakistan_123102310_367659", "height": 3.726100921630859, "hmax": 0.0, "ratio": 0.0, "vulnClass": "none"}}, {"type": "Feature", "geometry": {"type": "MultiPolygon", "coordinates": [[[[72.31523457, 34.19122664], [72.31504347, 34.19125771], [72.31506276, 34.19133888], [72.31525386, 34.19130781], [72.31523457, 34.19122664]]]]}, "properties": {"id": "Pakistan_123102310_91624", "height": 2.65483546257019, "hmax": 0.0, "ratio": 0.0, "vulnClass": "none"}}, {"type": "Feature", "geometry": {"type": "MultiPolygon", "coordinates": [[[[72.31534476, 34.19152212], [72.31529934, 34.19134263], [72.31520684, 34.19135866], [72.31522805, 34.19144249], [72.31508783, 34.19146677], [72.31507492, 34.19141576], [72.31501985, 34.19142529], [72.31503491, 34.1914848], [72.31486018, 34.19151506], [72.31484297, 34.19144705], [72.31479782, 34.19145486], [72.3148371, 34.19161002], [72.31534476, 34.19152212]]]]}, "properties": {"id": "Pakistan_123102310_377126", "height": 2.949025630950928, "hmax": 0.0, "ratio": 0.0, "vulnClass": "none"}}, {"type": "Feature", "geometry": {"type": "MultiPolygon", "coordinates": [[[[72.31346419, 34.1915736], [72.31339595, 34.19148943], [72.3133563, 34.19151143], [72.31342453, 34.1915956], [72.31346419, 34.1915736]]]]}, "properties": {"id": "Pakistan_123102310_613749", "height": 6.344239234924316, "hmax": 0.0, "ratio": 0.0, "vulnClass": "none"}}, {"type": "Feature", "geometry": {"type": "MultiPolygon", "coordinates": [[[[72.31395321, 34.19211132], [72.31380702, 34.19211472], [72.3138083, 34.1921524], [72.31395449, 34.19214901], [72.31395321, 34.19211132]]]]}, "properties": {"id": "Pakistan_123102310_874595", "height": 2.605582475662231, "hmax": 0.0, "ratio": 0.0, "vulnClass": "none"}}, {"type": "Feature", "geometry": {"type": "MultiPolygon", "coordinates": [[[[72.31376724, 34.19291446], [72.31390386, 34.1929185], [72.31390562, 34.19287771], [72.313769, 34.19287368], [72.31376724, 34.19291446]]]]}, "properties": {"id": "Pakistan_123102310_424252", "height": 2.687972068786621, "hmax": 0.0, "ratio": 0.0, "vulnClass": "none"}}, {"type": "Feature", "geometry": {"type": "MultiPolygon", "coordinates": [[[[72.31391974, 34.19314352], [72.31410525, 34.19312207], [72.314099, 34.19308507], [72.31380436, 34.19311915], [72.31384274, 34.19334634], [72.31404135, 34.19332338], [72.31403531, 34.19328768], [72.31394586, 34.19329802], [72.31391974, 34.19314352]]]]}, "properties": {"id": "Pakistan_123102310_936142", "height": 3.101357460021973, "hmax": 0.0, "ratio": 0.0, "vulnClass": "none"}}, {"type": "Feature", "geometry": {"type": "MultiPolygon", "coordinates": [[[[72.31401256, 34.1928144], [72.31400677, 34.19277957], [72.31394096, 34.19278705], [72.31394675, 34.19282189], [72.31401256, 34.1928144]]]]}, "properties": {"id": "Pakistan_123102310_670845", "height": 2.64765739440918, "hmax": 0.0, "ratio": 0.0, "vulnClass": "none"}}, {"type": "Feature", "geometry": {"type": "MultiPolygon", "coordinates": [[[[72.31419867, 34.19296566], [72.31419122, 34.19291857], [72.31412793, 34.19292542], [72.31410999, 34.19281199], [72.3140467, 34.19281883], [72.31406553, 34.19293791], [72.31387176, 34.19295887], [72.31386728, 34.19293052], [72.31379207, 34.19293866], [72.31379773, 34.19297444], [72.31385838, 34.19296788], [72.31386376, 34.19300189], [72.31419867, 34.19296566]]]]}, "properties": {"id": "Pakistan_123102310_271372", "height": 2.858344793319702, "hmax": 0.0, "ratio": 0.0, "vulnClass": "none"}}, {"type": "Feature", "geometry": {"type": "MultiPolygon", "coordinates": [[[[72.31475915, 34.1928151], [72.31465485, 34.19281973], [72.31465987, 34.19289716], [72.31476417, 34.19289253], [72.31475915, 34.1928151]]]]}, "properties": {"id": "Pakistan_123102310_414824", "height": 2.99364185333252, "hmax": 0.0, "ratio": 0.0, "vulnClass": "none"}}, {"type": "Feature", "geometry": {"type": "MultiPolygon", "coordinates": [[[[72.31602523, 34.19274262], [72.31602792, 34.19277798], [72.31616684, 34.19277075], [72.31616415, 34.19273539], [72.31602523, 34.19274262]]]]}, "properties": {"id": "Pakistan_123102310_320427", "height": 4.175115585327148, "hmax": 0.0, "ratio": 0.0, "vulnClass": "none"}}, {"type": "Feature", "geometry": {"type": "MultiPolygon", "coordinates": [[[[72.3159442, 34.19276135], [72.3159526, 34.19281696], [72.31600542, 34.19281151], [72.31599702, 34.19275589], [72.3159442, 34.19276135]]]]}, "properties": {"id": "Pakistan_123102310_737563", "height": 3.9844069480896, "hmax": 0.0, "ratio": 0.0, "vulnClass": "none"}}, {"type": "Feature", "geometry": {"type": "MultiPolygon", "coordinates": [[[[72.31584938, 34.19249973], [72.31587511, 34.19260178], [72.31579543, 34.19261553], [72.31576594, 34.19249859], [72.31572739, 34.19250524], [72.31577671, 34.19270085], [72.31605431, 34.19265296], [72.31600874, 34.19247224], [72.31584938, 34.19249973]]]]}, "properties": {"id": "Pakistan_123102310_869923", "height": 3.621222496032715, "hmax": 0.0, "ratio": 0.0, "vulnClass": "none"}}, {"type": "Feature", "geometry": {"type": "MultiPolygon", "coordinates": [[[[72.31646099, 34.19140887], [72.31645819, 34.19150422], [72.31660831, 34.19150723], [72.31661111, 34.19141189], [72.31646099, 34.19140887]]]]}, "properties": {"id": "Pakistan_123102310_566329", "height": 4.07691478729248, "hmax": 0.0, "ratio": 0.0, "vulnClass": "none"}}, {"type": "Feature", "geometry": {"type": "MultiPolygon", "coordinates": [[[[72.31701215, 34.19143828], [72.31700051, 34.19152372], [72.31708262, 34.19153137], [72.31709426, 34.19144593], [72.31701215, 34.19143828]]]]}, "properties": {"id": "Pakistan_123102310_803694", "height": 2.881791353225708, "hmax": 0.0, "ratio": 0.0, "vulnClass": "none"}}, {"type": "Feature", "geometry": {"type": "MultiPolygon", "coordinates": [[[[72.3172755, 34.19150052], [72.31726802, 34.19156536], [72.31747651, 34.1915818], [72.31748398, 34.19151694], [72.3172755, 34.19150052]]]]}, "properties": {"id": "Pakistan_123102310_72502", "height": 3.033913850784302, "hmax": 0.0, "ratio": 0.0, "vulnClass": "none"}}, {"type": "Feature", "geometry": {"type": "MultiPolygon", "coordinates": [[[[72.31668966, 34.19213527], [72.31668811, 34.19205648], [72.31641728, 34.19206012], [72.31641883, 34.19213892], [72.31668966, 34.19213527]]]]}, "properties": {"id": "Pakistan_123102310_514416", "height": 4.288125991821289, "hmax": 0.0, "ratio": 0.0, "vulnClass": "none"}}, {"type": "Feature", "geometry": {"type": "MultiPolygon", "coordinates": [[[[72.31643402, 34.19214508], [72.3164351, 34.19217389], [72.31668699, 34.19216743], [72.31668591, 34.19213862], [72.31643402, 34.19214508]]]]}, "properties": {"id": "Pakistan_123102310_457384", "height": 4.420977115631104, "hmax": 0.0, "ratio": 0.0, "vulnClass": "none"}}, {"type": "Feature", "geometry": {"type": "MultiPolygon", "coordinates": [[[[72.31682571, 34.19216874], [72.3168362, 34.1924258], [72.31694192, 34.19242285], [72.31693296, 34.19220346], [72.31704158, 34.19220043], [72.31704005, 34.19216276], [72.31682571, 34.19216874]]]]}, "properties": {"id": "Pakistan_123102310_129930", "height": 3.587117195129395, "hmax": 0.0, "ratio": 0.0, "vulnClass": "none"}}, {"type": "Feature", "geometry": {"type": "MultiPolygon", "coordinates": [[[[72.3177905, 34.19241566], [72.31778941, 34.19233358], [72.31758704, 34.19233541], [72.31758512, 34.1921901], [72.31772726, 34.19218881], [72.3177277, 34.19222208], [72.31778134, 34.1922216], [72.31778043, 34.19215283], [72.31734182, 34.19215682], [72.31734214, 34.19218122], [72.3174816, 34.19217995], [72.31748361, 34.1923308], [72.31729856, 34.19233248], [72.31729972, 34.19242009], [72.3177905, 34.19241566]]]]}, "properties": {"id": "Pakistan_123102310_747111", "height": 4.007356643676758, "hmax": 0.0, "ratio": 0.0, "vulnClass": "none"}}, {"type": "Feature", "geometry": {"type": "MultiPolygon", "coordinates": [[[[72.3174697, 34.19165221], [72.31759201, 34.19167745], [72.31760681, 34.19162837], [72.3175058, 34.19160752], [72.31751336, 34.19158246], [72.31747801, 34.19157517], [72.31747329, 34.19159083], [72.31748734, 34.19159373], [72.3174697, 34.19165221]]]]}, "properties": {"id": "Pakistan_123102310_325180", "height": 2.849101781845093, "hmax": 0.0, "ratio": 0.0, "vulnClass": "none"}}, {"type": "Feature", "geometry": {"type": "MultiPolygon", "coordinates": [[[[72.31766578, 34.19304193], [72.31765999, 34.1929212], [72.31752074, 34.19292577], [72.31751787, 34.19286597], [72.31746431, 34.19286773], [72.31747297, 34.19304826], [72.31766578, 34.19304193]]]]}, "properties": {"id": "Pakistan_123102310_271396", "height": 3.21255898475647, "hmax": 0.0, "ratio": 0.0, "vulnClass": "none"}}, {"type": "Feature", "geometry": {"type": "MultiPolygon", "coordinates": [[[[72.31742626, 34.19289776], [72.31742345, 34.19283795], [72.31729363, 34.19284211], [72.31729643, 34.19290192], [72.31742626, 34.19289776]]]]}, "properties": {"id": "Pakistan_123102310_224390", "height": 3.632686614990234, "hmax": 0.0, "ratio": 0.0, "vulnClass": "none"}}, {"type": "Feature", "geometry": {"type": "MultiPolygon", "coordinates": [[[[72.31681742, 34.19309725], [72.31681585, 34.19318153], [72.31690304, 34.19318264], [72.31690461, 34.19309836], [72.31681742, 34.19309725]]]]}, "properties": {"id": "Pakistan_123102310_140287", "height": 5.589210033416748, "hmax": 0.0, "ratio": 0.0, "vulnClass": "none"}}, {"type": "Feature", "geometry": {"type": "MultiPolygon", "coordinates": [[[[72.3174683, 34.19304906], [72.31745997, 34.19297875], [72.31722352, 34.19299791], [72.31722105, 34.19297702], [72.31709353, 34.19298734], [72.31710433, 34.19307856], [72.3174683, 34.19304906]]]]}, "properties": {"id": "Pakistan_123102310_457389", "height": 3.811450958251953, "hmax": 0.0, "ratio": 0.0, "vulnClass": "none"}}, {"type": "Feature", "geometry": {"type": "MultiPolygon", "coordinates": [[[[72.3171725, 34.19311905], [72.31717028, 34.19308033], [72.31705918, 34.1930847], [72.3170614, 34.19312341], [72.3171725, 34.19311905]]]]}, "properties": {"id": "Pakistan_123102310_699380", "height": 4.030672550201416, "hmax": 0.0, "ratio": 0.0, "vulnClass": "none"}}, {"type": "Feature", "geometry": {"type": "MultiPolygon", "coordinates": [[[[72.31712491, 34.19322814], [72.31713332, 34.1932599], [72.31718451, 34.19325062], [72.31717609, 34.19321886], [72.31712491, 34.19322814]]]]}, "properties": {"id": "Pakistan_123102310_334568", "height": 2.874149322509766, "hmax": 0.0, "ratio": 0.0, "vulnClass": "none"}}, {"type": "Feature", "geometry": {"type": "MultiPolygon", "coordinates": [[[[72.31718875, 34.19312054], [72.31712447, 34.1931226], [72.31712866, 34.19321234], [72.31719294, 34.19321028], [72.31718875, 34.19312054]]]]}, "properties": {"id": "Pakistan_123102310_53756", "height": 4.150233745574951, "hmax": 0.0, "ratio": 0.0, "vulnClass": "none"}}, {"type": "Feature", "geometry": {"type": "MultiPolygon", "coordinates": [[[[72.31716817, 34.19330228], [72.31724729, 34.1933036], [72.31724831, 34.19326146], [72.31716919, 34.19326014], [72.31716817, 34.19330228]]]]}, "properties": {"id": "Pakistan_123102310_623183", "height": 3.180458784103394, "hmax": 0.0, "ratio": 0.0, "vulnClass": "none"}}, {"type": "Feature", "geometry": {"type": "MultiPolygon", "coordinates": [[[[72.31716274, 34.19325736], [72.31711454, 34.19325571], [72.31711277, 34.19329115], [72.31716097, 34.1932928], [72.31716274, 34.19325736]]]]}, "properties": {"id": "Pakistan_123102310_884148", "height": 2.501269578933716, "hmax": 0.0, "ratio": 0.0, "vulnClass": "none"}}, {"type": "Feature", "geometry": {"type": "MultiPolygon", "coordinates": [[[[72.31677486, 34.19324744], [72.31682576, 34.19324593], [72.31682393, 34.19320384], [72.31677304, 34.19320534], [72.31677486, 34.19324744]]]]}, "properties": {"id": "Pakistan_123102310_903148", "height": 5.444563865661621, "hmax": 0.0, "ratio": 0.0, "vulnClass": "none"}}, {"type": "Feature", "geometry": {"type": "MultiPolygon", "coordinates": [[[[72.31641551, 34.19380246], [72.31637371, 34.19371653], [72.31614286, 34.19379336], [72.31618466, 34.19387929], [72.31641551, 34.19380246]]]]}, "properties": {"id": "Pakistan_123102310_215885", "height": 3.165390968322754, "hmax": 0.0, "ratio": 0.0, "vulnClass": "none"}}, {"type": "Feature", "geometry": {"type": "MultiPolygon", "coordinates": [[[[72.315527, 34.19344088], [72.31560447, 34.19364728], [72.31567297, 34.19362969], [72.31562512, 34.19350221], [72.31576212, 34.19346703], [72.3157325, 34.19338811], [72.315527, 34.19344088]]]]}, "properties": {"id": "Pakistan_123102310_585497", "height": 2.546726942062378, "hmax": 0.0, "ratio": 0.0, "vulnClass": "none"}}, {"type": "Feature", "geometry": {"type": "MultiPolygon", "coordinates": [[[[72.31569368, 34.19350429], [72.31571462, 34.19356838], [72.31566089, 34.19358039], [72.31567304, 34.19361761], [72.31591551, 34.1935634], [72.31589997, 34.19351585], [72.31578623, 34.19354128], [72.31576867, 34.19348752], [72.31569368, 34.19350429]]]]}, "properties": {"id": "Pakistan_123102310_608975", "height": 2.498080253601074, "hmax": 0.0, "ratio": 0.0, "vulnClass": "none"}}, {"type": "Feature", "geometry": {"type": "MultiPolygon", "coordinates": [[[[72.31501893, 34.19385163], [72.31503935, 34.19389772], [72.31512568, 34.19387155], [72.31510526, 34.19382546], [72.31501893, 34.19385163]]]]}, "properties": {"id": "Pakistan_123102310_167856", "height": 2.636580944061279, "hmax": 0.0, "ratio": 0.0, "vulnClass": "none"}}, {"type": "Feature", "geometry": {"type": "MultiPolygon", "coordinates": [[[[72.31523761, 34.19388908], [72.31533276, 34.19386809], [72.31530337, 34.19377695], [72.31512058, 34.19381728], [72.31515731, 34.1939312], [72.31524495, 34.19391186], [72.31523761, 34.19388908]]]]}, "properties": {"id": "Pakistan_123102310_233800", "height": 2.717561721801758, "hmax": 0.0, "ratio": 0.0, "vulnClass": "none"}}, {"type": "Feature", "geometry": {"type": "MultiPolygon", "coordinates": [[[[72.31512919, 34.19374106], [72.3151429, 34.19378096], [72.31522357, 34.193762], [72.31520985, 34.19372209], [72.31512919, 34.19374106]]]]}, "properties": {"id": "Pakistan_123102310_244093", "height": 2.454419136047363, "hmax": 0.0, "ratio": 0.0, "vulnClass": "none"}}, {"type": "Feature", "geometry": {"type": "MultiPolygon", "coordinates": [[[[72.31509966, 34.1937163], [72.31499112, 34.19373644], [72.31495422, 34.19360033], [72.31490059, 34.19361028], [72.3149581, 34.19382243], [72.31512028, 34.19379235], [72.31509966, 34.1937163]]]]}, "properties": {"id": "Pakistan_123102310_485943", "height": 2.733794212341309, "hmax": 0.0, "ratio": 0.0, "vulnClass": "none"}}, {"type": "Feature", "geometry": {"type": "MultiPolygon", "coordinates": [[[[72.31581514, 34.19401032], [72.31575445, 34.19385652], [72.31575537, 34.19387244], [72.31570746, 34.19375105], [72.31557899, 34.19378574], [72.31554892, 34.19370955], [72.31548348, 34.19372722], [72.31552304, 34.19382747], [72.31548912, 34.19383663], [72.31549367, 34.19391526], [72.31536291, 34.19395057], [72.31536859, 34.19404887], [72.31522596, 34.19408738], [72.31519931, 34.19401985], [72.31519773, 34.19399258], [72.31509343, 34.19399671], [72.31508545, 34.19399886], [72.31509059, 34.19408778], [72.31521857, 34.19408272], [72.31516504, 34.19409717], [72.31504581, 34.1941019], [72.31504776, 34.1941355], [72.31490514, 34.194174], [72.31490729, 34.194211], [72.31492237, 34.19424922], [72.31580579, 34.19401069], [72.31581514, 34.19401032]]]]}, "properties": {"id": "Pakistan_123102310_329873", "height": 3.287139654159546, "hmax": 0.0, "ratio": 0.0, "vulnClass": "none"}}, {"type": "Feature", "geometry": {"type": "MultiPolygon", "coordinates": [[[[72.31456689, 34.19396514], [72.3146813, 34.19414951], [72.31476622, 34.19411346], [72.3146518, 34.19392909], [72.31456689, 34.19396514]]]]}, "properties": {"id": "Pakistan_123102310_386510", "height": 4.255118846893311, "hmax": 0.0, "ratio": 0.0, "vulnClass": "none"}}, {"type": "Feature", "geometry": {"type": "MultiPolygon", "coordinates": [[[[72.31483553, 34.19414839], [72.31479885, 34.19410314], [72.31471188, 34.19415137], [72.31474857, 34.19419663], [72.31483553, 34.19414839]]]]}, "properties": {"id": "Pakistan_123102310_224356", "height": 4.198048114776611, "hmax": 0.0, "ratio": 0.0, "vulnClass": "none"}}, {"type": "Feature", "geometry": {"type": "MultiPolygon", "coordinates": [[[[72.31751865, 34.19540836], [72.31756225, 34.19566281], [72.31765165, 34.19565233], [72.31760805, 34.19539788], [72.31751865, 34.19540836]]]]}, "properties": {"id": "Pakistan_123102310_533237", "height": 2.988766670227051, "hmax": 0.0, "ratio": 0.0, "vulnClass": "none"}}, {"type": "Feature", "geometry": {"type": "MultiPolygon", "coordinates": [[[[72.31696615, 34.20117015], [72.31697214, 34.20141959], [72.31733142, 34.20141371], [72.31732897, 34.2013117], [72.3170394, 34.20131644], [72.31703586, 34.20116901], [72.31696615, 34.20117015]]]]}, "properties": {"id": "Pakistan_123102310_291747", "height": 3.10762095451355, "hmax": 0.0, "ratio": 0.0, "vulnClass": "none"}}, {"type": "Feature", "geometry": {"type": "MultiPolygon", "coordinates": [[[[72.31545155, 34.20200385], [72.31544851, 34.20193073], [72.31558374, 34.20192688], [72.31558365, 34.20192467], [72.31568009, 34.20192193], [72.31568411, 34.20201842], [72.31615434, 34.20200502], [72.3161502, 34.20190532], [72.3158046, 34.20191516], [72.3158016, 34.20184305], [72.31541441, 34.20185405], [72.31541289, 34.20181762], [72.31517855, 34.20182429], [72.31518021, 34.20186417], [72.31535561, 34.20185918], [72.3153582, 34.20192122], [72.31520422, 34.2019256], [72.31520472, 34.20193766], [72.3150774, 34.20194128], [72.31507727, 34.20193809], [72.31482148, 34.20194538], [72.31482465, 34.20202166], [72.31545155, 34.20200385]]]]}, "properties": {"id": "Pakistan_123102310_898354", "height": 2.937004804611206, "hmax": 0.0, "ratio": 0.0, "vulnClass": "none"}}, {"type": "Feature", "geometry": {"type": "MultiPolygon", "coordinates": [[[[72.31505331, 34.20268717], [72.31504168, 34.20262431], [72.31501023, 34.20262829], [72.31501664, 34.20266297], [72.31494588, 34.20267192], [72.31492824, 34.20257655], [72.31486534, 34.20258451], [72.31487536, 34.2026387], [72.31474432, 34.20265528], [72.31475715, 34.20272464], [72.31505331, 34.20268717]]]]}, "properties": {"id": "Pakistan_123102310_912561", "height": 2.677173614501953, "hmax": 0.0, "ratio": 0.0, "vulnClass": "none"}}, {"type": "Feature", "geometry": {"type": "MultiPolygon", "coordinates": [[[[72.31504247, 34.20257732], [72.31505678, 34.20268246], [72.31512564, 34.20267605], [72.31511133, 34.20257091], [72.31504247, 34.20257732]]]]}, "properties": {"id": "Pakistan_123102310_699366", "height": 2.501887321472168, "hmax": 0.0, "ratio": 0.0, "vulnClass": "none"}}, {"type": "Feature", "geometry": {"type": "MultiPolygon", "coordinates": [[[[72.31512402, 34.20218226], [72.31513282, 34.20237373], [72.31543279, 34.20236432], [72.31542817, 34.20226365], [72.3154121, 34.20226416], [72.3154123, 34.20226859], [72.31522482, 34.20227448], [72.31522044, 34.20217923], [72.31512402, 34.20218226]]]]}, "properties": {"id": "Pakistan_123102310_35140", "height": 3.178934574127197, "hmax": 0.0, "ratio": 0.0, "vulnClass": "none"}}, {"type": "Feature", "geometry": {"type": "MultiPolygon", "coordinates": [[[[72.3165526, 34.20276328], [72.31654353, 34.20259841], [72.31660777, 34.20259599], [72.31660904, 34.20261919], [72.31672146, 34.20261496], [72.31671793, 34.20255076], [72.31615851, 34.20257181], [72.3161568, 34.20254081], [72.31616483, 34.20254051], [72.31616021, 34.20245639], [72.31600628, 34.20246218], [72.31601067, 34.20254187], [72.31597319, 34.20254328], [72.31597917, 34.20265176], [72.31594572, 34.20265302], [72.31594791, 34.20269286], [72.31598003, 34.20269166], [72.31598259, 34.20273814], [72.31617263, 34.20273099], [72.31617519, 34.20277748], [72.3165526, 34.20276328]]]]}, "properties": {"id": "Pakistan_123102310_381829", "height": 3.069955825805664, "hmax": 0.0, "ratio": 0.0, "vulnClass": "none"}}, {"type": "Feature", "geometry": {"type": "MultiPolygon", "coordinates": [[[[72.31203483, 34.20251904], [72.31236445, 34.20252706], [72.31236745, 34.20244283], [72.31203782, 34.20243482], [72.31203483, 34.20251904]]]]}, "properties": {"id": "Pakistan_123102310_476551", "height": 2.508458137512207, "hmax": 0.0, "ratio": 0.0, "vulnClass": "none"}}, {"type": "Feature", "geometry": {"type": "MultiPolygon", "coordinates": [[[[72.30925224, 34.19954752], [72.30924779, 34.19974489], [72.30935772, 34.19974659], [72.30936218, 34.19954922], [72.30925224, 34.19954752]]]]}, "properties": {"id": "Pakistan_123102310_926611", "height": 3.140905380249023, "hmax": 0.0, "ratio": 0.0, "vulnClass": "none"}}, {"type": "Feature", "geometry": {"type": "MultiPolygon", "coordinates": [[[[72.3093628, 34.19971952], [72.30934161, 34.19979298], [72.30945834, 34.19981602], [72.30947954, 34.19974256], [72.3093628, 34.19971952]]]]}, "properties": {"id": "Pakistan_123102310_808494", "height": 3.140905380249023, "hmax": 0.0, "ratio": 0.0, "vulnClass": "none"}}, {"type": "Feature", "geometry": {"type": "MultiPolygon", "coordinates": [[[[72.30958619, 34.20023909], [72.30953255, 34.20023976], [72.30953615, 34.20043715], [72.30969436, 34.20043518], [72.30969212, 34.20031227], [72.30964117, 34.20031291], [72.30964026, 34.20026282], [72.30958663, 34.20026349], [72.30958619, 34.20023909]]]]}, "properties": {"id": "Pakistan_123102310_372387", "height": 3.840568780899048, "hmax": 0.0, "ratio": 0.0, "vulnClass": "none"}}, {"type": "Feature", "geometry": {"type": "MultiPolygon", "coordinates": [[[[72.31008209, 34.20071481], [72.31032209, 34.20074069], [72.31033447, 34.20066216], [72.31013666, 34.20064083], [72.31015783, 34.20050647], [72.31011563, 34.20050193], [72.31008209, 34.20071481]]]]}, "properties": {"id": "Pakistan_123102310_234661", "height": 3.70826244354248, "hmax": 0.0, "ratio": 0.0, "vulnClass": "none"}}, {"type": "Feature", "geometry": {"type": "MultiPolygon", "coordinates": [[[[72.31033841, 34.20067574], [72.31033421, 34.20087977], [72.31038098, 34.20088043], [72.31038516, 34.2006764], [72.31033841, 34.20067574]]]]}, "properties": {"id": "Pakistan_123102310_519193", "height": 3.591614246368408, "hmax": 0.0, "ratio": 0.0, "vulnClass": "none"}}, {"type": "Feature", "geometry": {"type": "MultiPolygon", "coordinates": [[[[72.3037692, 34.20058723], [72.30387646, 34.20058561], [72.30387557, 34.2005457], [72.30376832, 34.20054732], [72.3037692, 34.20058723]]]]}, "properties": {"id": "Pakistan_123102310_675607", "height": 4.366687774658203, "hmax": 0.0, "ratio": 0.0, "vulnClass": "none"}}, {"type": "Feature", "geometry": {"type": "MultiPolygon", "coordinates": [[[[72.30395001, 34.20031065], [72.30398925, 34.20040718], [72.30406257, 34.20038679], [72.30402332, 34.20029025], [72.30395001, 34.20031065]]]]}, "properties": {"id": "Pakistan_123102310_381755", "height": 5.680893898010254, "hmax": 0.0, "ratio": 0.0, "vulnClass": "none"}}, {"type": "Feature", "geometry": {"type": "MultiPolygon", "coordinates": [[[[72.3042797, 34.19934969], [72.30452633, 34.19935449], [72.30452832, 34.19928453], [72.3042817, 34.19927972], [72.3042797, 34.19934969]]]]}, "properties": {"id": "Pakistan_123102310_680395", "height": 2.554197549819946, "hmax": 0.0, "ratio": 0.0, "vulnClass": "none"}}, {"type": "Feature", "geometry": {"type": "MultiPolygon", "coordinates": [[[[72.30614595, 34.19208207], [72.30614736, 34.19212306], [72.30622508, 34.19212122], [72.30622367, 34.19208023], [72.30614595, 34.19208207]]]]}, "properties": {"id": "Pakistan_123102310_286907", "height": 3.037970781326294, "hmax": 0.0, "ratio": 0.0, "vulnClass": "none"}}, {"type": "Feature", "geometry": {"type": "MultiPolygon", "coordinates": [[[[72.30622733, 34.19197708], [72.3062702, 34.19197589], [72.3062675, 34.1919094], [72.3061255, 34.19191336], [72.30613082, 34.19204411], [72.30622995, 34.19204135], [72.30622733, 34.19197708]]]]}, "properties": {"id": "Pakistan_123102310_708842", "height": 2.602267742156982, "hmax": 0.0, "ratio": 0.0, "vulnClass": "none"}}, {"type": "Feature", "geometry": {"type": "MultiPolygon", "coordinates": [[[[72.30639413, 34.19234613], [72.30639318, 34.19230953], [72.30624036, 34.19231224], [72.30623612, 34.19214813], [72.30613156, 34.19214999], [72.30613675, 34.1923507], [72.30639413, 34.19234613]]]]}, "properties": {"id": "Pakistan_123102310_120442", "height": 2.921283721923828, "hmax": 0.0, "ratio": 0.0, "vulnClass": "none"}}, {"type": "Feature", "geometry": {"type": "MultiPolygon", "coordinates": [[[[72.31224614, 34.19180617], [72.31230814, 34.19179614], [72.31231521, 34.19182606], [72.31250381, 34.19179558], [72.31249674, 34.19176566], [72.31257166, 34.19175355], [72.31256359, 34.19171936], [72.31249641, 34.19173021], [72.31247774, 34.19165114], [72.31238731, 34.19166576], [72.3123986, 34.19171356], [72.31237535, 34.19171731], [72.31236507, 34.19167379], [72.31222039, 34.19169718], [72.31224614, 34.19180617]]]]}, "properties": {"id": "Pakistan_123102310_618505", "height": 2.664951324462891, "hmax": 0.0, "ratio": 0.0, "vulnClass": "none"}}, {"type": "Feature", "geometry": {"type": "MultiPolygon", "coordinates": [[[[72.31198931, 34.1905862], [72.31196087, 34.19051991], [72.31175839, 34.19057935], [72.31178683, 34.19064563], [72.31198931, 34.1905862]]]]}, "properties": {"id": "Pakistan_123102310_225311", "height": 2.550235033035278, "hmax": 0.0, "ratio": 0.0, "vulnClass": "none"}}, {"type": "Feature", "geometry": {"type": "MultiPolygon", "coordinates": [[[[72.31155206, 34.19032077], [72.31151075, 34.19020922], [72.31145286, 34.19022388], [72.31147267, 34.19027737], [72.31121669, 34.19034225], [72.31123819, 34.19040031], [72.31155206, 34.19032077]]]]}, "properties": {"id": "Pakistan_123102310_111763", "height": 3.368855714797974, "hmax": 0.0, "ratio": 0.0, "vulnClass": "none"}}, {"type": "Feature", "geometry": {"type": "MultiPolygon", "coordinates": [[[[72.31122954, 34.1900679], [72.31128167, 34.19014297], [72.31134621, 34.19011231], [72.31129408, 34.19003724], [72.31122954, 34.1900679]]]]}, "properties": {"id": "Pakistan_123102310_120482", "height": 4.038318157196045, "hmax": 0.0, "ratio": 0.0, "vulnClass": "none"}}, {"type": "Feature", "geometry": {"type": "MultiPolygon", "coordinates": [[[[72.31118488, 34.1900149], [72.3112195, 34.19006514], [72.31129035, 34.19003173], [72.31125573, 34.18998149], [72.31118488, 34.1900149]]]]}, "properties": {"id": "Pakistan_123102310_25770", "height": 3.818764925003052, "hmax": 0.0, "ratio": 0.0, "vulnClass": "none"}}, {"type": "Feature", "geometry": {"type": "MultiPolygon", "coordinates": [[[[72.3117749, 34.19037535], [72.3117562, 34.19033115], [72.31172752, 34.19033945], [72.31174622, 34.19038365], [72.3117749, 34.19037535]]]]}, "properties": {"id": "Pakistan_123102310_139270", "height": 3.781006336212158, "hmax": 0.0, "ratio": 0.0, "vulnClass": "none"}}, {"type": "Feature", "geometry": {"type": "MultiPolygon", "coordinates": [[[[72.31140193, 34.18947242], [72.31143271, 34.18961343], [72.31185092, 34.18955099], [72.31184217, 34.18951094], [72.31147496, 34.18956579], [72.31145714, 34.18948414], [72.31147628, 34.18948128], [72.31143125, 34.18927501], [72.31134813, 34.18928743], [72.31138894, 34.18947436], [72.31140193, 34.18947242]]]]}, "properties": {"id": "Pakistan_123102310_656455", "height": 5.299024105072021, "hmax": 0.0, "ratio": 0.0, "vulnClass": "none"}}, {"type": "Feature", "geometry": {"type": "MultiPolygon", "coordinates": [[[[72.31121283, 34.18868466], [72.31120583, 34.18864558], [72.31113759, 34.18865395], [72.31114459, 34.18869302], [72.31121283, 34.18868466]]]]}, "properties": {"id": "Pakistan_123102310_869902", "height": 3.187191724777222, "hmax": 0.0, "ratio": 0.0, "vulnClass": "none"}}, {"type": "Feature", "geometry": {"type": "MultiPolygon", "coordinates": [[[[72.31240811, 34.18858656], [72.31245569, 34.188615], [72.31251044, 34.18855232], [72.31235184, 34.18845753], [72.3122347, 34.18859163], [72.31234572, 34.18865799], [72.31240811, 34.18858656]]]]}, "properties": {"id": "Pakistan_123102310_263033", "height": 6.748926639556885, "hmax": 0.0, "ratio": 0.0, "vulnClass": "none"}}, {"type": "Feature", "geometry": {"type": "MultiPolygon", "coordinates": [[[[72.31163468, 34.18844444], [72.31164952, 34.18849704], [72.31169022, 34.18848919], [72.31170268, 34.18853337], [72.31166612, 34.18854043], [72.31168571, 34.18860987], [72.31173753, 34.18859986], [72.31174644, 34.18863143], [72.31182783, 34.18861571], [72.31183021, 34.18862413], [72.31194213, 34.18860253], [72.31190058, 34.18845524], [72.31185734, 34.18846359], [72.31184072, 34.18840467], [72.31163468, 34.18844444]]]]}, "properties": {"id": "Pakistan_123102310_888843", "height": 4.6866135597229, "hmax": 0.0, "ratio": 0.0, "vulnClass": "none"}}, {"type": "Feature", "geometry": {"type": "MultiPolygon", "coordinates": [[[[72.312012, 34.18821086], [72.31191816, 34.18821249], [72.31192121, 34.18833304], [72.31201505, 34.18833141], [72.312012, 34.18821086]]]]}, "properties": {"id": "Pakistan_123102310_462237", "height": 3.65608549118042, "hmax": 0.0, "ratio": 0.0, "vulnClass": "none"}}, {"type": "Feature", "geometry": {"type": "MultiPolygon", "coordinates": [[[[72.31219971, 34.18814801], [72.31213417, 34.18825319], [72.31221257, 34.18828662], [72.31220274, 34.1883024], [72.31230233, 34.18834487], [72.31237771, 34.18822392], [72.31219971, 34.18814801]]]]}, "properties": {"id": "Pakistan_123102310_73923", "height": 5.036661624908447, "hmax": 0.0, "ratio": 0.0, "vulnClass": "none"}}, {"type": "Feature", "geometry": {"type": "MultiPolygon", "coordinates": [[[[72.31118768, 34.18794797], [72.31118989, 34.18799449], [72.31125416, 34.1879924], [72.31125195, 34.18794588], [72.31118768, 34.18794797]]]]}, "properties": {"id": "Pakistan_123102310_272455", "height": 2.915328741073608, "hmax": 0.0, "ratio": 0.0, "vulnClass": "none"}}, {"type": "Feature", "geometry": {"type": "MultiPolygon", "coordinates": [[[[72.31149477, 34.18846455], [72.31150822, 34.18866888], [72.31160717, 34.18866442], [72.31159372, 34.18846009], [72.31149477, 34.18846455]]]]}, "properties": {"id": "Pakistan_123102310_315572", "height": 4.221574306488037, "hmax": 0.0, "ratio": 0.0, "vulnClass": "none"}}, {"type": "Feature", "geometry": {"type": "MultiPolygon", "coordinates": [[[[72.31117959, 34.18862985], [72.31112531, 34.18834035], [72.31100745, 34.18835548], [72.31106173, 34.18864497], [72.31117959, 34.18862985]]]]}, "properties": {"id": "Pakistan_123102310_101164", "height": 2.606499195098877, "hmax": 0.0, "ratio": 0.0, "vulnClass": "none"}}, {"type": "Feature", "geometry": {"type": "MultiPolygon", "coordinates": [[[[72.30749343, 34.19091373], [72.30748806, 34.19101559], [72.30753624, 34.19101734], [72.30754162, 34.19091547], [72.30749343, 34.19091373]]]]}, "properties": {"id": "Pakistan_123102310_509647", "height": 2.735957860946655, "hmax": 0.0, "ratio": 0.0, "vulnClass": "none"}}, {"type": "Feature", "geometry": {"type": "MultiPolygon", "coordinates": [[[[72.30869492, 34.19085261], [72.30869051, 34.19066312], [72.30860203, 34.19066452], [72.30860296, 34.19070444], [72.30854398, 34.19070538], [72.30854331, 34.19067655], [72.30843069, 34.19067835], [72.30843235, 34.19074932], [72.30863344, 34.19074611], [72.30863594, 34.19085356], [72.30869492, 34.19085261]]]]}, "properties": {"id": "Pakistan_123102310_718488", "height": 3.021031141281128, "hmax": 0.0, "ratio": 0.0, "vulnClass": "none"}}, {"type": "Feature", "geometry": {"type": "MultiPolygon", "coordinates": [[[[72.30844319, 34.1907565], [72.30844735, 34.19099162], [72.30854657, 34.19099042], [72.30854241, 34.1907553], [72.30844319, 34.1907565]]]]}, "properties": {"id": "Pakistan_123102310_72404", "height": 3.381383419036865, "hmax": 0.0, "ratio": 0.0, "vulnClass": "none"}}, {"type": "Feature", "geometry": {"type": "MultiPolygon", "coordinates": [[[[72.30808404, 34.19080936], [72.30808226, 34.19086034], [72.30792414, 34.19085657], [72.30792128, 34.19093859], [72.30810888, 34.19094307], [72.30811352, 34.19081006], [72.30808404, 34.19080936]]]]}, "properties": {"id": "Pakistan_123102310_111725", "height": 3.935759544372559, "hmax": 0.0, "ratio": 0.0, "vulnClass": "none"}}, {"type": "Feature", "geometry": {"type": "MultiPolygon", "coordinates": [[[[72.30745771, 34.19119275], [72.30748881, 34.19189289], [72.30755577, 34.19189085], [72.30755631, 34.19190298], [72.3076956, 34.19189874], [72.30766396, 34.19118648], [72.30745771, 34.19119275]]]]}, "properties": {"id": "Pakistan_123102310_306073", "height": 2.974350929260254, "hmax": 0.0, "ratio": 0.0, "vulnClass": "none"}}]}