{"type": "FeatureCollection", "features": [{"type": "Feature", "geometry": {"type": "MultiPolygon", "coordinates": [[[[72.08096722, 34.30835315], [72.08091662, 34.30833804], [72.08090347, 34.30836837], [72.08095406, 34.30838348], [72.08096722, 34.30835315]]]]}, "properties": {"id": "8J6J835J+89VH", "height": 4.818948745727539, "hmax": 0.0, "ratio": 0.0, "vulnClass": "none"}}, {"type": "Feature", "geometry": {"type": "MultiPolygon", "coordinates": [[[[72.08517474, 34.32251906], [72.0851073, 34.32250245], [72.08507962, 34.32257979], [72.08514706, 34.32259641], [72.08517474, 34.32251906]]]]}, "properties": {"id": "8J6J83FP+236R", "height": 2.949129581451416, "hmax": 0.0, "ratio": 0.0, "vulnClass": "none"}}, {"type": "Feature", "geometry": {"type": "MultiPolygon", "coordinates": [[[[72.08366189, 34.32257947], [72.08361359, 34.32256734], [72.08359658, 34.32261396], [72.08364489, 34.32262609], [72.08366189, 34.32257947]]]]}, "properties": {"id": "8J6J83FM+2FJR", "height": 2.787779569625854, "hmax": 0.0, "ratio": 0.0, "vulnClass": "none"}}, {"type": "Feature", "geometry": {"type": "MultiPolygon", "coordinates": [[[[72.08382995, 34.32258382], [72.0836979, 34.32255134], [72.08366202, 34.32265175], [72.08379407, 34.32268423], [72.08382995, 34.32258382]]]]}, "properties": {"id": "8J6J83FM+2FXQ", "height": 2.802400350570679, "hmax": 0.0, "ratio": 0.0, "vulnClass": "none"}}, {"type": "Feature", "geometry": {"type": "MultiPolygon", "coordinates": [[[[72.08390575, 34.32262392], [72.08382159, 34.32260084], [72.08378201, 34.32270018], [72.08386617, 34.32272326], [72.08390575, 34.32262392]]]]}, "properties": {"id": "8J6J83FM+3G9C", "height": 2.732231140136719, "hmax": 0.0, "ratio": 0.0, "vulnClass": "none"}}, {"type": "Feature", "geometry": {"type": "MultiPolygon", "coordinates": [[[[72.08348501, 34.32248669], [72.08343901, 34.32247285], [72.0833898, 34.32258545], [72.08345425, 34.32260484], [72.08347201, 34.3225642], [72.08345356, 34.32255865], [72.08348501, 34.32248669]]]]}, "properties": {"id": "8J6J83FM+298J", "height": 3.037717580795288, "hmax": 0.0, "ratio": 0.0, "vulnClass": "none"}}, {"type": "Feature", "geometry": {"type": "MultiPolygon", "coordinates": [[[[72.08324004, 34.32254206], [72.08313208, 34.32251297], [72.08311957, 34.32254491], [72.08322754, 34.322574], [72.08324004, 34.32254206]]]]}, "properties": {"id": "8J6J83FM+277Q", "height": 2.640338897705078, "hmax": 0.0, "ratio": 0.0, "vulnClass": "none"}}, {"type": "Feature", "geometry": {"type": "MultiPolygon", "coordinates": [[[[72.08329926, 34.3226062], [72.08325761, 34.32259398], [72.08324107, 34.32263278], [72.08328271, 34.322645], [72.08329926, 34.3226062]]]]}, "properties": {"id": "8J6J83FM+28RP", "height": 2.934795379638672, "hmax": 0.0, "ratio": 0.0, "vulnClass": "none"}}, {"type": "Feature", "geometry": {"type": "MultiPolygon", "coordinates": [[[[72.08338994, 34.32258382], [72.08327618, 34.32255043], [72.08325761, 34.32259398], [72.08337137, 34.32262737], [72.08338994, 34.32258382]]]]}, "properties": {"id": "8J6J83FM+28PF", "height": 2.934795379638672, "hmax": 0.0, "ratio": 0.0, "vulnClass": "none"}}, {"type": "Feature", "geometry": {"type": "MultiPolygon", "coordinates": [[[[72.08358093, 34.32259007], [72.08348457, 34.32255604], [72.08346728, 34.32258974], [72.08356363, 34.32262377], [72.08358093, 34.32259007]]]]}, "properties": {"id": "8J6J83FM+2CJH", "height": 3.037717580795288, "hmax": 0.0, "ratio": 0.0, "vulnClass": "none"}}, {"type": "Feature", "geometry": {"type": "MultiPolygon", "coordinates": [[[[72.08288257, 34.32256492], [72.08278337, 34.32253581], [72.08275098, 34.32261178], [72.08285018, 34.32264089], [72.08288257, 34.32256492]]]]}, "properties": {"id": "8J6J83FM+24PC", "height": 3.030808210372925, "hmax": 0.0, "ratio": 0.0, "vulnClass": "none"}}, {"type": "Feature", "geometry": {"type": "MultiPolygon", "coordinates": [[[[72.08299522, 34.32259798], [72.08288257, 34.32256492], [72.08285018, 34.32264089], [72.08296284, 34.32267395], [72.08299522, 34.32259798]]]]}, "properties": {"id": "8J6J83FM+25VP", "height": 3.030808210372925, "hmax": 0.0, "ratio": 0.0, "vulnClass": "none"}}, {"type": "Feature", "geometry": {"type": "MultiPolygon", "coordinates": [[[[72.08307624, 34.32264094], [72.08310373, 34.32257648], [72.08301544, 34.32255057], [72.08296284, 34.32267395], [72.08300714, 34.32268695], [72.08303226, 34.32262804], [72.08307624, 34.32264094]]]]}, "properties": {"id": "8J6J83FM+26RH", "height": 2.817351818084717, "hmax": 0.0, "ratio": 0.0, "vulnClass": "none"}}, {"type": "Feature", "geometry": {"type": "MultiPolygon", "coordinates": [[[[72.08297474, 34.32249855], [72.08289503, 34.32248799], [72.08288018, 34.32256515], [72.08291544, 34.32256982], [72.08292206, 34.32253543], [72.08296651, 34.32254132], [72.08297474, 34.32249855]]]]}, "properties": {"id": "8J6J83FM+253W", "height": 3.07934308052063, "hmax": 0.0, "ratio": 0.0, "vulnClass": "none"}}, {"type": "Feature", "geometry": {"type": "MultiPolygon", "coordinates": [[[[72.08316297, 34.32245365], [72.08302502, 34.32241826], [72.08299315, 34.32250375], [72.08313111, 34.32253914], [72.08316297, 34.32245365]]]]}, "properties": {"id": "8J6J83CM+X6W3", "height": 2.753895282745361, "hmax": 0.0, "ratio": 0.0, "vulnClass": "none"}}, {"type": "Feature", "geometry": {"type": "MultiPolygon", "coordinates": [[[[72.08229235, 34.32236347], [72.08223218, 34.3223495], [72.08221834, 34.32239051], [72.08227851, 34.32240449], [72.08229235, 34.32236347]]]]}, "properties": {"id": "8J6J83CJ+XW22", "height": 2.991837739944458, "hmax": 0.0, "ratio": 0.0, "vulnClass": "none"}}, {"type": "Feature", "geometry": {"type": "MultiPolygon", "coordinates": [[[[72.08225489, 34.3225278], [72.08227659, 34.32240539], [72.08224047, 34.32240098], [72.08223647, 34.32242352], [72.08217848, 34.32241644], [72.08217197, 34.32245316], [72.08211657, 34.3224464], [72.08210537, 34.32250955], [72.08225489, 34.3225278]]]]}, "properties": {"id": "8J6J83CJ+XVPV", "height": 3.320546627044678, "hmax": 0.0, "ratio": 0.0, "vulnClass": "none"}}, {"type": "Feature", "geometry": {"type": "MultiPolygon", "coordinates": [[[[72.08004687, 34.32227718], [72.08001859, 34.3222724], [72.08000246, 34.322338], [72.08029946, 34.32238827], [72.08030852, 34.3223514], [72.08003981, 34.32230592], [72.08004687, 34.32227718]]]]}, "properties": {"id": "8J6J83CJ+W3JP", "height": 3.054080724716187, "hmax": 0.0, "ratio": 0.0, "vulnClass": "none"}}, {"type": "Feature", "geometry": {"type": "MultiPolygon", "coordinates": [[[[72.08110301, 34.32231325], [72.08104853, 34.32230438], [72.08103549, 34.32235947], [72.08108997, 34.32236835], [72.08110301, 34.32231325]]]]}, "properties": {"id": "8J6J83CJ+WCPC", "height": 2.568750858306885, "hmax": 0.0, "ratio": 0.0, "vulnClass": "none"}}, {"type": "Feature", "geometry": {"type": "MultiPolygon", "coordinates": [[[[72.08107578, 34.32236366], [72.0810384, 34.32236118], [72.08103483, 34.32239821], [72.08107221, 34.32240069], [72.08107578, 34.32236366]]]]}, "properties": {"id": "8J6J83CJ+XC39", "height": 2.628134250640869, "hmax": 0.0, "ratio": 0.0, "vulnClass": "none"}}, {"type": "Feature", "geometry": {"type": "MultiPolygon", "coordinates": [[[[72.08107828, 34.32241777], [72.0810238, 34.3224089], [72.08099224, 34.32254224], [72.08104673, 34.32255112], [72.08107828, 34.32241777]]]]}, "properties": {"id": "8J6J83CJ+XCV6", "height": 2.589760065078735, "hmax": 0.0, "ratio": 0.0, "vulnClass": "none"}}, {"type": "Feature", "geometry": {"type": "MultiPolygon", "coordinates": [[[[72.08067615, 34.32255516], [72.0805816, 34.32253948], [72.08053029, 34.32275247], [72.08071398, 34.32278293], [72.08073629, 34.32269032], [72.08064715, 34.32267553], [72.08067615, 34.32255516]]]]}, "properties": {"id": "8J6J83FJ+37C2", "height": 2.44187331199646, "hmax": 0.0, "ratio": 0.0, "vulnClass": "none"}}, {"type": "Feature", "geometry": {"type": "MultiPolygon", "coordinates": [[[[72.08148125, 34.32255038], [72.0814062, 34.32254581], [72.08140326, 34.32257912], [72.08143019, 34.32258076], [72.08142434, 34.32264689], [72.08151164, 34.3226522], [72.08151749, 34.32258607], [72.0814783, 34.32258368], [72.08148125, 34.32255038]]]]}, "properties": {"id": "8J6J83FJ+2HW5", "height": 3.10658073425293, "hmax": 0.0, "ratio": 0.0, "vulnClass": "none"}}, {"type": "Feature", "geometry": {"type": "MultiPolygon", "coordinates": [[[[72.08177308, 34.32260163], [72.08151749, 34.32258607], [72.08151164, 34.3226522], [72.08176723, 34.32266776], [72.08177308, 34.32260163]]]]}, "properties": {"id": "8J6J83FJ+3M24", "height": 2.787119388580322, "hmax": 0.0, "ratio": 0.0, "vulnClass": "none"}}, {"type": "Feature", "geometry": {"type": "MultiPolygon", "coordinates": [[[[72.08160576, 34.32243477], [72.08155157, 34.32243222], [72.081549, 34.32246982], [72.08160319, 34.32247237], [72.08160576, 34.32243477]]]]}, "properties": {"id": "8J6J83CJ+XJP3", "height": 3.700650215148926, "hmax": 0.0, "ratio": 0.0, "vulnClass": "none"}}, {"type": "Feature", "geometry": {"type": "MultiPolygon", "coordinates": [[[[72.08213034, 34.3225126], [72.08204107, 34.32250171], [72.08201675, 34.32263889], [72.08223056, 34.32266498], [72.08225489, 34.3225278], [72.08217462, 34.32251801], [72.08216381, 34.32257898], [72.08211952, 34.32257358], [72.08213034, 34.3225126]]]]}, "properties": {"id": "8J6J83FJ+2VJF", "height": 4.219985485076904, "hmax": 0.0, "ratio": 0.0, "vulnClass": "none"}}, {"type": "Feature", "geometry": {"type": "MultiPolygon", "coordinates": [[[[72.08205101, 34.32239941], [72.08185174, 34.32237141], [72.08180474, 34.32260169], [72.08200401, 34.32262969], [72.08205101, 34.32239941]]]]}, "properties": {"id": "8J6J83FJ+2Q34", "height": 7.44178581237793, "hmax": 0.0, "ratio": 0.0, "vulnClass": "none"}}, {"type": "Feature", "geometry": {"type": "MultiPolygon", "coordinates": [[[[72.08166851, 34.3220907], [72.08160247, 34.32208572], [72.08158954, 34.32220376], [72.08163164, 34.32220693], [72.08162544, 34.32226355], [72.08174527, 34.32227258], [72.08176248, 34.32211547], [72.08166659, 34.32210824], [72.08166851, 34.3220907]]]]}, "properties": {"id": "8J6J83CJ+VMF4", "height": 4.151870727539062, "hmax": 0.0, "ratio": 0.0, "vulnClass": "none"}}, {"type": "Feature", "geometry": {"type": "MultiPolygon", "coordinates": [[[[72.08162779, 34.32221952], [72.08158077, 34.32221443], [72.08157193, 34.32227071], [72.08161896, 34.32227579], [72.08162779, 34.32221952]]]]}, "properties": {"id": "8J6J83CJ+VJXR", "height": 5.48464298248291, "hmax": 0.0, "ratio": 0.0, "vulnClass": "none"}}, {"type": "Feature", "geometry": {"type": "MultiPolygon", "coordinates": [[[[72.0813767, 34.32221568], [72.08130338, 34.32220456], [72.08129185, 34.32225685], [72.08136517, 34.32226798], [72.0813767, 34.32221568]]]]}, "properties": {"id": "8J6J83CJ+VGWG", "height": 2.742087364196777, "hmax": 0.0, "ratio": 0.0, "vulnClass": "none"}}, {"type": "Feature", "geometry": {"type": "MultiPolygon", "coordinates": [[[[72.08126582, 34.3221035], [72.08115684, 34.32208575], [72.08113437, 34.32218072], [72.08136946, 34.32221901], [72.08137797, 34.32218304], [72.08125186, 34.3221625], [72.08126582, 34.3221035]]]]}, "properties": {"id": "8J6J83CJ+VF97", "height": 4.012302398681641, "hmax": 0.0, "ratio": 0.0, "vulnClass": "none"}}, {"type": "Feature", "geometry": {"type": "MultiPolygon", "coordinates": [[[[72.08127945, 34.32201076], [72.08116887, 34.32199398], [72.08114866, 34.32208568], [72.08125923, 34.32210246], [72.08127945, 34.32201076]]]]}, "properties": {"id": "8J6J83CJ+RF8X", "height": 4.280159950256348, "hmax": 0.0, "ratio": 0.0, "vulnClass": "none"}}, {"type": "Feature", "geometry": {"type": "MultiPolygon", "coordinates": [[[[72.08128821, 34.321971], [72.08122091, 34.32196079], [72.08121215, 34.32200054], [72.08141726, 34.32203167], [72.08143377, 34.3219568], [72.08129595, 34.32193589], [72.08128821, 34.321971]]]]}, "properties": {"id": "8J6J83CJ+QGW8", "height": 3.891904592514038, "hmax": 0.0, "ratio": 0.0, "vulnClass": "none"}}, {"type": "Feature", "geometry": {"type": "MultiPolygon", "coordinates": [[[[72.08122893, 34.32184565], [72.08114717, 34.32182506], [72.0810763, 34.32201879], [72.08115806, 34.32203937], [72.08122893, 34.32184565]]]]}, "properties": {"id": "8J6J83CJ+QFC9", "height": 4.86460018157959, "hmax": 0.0, "ratio": 0.0, "vulnClass": "none"}}, {"type": "Feature", "geometry": {"type": "MultiPolygon", "coordinates": [[[[72.08178157, 34.32195623], [72.08162402, 34.32190088], [72.08160522, 34.32193773], [72.08176277, 34.32199308], [72.08178157, 34.32195623]]]]}, "properties": {"id": "8J6J83CJ+QMGR", "height": 3.016784906387329, "hmax": 0.0, "ratio": 0.0, "vulnClass": "none"}}, {"type": "Feature", "geometry": {"type": "MultiPolygon", "coordinates": [[[[72.08207337, 34.32173254], [72.08204074, 34.32172779], [72.08203064, 34.32177562], [72.08226501, 34.32180969], [72.08227511, 34.32176187], [72.08209681, 34.32173594], [72.08209325, 34.32175281], [72.08206981, 34.3217494], [72.08207337, 34.32173254]]]]}, "properties": {"id": "8J6J83CJ+PV2Q", "height": 3.160193681716919, "hmax": 0.0, "ratio": 0.0, "vulnClass": "none"}}, {"type": "Feature", "geometry": {"type": "MultiPolygon", "coordinates": [[[[72.08203519, 34.32158539], [72.08194254, 34.32157192], [72.08189593, 34.32179263], [72.08198857, 34.3218061], [72.08203519, 34.32158539]]]]}, "properties": {"id": "8J6J83CJ+MQGH", "height": 2.791200876235962, "hmax": 0.0, "ratio": 0.0, "vulnClass": "none"}}, {"type": "Feature", "geometry": {"type": "MultiPolygon", "coordinates": [[[[72.08203373, 34.32177717], [72.0820673, 34.32161514], [72.08202706, 34.3216094], [72.08199348, 34.32177143], [72.08203373, 34.32177717]]]]}, "properties": {"id": "8J6J83CJ+MRCQ", "height": 2.834673643112183, "hmax": 0.0, "ratio": 0.0, "vulnClass": "none"}}, {"type": "Feature", "geometry": {"type": "MultiPolygon", "coordinates": [[[[72.08034967, 34.32152526], [72.08018968, 34.32149366], [72.08015032, 34.32163086], [72.08031031, 34.32166246], [72.08034967, 34.32152526]]]]}, "properties": {"id": "8J6J83CJ+J3Q5", "height": 2.526297807693481, "hmax": 0.0, "ratio": 0.0, "vulnClass": "none"}}, {"type": "Feature", "geometry": {"type": "MultiPolygon", "coordinates": [[[[72.08057978, 34.32163242], [72.08043684, 34.32158464], [72.08040175, 34.32165691], [72.08054469, 34.32170469], [72.08057978, 34.32163242]]]]}, "properties": {"id": "8J6J83CJ+M55P", "height": 2.511220455169678, "hmax": 0.0, "ratio": 0.0, "vulnClass": "none"}}, {"type": "Feature", "geometry": {"type": "MultiPolygon", "coordinates": [[[[72.08026963, 34.32176735], [72.08024637, 34.32175873], [72.08022444, 34.32179951], [72.08041893, 34.3218715], [72.08044086, 34.32183073], [72.08041274, 34.32182032], [72.08042535, 34.32179687], [72.08028224, 34.3217439], [72.08026963, 34.32176735]]]]}, "properties": {"id": "8J6J83CJ+P4G9", "height": 4.087167263031006, "hmax": 0.0, "ratio": 0.0, "vulnClass": "none"}}, {"type": "Feature", "geometry": {"type": "MultiPolygon", "coordinates": [[[[72.08020426, 34.32174094], [72.08015606, 34.32172805], [72.08014415, 34.32175871], [72.08019235, 34.3217716], [72.08020426, 34.32174094]]]]}, "properties": {"id": "8J6J83CJ+M3VW", "height": 2.985716342926025, "hmax": 0.0, "ratio": 0.0, "vulnClass": "none"}}, {"type": "Feature", "geometry": {"type": "MultiPolygon", "coordinates": [[[[72.08015697, 34.32181818], [72.08011803, 34.32180787], [72.08010499, 34.32184175], [72.08014393, 34.32185207], [72.08015697, 34.32181818]]]]}, "properties": {"id": "8J6J83CJ+P3J2", "height": 2.470970630645752, "hmax": 0.0, "ratio": 0.0, "vulnClass": "none"}}, {"type": "Feature", "geometry": {"type": "MultiPolygon", "coordinates": [[[[72.08066578, 34.32202175], [72.08051695, 34.32199921], [72.08048752, 34.32213298], [72.08044375, 34.32212635], [72.08043522, 34.32216514], [72.0806278, 34.32219431], [72.08066578, 34.32202175]]]]}, "properties": {"id": "8J6J83CJ+R6W2", "height": 3.041819334030151, "hmax": 0.0, "ratio": 0.0, "vulnClass": "none"}}, {"type": "Feature", "geometry": {"type": "MultiPolygon", "coordinates": [[[[72.08049713, 34.32200771], [72.08045799, 34.32200218], [72.08045263, 34.32202828], [72.08049176, 34.32203382], [72.08049713, 34.32200771]]]]}, "properties": {"id": "8J6J83CJ+R55J", "height": 3.093573093414307, "hmax": 0.0, "ratio": 0.0, "vulnClass": "none"}}, {"type": "Feature", "geometry": {"type": "MultiPolygon", "coordinates": [[[[72.08069422, 34.32186267], [72.08063027, 34.321851], [72.08060635, 34.32194116], [72.0806703, 34.32195284], [72.08069422, 34.32186267]]]]}, "properties": {"id": "8J6J83CJ+Q765", "height": 2.593954801559448, "hmax": 0.0, "ratio": 0.0, "vulnClass": "none"}}, {"type": "Feature", "geometry": {"type": "MultiPolygon", "coordinates": [[[[72.08109712, 34.32209901], [72.08093537, 34.32207266], [72.08091814, 34.3221455], [72.08113437, 34.32218072], [72.08115684, 34.32208575], [72.08110236, 34.32207688], [72.08109712, 34.32209901]]]]}, "properties": {"id": "8J6J83CJ+RCVV", "height": 3.536220073699951, "hmax": 0.0, "ratio": 0.0, "vulnClass": "none"}}, {"type": "Feature", "geometry": {"type": "MultiPolygon", "coordinates": [[[[72.08117158, 34.32218456], [72.08112831, 34.32217799], [72.0810465, 34.32254908], [72.08108978, 34.32255564], [72.08110304, 34.32249548], [72.08123484, 34.32251548], [72.08124388, 34.32247447], [72.0811595, 34.32246166], [72.08120747, 34.32224405], [72.08116006, 34.32223685], [72.08117158, 34.32218456]]]]}, "properties": {"id": "8J6J83CJ+XF27", "height": 3.206692218780518, "hmax": 0.0, "ratio": 0.0, "vulnClass": "none"}}, {"type": "Feature", "geometry": {"type": "MultiPolygon", "coordinates": [[[[72.08044852, 34.3222321], [72.08040319, 34.32222443], [72.08037649, 34.32233298], [72.08042182, 34.32234065], [72.08044852, 34.3222321]]]]}, "properties": {"id": "8J6J83CJ+W576", "height": 4.228328704833984, "hmax": 0.0, "ratio": 0.0, "vulnClass": "none"}}, {"type": "Feature", "geometry": {"type": "MultiPolygon", "coordinates": [[[[72.08011676, 34.32220284], [72.08003169, 34.32219075], [72.08001379, 34.32227748], [72.08012701, 34.32229357], [72.08013477, 34.32225601], [72.08010661, 34.32225201], [72.08011676, 34.32220284]]]]}, "properties": {"id": "8J6J83CJ+V2WM", "height": 3.368135452270508, "hmax": 0.0, "ratio": 0.0, "vulnClass": "none"}}, {"type": "Feature", "geometry": {"type": "MultiPolygon", "coordinates": [[[[72.07976555, 34.32209359], [72.07971192, 34.32208527], [72.07969798, 34.32214707], [72.07975161, 34.3221554], [72.07976555, 34.32209359]]]]}, "properties": {"id": "8J6J83CH+RVXV", "height": 2.986633062362671, "hmax": 0.0, "ratio": 0.0, "vulnClass": "none"}}, {"type": "Feature", "geometry": {"type": "MultiPolygon", "coordinates": [[[[72.07978212, 34.32203583], [72.07973826, 34.322027], [72.07972486, 34.32207285], [72.07976872, 34.32208167], [72.07978212, 34.32203583]]]]}, "properties": {"id": "8J6J83CH+RWC2", "height": 2.986633062362671, "hmax": 0.0, "ratio": 0.0, "vulnClass": "none"}}, {"type": "Feature", "geometry": {"type": "MultiPolygon", "coordinates": [[[[72.08017977, 34.32197699], [72.08007464, 34.32196668], [72.08005092, 34.32213323], [72.08015605, 34.32214354], [72.08017977, 34.32197699]]]]}, "properties": {"id": "8J6J83CJ+R2H8", "height": 3.318970680236816, "hmax": 0.0, "ratio": 0.0, "vulnClass": "none"}}, {"type": "Feature", "geometry": {"type": "MultiPolygon", "coordinates": [[[[72.07933899, 34.32180582], [72.079285, 34.3217969], [72.07925561, 34.32191931], [72.0793096, 34.32192823], [72.07933899, 34.32180582]]]]}, "properties": {"id": "8J6J83CH+PPVG", "height": 2.754188537597656, "hmax": 0.0, "ratio": 0.0, "vulnClass": "none"}}, {"type": "Feature", "geometry": {"type": "MultiPolygon", "coordinates": [[[[72.0793186, 34.32206513], [72.07911636, 34.32203743], [72.07910509, 34.3220941], [72.07930732, 34.32212179], [72.0793186, 34.32206513]]]]}, "properties": {"id": "8J6J83CH+RMP5", "height": 4.020499229431152, "hmax": 0.0, "ratio": 0.0, "vulnClass": "none"}}, {"type": "Feature", "geometry": {"type": "MultiPolygon", "coordinates": [[[[72.07941992, 34.32222383], [72.07948258, 34.3220509], [72.07943956, 34.32204017], [72.07937689, 34.3222131], [72.07941992, 34.32222383]]]]}, "properties": {"id": "8J6J83CH+VQ39", "height": 4.837995529174805, "hmax": 0.0, "ratio": 0.0, "vulnClass": "none"}}, {"type": "Feature", "geometry": {"type": "MultiPolygon", "coordinates": [[[[72.07941954, 34.32222922], [72.07936344, 34.32222152], [72.07935596, 34.322259], [72.07941206, 34.3222667], [72.07941954, 34.32222922]]]]}, "properties": {"id": "8J6J83CH+VQRM", "height": 2.918734073638916, "hmax": 0.0, "ratio": 0.0, "vulnClass": "none"}}, {"type": "Feature", "geometry": {"type": "MultiPolygon", "coordinates": [[[[72.07922188, 34.32218925], [72.0790626, 34.32216779], [72.07904443, 34.32226057], [72.07920371, 34.32228204], [72.07922188, 34.32218925]]]]}, "properties": {"id": "8J6J83CH+VMJV", "height": 3.514026165008545, "hmax": 0.0, "ratio": 0.0, "vulnClass": "none"}}, {"type": "Feature", "geometry": {"type": "MultiPolygon", "coordinates": [[[[72.07903232, 34.32215905], [72.0790491, 34.32210615], [72.078981, 34.32209128], [72.07895274, 34.3221804], [72.07898799, 34.3221881], [72.07899948, 34.32215188], [72.07903232, 34.32215905]]]]}, "properties": {"id": "8J6J83CH+VH5H", "height": 2.654315948486328, "hmax": 0.0, "ratio": 0.0, "vulnClass": "none"}}, {"type": "Feature", "geometry": {"type": "MultiPolygon", "coordinates": [[[[72.07895274, 34.3221804], [72.07883358, 34.32215439], [72.0788189, 34.32220066], [72.07893806, 34.32222667], [72.07895274, 34.3221804]]]]}, "properties": {"id": "8J6J83CH+VHCM", "height": 4.09251880645752, "hmax": 0.0, "ratio": 0.0, "vulnClass": "none"}}, {"type": "Feature", "geometry": {"type": "MultiPolygon", "coordinates": [[[[72.07866703, 34.3220911], [72.07849654, 34.32205724], [72.07848577, 34.32209454], [72.07865627, 34.3221284], [72.07866703, 34.3220911]]]]}, "properties": {"id": "8J6J83CH+RCPM", "height": 5.885605812072754, "hmax": 0.0, "ratio": 0.0, "vulnClass": "none"}}, {"type": "Feature", "geometry": {"type": "MultiPolygon", "coordinates": [[[[72.07857863, 34.32211298], [72.07853618, 34.32210455], [72.07851509, 34.32217765], [72.07863518, 34.3222015], [72.07864397, 34.32217102], [72.07856633, 34.3221556], [72.07857863, 34.32211298]]]]}, "properties": {"id": "8J6J83CH+VC86", "height": 3.989753723144531, "hmax": 0.0, "ratio": 0.0, "vulnClass": "none"}}, {"type": "Feature", "geometry": {"type": "MultiPolygon", "coordinates": [[[[72.07865627, 34.3221284], [72.07861808, 34.32212082], [72.07860712, 34.32215882], [72.07864531, 34.3221664], [72.07865627, 34.3221284]]]]}, "properties": {"id": "8J6J83CH+VF2J", "height": 4.411326885223389, "hmax": 0.0, "ratio": 0.0, "vulnClass": "none"}}, {"type": "Feature", "geometry": {"type": "MultiPolygon", "coordinates": [[[[72.07848567, 34.32209481], [72.0785367, 34.32191665], [72.07848537, 34.32190653], [72.07843434, 34.32208469], [72.07848567, 34.32209481]]]]}, "properties": {"id": "8J6J83CH+R954", "height": 4.652190208435059, "hmax": 0.0, "ratio": 0.0, "vulnClass": "none"}}, {"type": "Feature", "geometry": {"type": "MultiPolygon", "coordinates": [[[[72.07901192, 34.32166936], [72.0788489, 34.32164762], [72.078835, 34.3217194], [72.07899801, 34.32174113], [72.07901192, 34.32166936]]]]}, "properties": {"id": "8J6J83CH+MHFP", "height": 3.172043323516846, "hmax": 0.0, "ratio": 0.0, "vulnClass": "none"}}, {"type": "Feature", "geometry": {"type": "MultiPolygon", "coordinates": [[[[72.07880521, 34.32163367], [72.07872351, 34.32162045], [72.0787056, 34.32169668], [72.07865226, 34.32168805], [72.07863881, 34.32174528], [72.07877384, 34.32176712], [72.07880521, 34.32163367]]]]}, "properties": {"id": "8J6J83CH+MFHV", "height": 4.945133209228516, "hmax": 0.0, "ratio": 0.0, "vulnClass": "none"}}, {"type": "Feature", "geometry": {"type": "MultiPolygon", "coordinates": [[[[72.07877078, 34.32178012], [72.07863576, 34.32175827], [72.07862616, 34.3217991], [72.07876118, 34.32182095], [72.07877078, 34.32178012]]]]}, "properties": {"id": "8J6J83CH+PF8F", "height": 4.199318408966064, "hmax": 0.0, "ratio": 0.0, "vulnClass": "none"}}, {"type": "Feature", "geometry": {"type": "MultiPolygon", "coordinates": [[[[72.07863881, 34.32174528], [72.07848575, 34.32172051], [72.07847692, 34.32175806], [72.07858619, 34.32177575], [72.07858237, 34.32179202], [72.07862616, 34.3217991], [72.07863881, 34.32174528]]]]}, "properties": {"id": "8J6J83CH+PC46", "height": 3.268153667449951, "hmax": 0.0, "ratio": 0.0, "vulnClass": "none"}}, {"type": "Feature", "geometry": {"type": "MultiPolygon", "coordinates": [[[[72.0784895, 34.32170239], [72.07833615, 34.32167584], [72.07829443, 34.32184169], [72.07847232, 34.3218725], [72.0784858, 34.32181893], [72.07841527, 34.32180671], [72.07843293, 34.32173651], [72.07847892, 34.32174448], [72.0784895, 34.32170239]]]]}, "properties": {"id": "8J6J83CH+P963", "height": 5.750150203704834, "hmax": 0.0, "ratio": 0.0, "vulnClass": "none"}}, {"type": "Feature", "geometry": {"type": "MultiPolygon", "coordinates": [[[[72.07841251, 34.32161957], [72.07837143, 34.32161318], [72.07836062, 34.32166105], [72.07840169, 34.32166744], [72.07841251, 34.32161957]]]]}, "properties": {"id": "8J6J83CH+M92M", "height": 4.982882499694824, "hmax": 0.0, "ratio": 0.0, "vulnClass": "none"}}, {"type": "Feature", "geometry": {"type": "MultiPolygon", "coordinates": [[[[72.0786653, 34.3216326], [72.07862151, 34.32162552], [72.07860233, 34.3217071], [72.07864612, 34.32171419], [72.0786653, 34.3216326]]]]}, "properties": {"id": "8J6J83CH+MF6M", "height": 2.511130094528198, "hmax": 0.0, "ratio": 0.0, "vulnClass": "none"}}, {"type": "Feature", "geometry": {"type": "MultiPolygon", "coordinates": [[[[72.078546, 34.32169895], [72.0785804, 34.32157311], [72.07853382, 34.32156435], [72.07849941, 34.32169019], [72.078546, 34.32169895]]]]}, "properties": {"id": "8J6J83CH+MC37", "height": 3.128105640411377, "hmax": 0.0, "ratio": 0.0, "vulnClass": "none"}}, {"type": "Feature", "geometry": {"type": "MultiPolygon", "coordinates": [[[[72.07883941, 34.32150805], [72.07856529, 34.32146771], [72.07854855, 34.321546], [72.07882267, 34.32158634], [72.07883941, 34.32150805]]]]}, "properties": {"id": "8J6J83CH+JF82", "height": 4.405156135559082, "hmax": 0.0, "ratio": 0.0, "vulnClass": "none"}}, {"type": "Feature", "geometry": {"type": "MultiPolygon", "coordinates": [[[[72.07841598, 34.32142041], [72.07830481, 34.3214007], [72.07829242, 34.32144881], [72.07840359, 34.32146852], [72.07841598, 34.32142041]]]]}, "properties": {"id": "8J6J83CH+H8H7", "height": 6.898324489593506, "hmax": 0.0, "ratio": 0.0, "vulnClass": "none"}}, {"type": "Feature", "geometry": {"type": "MultiPolygon", "coordinates": [[[[72.07863228, 34.32140288], [72.07858928, 34.32139881], [72.07858635, 34.32142013], [72.07862935, 34.3214242], [72.07863228, 34.32140288]]]]}, "properties": {"id": "8J6J83CH+HC9F", "height": 6.183467864990234, "hmax": 0.0, "ratio": 0.0, "vulnClass": "none"}}, {"type": "Feature", "geometry": {"type": "MultiPolygon", "coordinates": [[[[72.07866738, 34.32130011], [72.07861819, 34.32129201], [72.07860437, 34.32134978], [72.07865357, 34.32135787], [72.07866738, 34.32130011]]]]}, "properties": {"id": "8J6J83CH+GFCV", "height": 3.133250713348389, "hmax": 0.0, "ratio": 0.0, "vulnClass": "none"}}, {"type": "Feature", "geometry": {"type": "MultiPolygon", "coordinates": [[[[72.0796295, 34.32149874], [72.0795927, 34.32149437], [72.07957947, 34.32157119], [72.07961627, 34.32157556], [72.0796295, 34.32149874]]]]}, "properties": {"id": "8J6J83CH+JR97", "height": 2.528898239135742, "hmax": 0.0, "ratio": 0.0, "vulnClass": "none"}}, {"type": "Feature", "geometry": {"type": "MultiPolygon", "coordinates": [[[[72.07921114, 34.32156881], [72.07917189, 34.3215654], [72.07916794, 34.32159668], [72.0792072, 34.32160009], [72.07921114, 34.32156881]]]]}, "properties": {"id": "8J6J83CH+JMP6", "height": 2.4384765625, "hmax": 0.0, "ratio": 0.0, "vulnClass": "none"}}, {"type": "Feature", "geometry": {"type": "MultiPolygon", "coordinates": [[[[72.07957813, 34.32177711], [72.07952899, 34.32176722], [72.07945549, 34.32201864], [72.07955927, 34.32203952], [72.07957267, 34.32199368], [72.07962913, 34.32200504], [72.07967133, 34.3218607], [72.07956023, 34.32183834], [72.07957813, 34.32177711]]]]}, "properties": {"id": "8J6J83CH+QR7Q", "height": 5.101021289825439, "hmax": 0.0, "ratio": 0.0, "vulnClass": "none"}}, {"type": "Feature", "geometry": {"type": "MultiPolygon", "coordinates": [[[[72.08009399, 34.32163227], [72.08003405, 34.32162311], [72.08000282, 34.32176382], [72.08006276, 34.32177298], [72.08009399, 34.32163227]]]]}, "properties": {"id": "8J6J83CJ+M2FW", "height": 2.750377655029297, "hmax": 0.0, "ratio": 0.0, "vulnClass": "none"}}, {"type": "Feature", "geometry": {"type": "MultiPolygon", "coordinates": [[[[72.07930817, 34.32120511], [72.07926639, 34.32119841], [72.07924982, 34.32126949], [72.0792916, 34.3212762], [72.07930817, 34.32120511]]]]}, "properties": {"id": "8J6J83CH+FPRH", "height": 3.653067350387573, "hmax": 0.0, "ratio": 0.0, "vulnClass": "none"}}, {"type": "Feature", "geometry": {"type": "MultiPolygon", "coordinates": [[[[72.07919957, 34.32118948], [72.07913322, 34.32117977], [72.07912656, 34.32121114], [72.07919291, 34.32122085], [72.07919957, 34.32118948]]]]}, "properties": {"id": "8J6J83CH+FMM2", "height": 5.334430694580078, "hmax": 0.0, "ratio": 0.0, "vulnClass": "none"}}, {"type": "Feature", "geometry": {"type": "MultiPolygon", "coordinates": [[[[72.07924799, 34.3212883], [72.07896695, 34.321246], [72.0789496, 34.32132532], [72.07927328, 34.32137404], [72.07929639, 34.32126834], [72.07925375, 34.32126193], [72.07924799, 34.3212883]]]]}, "properties": {"id": "8J6J83CH+GMC6", "height": 3.653067350387573, "hmax": 0.0, "ratio": 0.0, "vulnClass": "none"}}, {"type": "Feature", "geometry": {"type": "MultiPolygon", "coordinates": [[[[72.07905711, 34.32110183], [72.07900808, 34.32109273], [72.07899387, 34.32114546], [72.0790429, 34.32115455], [72.07905711, 34.32110183]]]]}, "properties": {"id": "8J6J83CH+CJRX", "height": 2.620240211486816, "hmax": 0.0, "ratio": 0.0, "vulnClass": "none"}}, {"type": "Feature", "geometry": {"type": "MultiPolygon", "coordinates": [[[[72.07855117, 34.32124132], [72.07846599, 34.32122622], [72.07845796, 34.32125739], [72.07854314, 34.32127249], [72.07855117, 34.32124132]]]]}, "properties": {"id": "8J6J83CH+FCRR", "height": 2.449637174606323, "hmax": 0.0, "ratio": 0.0, "vulnClass": "none"}}, {"type": "Feature", "geometry": {"type": "MultiPolygon", "coordinates": [[[[72.07845796, 34.32125739], [72.07829111, 34.32122781], [72.07824913, 34.32139083], [72.07841598, 34.32142041], [72.07845796, 34.32125739]]]]}, "properties": {"id": "8J6J83CH+G8HV", "height": 6.976680755615234, "hmax": 0.0, "ratio": 0.0, "vulnClass": "none"}}, {"type": "Feature", "geometry": {"type": "MultiPolygon", "coordinates": [[[[72.07826784, 34.32111773], [72.07820534, 34.32110665], [72.07817925, 34.32120798], [72.07824175, 34.32121906], [72.07826784, 34.32111773]]]]}, "properties": {"id": "8J6J83CH+F79C", "height": 2.912418365478516, "hmax": 0.0, "ratio": 0.0, "vulnClass": "none"}}, {"type": "Feature", "geometry": {"type": "MultiPolygon", "coordinates": [[[[72.0783683, 34.3211542], [72.0782632, 34.3211356], [72.0782417, 34.3212191], [72.078458, 34.3212574], [72.0784713, 34.3212055], [72.0784174, 34.321196], [72.078412, 34.3212167], [72.0783548, 34.3212065], [72.0783683, 34.3211542]]]]}, "properties": {"id": "8J6J83CH+F8P5", "height": 3.675758838653564, "hmax": 0.0, "ratio": 0.0, "vulnClass": "none"}}, {"type": "Feature", "geometry": {"type": "MultiPolygon", "coordinates": [[[[72.07864708, 34.32107631], [72.07852676, 34.32105038], [72.07848388, 34.32118733], [72.07891425, 34.3212801], [72.07893515, 34.32121336], [72.07862509, 34.32114652], [72.07864708, 34.32107631]]]]}, "properties": {"id": "8J6J83CH+FFF4", "height": 2.596037626266479, "hmax": 0.0, "ratio": 0.0, "vulnClass": "none"}}, {"type": "Feature", "geometry": {"type": "MultiPolygon", "coordinates": [[[[72.07868669, 34.32092166], [72.07856242, 34.32089534], [72.07854189, 34.32096206], [72.07866616, 34.32098838], [72.07868669, 34.32092166]]]]}, "properties": {"id": "8J6J83CH+9CHP", "height": 2.481520652770996, "hmax": 0.0, "ratio": 0.0, "vulnClass": "none"}}, {"type": "Feature", "geometry": {"type": "MultiPolygon", "coordinates": [[[[72.07898855, 34.32101501], [72.07886846, 34.32098958], [72.07885643, 34.32102868], [72.07897652, 34.32105412], [72.07898855, 34.32101501]]]]}, "properties": {"id": "8J6J83CH+CH3W", "height": 2.798349857330322, "hmax": 0.0, "ratio": 0.0, "vulnClass": "none"}}, {"type": "Feature", "geometry": {"type": "MultiPolygon", "coordinates": [[[[72.07897652, 34.32105412], [72.07893115, 34.32104451], [72.07889288, 34.32116889], [72.07893825, 34.3211785], [72.07897652, 34.32105412]]]]}, "properties": {"id": "8J6J83CH+CHVH", "height": 3.142939329147339, "hmax": 0.0, "ratio": 0.0, "vulnClass": "none"}}, {"type": "Feature", "geometry": {"type": "MultiPolygon", "coordinates": [[[[72.08059856, 34.32079414], [72.08047144, 34.32078531], [72.08046714, 34.32082787], [72.08059426, 34.3208367], [72.08059856, 34.32079414]]]]}, "properties": {"id": "8J6J83CJ+86FC", "height": 2.464865922927856, "hmax": 0.0, "ratio": 0.0, "vulnClass": "none"}}, {"type": "Feature", "geometry": {"type": "MultiPolygon", "coordinates": [[[[72.08047144, 34.32078531], [72.08033939, 34.32077613], [72.08033509, 34.32081869], [72.08046714, 34.32082787], [72.08047144, 34.32078531]]]]}, "properties": {"id": "8J6J83CJ+85C5", "height": 2.464865922927856, "hmax": 0.0, "ratio": 0.0, "vulnClass": "none"}}, {"type": "Feature", "geometry": {"type": "MultiPolygon", "coordinates": [[[[72.08059678, 34.32086681], [72.08055201, 34.32086447], [72.08054922, 34.32090118], [72.08059398, 34.32090353], [72.08059678, 34.32086681]]]]}, "properties": {"id": "8J6J83CJ+9647", "height": 2.902790784835815, "hmax": 0.0, "ratio": 0.0, "vulnClass": "none"}}, {"type": "Feature", "geometry": {"type": "MultiPolygon", "coordinates": [[[[72.0805554, 34.3210541], [72.0806026, 34.3209178], [72.0805535, 34.3209061], [72.0805306, 34.3209721], [72.0803667, 34.320933], [72.0803424, 34.3210034], [72.0805554, 34.3210541]]]]}, "properties": {"id": "8J6J83CJ+95X7", "height": 3.299698114395142, "hmax": 0.0, "ratio": 0.0, "vulnClass": "none"}}, {"type": "Feature", "geometry": {"type": "MultiPolygon", "coordinates": [[[[72.08229667, 34.32165979], [72.08211837, 34.32163387], [72.08209681, 34.32173594], [72.08227511, 34.32176187], [72.08229667, 34.32165979]]]]}, "properties": {"id": "8J6J83CJ+MVGV", "height": 3.160193681716919, "hmax": 0.0, "ratio": 0.0, "vulnClass": "none"}}, {"type": "Feature", "geometry": {"type": "MultiPolygon", "coordinates": [[[[72.08225728, 34.32187394], [72.08213057, 34.32184523], [72.08211872, 34.32188122], [72.08224543, 34.32190993], [72.08225728, 34.32187394]]]]}, "properties": {"id": "8J6J83CJ+QV42", "height": 3.731551170349121, "hmax": 0.0, "ratio": 0.0, "vulnClass": "none"}}, {"type": "Feature", "geometry": {"type": "MultiPolygon", "coordinates": [[[[72.08660724, 34.32257454], [72.08656491, 34.32265049], [72.086827, 34.32275104], [72.08686933, 34.32267509], [72.08660724, 34.32257454]]]]}, "properties": {"id": "8J6J83FP+3M8H", "height": 3.708778142929077, "hmax": 0.0, "ratio": 0.0, "vulnClass": "none"}}, {"type": "Feature", "geometry": {"type": "MultiPolygon", "coordinates": [[[[72.0923458, 34.3125949], [72.0923393, 34.3125307], [72.092133, 34.3125451], [72.0921484, 34.312697], [72.0922462, 34.3126902], [72.0922373, 34.3126024], [72.0923458, 34.3125949]]]]}, "properties": {"id": "8J6J837R+2VX2", "height": 3.825102806091309, "hmax": 0.0, "ratio": 0.0, "vulnClass": "none"}}, {"type": "Feature", "geometry": {"type": "MultiPolygon", "coordinates": [[[[72.08173193, 34.31391395], [72.08168059, 34.3139214], [72.08169502, 34.31398987], [72.08174636, 34.31398242], [72.08173193, 34.31391395]]]]}, "properties": {"id": "8J6J837J+HMP5", "height": 3.301589488983154, "hmax": 0.0, "ratio": 0.0, "vulnClass": "none"}}, {"type": "Feature", "geometry": {"type": "MultiPolygon", "coordinates": [[[[72.08022319, 34.31315237], [72.08017076, 34.3131464], [72.08016387, 34.31318801], [72.0802163, 34.31319398], [72.08022319, 34.31315237]]]]}, "properties": {"id": "8J6J837J+738R", "height": 3.587486982345581, "hmax": 0.0, "ratio": 0.0, "vulnClass": "none"}}, {"type": "Feature", "geometry": {"type": "MultiPolygon", "coordinates": [[[[72.08016286, 34.3131851], [72.08012209, 34.31318643], [72.08012832, 34.31331805], [72.0801691, 34.31331672], [72.08016286, 34.3131851]]]]}, "properties": {"id": "8J6J837J+8324", "height": 2.768796443939209, "hmax": 0.0, "ratio": 0.0, "vulnClass": "none"}}, {"type": "Feature", "geometry": {"type": "MultiPolygon", "coordinates": [[[[72.08003493, 34.31312954], [72.07997653, 34.31312875], [72.07997385, 34.3132654], [72.08003225, 34.31326619], [72.08003493, 34.31312954]]]]}, "properties": {"id": "8J6J837J+72CR", "height": 2.979007005691528, "hmax": 0.0, "ratio": 0.0, "vulnClass": "none"}}, {"type": "Feature", "geometry": {"type": "MultiPolygon", "coordinates": [[[[72.08016333, 34.3131434], [72.08002736, 34.31313722], [72.08002464, 34.3131784], [72.08016061, 34.31318457], [72.08016333, 34.3131434]]]]}, "properties": {"id": "8J6J837J+729C", "height": 5.110562324523926, "hmax": 0.0, "ratio": 0.0, "vulnClass": "none"}}, {"type": "Feature", "geometry": {"type": "MultiPolygon", "coordinates": [[[[72.08392239, 34.31801523], [72.0839739, 34.3178015], [72.08392115, 34.31779275], [72.08386963, 34.31800648], [72.08392239, 34.31801523]]]]}, "properties": {"id": "8J6J839M+5H73", "height": 3.352687358856201, "hmax": 0.0, "ratio": 0.0, "vulnClass": "none"}}, {"type": "Feature", "geometry": {"type": "MultiPolygon", "coordinates": [[[[72.07927001, 34.31922548], [72.07921321, 34.31921231], [72.07920386, 34.31924006], [72.07926066, 34.31925323], [72.07927001, 34.31922548]]]]}, "properties": {"id": "8J6J839H+MMX8", "height": 2.495890617370605, "hmax": 0.0, "ratio": 0.0, "vulnClass": "none"}}, {"type": "Feature", "geometry": {"type": "MultiPolygon", "coordinates": [[[[72.07918374, 34.31918786], [72.07914422, 34.31917835], [72.07908392, 34.31935087], [72.07915805, 34.31936871], [72.07916934, 34.3193364], [72.07913474, 34.31932807], [72.07918374, 34.31918786]]]]}, "properties": {"id": "8J6J839H+PM67", "height": 4.152990818023682, "hmax": 0.0, "ratio": 0.0, "vulnClass": "none"}}, {"type": "Feature", "geometry": {"type": "MultiPolygon", "coordinates": [[[[72.07888507, 34.31978194], [72.07885858, 34.31977758], [72.0788338, 34.3198811], [72.0789894, 34.31990674], [72.07900926, 34.31982378], [72.07888014, 34.3198025], [72.07888507, 34.31978194]]]]}, "properties": {"id": "8J6J839H+WHMV", "height": 3.60711145401001, "hmax": 0.0, "ratio": 0.0, "vulnClass": "none"}}, {"type": "Feature", "geometry": {"type": "MultiPolygon", "coordinates": [[[[72.07892365, 34.31974946], [72.07887148, 34.31974288], [72.07886507, 34.31977791], [72.07891724, 34.31978449], [72.07892365, 34.31974946]]]]}, "properties": {"id": "8J6J839H+WH2G", "height": 4.242318153381348, "hmax": 0.0, "ratio": 0.0, "vulnClass": "none"}}, {"type": "Feature", "geometry": {"type": "MultiPolygon", "coordinates": [[[[72.07910751, 34.3198186], [72.07901418, 34.31980322], [72.0789894, 34.31990674], [72.07908273, 34.31992212], [72.07910751, 34.3198186]]]]}, "properties": {"id": "8J6J839H+WJVG", "height": 3.296428442001343, "hmax": 0.0, "ratio": 0.0, "vulnClass": "none"}}, {"type": "Feature", "geometry": {"type": "MultiPolygon", "coordinates": [[[[72.0792378, 34.31984007], [72.07910751, 34.3198186], [72.07909801, 34.31985825], [72.07922831, 34.31987972], [72.0792378, 34.31984007]]]]}, "properties": {"id": "8J6J839H+WMMV", "height": 2.501697778701782, "hmax": 0.0, "ratio": 0.0, "vulnClass": "none"}}, {"type": "Feature", "geometry": {"type": "MultiPolygon", "coordinates": [[[[72.07946524, 34.31967335], [72.07942373, 34.3196659], [72.07940182, 34.31974995], [72.0796007, 34.31978563], [72.07962261, 34.31970158], [72.0795825, 34.31969438], [72.07957005, 34.31974217], [72.07945278, 34.31972113], [72.07946524, 34.31967335]]]]}, "properties": {"id": "8J6J839H+VRR7", "height": 2.741465091705322, "hmax": 0.0, "ratio": 0.0, "vulnClass": "none"}}, {"type": "Feature", "geometry": {"type": "MultiPolygon", "coordinates": [[[[72.0793095, 34.32006773], [72.07926728, 34.32006325], [72.07926165, 34.32009981], [72.07930387, 34.32010429], [72.0793095, 34.32006773]]]]}, "properties": {"id": "8J6J83CH+2PM6", "height": 4.029947280883789, "hmax": 0.0, "ratio": 0.0, "vulnClass": "none"}}, {"type": "Feature", "geometry": {"type": "MultiPolygon", "coordinates": [[[[72.0794928, 34.32023986], [72.07944623, 34.32023288], [72.07942873, 34.32031323], [72.07947529, 34.32032022], [72.0794928, 34.32023986]]]]}, "properties": {"id": "8J6J83CH+4Q84", "height": 3.307475566864014, "hmax": 0.0, "ratio": 0.0, "vulnClass": "none"}}, {"type": "Feature", "geometry": {"type": "MultiPolygon", "coordinates": [[[[72.07952098, 34.3201105], [72.07943074, 34.32009696], [72.07940256, 34.32022633], [72.0794928, 34.32023986], [72.07952098, 34.3201105]]]]}, "properties": {"id": "8J6J83CH+3Q8Q", "height": 4.688925743103027, "hmax": 0.0, "ratio": 0.0, "vulnClass": "none"}}, {"type": "Feature", "geometry": {"type": "MultiPolygon", "coordinates": [[[[72.07943194, 34.32009711], [72.07936191, 34.32008582], [72.0793557, 34.32011229], [72.07942574, 34.32012359], [72.07943194, 34.32009711]]]]}, "properties": {"id": "8J6J83CH+2QR4", "height": 7.20748233795166, "hmax": 0.0, "ratio": 0.0, "vulnClass": "none"}}, {"type": "Feature", "geometry": {"type": "MultiPolygon", "coordinates": [[[[72.0792902, 34.32015868], [72.07924488, 34.32015254], [72.07923546, 34.32020038], [72.07928078, 34.32020652], [72.0792902, 34.32015868]]]]}, "properties": {"id": "8J6J83CH+3PC3", "height": 4.890516757965088, "hmax": 0.0, "ratio": 0.0, "vulnClass": "none"}}, {"type": "Feature", "geometry": {"type": "MultiPolygon", "coordinates": [[[[72.07922451, 34.3202178], [72.07921431, 34.32027497], [72.07926566, 34.32028128], [72.0792723, 34.32024408], [72.07930552, 34.32024816], [72.07930908, 34.32022819], [72.07922451, 34.3202178]]]]}, "properties": {"id": "8J6J83CH+3PRR", "height": 3.158510208129883, "hmax": 0.0, "ratio": 0.0, "vulnClass": "none"}}, {"type": "Feature", "geometry": {"type": "MultiPolygon", "coordinates": [[[[72.07944262, 34.32028671], [72.07932174, 34.32026457], [72.07931355, 34.32029536], [72.07943442, 34.32031749], [72.07944262, 34.32028671]]]]}, "properties": {"id": "8J6J83CH+4Q6J", "height": 4.144786834716797, "hmax": 0.0, "ratio": 0.0, "vulnClass": "none"}}, {"type": "Feature", "geometry": {"type": "MultiPolygon", "coordinates": [[[[72.0791539, 34.32021786], [72.07907744, 34.32020329], [72.07906396, 34.32025197], [72.07914043, 34.32026654], [72.0791539, 34.32021786]]]]}, "properties": {"id": "8J6J83CH+3JX7", "height": 5.426084041595459, "hmax": 0.0, "ratio": 0.0, "vulnClass": "none"}}, {"type": "Feature", "geometry": {"type": "MultiPolygon", "coordinates": [[[[72.07891096, 34.32004643], [72.07879446, 34.32002423], [72.07878453, 34.32006012], [72.07890102, 34.32008232], [72.07891096, 34.32004643]]]]}, "properties": {"id": "8J6J83CH+2GH2", "height": 2.76204776763916, "hmax": 0.0, "ratio": 0.0, "vulnClass": "none"}}, {"type": "Feature", "geometry": {"type": "MultiPolygon", "coordinates": [[[[72.07806815, 34.31702604], [72.07805952, 34.3169372], [72.07784203, 34.31695174], [72.07784835, 34.31701689], [72.07782594, 34.31701838], [72.07782824, 34.31704209], [72.07806815, 34.31702604]]]]}, "properties": {"id": "8J6J838H+Q5WF", "height": 4.369828224182129, "hmax": 0.0, "ratio": 0.0, "vulnClass": "none"}}, {"type": "Feature", "geometry": {"type": "MultiPolygon", "coordinates": [[[[72.07772443, 34.31708932], [72.07770335, 34.31708777], [72.07768905, 34.31722169], [72.07783875, 34.31723269], [72.07784764, 34.31714942], [72.07771903, 34.31713997], [72.07772443, 34.31708932]]]]}, "properties": {"id": "8J6J838H+V4C3", "height": 3.59989595413208, "hmax": 0.0, "ratio": 0.0, "vulnClass": "none"}}, {"type": "Feature", "geometry": {"type": "MultiPolygon", "coordinates": [[[[72.07797392, 34.31579717], [72.07754439, 34.31575578], [72.07753317, 34.3158359], [72.07796271, 34.3158773], [72.07797392, 34.31579717]]]]}, "properties": {"id": "8J6J838H+84CJ", "height": 2.538900852203369, "hmax": 0.0, "ratio": 0.0, "vulnClass": "none"}}, {"type": "Feature", "geometry": {"type": "MultiPolygon", "coordinates": [[[[72.0776465, 34.31496164], [72.07759775, 34.31495956], [72.07758371, 34.31518594], [72.07767104, 34.31518967], [72.07767345, 34.31515071], [72.07763487, 34.31514906], [72.0776465, 34.31496164]]]]}, "properties": {"id": "8J6J838H+22QH", "height": 3.232052803039551, "hmax": 0.0, "ratio": 0.0, "vulnClass": "none"}}, {"type": "Feature", "geometry": {"type": "MultiPolygon", "coordinates": [[[[72.077795, 34.31531413], [72.07760149, 34.31529874], [72.0775929, 34.31537312], [72.07778641, 34.31538851], [72.077795, 34.31531413]]]]}, "properties": {"id": "8J6J838H+43PJ", "height": 7.458526611328125, "hmax": 0.0, "ratio": 0.0, "vulnClass": "none"}}, {"type": "Feature", "geometry": {"type": "MultiPolygon", "coordinates": [[[[72.07774284, 34.31542462], [72.07765658, 34.31541971], [72.07764597, 34.31554816], [72.07773223, 34.31555306], [72.07774284, 34.31542462]]]]}, "properties": {"id": "8J6J838H+53WC", "height": 2.696357727050781, "hmax": 0.0, "ratio": 0.0, "vulnClass": "none"}}, {"type": "Feature", "geometry": {"type": "MultiPolygon", "coordinates": [[[[72.07767791, 34.31447843], [72.07785398, 34.31436722], [72.07782538, 34.31433604], [72.0776493, 34.31444725], [72.07767791, 34.31447843]]]]}, "properties": {"id": "8J6J837H+Q466", "height": 4.240323066711426, "hmax": 0.0, "ratio": 0.0, "vulnClass": "none"}}, {"type": "Feature", "geometry": {"type": "MultiPolygon", "coordinates": [[[[72.07789496, 34.3141308], [72.07789637, 34.31408993], [72.07785399, 34.31408892], [72.07785322, 34.31411119], [72.07782878, 34.3141106], [72.07782955, 34.31408833], [72.07778783, 34.31408734], [72.07778641, 34.31412821], [72.07789496, 34.3141308]]]]}, "properties": {"id": "8J6J837H+J4WH", "height": 2.781429529190063, "hmax": 0.0, "ratio": 0.0, "vulnClass": "none"}}, {"type": "Feature", "geometry": {"type": "MultiPolygon", "coordinates": [[[[72.07826816, 34.31393521], [72.0782533, 34.31384911], [72.07790591, 34.31389038], [72.07792077, 34.31397648], [72.07826816, 34.31393521]]]]}, "properties": {"id": "8J6J837H+H68H", "height": 3.892663478851318, "hmax": 0.0, "ratio": 0.0, "vulnClass": "none"}}, {"type": "Feature", "geometry": {"type": "MultiPolygon", "coordinates": [[[[72.07776306, 34.31372573], [72.07790138, 34.3137176], [72.0778983, 34.31368147], [72.07775997, 34.31368961], [72.07776306, 34.31372573]]]]}, "properties": {"id": "8J6J837H+F4P4", "height": 2.694140911102295, "hmax": 0.0, "ratio": 0.0, "vulnClass": "none"}}, {"type": "Feature", "geometry": {"type": "MultiPolygon", "coordinates": [[[[72.07777964, 34.32036822], [72.07773631, 34.32035981], [72.07770735, 34.32046261], [72.07775068, 34.32047101], [72.07777964, 34.32036822]]]]}, "properties": {"id": "8J6J83CH+539Q", "height": 2.573670148849487, "hmax": 0.0, "ratio": 0.0, "vulnClass": "none"}}, {"type": "Feature", "geometry": {"type": "MultiPolygon", "coordinates": [[[[72.07785127, 34.32039798], [72.07781084, 34.32039184], [72.07780171, 34.32043324], [72.07784214, 34.32043938], [72.07785127, 34.32039798]]]]}, "properties": {"id": "8J6J83CH+548M", "height": 3.414012670516968, "hmax": 0.0, "ratio": 0.0, "vulnClass": "none"}}, {"type": "Feature", "geometry": {"type": "MultiPolygon", "coordinates": [[[[72.0778456, 34.32044443], [72.07778974, 34.3204336], [72.07777772, 34.32047626], [72.07783358, 34.32048709], [72.0778456, 34.32044443]]]]}, "properties": {"id": "8J6J83CH+54MH", "height": 3.414012670516968, "hmax": 0.0, "ratio": 0.0, "vulnClass": "none"}}, {"type": "Feature", "geometry": {"type": "MultiPolygon", "coordinates": [[[[72.07806046, 34.32072639], [72.07793305, 34.32069679], [72.07791961, 34.32073663], [72.07799723, 34.32075466], [72.07798513, 34.32079051], [72.07803492, 34.32080208], [72.07806046, 34.32072639]]]]}, "properties": {"id": "8J6J83CH+75XQ", "height": 2.471895217895508, "hmax": 0.0, "ratio": 0.0, "vulnClass": "none"}}, {"type": "Feature", "geometry": {"type": "MultiPolygon", "coordinates": [[[[72.07803558, 34.32080126], [72.07798858, 34.32078964], [72.07792946, 34.32095435], [72.07819402, 34.32101972], [72.07820803, 34.32098068], [72.07799048, 34.32092692], [72.07803558, 34.32080126]]]]}, "properties": {"id": "8J6J83CH+96F3", "height": 3.693138599395752, "hmax": 0.0, "ratio": 0.0, "vulnClass": "none"}}, {"type": "Feature", "geometry": {"type": "MultiPolygon", "coordinates": [[[[72.07794364, 34.32089766], [72.07797309, 34.32080468], [72.07794289, 34.3207981], [72.07793582, 34.32082042], [72.07790351, 34.32081337], [72.07788113, 34.32088403], [72.07794364, 34.32089766]]]]}, "properties": {"id": "8J6J83CH+85MW", "height": 6.419520378112793, "hmax": 0.0, "ratio": 0.0, "vulnClass": "none"}}, {"type": "Feature", "geometry": {"type": "MultiPolygon", "coordinates": [[[[72.07774275, 34.32084856], [72.07777123, 34.32072666], [72.07772487, 34.3207192], [72.07769638, 34.3208411], [72.07774275, 34.32084856]]]]}, "properties": {"id": "8J6J83CH+8397", "height": 2.667731761932373, "hmax": 0.0, "ratio": 0.0, "vulnClass": "none"}}, {"type": "Feature", "geometry": {"type": "MultiPolygon", "coordinates": [[[[72.07775415, 34.32096798], [72.07776592, 34.32091728], [72.07772314, 34.32091044], [72.07771136, 34.32096114], [72.07775415, 34.32096798]]]]}, "properties": {"id": "8J6J83CH+93HG", "height": 2.539664030075073, "hmax": 0.0, "ratio": 0.0, "vulnClass": "none"}}, {"type": "Feature", "geometry": {"type": "MultiPolygon", "coordinates": [[[[72.07794364, 34.32089766], [72.07785896, 34.3208792], [72.07784586, 34.32092056], [72.07793054, 34.32093902], [72.07794364, 34.32089766]]]]}, "properties": {"id": "8J6J83CH+9568", "height": 5.750184535980225, "hmax": 0.0, "ratio": 0.0, "vulnClass": "none"}}, {"type": "Feature", "geometry": {"type": "MultiPolygon", "coordinates": [[[[72.07806721, 34.32111928], [72.07802284, 34.32111196], [72.07801481, 34.32114545], [72.07805918, 34.32115277], [72.07805511, 34.32116977], [72.07815318, 34.32118594], [72.07817231, 34.3211061], [72.07807424, 34.32108992], [72.07806721, 34.32111928]]]]}, "properties": {"id": "8J6J83CH+F65F", "height": 3.477341175079346, "hmax": 0.0, "ratio": 0.0, "vulnClass": "none"}}, {"type": "Feature", "geometry": {"type": "MultiPolygon", "coordinates": [[[[72.07814145, 34.32120147], [72.07808764, 34.32119317], [72.07807571, 34.32124643], [72.07812952, 34.32125473], [72.07814145, 34.32120147]]]]}, "properties": {"id": "8J6J83CH+F6QV", "height": 3.138697624206543, "hmax": 0.0, "ratio": 0.0, "vulnClass": "none"}}, {"type": "Feature", "geometry": {"type": "MultiPolygon", "coordinates": [[[[72.07784708, 34.32137102], [72.07772131, 34.32134138], [72.07769295, 34.3214242], [72.07781873, 34.32145384], [72.07784708, 34.32137102]]]]}, "properties": {"id": "8J6J83CH+H42W", "height": 4.580045700073242, "hmax": 0.0, "ratio": 0.0, "vulnClass": "none"}}, {"type": "Feature", "geometry": {"type": "MultiPolygon", "coordinates": [[[[72.07821191, 34.32142804], [72.07812912, 34.32141263], [72.07809871, 34.32152509], [72.07838129, 34.32157769], [72.07840368, 34.32149487], [72.0782039, 34.32145768], [72.07821191, 34.32142804]]]]}, "properties": {"id": "8J6J83CH+J755", "height": 5.058299541473389, "hmax": 0.0, "ratio": 0.0, "vulnClass": "none"}}]}