{"type": "FeatureCollection", "features": [{"type": "Feature", "geometry": {"type": "MultiPolygon", "coordinates": [[[[71.8065061, 34.33298044], [71.80656474, 34.3329057], [71.80640892, 34.33282156], [71.8062879, 34.33297581], [71.80636546, 34.33301769], [71.80642784, 34.33293818], [71.8065061, 34.33298044]]]]}, "properties": {"id": "8J6H8RM4+5H7W", "height": 4.726853370666504, "hmax": 0.0, "ratio": 0.0, "vulnClass": "none"}}, {"type": "Feature", "geometry": {"type": "MultiPolygon", "coordinates": [[[[71.80666939, 34.33295464], [71.80660292, 34.3328959], [71.80650322, 34.33297352], [71.80656969, 34.33303227], [71.80666939, 34.33295464]]]]}, "properties": {"id": "8J6H8RM4+5JPH", "height": 4.727874755859375, "hmax": 0.0, "ratio": 0.0, "vulnClass": "none"}}, {"type": "Feature", "geometry": {"type": "MultiPolygon", "coordinates": [[[[71.80677066, 34.33305722], [71.80668843, 34.33295929], [71.80663921, 34.33298773], [71.80672144, 34.33308567], [71.80677066, 34.33305722]]]]}, "properties": {"id": "8J6H8RM4+6M4W", "height": 2.801570177078247, "hmax": 0.0, "ratio": 0.0, "vulnClass": "none"}}, {"type": "Feature", "geometry": {"type": "MultiPolygon", "coordinates": [[[[71.80631718, 34.33300378], [71.80628498, 34.33298161], [71.80617892, 34.3330876], [71.80628284, 34.33315917], [71.80631475, 34.33312728], [71.80633276, 34.33313969], [71.80636888, 34.33310358], [71.80627915, 34.33304179], [71.80631718, 34.33300378]]]]}, "properties": {"id": "8J6H8RM4+6GJ8", "height": 4.458611488342285, "hmax": 0.0, "ratio": 0.0, "vulnClass": "none"}}, {"type": "Feature", "geometry": {"type": "MultiPolygon", "coordinates": [[[[71.80619389, 34.33308382], [71.80625532, 34.3330097], [71.80621225, 34.33298513], [71.80615082, 34.33305925], [71.80619389, 34.33308382]]]]}, "properties": {"id": "8J6H8RM4+6F87", "height": 4.458611488342285, "hmax": 0.0, "ratio": 0.0, "vulnClass": "none"}}, {"type": "Feature", "geometry": {"type": "MultiPolygon", "coordinates": [[[[71.80609039, 34.33303671], [71.80602061, 34.33299003], [71.80592962, 34.33308405], [71.80599952, 34.33313061], [71.80609039, 34.33303671]]]]}, "properties": {"id": "8J6H8RM4+6CCF", "height": 3.963546991348267, "hmax": 0.0, "ratio": 0.0, "vulnClass": "none"}}, {"type": "Feature", "geometry": {"type": "MultiPolygon", "coordinates": [[[[71.80596561, 34.33297163], [71.80593071, 34.33297154], [71.80593062, 34.33299673], [71.80596552, 34.33299682], [71.80596561, 34.33297163]]]]}, "properties": {"id": "8J6H8RM4+59W7", "height": 2.491041660308838, "hmax": 0.0, "ratio": 0.0, "vulnClass": "none"}}, {"type": "Feature", "geometry": {"type": "MultiPolygon", "coordinates": [[[[71.80605108, 34.33295831], [71.80602379, 34.33299309], [71.80615529, 34.33306409], [71.80620718, 34.33299796], [71.80611612, 34.33294879], [71.80609152, 34.33298015], [71.80605108, 34.33295831]]]]}, "properties": {"id": "8J6H8RM4+6C55", "height": 4.417022705078125, "hmax": 0.0, "ratio": 0.0, "vulnClass": "none"}}, {"type": "Feature", "geometry": {"type": "MultiPolygon", "coordinates": [[[[71.80612706, 34.33293654], [71.80624122, 34.33279881], [71.80620735, 34.33277949], [71.80609319, 34.33291722], [71.80612706, 34.33293654]]]]}, "properties": {"id": "8J6H8RM4+4FV7", "height": 4.464986801147461, "hmax": 0.0, "ratio": 0.0, "vulnClass": "none"}}, {"type": "Feature", "geometry": {"type": "MultiPolygon", "coordinates": [[[[71.80588157, 34.33288225], [71.80583233, 34.33286007], [71.80580255, 34.33290557], [71.80585179, 34.33292774], [71.80588157, 34.33288225]]]]}, "properties": {"id": "8J6H8RM4+584Q", "height": 4.722255706787109, "hmax": 0.0, "ratio": 0.0, "vulnClass": "none"}}, {"type": "Feature", "geometry": {"type": "MultiPolygon", "coordinates": [[[[71.80609319, 34.33291722], [71.80593491, 34.33282694], [71.80588694, 34.33288481], [71.80604523, 34.33297509], [71.80609319, 34.33291722]]]]}, "properties": {"id": "8J6H8RM4+5994", "height": 4.674891471862793, "hmax": 0.0, "ratio": 0.0, "vulnClass": "none"}}, {"type": "Feature", "geometry": {"type": "MultiPolygon", "coordinates": [[[[71.80594578, 34.33294229], [71.80590043, 34.33291643], [71.80586587, 34.33295812], [71.80583892, 34.33294274], [71.8057789, 34.33301516], [71.8058512, 34.3330564], [71.80594578, 34.33294229]]]]}, "properties": {"id": "8J6H8RM4+58XG", "height": 4.70258903503418, "hmax": 0.0, "ratio": 0.0, "vulnClass": "none"}}, {"type": "Feature", "geometry": {"type": "MultiPolygon", "coordinates": [[[[71.80542035, 34.3330034], [71.80537845, 34.33298389], [71.80531155, 34.33308276], [71.80535345, 34.33310227], [71.80542035, 34.3330034]]]]}, "properties": {"id": "8J6H8RM4+649P", "height": 5.196110725402832, "hmax": 0.0, "ratio": 0.0, "vulnClass": "none"}}, {"type": "Feature", "geometry": {"type": "MultiPolygon", "coordinates": [[[[71.8054297, 34.33285823], [71.80537421, 34.33282668], [71.80535137, 34.33285432], [71.80540685, 34.33288587], [71.8054297, 34.33285823]]]]}, "properties": {"id": "8J6H8RM4+45R7", "height": 4.54461145401001, "hmax": 0.0, "ratio": 0.0, "vulnClass": "none"}}, {"type": "Feature", "geometry": {"type": "MultiPolygon", "coordinates": [[[[71.80540561, 34.33288321], [71.80533524, 34.33285781], [71.8053186, 34.33288954], [71.80538897, 34.33291493], [71.80540561, 34.33288321]]]]}, "properties": {"id": "8J6H8RM4+545G", "height": 4.96725606918335, "hmax": 0.0, "ratio": 0.0, "vulnClass": "none"}}, {"type": "Feature", "geometry": {"type": "MultiPolygon", "coordinates": [[[[71.8051923, 34.3328146], [71.8051241, 34.3327855], [71.8051216, 34.3328724], [71.8051618, 34.3328732], [71.8051627, 34.3328412], [71.8051915, 34.3328418], [71.8051923, 34.3328146]]]]}, "properties": {"id": "8J6H8RM4+43J9", "height": 5.489225387573242, "hmax": 0.0, "ratio": 0.0, "vulnClass": "none"}}, {"type": "Feature", "geometry": {"type": "MultiPolygon", "coordinates": [[[[71.80519612, 34.33299773], [71.80513983, 34.33298912], [71.80512709, 34.33304646], [71.80518337, 34.33305507], [71.80519612, 34.33299773]]]]}, "properties": {"id": "8J6H8RM4+633R", "height": 4.417287349700928, "hmax": 0.0, "ratio": 0.0, "vulnClass": "none"}}, {"type": "Feature", "geometry": {"type": "MultiPolygon", "coordinates": [[[[71.80495797, 34.33307868], [71.80490382, 34.33308185], [71.80490572, 34.33310418], [71.80495987, 34.33310101], [71.80495797, 34.33307868]]]]}, "properties": {"id": "8J6H8RM3+6XMQ", "height": 3.751728534698486, "hmax": 0.0, "ratio": 0.0, "vulnClass": "none"}}, {"type": "Feature", "geometry": {"type": "MultiPolygon", "coordinates": [[[[71.8049548, 34.3332753], [71.8049945, 34.3331301], [71.8049412, 34.3331201], [71.8049301, 34.3331608], [71.8048672, 34.333149], [71.8048386, 34.3332535], [71.8049548, 34.3332753]]]]}, "properties": {"id": "8J6H8RM3+7XM3", "height": 5.102717399597168, "hmax": 0.0, "ratio": 0.0, "vulnClass": "none"}}, {"type": "Feature", "geometry": {"type": "MultiPolygon", "coordinates": [[[[71.80485454, 34.33309538], [71.80473374, 34.3330901], [71.80472411, 34.33324175], [71.8048449, 34.33324703], [71.80485454, 34.33309538]]]]}, "properties": {"id": "8J6H8RM3+7W7M", "height": 5.879540920257568, "hmax": 0.0, "ratio": 0.0, "vulnClass": "none"}}, {"type": "Feature", "geometry": {"type": "MultiPolygon", "coordinates": [[[[71.80523399, 34.33318618], [71.80505469, 34.33315133], [71.80503484, 34.33322159], [71.80521414, 34.33325644], [71.80523399, 34.33318618]]]]}, "properties": {"id": "8J6H8RM4+73J3", "height": 5.806171417236328, "hmax": 0.0, "ratio": 0.0, "vulnClass": "none"}}, {"type": "Feature", "geometry": {"type": "MultiPolygon", "coordinates": [[[[71.80513982, 34.33305345], [71.8050759, 34.33303413], [71.80506023, 34.33306983], [71.80512416, 34.33308914], [71.80513982, 34.33305345]]]]}, "properties": {"id": "8J6H8RM4+62HC", "height": 4.33985710144043, "hmax": 0.0, "ratio": 0.0, "vulnClass": "none"}}, {"type": "Feature", "geometry": {"type": "MultiPolygon", "coordinates": [[[[71.80517452, 34.33306348], [71.80512809, 34.33305871], [71.80511303, 34.33315955], [71.80515946, 34.33316433], [71.80517452, 34.33306348]]]]}, "properties": {"id": "8J6H8RM4+63RG", "height": 5.099218368530273, "hmax": 0.0, "ratio": 0.0, "vulnClass": "none"}}, {"type": "Feature", "geometry": {"type": "MultiPolygon", "coordinates": [[[[71.80547644, 34.33317828], [71.80530665, 34.33309848], [71.80525216, 34.33317829], [71.80542195, 34.33325808], [71.80547644, 34.33317828]]]]}, "properties": {"id": "8J6H8RM4+74H4", "height": 5.202433586120605, "hmax": 0.0, "ratio": 0.0, "vulnClass": "none"}}, {"type": "Feature", "geometry": {"type": "MultiPolygon", "coordinates": [[[[71.80570356, 34.33320516], [71.80563804, 34.33321785], [71.8056541, 34.33327491], [71.80571962, 34.33326222], [71.80570356, 34.33320516]]]]}, "properties": {"id": "8J6H8RM4+77VP", "height": 4.092602729797363, "hmax": 0.0, "ratio": 0.0, "vulnClass": "none"}}, {"type": "Feature", "geometry": {"type": "MultiPolygon", "coordinates": [[[[71.80555195, 34.33323659], [71.80548334, 34.3331851], [71.80539776, 34.33326357], [71.80546638, 34.33331506], [71.80555195, 34.33323659]]]]}, "properties": {"id": "8J6H8RM4+8552", "height": 4.721749782562256, "hmax": 0.0, "ratio": 0.0, "vulnClass": "none"}}, {"type": "Feature", "geometry": {"type": "MultiPolygon", "coordinates": [[[[71.80532142, 34.33319846], [71.80523153, 34.33317802], [71.80519075, 34.33330142], [71.80528063, 34.33332186], [71.80532142, 34.33319846]]]]}, "properties": {"id": "8J6H8RM4+74RR", "height": 5.959476470947266, "hmax": 0.0, "ratio": 0.0, "vulnClass": "none"}}, {"type": "Feature", "geometry": {"type": "MultiPolygon", "coordinates": [[[[71.80543113, 34.33329457], [71.80539931, 34.33328817], [71.80539234, 34.33331201], [71.80542416, 34.33331841], [71.80543113, 34.33329457]]]]}, "properties": {"id": "8J6H8RM4+85F2", "height": 4.721749782562256, "hmax": 0.0, "ratio": 0.0, "vulnClass": "none"}}, {"type": "Feature", "geometry": {"type": "MultiPolygon", "coordinates": [[[[71.80505186, 34.33348099], [71.80504141, 34.33343856], [71.80500213, 34.33344522], [71.80501257, 34.33348764], [71.80505186, 34.33348099]]]]}, "properties": {"id": "8J6H8RM4+92JH", "height": 2.946533679962158, "hmax": 0.0, "ratio": 0.0, "vulnClass": "none"}}, {"type": "Feature", "geometry": {"type": "MultiPolygon", "coordinates": [[[[71.80529159, 34.33335897], [71.80517922, 34.33334707], [71.80516871, 34.33341538], [71.80528108, 34.33342728], [71.80529159, 34.33335897]]]]}, "properties": {"id": "8J6H8RM4+935F", "height": 5.966475486755371, "hmax": 0.0, "ratio": 0.0, "vulnClass": "none"}}, {"type": "Feature", "geometry": {"type": "MultiPolygon", "coordinates": [[[[71.80517449, 34.33338128], [71.80513487, 34.333374], [71.80512094, 34.33342624], [71.80516055, 34.33343352], [71.80517449, 34.33338128]]]]}, "properties": {"id": "8J6H8RM4+9364", "height": 4.889781951904297, "hmax": 0.0, "ratio": 0.0, "vulnClass": "none"}}, {"type": "Feature", "geometry": {"type": "MultiPolygon", "coordinates": [[[[71.80513942, 34.33330825], [71.8050741, 34.33329344], [71.8050506, 34.33336481], [71.80511592, 34.33337962], [71.80513942, 34.33330825]]]]}, "properties": {"id": "8J6H8RM4+82QC", "height": 4.468676567077637, "hmax": 0.0, "ratio": 0.0, "vulnClass": "none"}}, {"type": "Feature", "geometry": {"type": "MultiPolygon", "coordinates": [[[[71.8049652, 34.333508], [71.80504412, 34.33337039], [71.80498582, 34.33334738], [71.80490691, 34.333485], [71.8049652, 34.333508]]]]}, "properties": {"id": "8J6H8RM3+9XH2", "height": 4.550892353057861, "hmax": 0.0, "ratio": 0.0, "vulnClass": "none"}}, {"type": "Feature", "geometry": {"type": "MultiPolygon", "coordinates": [[[[71.80484915, 34.33332222], [71.8047786, 34.33333826], [71.80481592, 34.33345128], [71.80488648, 34.33343524], [71.80484915, 34.33332222]]]]}, "properties": {"id": "8J6H8RM3+9W4G", "height": 4.485103607177734, "hmax": 0.0, "ratio": 0.0, "vulnClass": "none"}}, {"type": "Feature", "geometry": {"type": "MultiPolygon", "coordinates": [[[[71.8047703, 34.3335097], [71.80471657, 34.33352063], [71.80472471, 34.33354818], [71.80477844, 34.33353726], [71.8047703, 34.3335097]]]]}, "properties": {"id": "8J6H8RM3+CV95", "height": 5.456856727600098, "hmax": 0.0, "ratio": 0.0, "vulnClass": "none"}}, {"type": "Feature", "geometry": {"type": "MultiPolygon", "coordinates": [[[[71.80515739, 34.33368839], [71.80513958, 34.33363191], [71.80503812, 34.33365391], [71.80505593, 34.3337104], [71.80515739, 34.33368839]]]]}, "properties": {"id": "8J6H8RM4+F29R", "height": 3.140084981918335, "hmax": 0.0, "ratio": 0.0, "vulnClass": "none"}}, {"type": "Feature", "geometry": {"type": "MultiPolygon", "coordinates": [[[[71.80509145, 34.33371572], [71.80504296, 34.33371248], [71.80503583, 34.33378601], [71.80508432, 34.33378924], [71.80509145, 34.33371572]]]]}, "properties": {"id": "8J6H8RM4+G242", "height": 4.22670841217041, "hmax": 0.0, "ratio": 0.0, "vulnClass": "none"}}, {"type": "Feature", "geometry": {"type": "MultiPolygon", "coordinates": [[[[71.8048683, 34.3336938], [71.804856, 34.3338315], [71.8050146, 34.3338412], [71.805027, 34.3337036], [71.8048683, 34.3336938]]]]}, "properties": {"id": "8J6H8RM3+GX4J", "height": 4.696086883544922, "hmax": 0.0, "ratio": 0.0, "vulnClass": "none"}}, {"type": "Feature", "geometry": {"type": "MultiPolygon", "coordinates": [[[[71.80480979, 34.3337332], [71.80472024, 34.33373191], [71.80471835, 34.3338225], [71.8048079, 34.33382379], [71.80480979, 34.3337332]]]]}, "properties": {"id": "8J6H8RM3+GW63", "height": 3.525564193725586, "hmax": 0.0, "ratio": 0.0, "vulnClass": "none"}}, {"type": "Feature", "geometry": {"type": "MultiPolygon", "coordinates": [[[[71.80504048, 34.33399968], [71.80503368, 34.33391767], [71.804853, 34.33392798], [71.80485759, 34.33398338], [71.80489284, 34.33398137], [71.80489505, 34.33400798], [71.80504048, 34.33399968]]]]}, "properties": {"id": "8J6H8RM3+HXPF", "height": 5.18089485168457, "hmax": 0.0, "ratio": 0.0, "vulnClass": "none"}}, {"type": "Feature", "geometry": {"type": "MultiPolygon", "coordinates": [[[[71.80507707, 34.33386391], [71.80502858, 34.33386068], [71.80502319, 34.33391624], [71.80507168, 34.33391948], [71.80507707, 34.33386391]]]]}, "properties": {"id": "8J6H8RM4+H23P", "height": 4.206552028656006, "hmax": 0.0, "ratio": 0.0, "vulnClass": "none"}}, {"type": "Feature", "geometry": {"type": "MultiPolygon", "coordinates": [[[[71.80526221, 34.33375673], [71.80519351, 34.33374789], [71.80518487, 34.33379409], [71.80525357, 34.33380293], [71.80526221, 34.33375673]]]]}, "properties": {"id": "8J6H8RM4+G392", "height": 3.402105093002319, "hmax": 0.0, "ratio": 0.0, "vulnClass": "none"}}, {"type": "Feature", "geometry": {"type": "MultiPolygon", "coordinates": [[[[71.80524729, 34.33379684], [71.80519354, 34.33379336], [71.80518878, 34.33384402], [71.80524253, 34.3338475], [71.80524729, 34.33379684]]]]}, "properties": {"id": "8J6H8RM4+G3GX", "height": 3.410431623458862, "hmax": 0.0, "ratio": 0.0, "vulnClass": "none"}}, {"type": "Feature", "geometry": {"type": "MultiPolygon", "coordinates": [[[[71.80535801, 34.33385496], [71.80524253, 34.3338475], [71.80523822, 34.3338934], [71.8053537, 34.33390087], [71.80535801, 34.33385496]]]]}, "properties": {"id": "8J6H8RM4+G4VW", "height": 3.336384534835815, "hmax": 0.0, "ratio": 0.0, "vulnClass": "none"}}, {"type": "Feature", "geometry": {"type": "MultiPolygon", "coordinates": [[[[71.80524253, 34.3338475], [71.80518878, 34.33384402], [71.80518168, 34.33391962], [71.80523543, 34.33392309], [71.80524253, 34.3338475]]]]}, "properties": {"id": "8J6H8RM4+H349", "height": 3.396922588348389, "hmax": 0.0, "ratio": 0.0, "vulnClass": "none"}}, {"type": "Feature", "geometry": {"type": "MultiPolygon", "coordinates": [[[[71.80564073, 34.33390025], [71.80553008, 34.33388695], [71.80551811, 34.3339555], [71.80568497, 34.33397555], [71.80570028, 34.3338879], [71.80564407, 34.33388115], [71.80564073, 34.33390025]]]]}, "properties": {"id": "8J6H8RM4+H6H4", "height": 3.912343502044678, "hmax": 0.0, "ratio": 0.0, "vulnClass": "none"}}, {"type": "Feature", "geometry": {"type": "MultiPolygon", "coordinates": [[[[71.80551851, 34.3338278], [71.8054857, 34.33382538], [71.80548066, 34.33387241], [71.80551347, 34.33387483], [71.80551851, 34.3338278]]]]}, "properties": {"id": "8J6H8RM4+G5X5", "height": 4.587260246276855, "hmax": 0.0, "ratio": 0.0, "vulnClass": "none"}}, {"type": "Feature", "geometry": {"type": "MultiPolygon", "coordinates": [[[[71.80559969, 34.33378211], [71.80554041, 34.33377556], [71.80553472, 34.33381094], [71.805594, 34.33381749], [71.80559969, 34.33378211]]]]}, "properties": {"id": "8J6H8RM4+G68R", "height": 4.50615119934082, "hmax": 0.0, "ratio": 0.0, "vulnClass": "none"}}, {"type": "Feature", "geometry": {"type": "MultiPolygon", "coordinates": [[[[71.80574311, 34.33373378], [71.80556682, 34.3337143], [71.80555996, 34.33375702], [71.80573625, 34.3337765], [71.80574311, 34.33373378]]]]}, "properties": {"id": "8J6H8RM4+F7RX", "height": 4.256953716278076, "hmax": 0.0, "ratio": 0.0, "vulnClass": "none"}}, {"type": "Feature", "geometry": {"type": "MultiPolygon", "coordinates": [[[[71.80557734, 34.33364879], [71.80556106, 34.33364699], [71.80555054, 34.3337125], [71.80556682, 34.3337143], [71.80557734, 34.33364879]]]]}, "properties": {"id": "8J6H8RM4+F6G6", "height": 3.860229253768921, "hmax": 0.0, "ratio": 0.0, "vulnClass": "none"}}, {"type": "Feature", "geometry": {"type": "MultiPolygon", "coordinates": [[[[71.80531394, 34.33371113], [71.80527961, 34.33371058], [71.80527822, 34.33377059], [71.80531255, 34.33377113], [71.80531394, 34.33371113]]]]}, "properties": {"id": "8J6H8RM4+F4VM", "height": 4.221501350402832, "hmax": 0.0, "ratio": 0.0, "vulnClass": "none"}}, {"type": "Feature", "geometry": {"type": "MultiPolygon", "coordinates": [[[[71.80521817, 34.33364844], [71.80522451, 34.33371274], [71.80536883, 34.33370296], [71.80536249, 34.33363866], [71.80521817, 34.33364844]]]]}, "properties": {"id": "8J6H8RM4+F4F3", "height": 4.728296279907227, "hmax": 0.0, "ratio": 0.0, "vulnClass": "none"}}, {"type": "Feature", "geometry": {"type": "MultiPolygon", "coordinates": [[[[71.80552814, 34.33357295], [71.80548366, 34.33356884], [71.80545943, 34.33374929], [71.8055039, 34.3337534], [71.80552814, 34.33357295]]]]}, "properties": {"id": "8J6H8RM4+F59H", "height": 4.605596542358398, "hmax": 0.0, "ratio": 0.0, "vulnClass": "none"}}, {"type": "Feature", "geometry": {"type": "MultiPolygon", "coordinates": [[[[71.80554216, 34.33377581], [71.80557472, 34.33356418], [71.80553348, 34.33355981], [71.80550092, 34.33377144], [71.80554216, 34.33377581]]]]}, "properties": {"id": "8J6H8RM4+F67J", "height": 4.487046241760254, "hmax": 0.0, "ratio": 0.0, "vulnClass": "none"}}, {"type": "Feature", "geometry": {"type": "MultiPolygon", "coordinates": [[[[71.80598738, 34.33312356], [71.80590824, 34.33309126], [71.80588053, 34.333138], [71.80595967, 34.33317029], [71.80598738, 34.33312356]]]]}, "properties": {"id": "8J6H8RM4+7939", "height": 3.963546991348267, "hmax": 0.0, "ratio": 0.0, "vulnClass": "none"}}, {"type": "Feature", "geometry": {"type": "MultiPolygon", "coordinates": [[[[71.80589605, 34.33307866], [71.8057498, 34.33304748], [71.80571645, 34.33315512], [71.80580875, 34.3331748], [71.80581692, 34.3331484], [71.80587088, 34.3331599], [71.80589605, 34.33307866]]]]}, "properties": {"id": "8J6H8RM4+68VG", "height": 5.363542556762695, "hmax": 0.0, "ratio": 0.0, "vulnClass": "none"}}, {"type": "Feature", "geometry": {"type": "MultiPolygon", "coordinates": [[[[71.80620196, 34.3331196], [71.80615342, 34.33310538], [71.80614314, 34.33312956], [71.80619167, 34.33314377], [71.80620196, 34.3331196]]]]}, "properties": {"id": "8J6H8RM4+6FVW", "height": 4.307877540588379, "hmax": 0.0, "ratio": 0.0, "vulnClass": "none"}}, {"type": "Feature", "geometry": {"type": "MultiPolygon", "coordinates": [[[[71.80750821, 34.33319183], [71.807495, 34.33315026], [71.80736935, 34.33317775], [71.80738256, 34.33321932], [71.80750821, 34.33319183]]]]}, "properties": {"id": "8J6H8RM4+7XG6", "height": 2.461770057678223, "hmax": 0.0, "ratio": 0.0, "vulnClass": "none"}}, {"type": "Feature", "geometry": {"type": "MultiPolygon", "coordinates": [[[[71.80697583, 34.33341759], [71.80694822, 34.33333639], [71.80688392, 34.33335143], [71.80700966, 34.33372125], [71.80674313, 34.33378362], [71.8067708, 34.33386501], [71.80714353, 34.33377779], [71.80701773, 34.33340778], [71.80697583, 34.33341759]]]]}, "properties": {"id": "8J6H8RM4+FQ5R", "height": 4.803281307220459, "hmax": 0.0, "ratio": 0.0, "vulnClass": "none"}}, {"type": "Feature", "geometry": {"type": "MultiPolygon", "coordinates": [[[[71.80675843, 34.3338382], [71.80672366, 34.33383644], [71.80672171, 34.33386287], [71.80675648, 34.33386464], [71.80675843, 34.3338382]]]]}, "properties": {"id": "8J6H8RM4+GMX4", "height": 2.866361856460571, "hmax": 0.0, "ratio": 0.0, "vulnClass": "none"}}, {"type": "Feature", "geometry": {"type": "MultiPolygon", "coordinates": [[[[71.80718624, 34.33293823], [71.80716356, 34.33288807], [71.80710432, 34.33290651], [71.807127, 34.33295667], [71.80718624, 34.33293823]]]]}, "properties": {"id": "8J6H8RM4+5V6W", "height": 3.826722621917725, "hmax": 0.0, "ratio": 0.0, "vulnClass": "none"}}, {"type": "Feature", "geometry": {"type": "MultiPolygon", "coordinates": [[[[71.80711829, 34.33296293], [71.80709972, 34.33292409], [71.80704976, 34.33294053], [71.80706833, 34.33297936], [71.80711829, 34.33296293]]]]}, "properties": {"id": "8J6H8RM4+5RP4", "height": 3.0887770652771, "hmax": 0.0, "ratio": 0.0, "vulnClass": "none"}}, {"type": "Feature", "geometry": {"type": "MultiPolygon", "coordinates": [[[[71.80704947, 34.33297214], [71.8069895, 34.33298492], [71.80699803, 34.33301249], [71.807058, 34.33299972], [71.80704947, 34.33297214]]]]}, "properties": {"id": "8J6H8RM4+5RRQ", "height": 3.116495847702026, "hmax": 0.0, "ratio": 0.0, "vulnClass": "none"}}, {"type": "Feature", "geometry": {"type": "MultiPolygon", "coordinates": [[[[71.80688228, 34.33292169], [71.80681546, 34.33286123], [71.80672933, 34.33292674], [71.80679615, 34.3329872], [71.80688228, 34.33292169]]]]}, "properties": {"id": "8J6H8RM4+5P7X", "height": 3.976895093917847, "hmax": 0.0, "ratio": 0.0, "vulnClass": "none"}}, {"type": "Feature", "geometry": {"type": "MultiPolygon", "coordinates": [[[[71.80668257, 34.33437724], [71.80662322, 34.33437152], [71.80661886, 34.3344027], [71.80667821, 34.33440842], [71.80668257, 34.33437724]]]]}, "properties": {"id": "8J6H8RM4+QM2H", "height": 3.706035614013672, "hmax": 0.0, "ratio": 0.0, "vulnClass": "none"}}, {"type": "Feature", "geometry": {"type": "MultiPolygon", "coordinates": [[[[71.80527239, 34.33441353], [71.80521909, 34.33441375], [71.80521957, 34.33449014], [71.80527286, 34.33448992], [71.80527239, 34.33441353]]]]}, "properties": {"id": "8J6H8RM4+Q3Q5", "height": 2.517693996429443, "hmax": 0.0, "ratio": 0.0, "vulnClass": "none"}}, {"type": "Feature", "geometry": {"type": "MultiPolygon", "coordinates": [[[[71.80555302, 34.33434076], [71.80547777, 34.33434002], [71.80547723, 34.33437809], [71.80555248, 34.33437883], [71.80555302, 34.33434076]]]]}, "properties": {"id": "8J6H8RM4+P6R7", "height": 3.415762662887573, "hmax": 0.0, "ratio": 0.0, "vulnClass": "none"}}, {"type": "Feature", "geometry": {"type": "MultiPolygon", "coordinates": [[[[71.80547121, 34.33410004], [71.80532307, 34.33409598], [71.80532098, 34.33414847], [71.80546912, 34.33415253], [71.80547121, 34.33410004]]]]}, "properties": {"id": "8J6H8RM4+J5RW", "height": 2.740336656570435, "hmax": 0.0, "ratio": 0.0, "vulnClass": "none"}}, {"type": "Feature", "geometry": {"type": "MultiPolygon", "coordinates": [[[[71.80535259, 34.33400241], [71.80520842, 34.33399906], [71.80520655, 34.33405451], [71.80535072, 34.33405786], [71.80535259, 34.33400241]]]]}, "properties": {"id": "8J6H8RM4+J465", "height": 3.819129705429077, "hmax": 0.0, "ratio": 0.0, "vulnClass": "none"}}, {"type": "Feature", "geometry": {"type": "MultiPolygon", "coordinates": [[[[71.80530471, 34.33416572], [71.8052634, 34.33416448], [71.80526152, 34.33420738], [71.80530283, 34.33420862], [71.80530471, 34.33416572]]]]}, "properties": {"id": "8J6H8RM4+M4FC", "height": 3.173788070678711, "hmax": 0.0, "ratio": 0.0, "vulnClass": "none"}}, {"type": "Feature", "geometry": {"type": "MultiPolygon", "coordinates": [[[[71.80542702, 34.3342285], [71.80531066, 34.33422812], [71.8053105, 34.33426296], [71.80542685, 34.33426334], [71.80542702, 34.3342285]]]]}, "properties": {"id": "8J6H8RM4+M4XX", "height": 3.048308849334717, "hmax": 0.0, "ratio": 0.0, "vulnClass": "none"}}, {"type": "Feature", "geometry": {"type": "MultiPolygon", "coordinates": [[[[71.80523215, 34.33420303], [71.80519185, 34.33420395], [71.80519266, 34.33422829], [71.80523296, 34.33422737], [71.80523215, 34.33420303]]]]}, "properties": {"id": "8J6H8RM4+M3PQ", "height": 2.724627017974854, "hmax": 0.0, "ratio": 0.0, "vulnClass": "none"}}, {"type": "Feature", "geometry": {"type": "MultiPolygon", "coordinates": [[[[71.80502652, 34.33422466], [71.80502146, 34.33416969], [71.80495835, 34.33417368], [71.80496341, 34.33422865], [71.80502652, 34.33422466]]]]}, "properties": {"id": "8J6H8RM3+MXHX", "height": 4.978798866271973, "hmax": 0.0, "ratio": 0.0, "vulnClass": "none"}}, {"type": "Feature", "geometry": {"type": "MultiPolygon", "coordinates": [[[[71.80501823, 34.33410778], [71.80495913, 34.33410695], [71.80495791, 34.33416704], [71.80501701, 34.33416786], [71.80501823, 34.33410778]]]]}, "properties": {"id": "8J6H8RM3+MX5G", "height": 4.978798866271973, "hmax": 0.0, "ratio": 0.0, "vulnClass": "none"}}, {"type": "Feature", "geometry": {"type": "MultiPolygon", "coordinates": [[[[71.80523215, 34.33420303], [71.80522876, 34.33410126], [71.80518846, 34.33410218], [71.80519001, 34.33414863], [71.8051654, 34.33414919], [71.80516724, 34.33420452], [71.80523215, 34.33420303]]]]}, "properties": {"id": "8J6H8RM4+M387", "height": 3.515057325363159, "hmax": 0.0, "ratio": 0.0, "vulnClass": "none"}}, {"type": "Feature", "geometry": {"type": "MultiPolygon", "coordinates": [[[[71.80519654, 34.33400208], [71.80511888, 34.33400755], [71.80512298, 34.33404754], [71.80520063, 34.33404207], [71.80519654, 34.33400208]]]]}, "properties": {"id": "8J6H8RM4+J33R", "height": 3.877143383026123, "hmax": 0.0, "ratio": 0.0, "vulnClass": "none"}}, {"type": "Feature", "geometry": {"type": "MultiPolygon", "coordinates": [[[[71.80510735, 34.3340564], [71.80510868, 34.33401343], [71.80503898, 34.33401195], [71.80503765, 34.33405491], [71.80510735, 34.3340564]]]]}, "properties": {"id": "8J6H8RM4+J287", "height": 4.9033522605896, "hmax": 0.0, "ratio": 0.0, "vulnClass": "none"}}, {"type": "Feature", "geometry": {"type": "MultiPolygon", "coordinates": [[[[71.80503464, 34.33401387], [71.80486142, 34.33402145], [71.80486503, 34.3340782], [71.80503825, 34.33407062], [71.80503464, 34.33401387]]]]}, "properties": {"id": "8J6H8RM3+JX8V", "height": 5.014286041259766, "hmax": 0.0, "ratio": 0.0, "vulnClass": "none"}}, {"type": "Feature", "geometry": {"type": "MultiPolygon", "coordinates": [[[[71.80493859, 34.3341558], [71.8049349, 34.33411747], [71.80482108, 34.334125], [71.80482477, 34.33416333], [71.80493859, 34.3341558]]]]}, "properties": {"id": "8J6H8RM3+MX2J", "height": 4.083712100982666, "hmax": 0.0, "ratio": 0.0, "vulnClass": "none"}}, {"type": "Feature", "geometry": {"type": "MultiPolygon", "coordinates": [[[[71.80489163, 34.33420801], [71.80479808, 34.33418842], [71.80474821, 34.3343523], [71.80484176, 34.33437189], [71.80489163, 34.33420801]]]]}, "properties": {"id": "8J6H8RM3+PW86", "height": 3.312315940856934, "hmax": 0.0, "ratio": 0.0, "vulnClass": "none"}}, {"type": "Feature", "geometry": {"type": "MultiPolygon", "coordinates": [[[[71.80524441, 34.33426274], [71.80506403, 34.33426215], [71.80506341, 34.33439219], [71.80516128, 34.33439252], [71.80516149, 34.33434921], [71.805244, 34.33434948], [71.80524441, 34.33426274]]]]}, "properties": {"id": "8J6H8RM4+P3CP", "height": 4.740700244903564, "hmax": 0.0, "ratio": 0.0, "vulnClass": "none"}}, {"type": "Feature", "geometry": {"type": "MultiPolygon", "coordinates": [[[[71.8050632, 34.3343832], [71.8050639, 34.3343092], [71.8049749, 34.3343086], [71.8049734, 34.3344756], [71.8050278, 34.334476], [71.8050287, 34.334383], [71.8050632, 34.3343832]]]]}, "properties": {"id": "8J6H8RM4+Q227", "height": 4.100540637969971, "hmax": 0.0, "ratio": 0.0, "vulnClass": "none"}}, {"type": "Feature", "geometry": {"type": "MultiPolygon", "coordinates": [[[[71.80497425, 34.33438266], [71.80492211, 34.33438232], [71.80492193, 34.33440092], [71.80497408, 34.33440125], [71.80497425, 34.33438266]]]]}, "properties": {"id": "8J6H8RM3+QX4M", "height": 2.788937568664551, "hmax": 0.0, "ratio": 0.0, "vulnClass": "none"}}, {"type": "Feature", "geometry": {"type": "MultiPolygon", "coordinates": [[[[71.80497085, 34.33449121], [71.80497038, 34.33441482], [71.8047849, 34.33441561], [71.80478537, 34.334492], [71.80497085, 34.33449121]]]]}, "properties": {"id": "8J6H8RM3+QXJ2", "height": 3.279929637908936, "hmax": 0.0, "ratio": 0.0, "vulnClass": "none"}}, {"type": "Feature", "geometry": {"type": "MultiPolygon", "coordinates": [[[[71.80513488, 34.3347155], [71.80513492, 34.33475602], [71.80519276, 34.33475599], [71.80519272, 34.33471546], [71.80513488, 34.3347155]]]]}, "properties": {"id": "8J6H8RM4+V3VC", "height": 3.288825035095215, "hmax": 0.0, "ratio": 0.0, "vulnClass": "none"}}, {"type": "Feature", "geometry": {"type": "MultiPolygon", "coordinates": [[[[71.8052867, 34.3346716], [71.8051348, 34.3346717], [71.8051349, 34.3347155], [71.8051927, 34.3347155], [71.8051928, 34.3347458], [71.8052868, 34.3347458], [71.8052867, 34.3346716]]]]}, "properties": {"id": "8J6H8RM4+V3Q2", "height": 3.178457260131836, "hmax": 0.0, "ratio": 0.0, "vulnClass": "none"}}, {"type": "Feature", "geometry": {"type": "MultiPolygon", "coordinates": [[[[71.80527556, 34.33448788], [71.80522892, 34.33448758], [71.80522827, 34.3345573], [71.80527491, 34.3345576], [71.80527556, 34.33448788]]]]}, "properties": {"id": "8J6H8RM4+R42R", "height": 2.506265163421631, "hmax": 0.0, "ratio": 0.0, "vulnClass": "none"}}, {"type": "Feature", "geometry": {"type": "MultiPolygon", "coordinates": [[[[71.80556326, 34.33448804], [71.80552321, 34.33448541], [71.80551948, 34.3345244], [71.80555953, 34.33452704], [71.80556326, 34.33448804]]]]}, "properties": {"id": "8J6H8RM4+R637", "height": 2.452694892883301, "hmax": 0.0, "ratio": 0.0, "vulnClass": "none"}}, {"type": "Feature", "geometry": {"type": "MultiPolygon", "coordinates": [[[[71.80518577, 34.33483254], [71.80528786, 34.33483102], [71.80528595, 34.33474318], [71.80518387, 34.33474471], [71.80518577, 34.33483254]]]]}, "properties": {"id": "8J6H8RM4+W39G", "height": 3.17018461227417, "hmax": 0.0, "ratio": 0.0, "vulnClass": "none"}}, {"type": "Feature", "geometry": {"type": "MultiPolygon", "coordinates": [[[[71.80540289, 34.3348346], [71.80529621, 34.33484542], [71.80530061, 34.3348753], [71.80540729, 34.33486449], [71.80540289, 34.3348346]]]]}, "properties": {"id": "8J6H8RM4+W4X3", "height": 2.643874883651733, "hmax": 0.0, "ratio": 0.0, "vulnClass": "none"}}, {"type": "Feature", "geometry": {"type": "MultiPolygon", "coordinates": [[[[71.80512275, 34.33499568], [71.8050835, 34.33492829], [71.80496212, 34.33497694], [71.80500138, 34.33504433], [71.80512275, 34.33499568]]]]}, "properties": {"id": "8J6H8RM4+X2VF", "height": 4.191375732421875, "hmax": 0.0, "ratio": 0.0, "vulnClass": "none"}}, {"type": "Feature", "geometry": {"type": "MultiPolygon", "coordinates": [[[[71.80504779, 34.33490503], [71.80502251, 34.33491056], [71.8050334, 34.33494481], [71.80505868, 34.33493928], [71.80504779, 34.33490503]]]]}, "properties": {"id": "8J6H8RM4+X27V", "height": 2.501164436340332, "hmax": 0.0, "ratio": 0.0, "vulnClass": "none"}}, {"type": "Feature", "geometry": {"type": "MultiPolygon", "coordinates": [[[[71.80494737, 34.33495552], [71.80492117, 34.33495523], [71.8049208, 34.33497783], [71.804947, 34.33497812], [71.80494737, 34.33495552]]]]}, "properties": {"id": "8J6H8RM3+XXMQ", "height": 2.86443567276001, "hmax": 0.0, "ratio": 0.0, "vulnClass": "none"}}, {"type": "Feature", "geometry": {"type": "MultiPolygon", "coordinates": [[[[71.8051875, 34.33503952], [71.80515803, 34.33505632], [71.80519449, 34.33510034], [71.80522396, 34.33508354], [71.8051875, 34.33503952]]]]}, "properties": {"id": "8J6H8RP4+23GJ", "height": 3.179762363433838, "hmax": 0.0, "ratio": 0.0, "vulnClass": "none"}}, {"type": "Feature", "geometry": {"type": "MultiPolygon", "coordinates": [[[[71.80509118, 34.33512669], [71.80506125, 34.33503247], [71.80498421, 34.33504931], [71.80501414, 34.33514353], [71.80509118, 34.33512669]]]]}, "properties": {"id": "8J6H8RP4+22MC", "height": 4.316236019134521, "hmax": 0.0, "ratio": 0.0, "vulnClass": "none"}}, {"type": "Feature", "geometry": {"type": "MultiPolygon", "coordinates": [[[[71.8049808, 34.33507425], [71.80494671, 34.3350789], [71.80495537, 34.33512258], [71.80498947, 34.33511792], [71.8049808, 34.33507425]]]]}, "properties": {"id": "8J6H8RP3+2XPX", "height": 4.316236019134521, "hmax": 0.0, "ratio": 0.0, "vulnClass": "none"}}, {"type": "Feature", "geometry": {"type": "MultiPolygon", "coordinates": [[[[71.80531083, 34.33517385], [71.80522923, 34.33508474], [71.80515463, 34.33513174], [71.80523623, 34.33522086], [71.80531083, 34.33517385]]]]}, "properties": {"id": "8J6H8RP4+3393", "height": 2.877223014831543, "hmax": 0.0, "ratio": 0.0, "vulnClass": "none"}}, {"type": "Feature", "geometry": {"type": "MultiPolygon", "coordinates": [[[[71.80490873, 34.33528177], [71.80488932, 34.33521907], [71.80483452, 34.33523075], [71.80485394, 34.33529344], [71.80490873, 34.33528177]]]]}, "properties": {"id": "8J6H8RP3+4W59", "height": 2.466310501098633, "hmax": 0.0, "ratio": 0.0, "vulnClass": "none"}}, {"type": "Feature", "geometry": {"type": "MultiPolygon", "coordinates": [[[[71.80533887, 34.33509338], [71.80522201, 34.33497021], [71.80518772, 34.3349928], [71.80530457, 34.33511596], [71.80533887, 34.33509338]]]]}, "properties": {"id": "8J6H8RP4+246M", "height": 2.864154100418091, "hmax": 0.0, "ratio": 0.0, "vulnClass": "none"}}, {"type": "Feature", "geometry": {"type": "MultiPolygon", "coordinates": [[[[71.80607101, 34.33594337], [71.80612952, 34.33592777], [71.80611729, 34.33589618], [71.80605877, 34.33591178], [71.80607101, 34.33594337]]]]}, "properties": {"id": "8J6H8RP4+9C9J", "height": 2.905705451965332, "hmax": 0.0, "ratio": 0.0, "vulnClass": "none"}}, {"type": "Feature", "geometry": {"type": "MultiPolygon", "coordinates": [[[[71.80593943, 34.33590672], [71.80593999, 34.3358864], [71.80590316, 34.3358857], [71.8059026, 34.33590603], [71.80593943, 34.33590672]]]]}, "properties": {"id": "8J6H8RP4+993V", "height": 2.89915132522583, "hmax": 0.0, "ratio": 0.0, "vulnClass": "none"}}, {"type": "Feature", "geometry": {"type": "MultiPolygon", "coordinates": [[[[71.80588266, 34.33589801], [71.8058525, 34.33590812], [71.8058975, 34.33600048], [71.80596738, 34.33597705], [71.80593327, 34.33590703], [71.80589354, 34.33592035], [71.80588266, 34.33589801]]]]}, "properties": {"id": "8J6H8RP4+99FR", "height": 2.662433385848999, "hmax": 0.0, "ratio": 0.0, "vulnClass": "none"}}, {"type": "Feature", "geometry": {"type": "MultiPolygon", "coordinates": [[[[71.80460803, 34.33592229], [71.80451155, 34.3359266], [71.80452026, 34.33606075], [71.80465277, 34.33605483], [71.80464795, 34.33598053], [71.80461191, 34.33598214], [71.80460803, 34.33592229]]]]}, "properties": {"id": "8J6H8RP3+9RWV", "height": 2.696754932403564, "hmax": 0.0, "ratio": 0.0, "vulnClass": "none"}}, {"type": "Feature", "geometry": {"type": "MultiPolygon", "coordinates": [[[[71.80451711, 34.33582751], [71.80428815, 34.33582743], [71.80428813, 34.33587566], [71.80451708, 34.33587573], [71.80451711, 34.33582751]]]]}, "properties": {"id": "8J6H8RP3+8QR5", "height": 2.893795251846313, "hmax": 0.0, "ratio": 0.0, "vulnClass": "none"}}, {"type": "Feature", "geometry": {"type": "MultiPolygon", "coordinates": [[[[71.8038451, 34.3357117], [71.8037458, 34.3357119], [71.8037462, 34.3358208], [71.8038455, 34.3358205], [71.8038451, 34.3357117]]]]}, "properties": {"id": "8J6H8RP3+8G3M", "height": 5.860982894897461, "hmax": 0.0, "ratio": 0.0, "vulnClass": "none"}}, {"type": "Feature", "geometry": {"type": "MultiPolygon", "coordinates": [[[[71.80396151, 34.33573947], [71.80389247, 34.33574639], [71.80390919, 34.33586113], [71.80397822, 34.33585421], [71.80396151, 34.33573947]]]]}, "properties": {"id": "8J6H8RP3+8HF5", "height": 2.935231685638428, "hmax": 0.0, "ratio": 0.0, "vulnClass": "none"}}, {"type": "Feature", "geometry": {"type": "MultiPolygon", "coordinates": [[[[71.80388771, 34.33569034], [71.80387624, 34.33560819], [71.80372688, 34.33562254], [71.80373835, 34.33570469], [71.80388771, 34.33569034]]]]}, "properties": {"id": "8J6H8RP3+7G79", "height": 5.40959644317627, "hmax": 0.0, "ratio": 0.0, "vulnClass": "none"}}, {"type": "Feature", "geometry": {"type": "MultiPolygon", "coordinates": [[[[71.80398793, 34.33563077], [71.80388083, 34.33564106], [71.80389542, 34.33574555], [71.80400252, 34.33573526], [71.80398793, 34.33563077]]]]}, "properties": {"id": "8J6H8RP3+7HGC", "height": 3.366739511489868, "hmax": 0.0, "ratio": 0.0, "vulnClass": "none"}}, {"type": "Feature", "geometry": {"type": "MultiPolygon", "coordinates": [[[[71.80418654, 34.33556145], [71.80417381, 34.33549783], [71.80412719, 34.33550425], [71.80413269, 34.33553176], [71.80407574, 34.3355396], [71.80408297, 34.33557572], [71.80418654, 34.33556145]]]]}, "properties": {"id": "8J6H8RP3+6M6M", "height": 3.075076341629028, "hmax": 0.0, "ratio": 0.0, "vulnClass": "none"}}, {"type": "Feature", "geometry": {"type": "MultiPolygon", "coordinates": [[[[71.80400674, 34.3354801], [71.80396219, 34.33548352], [71.80396798, 34.3355353], [71.80401253, 34.33553187], [71.80400674, 34.3354801]]]]}, "properties": {"id": "8J6H8RP3+6H58", "height": 2.472127914428711, "hmax": 0.0, "ratio": 0.0, "vulnClass": "none"}}, {"type": "Feature", "geometry": {"type": "MultiPolygon", "coordinates": [[[[71.80402208, 34.33553633], [71.80396825, 34.33553611], [71.80396799, 34.33558081], [71.80402182, 34.33558102], [71.80402208, 34.33553633]]]]}, "properties": {"id": "8J6H8RP3+6HH9", "height": 2.499541759490967, "hmax": 0.0, "ratio": 0.0, "vulnClass": "none"}}, {"type": "Feature", "geometry": {"type": "MultiPolygon", "coordinates": [[[[71.80495826, 34.33519888], [71.8049411, 34.33514379], [71.80465759, 34.33520456], [71.80467475, 34.33525965], [71.80495826, 34.33519888]]]]}, "properties": {"id": "8J6H8RP3+3WM5", "height": 4.397285938262939, "hmax": 0.0, "ratio": 0.0, "vulnClass": "none"}}, {"type": "Feature", "geometry": {"type": "MultiPolygon", "coordinates": [[[[71.80430449, 34.33528384], [71.80413396, 34.3352975], [71.80414318, 34.3353767], [71.80431371, 34.33536304], [71.80430449, 34.33528384]]]]}, "properties": {"id": "8J6H8RP3+4MQ6", "height": 2.660449981689453, "hmax": 0.0, "ratio": 0.0, "vulnClass": "none"}}, {"type": "Feature", "geometry": {"type": "MultiPolygon", "coordinates": [[[[71.80397709, 34.33533819], [71.80394205, 34.33533844], [71.8039425, 34.33538348], [71.80397754, 34.33538324], [71.80397709, 34.33533819]]]]}, "properties": {"id": "8J6H8RP3+4HWG", "height": 2.8379065990448, "hmax": 0.0, "ratio": 0.0, "vulnClass": "none"}}, {"type": "Feature", "geometry": {"type": "MultiPolygon", "coordinates": [[[[71.80307349, 34.33506493], [71.80294181, 34.33504592], [71.802935, 34.33507838], [71.80295633, 34.33508146], [71.80294463, 34.33513722], [71.80305498, 34.33515315], [71.80307349, 34.33506493]]]]}, "properties": {"id": "8J6H8RP3+26JR", "height": 3.215078353881836, "hmax": 0.0, "ratio": 0.0, "vulnClass": "none"}}, {"type": "Feature", "geometry": {"type": "MultiPolygon", "coordinates": [[[[71.80290516, 34.33507238], [71.80276952, 34.3350623], [71.80276256, 34.33512667], [71.8028982, 34.33513675], [71.80290516, 34.33507238]]]]}, "properties": {"id": "8J6H8RP3+24PW", "height": 3.002549886703491, "hmax": 0.0, "ratio": 0.0, "vulnClass": "none"}}, {"type": "Feature", "geometry": {"type": "MultiPolygon", "coordinates": [[[[71.80289207, 34.33549574], [71.80279755, 34.33549004], [71.80279484, 34.33552088], [71.80288936, 34.33552659], [71.80289207, 34.33549574]]]]}, "properties": {"id": "8J6H8RP3+6449", "height": 2.60338020324707, "hmax": 0.0, "ratio": 0.0, "vulnClass": "none"}}, {"type": "Feature", "geometry": {"type": "MultiPolygon", "coordinates": [[[[71.80296389, 34.33553109], [71.80285826, 34.33552471], [71.80285183, 34.33559794], [71.80295747, 34.33560432], [71.80296389, 34.33553109]]]]}, "properties": {"id": "8J6H8RP3+65FC", "height": 2.855217456817627, "hmax": 0.0, "ratio": 0.0, "vulnClass": "none"}}, {"type": "Feature", "geometry": {"type": "MultiPolygon", "coordinates": [[[[71.80295255, 34.33560824], [71.80289934, 34.33561239], [71.80290236, 34.33563899], [71.80295557, 34.33563484], [71.80295255, 34.33560824]]]]}, "properties": {"id": "8J6H8RP3+65VW", "height": 3.312186717987061, "hmax": 0.0, "ratio": 0.0, "vulnClass": "none"}}, {"type": "Feature", "geometry": {"type": "MultiPolygon", "coordinates": [[[[71.80376842, 34.33589952], [71.80359559, 34.33589841], [71.80359437, 34.33602804], [71.80372555, 34.33602888], [71.80372639, 34.3359396], [71.80376804, 34.33593987], [71.80376842, 34.33589952]]]]}, "properties": {"id": "8J6H8RP3+9FM7", "height": 3.569506645202637, "hmax": 0.0, "ratio": 0.0, "vulnClass": "none"}}, {"type": "Feature", "geometry": {"type": "MultiPolygon", "coordinates": [[[[71.80232332, 34.33588087], [71.80227911, 34.33588127], [71.80228033, 34.33597315], [71.80232454, 34.33597275], [71.80232332, 34.33588087]]]]}, "properties": {"id": "8J6H8RP2+9WF4", "height": 3.17595911026001, "hmax": 0.0, "ratio": 0.0, "vulnClass": "none"}}, {"type": "Feature", "geometry": {"type": "MultiPolygon", "coordinates": [[[[71.80294197, 34.33572403], [71.80260324, 34.33570635], [71.8025973, 34.33578479], [71.8028645, 34.33579874], [71.80286079, 34.33584756], [71.80293231, 34.33585129], [71.80294197, 34.33572403]]]]}, "properties": {"id": "8J6H8RP3+843C", "height": 3.883373975753784, "hmax": 0.0, "ratio": 0.0, "vulnClass": "none"}}, {"type": "Feature", "geometry": {"type": "MultiPolygon", "coordinates": [[[[71.80283465, 34.33579536], [71.80272505, 34.33579054], [71.8027159, 34.33593362], [71.8028255, 34.33593845], [71.80283465, 34.33579536]]]]}, "properties": {"id": "8J6H8RP3+84RH", "height": 2.69035005569458, "hmax": 0.0, "ratio": 0.0, "vulnClass": "none"}}, {"type": "Feature", "geometry": {"type": "MultiPolygon", "coordinates": [[[[71.80264309, 34.33568131], [71.80265769, 34.33562367], [71.8026276, 34.33561843], [71.80261301, 34.33567607], [71.80264309, 34.33568131]]]]}, "properties": {"id": "8J6H8RP3+732V", "height": 2.838460445404053, "hmax": 0.0, "ratio": 0.0, "vulnClass": "none"}}, {"type": "Feature", "geometry": {"type": "MultiPolygon", "coordinates": [[[[71.80218464, 34.33574029], [71.80197795, 34.33574252], [71.80197867, 34.33578847], [71.80218536, 34.33578623], [71.80218464, 34.33574029]]]]}, "properties": {"id": "8J6H8RP2+8R4G", "height": 2.56675910949707, "hmax": 0.0, "ratio": 0.0, "vulnClass": "none"}}, {"type": "Feature", "geometry": {"type": "MultiPolygon", "coordinates": [[[[71.80230184, 34.33513179], [71.80230224, 34.33505486], [71.80220451, 34.33505451], [71.80220326, 34.335296], [71.80230099, 34.33529635], [71.80230163, 34.33517282], [71.80234239, 34.33517297], [71.8023426, 34.33513194], [71.80230184, 34.33513179]]]]}, "properties": {"id": "8J6H8RP2+3W6R", "height": 4.85669994354248, "hmax": 0.0, "ratio": 0.0, "vulnClass": "none"}}, {"type": "Feature", "geometry": {"type": "MultiPolygon", "coordinates": [[[[71.8022383, 34.3353188], [71.8021907, 34.33532325], [71.80220317, 34.33541509], [71.80225078, 34.33541064], [71.8022383, 34.3353188]]]]}, "properties": {"id": "8J6H8RP2+4VXJ", "height": 4.047266960144043, "hmax": 0.0, "ratio": 0.0, "vulnClass": "none"}}, {"type": "Feature", "geometry": {"type": "MultiPolygon", "coordinates": [[[[71.80218778, 34.33531769], [71.80214438, 34.33531751], [71.80214392, 34.33539375], [71.80218732, 34.33539393], [71.80218778, 34.33531769]]]]}, "properties": {"id": "8J6H8RP2+4VV7", "height": 3.915350198745728, "hmax": 0.0, "ratio": 0.0, "vulnClass": "none"}}, {"type": "Feature", "geometry": {"type": "MultiPolygon", "coordinates": [[[[71.80244042, 34.33534349], [71.80229609, 34.33534324], [71.80229598, 34.33538907], [71.8024403, 34.33538932], [71.80244042, 34.33534349]]]]}, "properties": {"id": "8J6H8RP2+4WXQ", "height": 2.681823492050171, "hmax": 0.0, "ratio": 0.0, "vulnClass": "none"}}, {"type": "Feature", "geometry": {"type": "MultiPolygon", "coordinates": [[[[71.80290117, 34.33530279], [71.80276531, 34.33527147], [71.80272557, 34.33539013], [71.80286143, 34.33542145], [71.80290117, 34.33530279]]]]}, "properties": {"id": "8J6H8RP3+44PR", "height": 4.057058334350586, "hmax": 0.0, "ratio": 0.0, "vulnClass": "none"}}, {"type": "Feature", "geometry": {"type": "MultiPolygon", "coordinates": [[[[71.80316797, 34.33420883], [71.80307877, 34.33420024], [71.80305115, 34.3343975], [71.80314035, 34.33440609], [71.80316797, 34.33420883]]]]}, "properties": {"id": "8J6H8RM3+P6H4", "height": 6.087201118469238, "hmax": 0.0, "ratio": 0.0, "vulnClass": "none"}}, {"type": "Feature", "geometry": {"type": "MultiPolygon", "coordinates": [[[[71.80317796, 34.33442427], [71.80328923, 34.33410869], [71.80318282, 34.33408287], [71.80314784, 34.33418209], [71.80320457, 34.33419586], [71.80312828, 34.33441221], [71.80317796, 34.33442427]]]]}, "properties": {"id": "8J6H8RM3+M7W4", "height": 5.987878799438477, "hmax": 0.0, "ratio": 0.0, "vulnClass": "none"}}, {"type": "Feature", "geometry": {"type": "MultiPolygon", "coordinates": [[[[71.80315604, 34.3341851], [71.80315434, 34.33410601], [71.80307615, 34.33410717], [71.80307785, 34.33418626], [71.80315604, 34.3341851]]]]}, "properties": {"id": "8J6H8RM3+M65W", "height": 4.606559753417969, "hmax": 0.0, "ratio": 0.0, "vulnClass": "none"}}, {"type": "Feature", "geometry": {"type": "MultiPolygon", "coordinates": [[[[71.80342444, 34.33448253], [71.80327158, 34.33444136], [71.80324423, 34.33451125], [71.80339709, 34.33455242], [71.80342444, 34.33448253]]]]}, "properties": {"id": "8J6H8RM3+Q8WW", "height": 3.701616525650024, "hmax": 0.0, "ratio": 0.0, "vulnClass": "none"}}, {"type": "Feature", "geometry": {"type": "MultiPolygon", "coordinates": [[[[71.80317094, 34.33442987], [71.80311825, 34.33442511], [71.80311415, 34.33445634], [71.80316684, 34.3344611], [71.80317094, 34.33442987]]]]}, "properties": {"id": "8J6H8RM3+Q7CP", "height": 5.099456787109375, "hmax": 0.0, "ratio": 0.0, "vulnClass": "none"}}, {"type": "Feature", "geometry": {"type": "MultiPolygon", "coordinates": [[[[71.80321069, 34.33443627], [71.80324035, 34.33435328], [71.80320338, 34.33434419], [71.80317372, 34.33442717], [71.80321069, 34.33443627]]]]}, "properties": {"id": "8J6H8RM3+Q74P", "height": 4.068123817443848, "hmax": 0.0, "ratio": 0.0, "vulnClass": "none"}}, {"type": "Feature", "geometry": {"type": "MultiPolygon", "coordinates": [[[[71.80313981, 34.33468969], [71.80309688, 34.33468389], [71.80308882, 34.33472488], [71.80319124, 34.33473874], [71.80320435, 34.33467206], [71.80314486, 34.33466401], [71.80313981, 34.33468969]]]]}, "properties": {"id": "8J6H8RM3+V7J5", "height": 4.319027423858643, "hmax": 0.0, "ratio": 0.0, "vulnClass": "none"}}, {"type": "Feature", "geometry": {"type": "MultiPolygon", "coordinates": [[[[71.80314589, 34.33466521], [71.80281881, 34.33462047], [71.80280584, 34.3346857], [71.8030903, 34.3347246], [71.80309886, 34.3346815], [71.80314149, 34.33468733], [71.80314589, 34.33466521]]]]}, "properties": {"id": "8J6H8RM3+V58X", "height": 5.229547500610352, "hmax": 0.0, "ratio": 0.0, "vulnClass": "none"}}, {"type": "Feature", "geometry": {"type": "MultiPolygon", "coordinates": [[[[71.80478358, 34.33490624], [71.80462198, 34.33490555], [71.80462164, 34.33496009], [71.80478324, 34.33496078], [71.80478358, 34.33490624]]]]}, "properties": {"id": "8J6H8RM3+XVG7", "height": 3.085375308990479, "hmax": 0.0, "ratio": 0.0, "vulnClass": "none"}}, {"type": "Feature", "geometry": {"type": "MultiPolygon", "coordinates": [[[[71.80473467, 34.33481042], [71.8046702, 34.33481487], [71.8046737, 34.33484977], [71.80473817, 34.33484531], [71.80473467, 34.33481042]]]]}, "properties": {"id": "8J6H8RM3+WVP8", "height": 3.904377222061157, "hmax": 0.0, "ratio": 0.0, "vulnClass": "none"}}, {"type": "Feature", "geometry": {"type": "MultiPolygon", "coordinates": [[[[71.80460093, 34.33458451], [71.80458414, 34.33451305], [71.80433439, 34.33455343], [71.80435118, 34.33462489], [71.80460093, 34.33458451]]]]}, "properties": {"id": "8J6H8RM3+RQGQ", "height": 2.864643335342407, "hmax": 0.0, "ratio": 0.0, "vulnClass": "none"}}, {"type": "Feature", "geometry": {"type": "MultiPolygon", "coordinates": [[[[71.80435462, 34.3342334], [71.80411751, 34.33422826], [71.8041137, 34.33434906], [71.8043508, 34.33435421], [71.80435462, 34.3342334]]]]}, "properties": {"id": "8J6H8RM3+PM9M", "height": 2.677426815032959, "hmax": 0.0, "ratio": 0.0, "vulnClass": "none"}}, {"type": "Feature", "geometry": {"type": "MultiPolygon", "coordinates": [[[[71.80403981, 34.33410499], [71.80394066, 34.33411115], [71.80394559, 34.33416577], [71.80404474, 34.33415961], [71.80403981, 34.33410499]]]]}, "properties": {"id": "8J6H8RM3+MH5H", "height": 3.004896640777588, "hmax": 0.0, "ratio": 0.0, "vulnClass": "none"}}, {"type": "Feature", "geometry": {"type": "MultiPolygon", "coordinates": [[[[71.80425626, 34.33411894], [71.80424659, 34.3340806], [71.80404301, 34.33411597], [71.80405269, 34.3341543], [71.80425626, 34.33411894]]]]}, "properties": {"id": "8J6H8RM3+JMRQ", "height": 2.824076652526855, "hmax": 0.0, "ratio": 0.0, "vulnClass": "none"}}, {"type": "Feature", "geometry": {"type": "MultiPolygon", "coordinates": [[[[71.80446065, 34.33415309], [71.80446762, 34.33401159], [71.8044257, 34.33401017], [71.80441873, 34.33415167], [71.80435653, 34.33414956], [71.8043382, 34.33452146], [71.80460996, 34.33453068], [71.80462828, 34.33415878], [71.80459859, 34.33415777], [71.80460013, 34.33412646], [71.80455294, 34.33412486], [71.8045514, 34.33415617], [71.80446065, 34.33415309]]]]}, "properties": {"id": "8J6H8RM3+PQHV", "height": 3.10303783416748, "hmax": 0.0, "ratio": 0.0, "vulnClass": "none"}}, {"type": "Feature", "geometry": {"type": "MultiPolygon", "coordinates": [[[[71.80475677, 34.3340609], [71.8047021, 34.33404747], [71.8046781, 34.33411467], [71.80473277, 34.3341281], [71.80475677, 34.3340609]]]]}, "properties": {"id": "8J6H8RM3+JVPH", "height": 3.249049186706543, "hmax": 0.0, "ratio": 0.0, "vulnClass": "none"}}, {"type": "Feature", "geometry": {"type": "MultiPolygon", "coordinates": [[[[71.80472064, 34.33399292], [71.80449232, 34.33399491], [71.80449276, 34.33402909], [71.80472108, 34.3340271], [71.80472064, 34.33399292]]]]}, "properties": {"id": "8J6H8RM3+JR5F", "height": 3.687959671020508, "hmax": 0.0, "ratio": 0.0, "vulnClass": "none"}}, {"type": "Feature", "geometry": {"type": "MultiPolygon", "coordinates": [[[[71.8043816, 34.33385228], [71.80426613, 34.33384626], [71.80424611, 34.33411069], [71.80436158, 34.3341167], [71.80435874, 34.33415427], [71.80441411, 34.33415716], [71.80442849, 34.33396716], [71.80437312, 34.33396428], [71.8043816, 34.33385228]]]]}, "properties": {"id": "8J6H8RM3+JP44", "height": 2.866082906723022, "hmax": 0.0, "ratio": 0.0, "vulnClass": "none"}}, {"type": "Feature", "geometry": {"type": "MultiPolygon", "coordinates": [[[[71.80478733, 34.33401755], [71.80460624, 34.33379288], [71.80456719, 34.33381454], [71.80474827, 34.33403921], [71.80478733, 34.33401755]]]]}, "properties": {"id": "8J6H8RM3+HV7P", "height": 4.210015773773193, "hmax": 0.0, "ratio": 0.0, "vulnClass": "none"}}, {"type": "Feature", "geometry": {"type": "MultiPolygon", "coordinates": [[[[71.80430568, 34.33366908], [71.80429081, 34.33359204], [71.8042204, 34.3336014], [71.80423527, 34.33367843], [71.80430568, 34.33366908]]]]}, "properties": {"id": "8J6H8RM3+FP2F", "height": 3.378890037536621, "hmax": 0.0, "ratio": 0.0, "vulnClass": "none"}}, {"type": "Feature", "geometry": {"type": "MultiPolygon", "coordinates": [[[[71.80421025, 34.33367718], [71.80417761, 34.33354916], [71.80413511, 34.33355662], [71.80415945, 34.33365206], [71.80407132, 34.33366752], [71.80407963, 34.3337001], [71.80421025, 34.33367718]]]]}, "properties": {"id": "8J6H8RM3+FM2H", "height": 3.718647480010986, "hmax": 0.0, "ratio": 0.0, "vulnClass": "none"}}, {"type": "Feature", "geometry": {"type": "MultiPolygon", "coordinates": [[[[71.80404186, 34.33360745], [71.8040211, 34.33355564], [71.8039813, 34.33356661], [71.80399107, 34.33359099], [71.80393182, 34.33360733], [71.80395234, 34.33365854], [71.80401159, 34.33364221], [71.80400206, 34.33361843], [71.80404186, 34.33360745]]]]}, "properties": {"id": "8J6H8RM3+CHX8", "height": 3.10501503944397, "hmax": 0.0, "ratio": 0.0, "vulnClass": "none"}}, {"type": "Feature", "geometry": {"type": "MultiPolygon", "coordinates": [[[[71.80404519, 34.33390917], [71.80400171, 34.33390791], [71.80399668, 34.3340281], [71.80404015, 34.33402936], [71.80404519, 34.33390917]]]]}, "properties": {"id": "8J6H8RM3+HJJP", "height": 3.258958339691162, "hmax": 0.0, "ratio": 0.0, "vulnClass": "none"}}, {"type": "Feature", "geometry": {"type": "MultiPolygon", "coordinates": [[[[71.80380437, 34.33377012], [71.80376247, 34.33365167], [71.80368459, 34.33367063], [71.8037265, 34.33378908], [71.80380437, 34.33377012]]]]}, "properties": {"id": "8J6H8RM3+FFQX", "height": 3.430140733718872, "hmax": 0.0, "ratio": 0.0, "vulnClass": "none"}}, {"type": "Feature", "geometry": {"type": "MultiPolygon", "coordinates": [[[[71.80474976, 34.33339991], [71.80466564, 34.333424], [71.8047007, 34.33350829], [71.80478482, 34.3334842], [71.80474976, 34.33339991]]]]}, "properties": {"id": "8J6H8RM3+9VQ2", "height": 5.684808254241943, "hmax": 0.0, "ratio": 0.0, "vulnClass": "none"}}, {"type": "Feature", "geometry": {"type": "MultiPolygon", "coordinates": [[[[71.79811321, 34.33584686], [71.79801618, 34.33582375], [71.79799367, 34.33588879], [71.79809069, 34.3359119], [71.79811321, 34.33584686]]]]}, "properties": {"id": "8J6H8QPX+86VP", "height": 2.62541389465332, "hmax": 0.0, "ratio": 0.0, "vulnClass": "none"}}, {"type": "Feature", "geometry": {"type": "MultiPolygon", "coordinates": [[[[71.79814116, 34.33576608], [71.79795039, 34.33572064], [71.79792243, 34.33580142], [71.79811321, 34.33584686], [71.79814116, 34.33576608]]]]}, "properties": {"id": "8J6H8QPX+8676", "height": 3.969873905181885, "hmax": 0.0, "ratio": 0.0, "vulnClass": "none"}}, {"type": "Feature", "geometry": {"type": "MultiPolygon", "coordinates": [[[[71.79800201, 34.33568958], [71.79804392, 34.33558536], [71.79799468, 34.33557173], [71.79795277, 34.33567596], [71.79800201, 34.33568958]]]]}, "properties": {"id": "8J6H8QPX+7559", "height": 3.118533134460449, "hmax": 0.0, "ratio": 0.0, "vulnClass": "none"}}, {"type": "Feature", "geometry": {"type": "MultiPolygon", "coordinates": [[[[71.79800519, 34.33568955], [71.79781309, 34.33563421], [71.79779708, 34.33567246], [71.79798918, 34.3357278], [71.79800519, 34.33568955]]]]}, "properties": {"id": "8J6H8QPX+75C9", "height": 3.667315721511841, "hmax": 0.0, "ratio": 0.0, "vulnClass": "none"}}, {"type": "Feature", "geometry": {"type": "MultiPolygon", "coordinates": [[[[71.79809531, 34.33654561], [71.79813151, 34.33649389], [71.79809529, 34.33647644], [71.79805909, 34.33652817], [71.79809531, 34.33654561]]]]}, "properties": {"id": "8J6H8QPX+J65C", "height": 2.757499933242798, "hmax": 0.0, "ratio": 0.0, "vulnClass": "none"}}, {"type": "Feature", "geometry": {"type": "MultiPolygon", "coordinates": [[[[71.7980087, 34.3365728], [71.7981253, 34.3364464], [71.7980524, 34.3364002], [71.7979359, 34.3365266], [71.7980087, 34.3365728]]]]}, "properties": {"id": "8J6H8QPX+H6RH", "height": 2.69170093536377, "hmax": 0.0, "ratio": 0.0, "vulnClass": "none"}}, {"type": "Feature", "geometry": {"type": "MultiPolygon", "coordinates": [[[[71.8001096, 34.33636693], [71.80005442, 34.33637349], [71.80007014, 34.33646446], [71.80012532, 34.33645789], [71.8001096, 34.33636693]]]]}, "properties": {"id": "8J6H8RP2+H28Q", "height": 4.222065925598145, "hmax": 0.0, "ratio": 0.0, "vulnClass": "none"}}, {"type": "Feature", "geometry": {"type": "MultiPolygon", "coordinates": [[[[71.80024153, 34.33633295], [71.80020238, 34.33633587], [71.80020578, 34.33636722], [71.80024492, 34.3363643], [71.80024153, 34.33633295]]]]}, "properties": {"id": "8J6H8RP2+G3X2", "height": 3.608110427856445, "hmax": 0.0, "ratio": 0.0, "vulnClass": "none"}}, {"type": "Feature", "geometry": {"type": "MultiPolygon", "coordinates": [[[[71.80007279, 34.33635239], [71.8000502, 34.33627142], [71.79984315, 34.33631118], [71.79986575, 34.33639215], [71.80007279, 34.33635239]]]]}, "properties": {"id": "8J6H8QPX+GXP8", "height": 3.135077476501465, "hmax": 0.0, "ratio": 0.0, "vulnClass": "none"}}, {"type": "Feature", "geometry": {"type": "MultiPolygon", "coordinates": [[[[71.80010185, 34.33662263], [71.80003052, 34.33657076], [71.79996264, 34.336635], [71.80003397, 34.33668687], [71.80010185, 34.33662263]]]]}, "properties": {"id": "8J6H8RP2+M232", "height": 2.67512059211731, "hmax": 0.0, "ratio": 0.0, "vulnClass": "none"}}, {"type": "Feature", "geometry": {"type": "MultiPolygon", "coordinates": [[[[71.80037791, 34.33667316], [71.80030385, 34.33667126], [71.80030258, 34.3367053], [71.80033471, 34.33670613], [71.80033328, 34.33674434], [71.80037521, 34.33674542], [71.80037791, 34.33667316]]]]}, "properties": {"id": "8J6H8RP2+M4Q2", "height": 2.697795629501343, "hmax": 0.0, "ratio": 0.0, "vulnClass": "none"}}, {"type": "Feature", "geometry": {"type": "MultiPolygon", "coordinates": [[[[71.80058795, 34.33677195], [71.80056021, 34.33677054], [71.80055741, 34.33680842], [71.80058515, 34.33680983], [71.80058795, 34.33677195]]]]}, "properties": {"id": "8J6H8RP2+P68M", "height": 2.749531507492065, "hmax": 0.0, "ratio": 0.0, "vulnClass": "none"}}, {"type": "Feature", "geometry": {"type": "MultiPolygon", "coordinates": [[[[71.79996418, 34.33653921], [71.79984592, 34.33645844], [71.79978012, 34.33652473], [71.79989837, 34.3366055], [71.79996418, 34.33653921]]]]}, "properties": {"id": "8J6H8QPX+JW99", "height": 2.910967826843262, "hmax": 0.0, "ratio": 0.0, "vulnClass": "none"}}, {"type": "Feature", "geometry": {"type": "MultiPolygon", "coordinates": [[[[71.79957614, 34.33661351], [71.79952211, 34.33661256], [71.79951969, 34.33670745], [71.79962824, 34.33670936], [71.79962716, 34.33675142], [71.79975204, 34.33675362], [71.79975312, 34.33671156], [71.79967103, 34.33671011], [71.79967213, 34.33666738], [71.79962933, 34.33666663], [71.79962981, 34.33664801], [71.79957528, 34.33664705], [71.79957614, 34.33661351]]]]}, "properties": {"id": "8J6H8QPX+MRHQ", "height": 2.4469153881073, "hmax": 0.0, "ratio": 0.0, "vulnClass": "none"}}, {"type": "Feature", "geometry": {"type": "MultiPolygon", "coordinates": [[[[71.79998944, 34.33706823], [71.79999197, 34.33701988], [71.79980936, 34.33701328], [71.79980099, 34.33717287], [71.7998523, 34.33717473], [71.79985359, 34.33715013], [71.79987625, 34.33715095], [71.79987968, 34.3370856], [71.79985702, 34.33708478], [71.79985814, 34.33706349], [71.79998944, 34.33706823]]]]}, "properties": {"id": "8J6H8QPX+RWQ5", "height": 2.889648914337158, "hmax": 0.0, "ratio": 0.0, "vulnClass": "none"}}, {"type": "Feature", "geometry": {"type": "MultiPolygon", "coordinates": [[[[71.79978893, 34.33700231], [71.79978767, 34.33696434], [71.79975509, 34.33696508], [71.79975636, 34.33700306], [71.79978893, 34.33700231]]]]}, "properties": {"id": "8J6H8QPX+QWR8", "height": 2.968679904937744, "hmax": 0.0, "ratio": 0.0, "vulnClass": "none"}}, {"type": "Feature", "geometry": {"type": "MultiPolygon", "coordinates": [[[[71.80402109, 34.33755459], [71.803971, 34.33755034], [71.80396629, 34.33758855], [71.80401638, 34.33759279], [71.80402109, 34.33755459]]]]}, "properties": {"id": "8J6H8RQ3+2HHX", "height": 2.475461006164551, "hmax": 0.0, "ratio": 0.0, "vulnClass": "none"}}, {"type": "Feature", "geometry": {"type": "MultiPolygon", "coordinates": [[[[71.80381422, 34.33758328], [71.80377209, 34.33758253], [71.80376884, 34.33770885], [71.80384243, 34.33771015], [71.80384356, 34.33766621], [71.80381211, 34.33766566], [71.80381422, 34.33758328]]]]}, "properties": {"id": "8J6H8RQ3+3G74", "height": 3.031310319900513, "hmax": 0.0, "ratio": 0.0, "vulnClass": "none"}}, {"type": "Feature", "geometry": {"type": "MultiPolygon", "coordinates": [[[[71.80432346, 34.33752157], [71.80427887, 34.33751584], [71.80426679, 34.3375805], [71.80431139, 34.33758623], [71.80432346, 34.33752157]]]]}, "properties": {"id": "8J6H8RQ3+2PF3", "height": 2.993780612945557, "hmax": 0.0, "ratio": 0.0, "vulnClass": "none"}}, {"type": "Feature", "geometry": {"type": "MultiPolygon", "coordinates": [[[[71.80449789, 34.33753033], [71.80444944, 34.3375251], [71.80443868, 34.33759372], [71.80448713, 34.33759894], [71.80449789, 34.33753033]]]]}, "properties": {"id": "8J6H8RQ3+2QGH", "height": 3.534702777862549, "hmax": 0.0, "ratio": 0.0, "vulnClass": "none"}}, {"type": "Feature", "geometry": {"type": "MultiPolygon", "coordinates": [[[[71.80455647, 34.33753665], [71.80449789, 34.33753033], [71.80448713, 34.33759894], [71.80454571, 34.33760527], [71.80455647, 34.33753665]]]]}, "properties": {"id": "8J6H8RQ3+2RCP", "height": 3.309047698974609, "hmax": 0.0, "ratio": 0.0, "vulnClass": "none"}}, {"type": "Feature", "geometry": {"type": "MultiPolygon", "coordinates": [[[[71.80472864, 34.33758008], [71.80464701, 34.33756872], [71.80463522, 34.33762703], [71.80471684, 34.33763839], [71.80472864, 34.33758008]]]]}, "properties": {"id": "8J6H8RQ3+2VV5", "height": 3.622217178344727, "hmax": 0.0, "ratio": 0.0, "vulnClass": "none"}}, {"type": "Feature", "geometry": {"type": "MultiPolygon", "coordinates": [[[[71.80464876, 34.33757205], [71.80462256, 34.33757176], [71.80462219, 34.33759436], [71.80464839, 34.33759465], [71.80464876, 34.33757205]]]]}, "properties": {"id": "8J6H8RQ3+2VJ7", "height": 3.622217178344727, "hmax": 0.0, "ratio": 0.0, "vulnClass": "none"}}, {"type": "Feature", "geometry": {"type": "MultiPolygon", "coordinates": [[[[71.80406766, 34.33727762], [71.80395579, 34.33725971], [71.80394677, 34.33729849], [71.80405864, 34.3373164], [71.80406766, 34.33727762]]]]}, "properties": {"id": "8J6H8RP3+WJ6C", "height": 2.465743064880371, "hmax": 0.0, "ratio": 0.0, "vulnClass": "none"}}, {"type": "Feature", "geometry": {"type": "MultiPolygon", "coordinates": [[[[71.80403528, 34.33734667], [71.8039812, 34.33733906], [71.80396664, 34.33741031], [71.80407714, 34.33742585], [71.80409733, 34.33732708], [71.80404091, 34.33731914], [71.80403528, 34.33734667]]]]}, "properties": {"id": "8J6H8RP3+WJVR", "height": 3.319591522216797, "hmax": 0.0, "ratio": 0.0, "vulnClass": "none"}}, {"type": "Feature", "geometry": {"type": "MultiPolygon", "coordinates": [[[[71.80319615, 34.33739819], [71.80310255, 34.33739679], [71.80309996, 34.33751664], [71.80319355, 34.33751803], [71.80319615, 34.33739819]]]]}, "properties": {"id": "8J6H8RP3+X7J8", "height": 2.640137195587158, "hmax": 0.0, "ratio": 0.0, "vulnClass": "none"}}, {"type": "Feature", "geometry": {"type": "MultiPolygon", "coordinates": [[[[71.80296541, 34.33738596], [71.80281563, 34.33736632], [71.80280878, 34.33740225], [71.80295856, 34.33742189], [71.80296541, 34.33738596]]]]}, "properties": {"id": "8J6H8RP3+X52M", "height": 3.005380868911743, "hmax": 0.0, "ratio": 0.0, "vulnClass": "none"}}, {"type": "Feature", "geometry": {"type": "MultiPolygon", "coordinates": [[[[71.80205008, 34.33655895], [71.80202191, 34.33656841], [71.80203121, 34.33658747], [71.80205938, 34.33657801], [71.80205008, 34.33655895]]]]}, "properties": {"id": "8J6H8RP2+JRFV", "height": 3.322167873382568, "hmax": 0.0, "ratio": 0.0, "vulnClass": "none"}}, {"type": "Feature", "geometry": {"type": "MultiPolygon", "coordinates": [[[[71.80205907, 34.33667469], [71.80205217, 34.33658783], [71.80195276, 34.33659326], [71.80195966, 34.33668012], [71.80205907, 34.33667469]]]]}, "properties": {"id": "8J6H8RP2+MR26", "height": 2.636568069458008, "hmax": 0.0, "ratio": 0.0, "vulnClass": "none"}}, {"type": "Feature", "geometry": {"type": "MultiPolygon", "coordinates": [[[[71.80205907, 34.33667469], [71.80201127, 34.3366773], [71.80201679, 34.33674691], [71.8020646, 34.3367443], [71.80205907, 34.33667469]]]]}, "properties": {"id": "8J6H8RP2+MRMC", "height": 2.706973075866699, "hmax": 0.0, "ratio": 0.0, "vulnClass": "none"}}, {"type": "Feature", "geometry": {"type": "MultiPolygon", "coordinates": [[[[71.80091115, 34.33656004], [71.80081721, 34.33656463], [71.80082047, 34.33661042], [71.8009144, 34.33660582], [71.80091115, 34.33656004]]]]}, "properties": {"id": "8J6H8RP2+J8QG", "height": 2.771324634552002, "hmax": 0.0, "ratio": 0.0, "vulnClass": "none"}}, {"type": "Feature", "geometry": {"type": "MultiPolygon", "coordinates": [[[[71.80154025, 34.33640711], [71.8015395, 34.33634938], [71.801322, 34.33635133], [71.80132275, 34.33640906], [71.80154025, 34.33640711]]]]}, "properties": {"id": "8J6H8RP2+HH35", "height": 2.729108333587646, "hmax": 0.0, "ratio": 0.0, "vulnClass": "none"}}, {"type": "Feature", "geometry": {"type": "MultiPolygon", "coordinates": [[[[71.80232562, 34.3360543], [71.80232491, 34.33600112], [71.8022459, 34.33600184], [71.80224661, 34.33605502], [71.80232562, 34.3360543]]]]}, "properties": {"id": "8J6H8RP2+CW72", "height": 3.293835163116455, "hmax": 0.0, "ratio": 0.0, "vulnClass": "none"}}, {"type": "Feature", "geometry": {"type": "MultiPolygon", "coordinates": [[[[71.80237011, 34.33626017], [71.8023681, 34.33611694], [71.80231453, 34.33611746], [71.80231591, 34.33621651], [71.80227742, 34.33621688], [71.80227704, 34.33618989], [71.80204506, 34.33619212], [71.80204605, 34.3362633], [71.80237011, 34.33626017]]]]}, "properties": {"id": "8J6H8RP2+FVQJ", "height": 3.086330890655518, "hmax": 0.0, "ratio": 0.0, "vulnClass": "none"}}, {"type": "Feature", "geometry": {"type": "MultiPolygon", "coordinates": [[[[71.80243944, 34.33625951], [71.80243844, 34.33618833], [71.8023902, 34.3361888], [71.8023912, 34.33625997], [71.80243944, 34.33625951]]]]}, "properties": {"id": "8J6H8RP2+FXMV", "height": 2.734777927398682, "hmax": 0.0, "ratio": 0.0, "vulnClass": "none"}}, {"type": "Feature", "geometry": {"type": "MultiPolygon", "coordinates": [[[[71.80260396, 34.336078], [71.80255628, 34.33608266], [71.80255965, 34.3361064], [71.80260733, 34.33610174], [71.80260396, 34.336078]]]]}, "properties": {"id": "8J6H8RP3+C2PP", "height": 2.614173889160156, "hmax": 0.0, "ratio": 0.0, "vulnClass": "none"}}, {"type": "Feature", "geometry": {"type": "MultiPolygon", "coordinates": [[[[71.80231353, 34.33605441], [71.80224661, 34.33605502], [71.80224695, 34.33608077], [71.80231387, 34.33608016], [71.80231353, 34.33605441]]]]}, "properties": {"id": "8J6H8RP2+CWCQ", "height": 3.244394302368164, "hmax": 0.0, "ratio": 0.0, "vulnClass": "none"}}, {"type": "Feature", "geometry": {"type": "MultiPolygon", "coordinates": [[[[71.80440474, 34.33643141], [71.80431903, 34.33643144], [71.80431906, 34.33649951], [71.80440476, 34.33649949], [71.80440474, 34.33643141]]]]}, "properties": {"id": "8J6H8RP3+HPQP", "height": 2.499640464782715, "hmax": 0.0, "ratio": 0.0, "vulnClass": "none"}}, {"type": "Feature", "geometry": {"type": "MultiPolygon", "coordinates": [[[[71.8044957, 34.33643139], [71.80440474, 34.33643141], [71.80440476, 34.33649949], [71.80449572, 34.33649947], [71.8044957, 34.33643139]]]]}, "properties": {"id": "8J6H8RP3+HQPM", "height": 2.534920930862427, "hmax": 0.0, "ratio": 0.0, "vulnClass": "none"}}, {"type": "Feature", "geometry": {"type": "MultiPolygon", "coordinates": [[[[71.80449522, 34.33638407], [71.80449501, 34.3364986], [71.80458878, 34.33649872], [71.80458891, 34.33643113], [71.80471317, 34.33643128], [71.80471326, 34.33638434], [71.80449522, 34.33638407]]]]}, "properties": {"id": "8J6H8RP3+HRG4", "height": 2.957066535949707, "hmax": 0.0, "ratio": 0.0, "vulnClass": "none"}}, {"type": "Feature", "geometry": {"type": "MultiPolygon", "coordinates": [[[[71.80448465, 34.3363158], [71.8044547, 34.33631507], [71.80445237, 34.33638094], [71.80448231, 34.33638167], [71.80448465, 34.3363158]]]]}, "properties": {"id": "8J6H8RP3+GQPX", "height": 2.958829402923584, "hmax": 0.0, "ratio": 0.0, "vulnClass": "none"}}, {"type": "Feature", "geometry": {"type": "MultiPolygon", "coordinates": [[[[71.8045893, 34.33621628], [71.80449553, 34.33621616], [71.80449522, 34.33638407], [71.80478883, 34.33638444], [71.8047889, 34.33634701], [71.80458906, 34.33634676], [71.8045893, 34.33621628]]]]}, "properties": {"id": "8J6H8RP3+GRGX", "height": 3.292050361633301, "hmax": 0.0, "ratio": 0.0, "vulnClass": "none"}}, {"type": "Feature", "geometry": {"type": "MultiPolygon", "coordinates": [[[[71.8039333, 34.336326], [71.8038206, 34.3363219], [71.8038114, 34.3364924], [71.8039923, 34.3364991], [71.8039946, 34.3364566], [71.8039264, 34.3364541], [71.8039333, 34.336326]]]]}, "properties": {"id": "8J6H8RP3+HH6M", "height": 2.544236421585083, "hmax": 0.0, "ratio": 0.0, "vulnClass": "none"}}, {"type": "Feature", "geometry": {"type": "MultiPolygon", "coordinates": [[[[71.80384902, 34.33626166], [71.80379522, 34.33625966], [71.80379193, 34.33632081], [71.80384573, 34.3363228], [71.80384902, 34.33626166]]]]}, "properties": {"id": "8J6H8RP3+GG8M", "height": 2.931602954864502, "hmax": 0.0, "ratio": 0.0, "vulnClass": "none"}}, {"type": "Feature", "geometry": {"type": "MultiPolygon", "coordinates": [[[[71.80385311, 34.33618554], [71.80379931, 34.33618354], [71.80379522, 34.33625966], [71.80384902, 34.33626166], [71.80385311, 34.33618554]]]]}, "properties": {"id": "8J6H8RP3+FGPV", "height": 2.858134746551514, "hmax": 0.0, "ratio": 0.0, "vulnClass": "none"}}, {"type": "Feature", "geometry": {"type": "MultiPolygon", "coordinates": [[[[71.80376804, 34.33593987], [71.80372639, 34.3359396], [71.80372555, 34.33602888], [71.8037672, 34.33602915], [71.80376804, 34.33593987]]]]}, "properties": {"id": "8J6H8RP3+9FX9", "height": 2.472296953201294, "hmax": 0.0, "ratio": 0.0, "vulnClass": "none"}}, {"type": "Feature", "geometry": {"type": "MultiPolygon", "coordinates": [[[[71.8045322, 34.3361286], [71.8044956, 34.3361286], [71.8044956, 34.336216], [71.8047509, 34.3362159], [71.8047509, 34.336169], [71.8045322, 34.336169], [71.8045322, 34.3361286]]]]}, "properties": {"id": "8J6H8RP3+FRHG", "height": 2.554652452468872, "hmax": 0.0, "ratio": 0.0, "vulnClass": "none"}}, {"type": "Feature", "geometry": {"type": "MultiPolygon", "coordinates": [[[[71.80453414, 34.3360463], [71.80448519, 34.3360459], [71.80448479, 34.33608077], [71.80453373, 34.33608116], [71.80453414, 34.3360463]]]]}, "properties": {"id": "8J6H8RP3+CRCF", "height": 2.525531530380249, "hmax": 0.0, "ratio": 0.0, "vulnClass": "none"}}, {"type": "Feature", "geometry": {"type": "MultiPolygon", "coordinates": [[[[71.80531354, 34.3362969], [71.80530085, 34.33623707], [71.80522909, 34.33624754], [71.80524178, 34.33630737], [71.80531354, 34.3362969]]]]}, "properties": {"id": "8J6H8RP4+G42W", "height": 2.978585243225098, "hmax": 0.0, "ratio": 0.0, "vulnClass": "none"}}, {"type": "Feature", "geometry": {"type": "MultiPolygon", "coordinates": [[[[71.80532643, 34.33631923], [71.80541908, 34.33629885], [71.80540952, 34.33626893], [71.80531687, 34.33628931], [71.80532643, 34.33631923]]]]}, "properties": {"id": "8J6H8RP4+G49Q", "height": 2.554673671722412, "hmax": 0.0, "ratio": 0.0, "vulnClass": "none"}}, {"type": "Feature", "geometry": {"type": "MultiPolygon", "coordinates": [[[[71.80529804, 34.3362304], [71.80527879, 34.33617017], [71.8051905, 34.33618958], [71.80520974, 34.33624982], [71.80529804, 34.3362304]]]]}, "properties": {"id": "8J6H8RP4+F3Q9", "height": 2.787409782409668, "hmax": 0.0, "ratio": 0.0, "vulnClass": "none"}}, {"type": "Feature", "geometry": {"type": "MultiPolygon", "coordinates": [[[[71.8067784, 34.3361328], [71.8067658, 34.3360447], [71.806608, 34.3360603], [71.8066119, 34.3360876], [71.8065697, 34.3360917], [71.8065784, 34.3361524], [71.8067784, 34.3361328]]]]}, "properties": {"id": "8J6H8RP4+CMV4", "height": 2.794674396514893, "hmax": 0.0, "ratio": 0.0, "vulnClass": "none"}}, {"type": "Feature", "geometry": {"type": "MultiPolygon", "coordinates": [[[[71.80640126, 34.33618362], [71.8063651, 34.33612118], [71.80622459, 34.33617717], [71.80626075, 34.33623961], [71.80640126, 34.33618362]]]]}, "properties": {"id": "8J6H8RP4+FGG6", "height": 2.983986854553223, "hmax": 0.0, "ratio": 0.0, "vulnClass": "none"}}, {"type": "Feature", "geometry": {"type": "MultiPolygon", "coordinates": [[[[71.80670528, 34.33627616], [71.80669721, 34.33623755], [71.80657138, 34.33625564], [71.80657944, 34.33629425], [71.80670528, 34.33627616]]]]}, "properties": {"id": "8J6H8RP4+GM2M", "height": 3.354908466339111, "hmax": 0.0, "ratio": 0.0, "vulnClass": "none"}}, {"type": "Feature", "geometry": {"type": "MultiPolygon", "coordinates": [[[[71.80525499, 34.33683714], [71.8052127, 34.33683807], [71.80521398, 34.33687815], [71.80525626, 34.33687722], [71.80525499, 34.33683714]]]]}, "properties": {"id": "8J6H8RP4+P3X8", "height": 3.357072353363037, "hmax": 0.0, "ratio": 0.0, "vulnClass": "none"}}, {"type": "Feature", "geometry": {"type": "MultiPolygon", "coordinates": [[[[71.80512988, 34.33666775], [71.805128, 34.33663322], [71.80507397, 34.33663524], [71.80507585, 34.33666977], [71.80512988, 34.33666775]]]]}, "properties": {"id": "8J6H8RP4+M293", "height": 2.652242660522461, "hmax": 0.0, "ratio": 0.0, "vulnClass": "none"}}, {"type": "Feature", "geometry": {"type": "MultiPolygon", "coordinates": [[[[71.80495725, 34.33653335], [71.80488768, 34.33653367], [71.80488837, 34.33663509], [71.80512291, 34.33663399], [71.80512241, 34.33655973], [71.80495744, 34.33656051], [71.80495725, 34.33653335]]]]}, "properties": {"id": "8J6H8RP3+JXQQ", "height": 2.595614194869995, "hmax": 0.0, "ratio": 0.0, "vulnClass": "none"}}, {"type": "Feature", "geometry": {"type": "MultiPolygon", "coordinates": [[[[71.80521258, 34.33686922], [71.80500628, 34.33687383], [71.80500905, 34.33695931], [71.80521535, 34.33695471], [71.80521258, 34.33686922]]]]}, "properties": {"id": "8J6H8RP4+Q29G", "height": 2.942530393600464, "hmax": 0.0, "ratio": 0.0, "vulnClass": "none"}}, {"type": "Feature", "geometry": {"type": "MultiPolygon", "coordinates": [[[[71.80704833, 34.33667967], [71.80698624, 34.33660628], [71.80694112, 34.33663255], [71.80700321, 34.33670594], [71.80704833, 34.33667967]]]]}, "properties": {"id": "8J6H8RP4+MQ99", "height": 3.638094902038574, "hmax": 0.0, "ratio": 0.0, "vulnClass": "none"}}, {"type": "Feature", "geometry": {"type": "MultiPolygon", "coordinates": [[[[71.80698425, 34.33670354], [71.80693037, 34.33664925], [71.80690022, 34.33666984], [71.8069541, 34.33672414], [71.80698425, 34.33670354]]]]}, "properties": {"id": "8J6H8RP4+MQGC", "height": 4.260136127471924, "hmax": 0.0, "ratio": 0.0, "vulnClass": "none"}}, {"type": "Feature", "geometry": {"type": "MultiPolygon", "coordinates": [[[[71.80704897, 34.33656616], [71.80701573, 34.33650916], [71.80695285, 34.33653438], [71.80698609, 34.33659138], [71.80704897, 34.33656616]]]]}, "properties": {"id": "8J6H8RP4+JRC2", "height": 3.131540298461914, "hmax": 0.0, "ratio": 0.0, "vulnClass": "none"}}, {"type": "Feature", "geometry": {"type": "MultiPolygon", "coordinates": [[[[71.80736643, 34.33652554], [71.80732508, 34.33654076], [71.80734125, 34.33657098], [71.8073826, 34.33655577], [71.80736643, 34.33652554]]]]}, "properties": {"id": "8J6H8RP4+JW9V", "height": 4.132419586181641, "hmax": 0.0, "ratio": 0.0, "vulnClass": "none"}}, {"type": "Feature", "geometry": {"type": "MultiPolygon", "coordinates": [[[[71.80731955, 34.33653767], [71.80729933, 34.33651398], [71.80723534, 34.33655156], [71.80725557, 34.33657526], [71.80731955, 34.33653767]]]]}, "properties": {"id": "8J6H8RP4+JW6Q", "height": 3.98826265335083, "hmax": 0.0, "ratio": 0.0, "vulnClass": "none"}}, {"type": "Feature", "geometry": {"type": "MultiPolygon", "coordinates": [[[[71.80732394, 34.33675839], [71.8072213, 34.33659546], [71.80716906, 34.33661811], [71.80727169, 34.33678104], [71.80732394, 34.33675839]]]]}, "properties": {"id": "8J6H8RP4+MVHH", "height": 2.758095502853394, "hmax": 0.0, "ratio": 0.0, "vulnClass": "none"}}, {"type": "Feature", "geometry": {"type": "MultiPolygon", "coordinates": [[[[71.80741343, 34.33654443], [71.8073826, 34.33655577], [71.80740664, 34.33660074], [71.80743747, 34.33658939], [71.80741343, 34.33654443]]]]}, "properties": {"id": "8J6H8RP4+JXFR", "height": 4.416633129119873, "hmax": 0.0, "ratio": 0.0, "vulnClass": "none"}}, {"type": "Feature", "geometry": {"type": "MultiPolygon", "coordinates": [[[[71.80758196, 34.33633935], [71.80749618, 34.33623408], [71.80739983, 34.3362881], [71.80748562, 34.33639337], [71.80758196, 34.33633935]]]]}, "properties": {"id": "8J6H8RP4+GXHG", "height": 3.567451000213623, "hmax": 0.0, "ratio": 0.0, "vulnClass": "none"}}, {"type": "Feature", "geometry": {"type": "MultiPolygon", "coordinates": [[[[71.80730803, 34.33624108], [71.80731037, 34.33620598], [71.80726768, 34.33620402], [71.80726534, 34.33623912], [71.80730803, 34.33624108]]]]}, "properties": {"id": "8J6H8RP4+FWMR", "height": 3.974143505096436, "hmax": 0.0, "ratio": 0.0, "vulnClass": "none"}}, {"type": "Feature", "geometry": {"type": "MultiPolygon", "coordinates": [[[[71.80726705, 34.33620229], [71.80720576, 34.33620569], [71.80720912, 34.33624736], [71.8072704, 34.33624397], [71.80726705, 34.33620229]]]]}, "properties": {"id": "8J6H8RP4+FVQW", "height": 3.106853008270264, "hmax": 0.0, "ratio": 0.0, "vulnClass": "none"}}, {"type": "Feature", "geometry": {"type": "MultiPolygon", "coordinates": [[[[71.80716026, 34.33628601], [71.80713847, 34.33628636], [71.80713904, 34.33631095], [71.80716083, 34.3363106], [71.80716026, 34.33628601]]]]}, "properties": {"id": "8J6H8RP4+GV6X", "height": 2.829238414764404, "hmax": 0.0, "ratio": 0.0, "vulnClass": "none"}}, {"type": "Feature", "geometry": {"type": "MultiPolygon", "coordinates": [[[[71.80688967, 34.33644727], [71.80685708, 34.33638084], [71.80672498, 34.33642648], [71.80675822, 34.33649269], [71.80688967, 34.33644727]]]]}, "properties": {"id": "8J6H8RP4+HPFH", "height": 2.710328102111816, "hmax": 0.0, "ratio": 0.0, "vulnClass": "none"}}, {"type": "Feature", "geometry": {"type": "MultiPolygon", "coordinates": [[[[71.806961, 34.3362753], [71.806911, 34.3362905], [71.8069532, 34.336386], [71.8068714, 34.3364109], [71.806889, 34.3364507], [71.8072566, 34.336448], [71.8072129, 34.3363492], [71.8070195, 34.336408], [71.806961, 34.3362753]]]]}, "properties": {"id": "8J6H8RP4+HR3X", "height": 4.593940258026123, "hmax": 0.0, "ratio": 0.0, "vulnClass": "none"}}, {"type": "Feature", "geometry": {"type": "MultiPolygon", "coordinates": [[[[71.80680975, 34.33629443], [71.80675913, 34.33629953], [71.80676475, 34.3363378], [71.80681536, 34.33633269], [71.80680975, 34.33629443]]]]}, "properties": {"id": "8J6H8RP4+GPFJ", "height": 3.123874664306641, "hmax": 0.0, "ratio": 0.0, "vulnClass": "none"}}, {"type": "Feature", "geometry": {"type": "MultiPolygon", "coordinates": [[[[71.80704214, 34.33622716], [71.80698497, 34.33622622], [71.80698429, 34.33625481], [71.80704146, 34.33625575], [71.80704214, 34.33622716]]]]}, "properties": {"id": "8J6H8RP4+FRRM", "height": 3.390262126922607, "hmax": 0.0, "ratio": 0.0, "vulnClass": "none"}}, {"type": "Feature", "geometry": {"type": "MultiPolygon", "coordinates": [[[[71.80715967, 34.33626026], [71.80707784, 34.33626156], [71.80707844, 34.33628732], [71.80716026, 34.33628601], [71.80715967, 34.33626026]]]]}, "properties": {"id": "8J6H8RP4+GR5X", "height": 2.725110054016113, "hmax": 0.0, "ratio": 0.0, "vulnClass": "none"}}, {"type": "Feature", "geometry": {"type": "MultiPolygon", "coordinates": [[[[71.8072042, 34.33618868], [71.80719838, 34.33610956], [71.80697067, 34.33612108], [71.80697649, 34.33620021], [71.8072042, 34.33618868]]]]}, "properties": {"id": "8J6H8RP4+FR85", "height": 3.917179107666016, "hmax": 0.0, "ratio": 0.0, "vulnClass": "none"}}, {"type": "Feature", "geometry": {"type": "MultiPolygon", "coordinates": [[[[71.80708515, 34.3360323], [71.80691999, 34.33604066], [71.80692607, 34.33612334], [71.80709123, 34.33611498], [71.80708515, 34.3360323]]]]}, "properties": {"id": "8J6H8RP4+CRJ2", "height": 3.421555995941162, "hmax": 0.0, "ratio": 0.0, "vulnClass": "none"}}, {"type": "Feature", "geometry": {"type": "MultiPolygon", "coordinates": [[[[71.80738267, 34.33609557], [71.80731248, 34.33609094], [71.80730763, 34.33614149], [71.80737781, 34.33614613], [71.80738267, 34.33609557]]]]}, "properties": {"id": "8J6H8RP4+CWXJ", "height": 2.903739213943481, "hmax": 0.0, "ratio": 0.0, "vulnClass": "none"}}, {"type": "Feature", "geometry": {"type": "MultiPolygon", "coordinates": [[[[71.79609335, 34.3372051], [71.79603496, 34.33705055], [71.79581176, 34.33710857], [71.79587015, 34.33726312], [71.79609335, 34.3372051]]]]}, "properties": {"id": "8J6H8QPW+V987", "height": 3.173646450042725, "hmax": 0.0, "ratio": 0.0, "vulnClass": "none"}}, {"type": "Feature", "geometry": {"type": "MultiPolygon", "coordinates": [[[[71.79585732, 34.33707285], [71.79582078, 34.33697613], [71.79575088, 34.3369943], [71.79578742, 34.33709102], [71.79585732, 34.33707285]]]]}, "properties": {"id": "8J6H8QPW+R878", "height": 3.137921810150146, "hmax": 0.0, "ratio": 0.0, "vulnClass": "none"}}, {"type": "Feature", "geometry": {"type": "MultiPolygon", "coordinates": [[[[71.7962537, 34.33718442], [71.79623959, 34.33709971], [71.79606982, 34.33711917], [71.79608393, 34.33720388], [71.7962537, 34.33718442]]]]}, "properties": {"id": "8J6H8QPW+VF72", "height": 2.480524063110352, "hmax": 0.0, "ratio": 0.0, "vulnClass": "none"}}, {"type": "Feature", "geometry": {"type": "MultiPolygon", "coordinates": [[[[71.79483464, 34.33724749], [71.79478739, 34.33719807], [71.79467375, 34.33727283], [71.794721, 34.33732226], [71.79483464, 34.33724749]]]]}, "properties": {"id": "8J6H8QPV+WW2C", "height": 2.674713611602783, "hmax": 0.0, "ratio": 0.0, "vulnClass": "none"}}, {"type": "Feature", "geometry": {"type": "MultiPolygon", "coordinates": [[[[71.79468915, 34.3373551], [71.79465825, 34.33732422], [71.79456815, 34.33738624], [71.79459904, 34.33741712], [71.79468915, 34.3373551]]]]}, "properties": {"id": "8J6H8QPV+WVRR", "height": 3.230017423629761, "hmax": 0.0, "ratio": 0.0, "vulnClass": "none"}}]}