{"type": "FeatureCollection", "features": [{"type": "Feature", "geometry": {"type": "MultiPolygon", "coordinates": [[[[71.99384725, 34.50070934], [71.99383843, 34.5006667], [71.99381105, 34.50067058], [71.99380268, 34.50063009], [71.99376318, 34.50063569], [71.99377156, 34.50067618], [71.99356649, 34.50070526], [71.99357531, 34.5007479], [71.99367842, 34.50073328], [71.99368701, 34.5007748], [71.99382847, 34.50075475], [71.99381988, 34.50071322], [71.99384725, 34.50070934]]]]}, "properties": {"id": "8J6HGX2V+7FQF", "height": 3.487163066864014, "hmax": 0.0, "ratio": 0.0, "vulnClass": "none"}}, {"type": "Feature", "geometry": {"type": "MultiPolygon", "coordinates": [[[[71.99361029, 34.50084184], [71.99361367, 34.50074962], [71.99353387, 34.50074762], [71.9935305, 34.50083983], [71.99361029, 34.50084184]]]]}, "properties": {"id": "8J6HGX2V+8C8M", "height": 3.021430730819702, "hmax": 0.0, "ratio": 0.0, "vulnClass": "none"}}, {"type": "Feature", "geometry": {"type": "MultiPolygon", "coordinates": [[[[71.99367668, 34.5007512], [71.99364541, 34.50075042], [71.99364481, 34.50076701], [71.99367608, 34.50076779], [71.99367668, 34.5007512]]]]}, "properties": {"id": "8J6HGX2V+8F36", "height": 3.445501327514648, "hmax": 0.0, "ratio": 0.0, "vulnClass": "none"}}, {"type": "Feature", "geometry": {"type": "MultiPolygon", "coordinates": [[[[71.99375036, 34.50059338], [71.99369871, 34.5005979], [71.99370207, 34.50062415], [71.99375371, 34.50061963], [71.99375036, 34.50059338]]]]}, "properties": {"id": "8J6HGX2V+6FX6", "height": 2.629917621612549, "hmax": 0.0, "ratio": 0.0, "vulnClass": "none"}}, {"type": "Feature", "geometry": {"type": "MultiPolygon", "coordinates": [[[[71.9959849, 34.50053193], [71.99577213, 34.50045076], [71.99567661, 34.50062236], [71.99588938, 34.50070354], [71.9959849, 34.50053193]]]]}, "properties": {"id": "8J6HGX2W+68P4", "height": 2.986150503158569, "hmax": 0.0, "ratio": 0.0, "vulnClass": "none"}}, {"type": "Feature", "geometry": {"type": "MultiPolygon", "coordinates": [[[[71.99540823, 34.5020781], [71.99536105, 34.50206759], [71.99535092, 34.50209878], [71.9953981, 34.50210928], [71.99540823, 34.5020781]]]]}, "properties": {"id": "8J6HGX2W+R5JC", "height": 3.182472229003906, "hmax": 0.0, "ratio": 0.0, "vulnClass": "none"}}, {"type": "Feature", "geometry": {"type": "MultiPolygon", "coordinates": [[[[71.99563095, 34.50204885], [71.99537876, 34.50199296], [71.99535337, 34.50207148], [71.99560557, 34.50212737], [71.99563095, 34.50204885]]]]}, "properties": {"id": "8J6HGX2W+R5HG", "height": 3.925110340118408, "hmax": 0.0, "ratio": 0.0, "vulnClass": "none"}}, {"type": "Feature", "geometry": {"type": "MultiPolygon", "coordinates": [[[[71.99563517, 34.5021739], [71.99559267, 34.50216715], [71.9955741, 34.5022472], [71.9956166, 34.50225396], [71.99563517, 34.5021739]]]]}, "properties": {"id": "8J6HGX2W+V6QF", "height": 4.777604103088379, "hmax": 0.0, "ratio": 0.0, "vulnClass": "none"}}, {"type": "Feature", "geometry": {"type": "MultiPolygon", "coordinates": [[[[71.99559131, 34.50217147], [71.9954487, 34.50213987], [71.99542156, 34.50222382], [71.99556417, 34.50225542], [71.99559131, 34.50217147]]]]}, "properties": {"id": "8J6HGX2W+V6CR", "height": 4.777604103088379, "hmax": 0.0, "ratio": 0.0, "vulnClass": "none"}}, {"type": "Feature", "geometry": {"type": "MultiPolygon", "coordinates": [[[[71.9953981, 34.50210928], [71.99535092, 34.50209878], [71.9953181, 34.50219975], [71.99536528, 34.50221026], [71.9953981, 34.50210928]]]]}, "properties": {"id": "8J6HGX2W+V493", "height": 3.182472229003906, "hmax": 0.0, "ratio": 0.0, "vulnClass": "none"}}, {"type": "Feature", "geometry": {"type": "MultiPolygon", "coordinates": [[[[71.99579647, 34.50222231], [71.99571323, 34.5022067], [71.99569649, 34.50226789], [71.99577973, 34.5022835], [71.99579647, 34.50222231]]]]}, "properties": {"id": "8J6HGX2W+V7XX", "height": 2.939929485321045, "hmax": 0.0, "ratio": 0.0, "vulnClass": "none"}}, {"type": "Feature", "geometry": {"type": "MultiPolygon", "coordinates": [[[[71.99939172, 34.50245422], [71.99936183, 34.50245496], [71.99936291, 34.50248494], [71.99939279, 34.5024842], [71.99939172, 34.50245422]]]]}, "properties": {"id": "8J6HGX2X+XQJJ", "height": 2.518527984619141, "hmax": 0.0, "ratio": 0.0, "vulnClass": "none"}}, {"type": "Feature", "geometry": {"type": "MultiPolygon", "coordinates": [[[[71.99941625, 34.50243557], [71.9993761, 34.50230968], [71.99914154, 34.50236096], [71.9991817, 34.50248685], [71.99922672, 34.50247701], [71.99921279, 34.50243333], [71.99934922, 34.5024035], [71.99936315, 34.50244718], [71.99941625, 34.50243557]]]]}, "properties": {"id": "8J6HGX2X+XP2H", "height": 2.481179237365723, "hmax": 0.0, "ratio": 0.0, "vulnClass": "none"}}, {"type": "Feature", "geometry": {"type": "MultiPolygon", "coordinates": [[[[71.99929669, 34.50059159], [71.99899843, 34.50051579], [71.99897031, 34.50059164], [71.99926857, 34.50066743], [71.99929669, 34.50059159]]]]}, "properties": {"id": "8J6HGX2X+6MJM", "height": 4.114017009735107, "hmax": 0.0, "ratio": 0.0, "vulnClass": "none"}}, {"type": "Feature", "geometry": {"type": "MultiPolygon", "coordinates": [[[[71.99942676, 34.50060251], [71.99930007, 34.50057543], [71.99927618, 34.50065201], [71.99940287, 34.5006791], [71.99942676, 34.50060251]]]]}, "properties": {"id": "8J6HGX2X+7P52", "height": 2.568250179290771, "hmax": 0.0, "ratio": 0.0, "vulnClass": "none"}}, {"type": "Feature", "geometry": {"type": "MultiPolygon", "coordinates": [[[[71.9987326, 34.4932324], [71.9986907, 34.4932375], [71.9987016, 34.4932984], [71.9987093, 34.493342], [71.9987513, 34.4933368], [71.9987326, 34.4932324]]]]}, "properties": {"id": "8J6HFXVX+8F9C", "height": 2.7315514087677, "hmax": 0.0, "ratio": 0.0, "vulnClass": "none"}}, {"type": "Feature", "geometry": {"type": "MultiPolygon", "coordinates": [[[[71.99079331, 34.49578097], [71.99077133, 34.49573718], [71.99067978, 34.49576868], [71.99070176, 34.49581247], [71.99079331, 34.49578097]]]]}, "properties": {"id": "8J6HFXWR+875W", "height": 2.541462898254395, "hmax": 0.0, "ratio": 0.0, "vulnClass": "none"}}, {"type": "Feature", "geometry": {"type": "MultiPolygon", "coordinates": [[[[71.99118635, 34.49571944], [71.9911381, 34.49565017], [71.99089713, 34.49576522], [71.99094538, 34.4958345], [71.99118635, 34.49571944]]]]}, "properties": {"id": "8J6HFXWR+7CVM", "height": 2.527774572372437, "hmax": 0.0, "ratio": 0.0, "vulnClass": "none"}}, {"type": "Feature", "geometry": {"type": "MultiPolygon", "coordinates": [[[[71.98901617, 34.49286721], [71.98886832, 34.49284245], [71.9888501, 34.492917], [71.98907943, 34.49295541], [71.98908981, 34.49291293], [71.98900834, 34.49289928], [71.98901617, 34.49286721]]]]}, "properties": {"id": "8J6HFXVQ+5H84", "height": 2.522749423980713, "hmax": 0.0, "ratio": 0.0, "vulnClass": "none"}}, {"type": "Feature", "geometry": {"type": "MultiPolygon", "coordinates": [[[[71.9878714, 34.49556075], [71.98775084, 34.49553069], [71.98769555, 34.49568269], [71.98781611, 34.49571275], [71.9878714, 34.49556075]]]]}, "properties": {"id": "8J6HFXWQ+64VR", "height": 2.450884103775024, "hmax": 0.0, "ratio": 0.0, "vulnClass": "none"}}, {"type": "Feature", "geometry": {"type": "MultiPolygon", "coordinates": [[[[71.99220266, 34.48824647], [71.9920755, 34.48824192], [71.99207126, 34.48832318], [71.99219842, 34.48832773], [71.99220266, 34.48824647]]]]}, "properties": {"id": "8J6HFXQR+8V67", "height": 2.783418655395508, "hmax": 0.0, "ratio": 0.0, "vulnClass": "none"}}, {"type": "Feature", "geometry": {"type": "MultiPolygon", "coordinates": [[[[71.98973776, 34.49058891], [71.98970552, 34.49058898], [71.98970565, 34.49062704], [71.98973788, 34.49062697], [71.98973776, 34.49058891]]]]}, "properties": {"id": "8J6HFXRQ+6VX6", "height": 2.916118144989014, "hmax": 0.0, "ratio": 0.0, "vulnClass": "none"}}, {"type": "Feature", "geometry": {"type": "MultiPolygon", "coordinates": [[[[71.98979276, 34.4907505], [71.98970604, 34.49074857], [71.98970215, 34.49086805], [71.98992008, 34.49087291], [71.989923, 34.49078316], [71.98979179, 34.49078023], [71.98979276, 34.4907505]]]]}, "properties": {"id": "8J6HFXRQ+8WFQ", "height": 3.734969615936279, "hmax": 0.0, "ratio": 0.0, "vulnClass": "none"}}, {"type": "Feature", "geometry": {"type": "MultiPolygon", "coordinates": [[[[71.98952692, 34.49106809], [71.98942173, 34.49106387], [71.98941808, 34.49112627], [71.98952327, 34.49113049], [71.98952692, 34.49106809]]]]}, "properties": {"id": "8J6HFXRQ+CQQR", "height": 2.918194532394409, "hmax": 0.0, "ratio": 0.0, "vulnClass": "none"}}, {"type": "Feature", "geometry": {"type": "MultiPolygon", "coordinates": [[[[71.98942259, 34.49106435], [71.98933497, 34.49106048], [71.98933169, 34.49111131], [71.98941931, 34.49111518], [71.98942259, 34.49106435]]]]}, "properties": {"id": "8J6HFXRQ+CQJC", "height": 2.918194532394409, "hmax": 0.0, "ratio": 0.0, "vulnClass": "none"}}, {"type": "Feature", "geometry": {"type": "MultiPolygon", "coordinates": [[[[71.98931351, 34.49129556], [71.98916686, 34.49129017], [71.98916206, 34.49137956], [71.98930871, 34.49138495], [71.98931351, 34.49129556]]]]}, "properties": {"id": "8J6HFXRQ+GMQG", "height": 4.275078773498535, "hmax": 0.0, "ratio": 0.0, "vulnClass": "none"}}, {"type": "Feature", "geometry": {"type": "MultiPolygon", "coordinates": [[[[71.98928596, 34.4913867], [71.98921745, 34.4913841], [71.98921611, 34.49140828], [71.98928462, 34.49141088], [71.98928596, 34.4913867]]]]}, "properties": {"id": "8J6HFXRQ+HP2R", "height": 2.932326793670654, "hmax": 0.0, "ratio": 0.0, "vulnClass": "none"}}, {"type": "Feature", "geometry": {"type": "MultiPolygon", "coordinates": [[[[71.98931164, 34.4914119], [71.98928462, 34.49141088], [71.98927496, 34.49158568], [71.989334, 34.49158792], [71.98933843, 34.49150793], [71.9893064, 34.49150672], [71.98931164, 34.4914119]]]]}, "properties": {"id": "8J6HFXRQ+JP3P", "height": 3.819676399230957, "hmax": 0.0, "ratio": 0.0, "vulnClass": "none"}}, {"type": "Feature", "geometry": {"type": "MultiPolygon", "coordinates": [[[[71.99183391, 34.49066817], [71.99179262, 34.49065774], [71.99176501, 34.49073269], [71.99185002, 34.49075416], [71.99186441, 34.49071509], [71.99182069, 34.49070405], [71.99183391, 34.49066817]]]]}, "properties": {"id": "8J6HFXRR+7PMH", "height": 3.090086221694946, "hmax": 0.0, "ratio": 0.0, "vulnClass": "none"}}, {"type": "Feature", "geometry": {"type": "MultiPolygon", "coordinates": [[[[71.99205268, 34.48864124], [71.99200614, 34.4886294], [71.99194259, 34.48880062], [71.99222981, 34.48887371], [71.99226919, 34.4887676], [71.99219863, 34.48874965], [71.99218774, 34.48877898], [71.99201763, 34.4887357], [71.99205268, 34.48864124]]]]}, "properties": {"id": "8J6HFXQR+GR92", "height": 2.949250936508179, "hmax": 0.0, "ratio": 0.0, "vulnClass": "none"}}, {"type": "Feature", "geometry": {"type": "MultiPolygon", "coordinates": [[[[71.99343088, 34.48945381], [71.99338306, 34.48944865], [71.99337579, 34.48949483], [71.99342361, 34.48949999], [71.99343088, 34.48945381]]]]}, "properties": {"id": "8J6HFXQV+Q9JX", "height": 3.028398513793945, "hmax": 0.0, "ratio": 0.0, "vulnClass": "none"}}, {"type": "Feature", "geometry": {"type": "MultiPolygon", "coordinates": [[[[71.9931754, 34.48926593], [71.99314501, 34.48926465], [71.99314311, 34.48929557], [71.99317349, 34.48929686], [71.9931754, 34.48926593]]]]}, "properties": {"id": "8J6HFXQV+P776", "height": 2.495244026184082, "hmax": 0.0, "ratio": 0.0, "vulnClass": "none"}}, {"type": "Feature", "geometry": {"type": "MultiPolygon", "coordinates": [[[[71.99292811, 34.49012409], [71.99274026, 34.49005693], [71.9927082, 34.49011842], [71.99292773, 34.49019691], [71.99294376, 34.49016617], [71.99291207, 34.49015484], [71.99292811, 34.49012409]]]]}, "properties": {"id": "8J6HFXRV+3443", "height": 3.755512237548828, "hmax": 0.0, "ratio": 0.0, "vulnClass": "none"}}, {"type": "Feature", "geometry": {"type": "MultiPolygon", "coordinates": [[[[71.9972706, 34.4908802], [71.9972277, 34.4909632], [71.9973178, 34.4909951], [71.9973606, 34.490912], [71.9972706, 34.4908802]]]]}, "properties": {"id": "8J6HFXRW+9WFF", "height": 2.588134050369263, "hmax": 0.0, "ratio": 0.0, "vulnClass": "none"}}, {"type": "Feature", "geometry": {"type": "MultiPolygon", "coordinates": [[[[71.99791403, 34.49222482], [71.99792767, 34.49217501], [71.99789616, 34.49216909], [71.99788252, 34.4922189], [71.99791403, 34.49222482]]]]}, "properties": {"id": "8J6HFXRX+V5CX", "height": 2.974339962005615, "hmax": 0.0, "ratio": 0.0, "vulnClass": "none"}}, {"type": "Feature", "geometry": {"type": "MultiPolygon", "coordinates": [[[[71.99828652, 34.49224711], [71.99830673, 34.49214624], [71.99825362, 34.49213894], [71.99823342, 34.49223981], [71.99828652, 34.49224711]]]]}, "properties": {"id": "8J6HFXRX+V8CP", "height": 2.737406730651855, "hmax": 0.0, "ratio": 0.0, "vulnClass": "none"}}, {"type": "Feature", "geometry": {"type": "MultiPolygon", "coordinates": [[[[71.99854109, 34.49213816], [71.99835395, 34.49213222], [71.99835054, 34.49220602], [71.99853768, 34.49221196], [71.99854109, 34.49213816]]]]}, "properties": {"id": "8J6HFXRX+V98V", "height": 3.126661777496338, "hmax": 0.0, "ratio": 0.0, "vulnClass": "none"}}, {"type": "Feature", "geometry": {"type": "MultiPolygon", "coordinates": [[[[72.00082568, 34.49010539], [72.00082581, 34.49006356], [72.00074801, 34.49006339], [72.00074789, 34.49010523], [72.00082568, 34.49010539]]]]}, "properties": {"id": "8J6JF2R2+28M6", "height": 4.21025276184082, "hmax": 0.0, "ratio": 0.0, "vulnClass": "none"}}]}