{"type": "FeatureCollection", "features": [{"type": "Feature", "geometry": {"type": "MultiPolygon", "coordinates": [[[[71.93034165, 34.56253261], [71.93020836, 34.56256091], [71.93022754, 34.56262216], [71.93036083, 34.56259384], [71.93034165, 34.56253261]]]]}, "properties": {"id": "Pakistan_123102132_293534", "height": 4.789407253265381, "hmax": 0.0, "ratio": 0.0, "vulnClass": "none"}}, {"type": "Feature", "geometry": {"type": "MultiPolygon", "coordinates": [[[[71.92982843, 34.56259024], [71.9299027, 34.56259674], [71.92990917, 34.5625465], [71.92983491, 34.56254001], [71.92982843, 34.56259024]]]]}, "properties": {"id": "Pakistan_123102132_336606", "height": 2.46718692779541, "hmax": 0.0, "ratio": 0.0, "vulnClass": "none"}}, {"type": "Feature", "geometry": {"type": "MultiPolygon", "coordinates": [[[[71.929081, 34.56270812], [71.92920435, 34.56270976], [71.92920712, 34.56256843], [71.92887193, 34.56256397], [71.92886985, 34.56266996], [71.92908169, 34.56267278], [71.929081, 34.56270812]]]]}, "properties": {"id": "Pakistan_123102132_241181", "height": 5.286252975463867, "hmax": 0.0, "ratio": 0.0, "vulnClass": "none"}}, {"type": "Feature", "geometry": {"type": "MultiPolygon", "coordinates": [[[[71.9279318, 34.55559855], [71.92777928, 34.55554051], [71.92769285, 34.55569459], [71.92779232, 34.55573244], [71.92784338, 34.55564141], [71.92789643, 34.55566159], [71.9279318, 34.55559855]]]]}, "properties": {"id": "Pakistan_123102132_268976", "height": 2.956976652145386, "hmax": 0.0, "ratio": 0.0, "vulnClass": "none"}}, {"type": "Feature", "geometry": {"type": "MultiPolygon", "coordinates": [[[[71.92774298, 34.56227957], [71.92758642, 34.56227646], [71.92758268, 34.5624045], [71.92773925, 34.56240761], [71.92774298, 34.56227957]]]]}, "properties": {"id": "Pakistan_123102132_204376", "height": 4.890249252319336, "hmax": 0.0, "ratio": 0.0, "vulnClass": "none"}}, {"type": "Feature", "geometry": {"type": "MultiPolygon", "coordinates": [[[[71.92799541, 34.56244402], [71.92820019, 34.56246883], [71.92822362, 34.56233776], [71.92801884, 34.56231294], [71.92799541, 34.56244402]]]]}, "properties": {"id": "Pakistan_123102132_509130", "height": 4.151824951171875, "hmax": 0.0, "ratio": 0.0, "vulnClass": "none"}}, {"type": "Feature", "geometry": {"type": "MultiPolygon", "coordinates": [[[[71.92829716, 34.56235128], [71.92829474, 34.56236733], [71.92823927, 34.56236168], [71.92823175, 34.56241172], [71.92826873, 34.56241549], [71.92826167, 34.56246253], [71.9284598, 34.56248271], [71.9284768, 34.56236958], [71.92829716, 34.56235128]]]]}, "properties": {"id": "Pakistan_123102132_86788", "height": 3.416501522064209, "hmax": 0.0, "ratio": 0.0, "vulnClass": "none"}}, {"type": "Feature", "geometry": {"type": "MultiPolygon", "coordinates": [[[[71.9286149, 34.56255663], [71.92881631, 34.56260476], [71.92884932, 34.56251104], [71.92864793, 34.56246292], [71.9286149, 34.56255663]]]]}, "properties": {"id": "Pakistan_123102132_358133", "height": 3.91760778427124, "hmax": 0.0, "ratio": 0.0, "vulnClass": "none"}}, {"type": "Feature", "geometry": {"type": "MultiPolygon", "coordinates": [[[[71.9301033, 34.56189827], [71.93006601, 34.56188965], [71.93005553, 34.56192035], [71.93009282, 34.56192898], [71.9301033, 34.56189827]]]]}, "properties": {"id": "Pakistan_123102132_370364", "height": 3.574649810791016, "hmax": 0.0, "ratio": 0.0, "vulnClass": "none"}}, {"type": "Feature", "geometry": {"type": "MultiPolygon", "coordinates": [[[[71.92999507, 34.56182139], [71.9299801, 34.56187371], [71.93007511, 34.56189214], [71.93009008, 34.56183982], [71.92999507, 34.56182139]]]]}, "properties": {"id": "Pakistan_123102132_89912", "height": 2.611093044281006, "hmax": 0.0, "ratio": 0.0, "vulnClass": "none"}}, {"type": "Feature", "geometry": {"type": "MultiPolygon", "coordinates": [[[[71.93456036, 34.55687633], [71.93462533, 34.55693093], [71.93469374, 34.55687571], [71.93462877, 34.55682111], [71.93456036, 34.55687633]]]]}, "properties": {"id": "Pakistan_123102132_379609", "height": 3.427276372909546, "hmax": 0.0, "ratio": 0.0, "vulnClass": "none"}}, {"type": "Feature", "geometry": {"type": "MultiPolygon", "coordinates": [[[[71.93103752, 34.55861067], [71.93102123, 34.55865413], [71.93106531, 34.55866534], [71.93112352, 34.55851005], [71.93098149, 34.55847394], [71.93098493, 34.55846476], [71.93089432, 34.55844172], [71.93091658, 34.55838233], [71.93082843, 34.55835992], [71.93078307, 34.55848092], [71.93078902, 34.55848244], [71.93075273, 34.55857924], [71.93080905, 34.55859356], [71.93082308, 34.55855614], [71.93103752, 34.55861067]]]]}, "properties": {"id": "Pakistan_123102132_268997", "height": 4.723394393920898, "hmax": 0.0, "ratio": 0.0, "vulnClass": "none"}}, {"type": "Feature", "geometry": {"type": "MultiPolygon", "coordinates": [[[[71.9314291, 34.5571882], [71.9313506, 34.5572915], [71.9321143, 34.5576852], [71.9321928, 34.5575819], [71.9314291, 34.5571882]]]]}, "properties": {"id": "842377599", "height": 3.143522500991821, "hmax": 0.0, "ratio": 0.0, "vulnClass": "none"}}, {"type": "Feature", "geometry": {"type": "MultiPolygon", "coordinates": [[[[71.93334291, 34.55707433], [71.93343748, 34.55724681], [71.93353997, 34.55720869], [71.9334454, 34.55703622], [71.93334291, 34.55707433]]]]}, "properties": {"id": "Pakistan_123102132_37700", "height": 3.128073215484619, "hmax": 0.0, "ratio": 0.0, "vulnClass": "none"}}, {"type": "Feature", "geometry": {"type": "MultiPolygon", "coordinates": [[[[71.9321125, 34.55631182], [71.93201925, 34.55605417], [71.93191825, 34.55607897], [71.93201151, 34.55633662], [71.9321125, 34.55631182]]]]}, "properties": {"id": "Pakistan_123102132_22527", "height": 3.109262466430664, "hmax": 0.0, "ratio": 0.0, "vulnClass": "none"}}, {"type": "Feature", "geometry": {"type": "MultiPolygon", "coordinates": [[[[71.93186526, 34.55609576], [71.9319729, 34.55634978], [71.93201354, 34.5563381], [71.93190591, 34.55608408], [71.93186526, 34.55609576]]]]}, "properties": {"id": "Pakistan_123102132_157863", "height": 3.483574867248535, "hmax": 0.0, "ratio": 0.0, "vulnClass": "none"}}, {"type": "Feature", "geometry": {"type": "MultiPolygon", "coordinates": [[[[71.93192259, 34.55632824], [71.93185915, 34.55615635], [71.93172411, 34.55619016], [71.93175098, 34.55626296], [71.93169941, 34.55627587], [71.93171732, 34.5563244], [71.93175415, 34.55631518], [71.93176983, 34.55635764], [71.93181648, 34.55634596], [71.93181946, 34.55635405], [71.93192259, 34.55632824]]]]}, "properties": {"id": "Pakistan_123102132_484541", "height": 3.341817855834961, "hmax": 0.0, "ratio": 0.0, "vulnClass": "none"}}, {"type": "Feature", "geometry": {"type": "MultiPolygon", "coordinates": [[[[71.93197559, 34.55635966], [71.93183619, 34.55636239], [71.93183874, 34.5564507], [71.93197814, 34.55644797], [71.93197559, 34.55635966]]]]}, "properties": {"id": "Pakistan_123102132_515237", "height": 2.618878364562988, "hmax": 0.0, "ratio": 0.0, "vulnClass": "none"}}, {"type": "Feature", "geometry": {"type": "MultiPolygon", "coordinates": [[[[71.93040554, 34.55620346], [71.93045021, 34.55622525], [71.93043257, 34.55624978], [71.93041967, 34.55624348], [71.93040555, 34.55626311], [71.93049093, 34.55630476], [71.93056032, 34.55620827], [71.93044317, 34.55615113], [71.93040554, 34.55620346]]]]}, "properties": {"id": "Pakistan_123102132_585468", "height": 3.19791054725647, "hmax": 0.0, "ratio": 0.0, "vulnClass": "none"}}, {"type": "Feature", "geometry": {"type": "MultiPolygon", "coordinates": [[[[71.93030641, 34.55568846], [71.93023679, 34.55569659], [71.93025223, 34.5557863], [71.93032186, 34.55577817], [71.93030641, 34.55568846]]]]}, "properties": {"id": "Pakistan_123102132_247333", "height": 6.001976013183594, "hmax": 0.0, "ratio": 0.0, "vulnClass": "none"}}, {"type": "Feature", "geometry": {"type": "MultiPolygon", "coordinates": [[[[71.93034051, 34.55583599], [71.93043437, 34.55586801], [71.93049127, 34.55575488], [71.9303974, 34.55572286], [71.93034051, 34.55583599]]]]}, "properties": {"id": "Pakistan_123102132_244213", "height": 3.489283084869385, "hmax": 0.0, "ratio": 0.0, "vulnClass": "none"}}, {"type": "Feature", "geometry": {"type": "MultiPolygon", "coordinates": [[[[71.93147614, 34.55599304], [71.93144698, 34.55599566], [71.93145422, 34.55605024], [71.93148338, 34.55604761], [71.93147614, 34.55599304]]]]}, "properties": {"id": "Pakistan_123102132_216619", "height": 3.421144962310791, "hmax": 0.0, "ratio": 0.0, "vulnClass": "none"}}, {"type": "Feature", "geometry": {"type": "MultiPolygon", "coordinates": [[[[71.93158765, 34.55583471], [71.93149379, 34.55587286], [71.93154063, 34.55595102], [71.93163448, 34.55591287], [71.93158765, 34.55583471]]]]}, "properties": {"id": "Pakistan_123102132_367281", "height": 2.760450124740601, "hmax": 0.0, "ratio": 0.0, "vulnClass": "none"}}, {"type": "Feature", "geometry": {"type": "MultiPolygon", "coordinates": [[[[71.93106056, 34.55564646], [71.93115321, 34.55568845], [71.93119059, 34.55563249], [71.93109794, 34.55559051], [71.93106056, 34.55564646]]]]}, "properties": {"id": "Pakistan_123102132_102137", "height": 2.660198450088501, "hmax": 0.0, "ratio": 0.0, "vulnClass": "none"}}, {"type": "Feature", "geometry": {"type": "MultiPolygon", "coordinates": [[[[71.93114121, 34.55569896], [71.93104495, 34.55564925], [71.930987, 34.55572536], [71.93108326, 34.55577507], [71.93114121, 34.55569896]]]]}, "properties": {"id": "Pakistan_123102132_256565", "height": 3.153400421142578, "hmax": 0.0, "ratio": 0.0, "vulnClass": "none"}}, {"type": "Feature", "geometry": {"type": "MultiPolygon", "coordinates": [[[[71.92978952, 34.55563975], [71.9297658, 34.55564827], [71.92986601, 34.55583761], [71.92994265, 34.5558101], [71.92976286, 34.55547039], [71.92970995, 34.55548939], [71.92978952, 34.55563975]]]]}, "properties": {"id": "Pakistan_123102132_539630", "height": 3.367791414260864, "hmax": 0.0, "ratio": 0.0, "vulnClass": "none"}}, {"type": "Feature", "geometry": {"type": "MultiPolygon", "coordinates": [[[[71.92985507, 34.55528221], [71.92981642, 34.5553458], [71.92998157, 34.55541388], [71.93002022, 34.55535029], [71.92985507, 34.55528221]]]]}, "properties": {"id": "Pakistan_123102132_114574", "height": 5.900620937347412, "hmax": 0.0, "ratio": 0.0, "vulnClass": "none"}}, {"type": "Feature", "geometry": {"type": "MultiPolygon", "coordinates": [[[[71.93024903, 34.5555702], [71.93040042, 34.55531695], [71.93026987, 34.55526402], [71.93021202, 34.55536079], [71.9302444, 34.55537392], [71.93020127, 34.55544606], [71.9301473, 34.55542418], [71.93008352, 34.55553086], [71.93020226, 34.555579], [71.93021563, 34.55555665], [71.93024903, 34.5555702]]]]}, "properties": {"id": "Pakistan_123102132_576329", "height": 5.542209625244141, "hmax": 0.0, "ratio": 0.0, "vulnClass": "none"}}, {"type": "Feature", "geometry": {"type": "MultiPolygon", "coordinates": [[[[71.9303068, 34.55513401], [71.93025698, 34.55523163], [71.93034923, 34.55526356], [71.93039904, 34.55516594], [71.9303068, 34.55513401]]]]}, "properties": {"id": "Pakistan_123102132_145480", "height": 3.273799657821655, "hmax": 0.0, "ratio": 0.0, "vulnClass": "none"}}, {"type": "Feature", "geometry": {"type": "MultiPolygon", "coordinates": [[[[71.93455112, 34.55571435], [71.93452122, 34.55546272], [71.93442026, 34.55547086], [71.9344265, 34.55552337], [71.9344637, 34.55552037], [71.93448735, 34.55571949], [71.93455112, 34.55571435]]]]}, "properties": {"id": "Pakistan_123102132_499895", "height": 3.053136348724365, "hmax": 0.0, "ratio": 0.0, "vulnClass": "none"}}, {"type": "Feature", "geometry": {"type": "MultiPolygon", "coordinates": [[[[71.92827827, 34.55419535], [71.92827259, 34.55432192], [71.92831813, 34.55432331], [71.92832381, 34.55419673], [71.92827827, 34.55419535]]]]}, "properties": {"id": "Pakistan_123102132_296544", "height": 5.514066696166992, "hmax": 0.0, "ratio": 0.0, "vulnClass": "none"}}]}