{"type": "FeatureCollection", "features": [{"type": "Feature", "geometry": {"type": "MultiPolygon", "coordinates": [[[[72.18391882673419, 34.263401852724144], [72.18381086374136, 34.26340631144566], [72.18383275149282, 34.263765682594915], [72.18414295087659, 34.26375262239625], [72.18413994413221, 34.263702793137156], [72.18393771132725, 34.263711304542944], [72.18391882673419, 34.263401852724144]]]]}, "properties": {"id": "8J6J757M+CHVC", "height": 3.061739444732666, "hmax": 0.0, "ratio": 0.0, "vulnClass": "none"}}, {"type": "Feature", "geometry": {"type": "MultiPolygon", "coordinates": [[[[72.18462173926805, 34.263349682823545], [72.18461950985909, 34.26327327860702], [72.18434789192422, 34.263278753397046], [72.1843501210866, 34.26335515760624], [72.18462173926805, 34.263349682823545]]]]}, "properties": {"id": "8J6J757M+8QHG", "height": 2.990136623382568, "hmax": 0.0, "ratio": 0.0, "vulnClass": "none"}}, {"type": "Feature", "geometry": {"type": "MultiPolygon", "coordinates": [[[[72.19102398392694, 34.26268573843862], [72.19089564648367, 34.26268910515255], [72.19089776293563, 34.262742970478804], [72.19102610046109, 34.26273960376674], [72.19102398392694, 34.26268573843862]]]]}, "properties": {"id": "8J6J757R+39PG", "height": 2.590454339981079, "hmax": 0.0, "ratio": 0.0, "vulnClass": "none"}}, {"type": "Feature", "geometry": {"type": "MultiPolygon", "coordinates": [[[[72.19104591354022, 34.26325037109857], [72.19104066568812, 34.26314703429722], [72.19099500938556, 34.2631486915308], [72.19099639461136, 34.263175586619695], [72.19084540628344, 34.26318095782653], [72.19084938020504, 34.26325731194789], [72.19104591354022, 34.26325037109857]]]]}, "properties": {"id": "8J6J757R+79PF", "height": 2.86476993560791, "hmax": 0.0, "ratio": 0.0, "vulnClass": "none"}}, {"type": "Feature", "geometry": {"type": "MultiPolygon", "coordinates": [[[[72.19073407794671, 34.26315604825379], [72.19072974927253, 34.26308383267997], [72.19059090914415, 34.26308957236836], [72.19059534619045, 34.263161790429784], [72.19073407794671, 34.26315604825379]]]]}, "properties": {"id": "8J6J757R+67VR", "height": 2.588867664337158, "hmax": 0.0, "ratio": 0.0, "vulnClass": "none"}}, {"type": "Feature", "geometry": {"type": "MultiPolygon", "coordinates": [[[[72.19143016707025, 34.263547107598065], [72.1913117466299, 34.263552595180926], [72.19131767926953, 34.26364188500161], [72.19143620832776, 34.26363639990718], [72.19143016707025, 34.263547107598065]]]]}, "properties": {"id": "8J6J757R+CGQQ", "height": 2.563243865966797, "hmax": 0.0, "ratio": 0.0, "vulnClass": "none"}}, {"type": "Feature", "geometry": {"type": "MultiPolygon", "coordinates": [[[[72.18862529185336, 34.263536030616145], [72.18860651690696, 34.26338253293454], [72.1885485924631, 34.26338742330227], [72.188555517529, 34.26344356249504], [72.18843302956611, 34.26345382176104], [72.1884448791994, 34.26355118025826], [72.18862529185336, 34.263536030616145]]]]}, "properties": {"id": "8J6J757Q+9CV6", "height": 2.520250797271729, "hmax": 0.0, "ratio": 0.0, "vulnClass": "none"}}, {"type": "Feature", "geometry": {"type": "MultiPolygon", "coordinates": [[[[72.18844353629623, 34.26353934039772], [72.18842825892047, 34.26341449904461], [72.18836750467145, 34.26341959479967], [72.18837227528873, 34.26345891751704], [72.188254575923, 34.26346883580696], [72.18826497398021, 34.26355435195921], [72.18844353629623, 34.26353934039772]]]]}, "properties": {"id": "8J6J757Q+98XM", "height": 2.642929553985596, "hmax": 0.0, "ratio": 0.0, "vulnClass": "none"}}, {"type": "Feature", "geometry": {"type": "MultiPolygon", "coordinates": [[[[72.18814226638699, 34.26338864230082], [72.18807040701968, 34.26339465483839], [72.1880916372206, 34.263568942360315], [72.18826497398021, 34.26355435195921], [72.18825660673676, 34.263486100178746], [72.18812083172148, 34.263497586558024], [72.1881118791609, 34.26342409290608], [72.18814617398492, 34.26342127445987], [72.18814226638699, 34.26338864230082]]]]}, "properties": {"id": "8J6J757Q+C725", "height": 2.730826377868652, "hmax": 0.0, "ratio": 0.0, "vulnClass": "none"}}, {"type": "Feature", "geometry": {"type": "MultiPolygon", "coordinates": [[[[72.1884448791994, 34.26355118025826], [72.18840023861834, 34.26355493317352], [72.18842376885215, 34.263748203964106], [72.18855659997564, 34.26373710040665], [72.18855234823333, 34.26370175599878], [72.18858664616465, 34.263698847357674], [72.18858041202799, 34.2636480425998], [72.18845803225948, 34.26365830436641], [72.1884448791994, 34.26355118025826]]]]}, "properties": {"id": "8J6J757Q+F99V", "height": 3.651579141616821, "hmax": 0.0, "ratio": 0.0, "vulnClass": "none"}}, {"type": "Feature", "geometry": {"type": "MultiPolygon", "coordinates": [[[[72.19061972653076, 34.264164946232064], [72.19057073879674, 34.26416229004265], [72.1905605733057, 34.26429484094168], [72.19060956111579, 34.2642974971389], [72.19061972653076, 34.264164946232064]]]]}, "properties": {"id": "8J6J757R+M6W5", "height": 2.484819412231445, "hmax": 0.0, "ratio": 0.0, "vulnClass": "none"}}, {"type": "Feature", "geometry": {"type": "MultiPolygon", "coordinates": [[[[72.1906954028797, 34.26431506135148], [72.19055668545514, 34.26431052719211], [72.19055328099248, 34.264383466820554], [72.19069200153369, 34.26438791091307], [72.1906954028797, 34.26431506135148]]]]}, "properties": {"id": "8J6J757R+P6QX", "height": 2.545511245727539, "hmax": 0.0, "ratio": 0.0, "vulnClass": "none"}}, {"type": "Feature", "geometry": {"type": "MultiPolygon", "coordinates": [[[[72.19090321550823, 34.26376363116274], [72.19085150369588, 34.26376127319331], [72.1908441739643, 34.263873876910125], [72.19089588884218, 34.2638761448094], [72.19090321550823, 34.26376363116274]]]]}, "properties": {"id": "8J6J757R+G8HQ", "height": 2.520321846008301, "hmax": 0.0, "ratio": 0.0, "vulnClass": "none"}}, {"type": "Feature", "geometry": {"type": "MultiPolygon", "coordinates": [[[[72.19146560862985, 34.264107092059625], [72.19133422521591, 34.26411056961823], [72.19133613630909, 34.26416082441183], [72.19151576849491, 34.26415610948762], [72.19151496876059, 34.26413445626045], [72.19146672007963, 34.26413569362821], [72.19146560862985, 34.264107092059625]]]]}, "properties": {"id": "8J6J757R+MH3C", "height": 2.871787071228027, "hmax": 0.0, "ratio": 0.0, "vulnClass": "none"}}, {"type": "Feature", "geometry": {"type": "MultiPolygon", "coordinates": [[[[72.19170765357876, 34.2638352649883], [72.19170326924412, 34.26372879291222], [72.19164980118109, 34.263730271261764], [72.19165418544804, 34.263836743336384], [72.19170765357876, 34.2638352649883]]]]}, "properties": {"id": "8J6J757R+GM78", "height": 4.497388362884521, "hmax": 0.0, "ratio": 0.0, "vulnClass": "none"}}, {"type": "Feature", "geometry": {"type": "MultiPolygon", "coordinates": [[[[72.19181120687, 34.2637773321182], [72.19176373344547, 34.263781381891235], [72.19177500429441, 34.26387340831665], [72.19184142436276, 34.263867719616336], [72.19183664012459, 34.263828757262004], [72.1918176965376, 34.26383030611053], [72.19181120687, 34.2637773321182]]]]}, "properties": {"id": "8J6J757R+GPM4", "height": 3.180694818496704, "hmax": 0.0, "ratio": 0.0, "vulnClass": "none"}}, {"type": "Feature", "geometry": {"type": "MultiPolygon", "coordinates": [[[[72.19175676504793, 34.26374606541418], [72.19173094389221, 34.26374547335444], [72.19172984127415, 34.26377862157127], [72.19175566243996, 34.26377921363175], [72.19175676504793, 34.26374606541418]]]]}, "properties": {"id": "8J6J757R+GM5H", "height": 3.297243356704712, "hmax": 0.0, "ratio": 0.0, "vulnClass": "none"}}, {"type": "Feature", "geometry": {"type": "MultiPolygon", "coordinates": [[[[72.19177785413241, 34.26383669434623], [72.19174422149811, 34.26383592317891], [72.19174287318954, 34.263876457683025], [72.19177650583994, 34.26387722885151], [72.19177785413241, 34.26383669434623]]]]}, "properties": {"id": "8J6J757R+GPR7", "height": 2.879549980163574, "hmax": 0.0, "ratio": 0.0, "vulnClass": "none"}}, {"type": "Feature", "geometry": {"type": "MultiPolygon", "coordinates": [[[[72.19164717339712, 34.263809268501106], [72.19158747028266, 34.26381213632305], [72.19159189133086, 34.26387506902525], [72.19165159449001, 34.26387220120336], [72.19164717339712, 34.263809268501106]]]]}, "properties": {"id": "8J6J757R+GJQQ", "height": 4.474274635314941, "hmax": 0.0, "ratio": 0.0, "vulnClass": "none"}}, {"type": "Feature", "geometry": {"type": "MultiPolygon", "coordinates": [[[[72.19154069993697, 34.2641051180432], [72.19153956387059, 34.264073991839695], [72.19143448067518, 34.264076720415204], [72.19143572519536, 34.2641078491057], [72.19154069993697, 34.2641051180432]]]]}, "properties": {"id": "8J6J757R+JHQP", "height": 2.772862195968628, "hmax": 0.0, "ratio": 0.0, "vulnClass": "none"}}, {"type": "Feature", "geometry": {"type": "MultiPolygon", "coordinates": [[[[72.19151576849491, 34.26415610948762], [72.19157347104063, 34.264154638158736], [72.19157155980565, 34.26410438336179], [72.1914811470569, 34.264106727217296], [72.19148226150851, 34.26413523870936], [72.19151496876059, 34.26413445626045], [72.19151576849491, 34.26415610948762]]]]}, "properties": {"id": "8J6J757R+MJ32", "height": 2.96119499206543, "hmax": 0.0, "ratio": 0.0, "vulnClass": "none"}}, {"type": "Feature", "geometry": {"type": "MultiPolygon", "coordinates": [[[[72.19158020604553, 34.26407294060147], [72.19157031823167, 34.264073164593526], [72.19157347104063, 34.264154638158736], [72.19166073455662, 34.264152312169536], [72.19165882326952, 34.264102057371375], [72.19158145061964, 34.26410406929316], [72.19158020604553, 34.26407294060147]]]]}, "properties": {"id": "8J6J757R+MJ54", "height": 2.96119499206543, "hmax": 0.0, "ratio": 0.0, "vulnClass": "none"}}, {"type": "Feature", "geometry": {"type": "MultiPolygon", "coordinates": [[[[72.19168006835805, 34.2640639623009], [72.19159965071252, 34.26405959423782], [72.19159633147628, 34.26410062441502], [72.19165518308316, 34.26410377680907], [72.1916522486528, 34.26413976767106], [72.19167392323193, 34.264140985832874], [72.19167674916045, 34.26410499248219], [72.19168006835805, 34.2640639623009]]]]}, "properties": {"id": "8J6J757R+JMJG", "height": 2.54181957244873, "hmax": 0.0, "ratio": 0.0, "vulnClass": "none"}}, {"type": "Feature", "geometry": {"type": "MultiPolygon", "coordinates": [[[[72.19171566656034, 34.264067663209914], [72.19167098980797, 34.264072498231776], [72.19167546160529, 34.264101266998374], [72.19172024686557, 34.26409643446334], [72.19171566656034, 34.264067663209914]]]]}, "properties": {"id": "8J6J757R+JMP7", "height": 2.582584857940674, "hmax": 0.0, "ratio": 0.0, "vulnClass": "none"}}, {"type": "Feature", "geometry": {"type": "MultiPolygon", "coordinates": [[[[72.19180979325267, 34.26407117364005], [72.19175759392401, 34.26407367272067], [72.19177138919436, 34.26426933406204], [72.19170700857201, 34.26427245526363], [72.19171105204227, 34.26433042130774], [72.19182763519139, 34.264324710949154], [72.19180979325267, 34.26407117364005]]]]}, "properties": {"id": "8J6J757R+MPMR", "height": 4.114399433135986, "hmax": 0.0, "ratio": 0.0, "vulnClass": "none"}}, {"type": "Feature", "geometry": {"type": "MultiPolygon", "coordinates": [[[[72.19172069447619, 34.26415152355026], [72.19166984732487, 34.26414927589209], [72.19166692375839, 34.26419473226748], [72.19171777093683, 34.2641969799282], [72.19172069447619, 34.26415152355026]]]]}, "properties": {"id": "8J6J757R+MM8R", "height": 2.673951387405396, "hmax": 0.0, "ratio": 0.0, "vulnClass": "none"}}, {"type": "Feature", "geometry": {"type": "MultiPolygon", "coordinates": [[[[72.19192839875355, 34.264207037791515], [72.19192138134783, 34.26413728466445], [72.1918441147873, 34.264142634563264], [72.19185113212893, 34.264212387691565], [72.19192839875355, 34.264207037791515]]]]}, "properties": {"id": "8J6J757R+MQ6V", "height": 4.833083629608154, "hmax": 0.0, "ratio": 0.0, "vulnClass": "none"}}, {"type": "Feature", "geometry": {"type": "MultiPolygon", "coordinates": [[[[72.19192038630266, 34.264134557488745], [72.19191634349401, 34.26409615300916], [72.1918392849682, 34.264101778111886], [72.19184332774165, 34.264140182592264], [72.19192038630266, 34.264134557488745]]]]}, "properties": {"id": "8J6J757R+JQRJ", "height": 3.772345542907715, "hmax": 0.0, "ratio": 0.0, "vulnClass": "none"}}, {"type": "Feature", "geometry": {"type": "MultiPolygon", "coordinates": [[[[72.19178963207327, 34.26405709941462], [72.19178529288432, 34.26398190882248], [72.19165352424955, 34.26398718080481], [72.19165786332064, 34.26406237139577], [72.19178963207327, 34.26405709941462]]]]}, "properties": {"id": "8J6J757R+JM5R", "height": 2.463885068893433, "hmax": 0.0, "ratio": 0.0, "vulnClass": "none"}}, {"type": "Feature", "geometry": {"type": "MultiPolygon", "coordinates": [[[[72.19211167750498, 34.26398822016544], [72.19210306893646, 34.26394998144929], [72.19199425474142, 34.26396695808852], [72.19200286625721, 34.264005106733194], [72.19211167750498, 34.26398822016544]]]]}, "properties": {"id": "8J6J757R+HRV4", "height": 3.148003339767456, "hmax": 0.0, "ratio": 0.0, "vulnClass": "none"}}, {"type": "Feature", "geometry": {"type": "MultiPolygon", "coordinates": [[[[72.1921186837281, 34.264015875135016], [72.19211605016329, 34.26398732881506], [72.1920624105235, 34.26399069646043], [72.19206504407009, 34.26401924278065], [72.1921186837281, 34.264015875135016]]]]}, "properties": {"id": "8J6J757R+JR45", "height": 3.480058193206787, "hmax": 0.0, "ratio": 0.0, "vulnClass": "none"}}, {"type": "Feature", "geometry": {"type": "MultiPolygon", "coordinates": [[[[72.19199872141186, 34.264061172276826], [72.19191495671267, 34.26406276742255], [72.19191625297779, 34.26409561006153], [72.19199959272677, 34.2640937347367], [72.19199872141186, 34.264061172276826]]]]}, "properties": {"id": "8J6J757R+JQP4", "height": 3.648729085922241, "hmax": 0.0, "ratio": 0.0, "vulnClass": "none"}}, {"type": "Feature", "geometry": {"type": "MultiPolygon", "coordinates": [[[[72.1920130774406, 34.26413226554568], [72.19200564199244, 34.264097929971875], [72.19191976985887, 34.26411065482939], [72.19192720227639, 34.26414508048336], [72.1920130774406, 34.26413226554568]]]]}, "properties": {"id": "8J6J757R+JQWX", "height": 3.772345542907715, "hmax": 0.0, "ratio": 0.0, "vulnClass": "none"}}, {"type": "Feature", "geometry": {"type": "MultiPolygon", "coordinates": [[[[72.19198379239458, 34.264203169551344], [72.19197865009998, 34.264152119511614], [72.19192325649257, 34.264155987751124], [72.19192839875355, 34.264207037791515], [72.19198379239458, 34.264203169551344]]]]}, "properties": {"id": "8J6J757R+MQG4", "height": 4.833083629608154, "hmax": 0.0, "ratio": 0.0, "vulnClass": "none"}}, {"type": "Feature", "geometry": {"type": "MultiPolygon", "coordinates": [[[[72.19217156675555, 34.26408749108174], [72.19212661374588, 34.26409736807877], [72.19215147101042, 34.264175913718454], [72.19219642106455, 34.264166126791025], [72.19217156675555, 34.26408749108174]]]]}, "properties": {"id": "8J6J757R+MV36", "height": 3.394489765167236, "hmax": 0.0, "ratio": 0.0, "vulnClass": "none"}}, {"type": "Feature", "geometry": {"type": "MultiPolygon", "coordinates": [[[[72.1921270858054, 34.26412234917312], [72.19212524528234, 34.264096074669666], [72.19202596372624, 34.26410064952561], [72.19202780421827, 34.26412692402903], [72.1921270858054, 34.26412234917312]]]]}, "properties": {"id": "8J6J757R+JRWF", "height": 3.020087718963623, "hmax": 0.0, "ratio": 0.0, "vulnClass": "none"}}, {"type": "Feature", "geometry": {"type": "MultiPolygon", "coordinates": [[[[72.19209530622429, 34.26405933012194], [72.19202533807032, 34.26406070077652], [72.1920263238802, 34.26409308557073], [72.1920964065456, 34.264091537250884], [72.19209530622429, 34.26405933012194]]]]}, "properties": {"id": "8J6J757R+JRM5", "height": 3.163089275360107, "hmax": 0.0, "ratio": 0.0, "vulnClass": "none"}}, {"type": "Feature", "geometry": {"type": "MultiPolygon", "coordinates": [[[[72.1921390628009, 34.264049515851774], [72.19210087166513, 34.26405522088464], [72.19210679296147, 34.26408285098123], [72.19214498111378, 34.264077236023816], [72.1921390628009, 34.264049515851774]]]]}, "properties": {"id": "8J6J757R+JRHQ", "height": 3.187145233154297, "hmax": 0.0, "ratio": 0.0, "vulnClass": "none"}}, {"type": "Feature", "geometry": {"type": "MultiPolygon", "coordinates": [[[[72.19224578477282, 34.264088922134896], [72.19220838367568, 34.26409698909298], [72.19221997553193, 34.26413367357904], [72.19225726815193, 34.26412560413099], [72.19224578477282, 34.264088922134896]]]]}, "properties": {"id": "8J6J757R+JVXF", "height": 2.685601711273193, "hmax": 0.0, "ratio": 0.0, "vulnClass": "none"}}, {"type": "Feature", "geometry": {"type": "MultiPolygon", "coordinates": [[[[72.19247222486595, 34.26417199874314], [72.19245547148034, 34.264140334245134], [72.19235280913125, 34.264178005369956], [72.19236956547941, 34.264209579803584], [72.19247222486595, 34.26417199874314]]]]}, "properties": {"id": "8J6J757R+MXF2", "height": 4.479657173156738, "hmax": 0.0, "ratio": 0.0, "vulnClass": "none"}}, {"type": "Feature", "geometry": {"type": "MultiPolygon", "coordinates": [[[[72.19257408056454, 34.26408022178685], [72.19255440617994, 34.26404497467419], [72.19229836319923, 34.264143583713775], [72.19231803749393, 34.26417883086294], [72.19257408056454, 34.26408022178685]]]]}, "properties": {"id": "8J6J757R+JXVH", "height": 4.443998336791992, "hmax": 0.0, "ratio": 0.0, "vulnClass": "none"}}, {"type": "Feature", "geometry": {"type": "MultiPolygon", "coordinates": [[[[72.19229651249557, 34.2640817015489], [72.19239743260557, 34.26402785450389], [72.19238088323635, 34.26400638110299], [72.19227996314343, 34.26406022813528], [72.19229651249557, 34.2640817015489]]]]}, "properties": {"id": "8J6J757R+JW8Q", "height": 2.625547885894775, "hmax": 0.0, "ratio": 0.0, "vulnClass": "none"}}, {"type": "Feature", "geometry": {"type": "MultiPolygon", "coordinates": [[[[72.19219504047437, 34.26398237883956], [72.19215567221872, 34.26399409664527], [72.19219164196934, 34.26407803532898], [72.19223133573898, 34.26406632497523], [72.19219504047437, 34.26398237883956]]]]}, "properties": {"id": "8J6J757R+JV86", "height": 3.174600839614868, "hmax": 0.0, "ratio": 0.0, "vulnClass": "none"}}, {"type": "Feature", "geometry": {"type": "MultiPolygon", "coordinates": [[[[72.19233100787723, 34.26401082675834], [72.19230537016284, 34.2639785979905], [72.19221590106001, 34.2640276593384], [72.19224153875244, 34.26405988812379], [72.19233100787723, 34.26401082675834]]]]}, "properties": {"id": "8J6J757R+JW2Q", "height": 3.174600839614868, "hmax": 0.0, "ratio": 0.0, "vulnClass": "none"}}, {"type": "Feature", "geometry": {"type": "MultiPolygon", "coordinates": [[[[72.19234144349036, 34.26400718973754], [72.19249722552402, 34.26392953985179], [72.1924725216065, 34.26389534932448], [72.19231673961778, 34.26397299918116], [72.19234144349036, 34.26400718973754]]]]}, "properties": {"id": "8J6J757R+HXM2", "height": 3.226422548294067, "hmax": 0.0, "ratio": 0.0, "vulnClass": "none"}}, {"type": "Feature", "geometry": {"type": "MultiPolygon", "coordinates": [[[[72.19217925422275, 34.2639183742842], [72.19216261889412, 34.26387337093826], [72.1921094002432, 34.263886934686624], [72.19212603254923, 34.263932028115136], [72.19217925422275, 34.2639183742842]]]]}, "properties": {"id": "8J6J757R+HV64", "height": 2.833965301513672, "hmax": 0.0, "ratio": 0.0, "vulnClass": "none"}}, {"type": "Feature", "geometry": {"type": "MultiPolygon", "coordinates": [[[[72.19269444576375, 34.26381056139745], [72.19265470664975, 34.26373221560871], [72.19254793116399, 34.26376952219819], [72.19258767019143, 34.26384786801712], [72.19269444576375, 34.26381056139745]]]]}, "properties": {"id": "8J6J757V+G29Q", "height": 4.868343830108643, "hmax": 0.0, "ratio": 0.0, "vulnClass": "none"}}, {"type": "Feature", "geometry": {"type": "MultiPolygon", "coordinates": [[[[72.19258767019143, 34.26384786801712], [72.19253601336332, 34.26374590135076], [72.19244088178878, 34.263779147775935], [72.19249264700898, 34.26388111696429], [72.19258767019143, 34.26384786801712]]]]}, "properties": {"id": "8J6J757V+G2CF", "height": 4.868343830108643, "hmax": 0.0, "ratio": 0.0, "vulnClass": "none"}}, {"type": "Feature", "geometry": {"type": "MultiPolygon", "coordinates": [[[[72.19262016658314, 34.26392199126478], [72.19258054461766, 34.26385644878573], [72.19248882843324, 34.26389473153091], [72.19252845034119, 34.26396027403667], [72.19262016658314, 34.26392199126478]]]]}, "properties": {"id": "8J6J757V+H278", "height": 3.930189847946167, "hmax": 0.0, "ratio": 0.0, "vulnClass": "none"}}, {"type": "Feature", "geometry": {"type": "MultiPolygon", "coordinates": [[[[72.19267050614783, 34.26390358359244], [72.19263892223921, 34.26384120017533], [72.19260563567113, 34.263852877242904], [72.19263733104611, 34.26391517307762], [72.19267050614783, 34.26390358359244]]]]}, "properties": {"id": "8J6J757V+H323", "height": 3.319875717163086, "hmax": 0.0, "ratio": 0.0, "vulnClass": "none"}}, {"type": "Feature", "geometry": {"type": "MultiPolygon", "coordinates": [[[[72.19271788478085, 34.26386320269687], [72.19270721225641, 34.26382825208713], [72.19266379929685, 34.26383753356975], [72.19267458329169, 34.26387239659248], [72.19271788478085, 34.26386320269687]]]]}, "properties": {"id": "8J6J757V+G3W2", "height": 2.747699499130249, "hmax": 0.0, "ratio": 0.0, "vulnClass": "none"}}, {"type": "Feature", "geometry": {"type": "MultiPolygon", "coordinates": [[[[72.19281596543024, 34.263969839177264], [72.19295516838248, 34.26393363616216], [72.19294029980762, 34.26389426241951], [72.19280109092617, 34.26393064557431], [72.19281596543024, 34.263969839177264]]]]}, "properties": {"id": "8J6J757V+H5C6", "height": 4.755495548248291, "hmax": 0.0, "ratio": 0.0, "vulnClass": "none"}}, {"type": "Feature", "geometry": {"type": "MultiPolygon", "coordinates": [[[[72.19292146285562, 34.26381423228643], [72.1928921075544, 34.26375992295044], [72.1927301687255, 34.26382030461118], [72.1927885656889, 34.26392855557882], [72.19282187622663, 34.26391615784779], [72.19279272596498, 34.26386221377061], [72.19292146285562, 34.26381423228643]]]]}, "properties": {"id": "8J6J757V+G4P6", "height": 4.679450988769531, "hmax": 0.0, "ratio": 0.0, "vulnClass": "none"}}, {"type": "Feature", "geometry": {"type": "MultiPolygon", "coordinates": [[[[72.1930513309771, 34.26372895638642], [72.193035575517, 34.26369992905085], [72.19290034197255, 34.263750646413705], [72.19291609739308, 34.263779673764645], [72.1930513309771, 34.26372895638642]]]]}, "properties": {"id": "8J6J757V+F5XC", "height": 3.794345378875732, "hmax": 0.0, "ratio": 0.0, "vulnClass": "none"}}, {"type": "Feature", "geometry": {"type": "MultiPolygon", "coordinates": [[[[72.19310343600488, 34.26389583782286], [72.19307639144375, 34.26382427356593], [72.19292886841237, 34.263862539668565], [72.19295590986097, 34.26393419402886], [72.19310343600488, 34.26389583782286]]]]}, "properties": {"id": "8J6J757V+H624", "height": 4.078445434570312, "hmax": 0.0, "ratio": 0.0, "vulnClass": "none"}}, {"type": "Feature", "geometry": {"type": "MultiPolygon", "coordinates": [[[[72.19296813733678, 34.26396809851301], [72.19311588351661, 34.26392965719122], [72.19310302599297, 34.263895107262805], [72.19295516838248, 34.26393363616216], [72.19296813733678, 34.26396809851301]]]]}, "properties": {"id": "8J6J757V+H6F6", "height": 3.734949111938477, "hmax": 0.0, "ratio": 0.0, "vulnClass": "none"}}, {"type": "Feature", "geometry": {"type": "MultiPolygon", "coordinates": [[[[72.19315443846311, 34.26409262224841], [72.19311795045189, 34.26398505384646], [72.19308545260077, 34.263992602431635], [72.19309830182398, 34.26403066784259], [72.19294138149112, 34.264067456544], [72.19292842384277, 34.264029388633375], [72.19288728015908, 34.264038992640316], [72.1929237648946, 34.26414665117358], [72.19315443846311, 34.26409262224841]]]]}, "properties": {"id": "8J6J757V+J6J4", "height": 4.613749504089355, "hmax": 0.0, "ratio": 0.0, "vulnClass": "none"}}, {"type": "Feature", "geometry": {"type": "MultiPolygon", "coordinates": [[[[72.19316754077367, 34.264087153217574], [72.19313143063347, 34.26408578477789], [72.19312968957281, 34.264118557806974], [72.19316579972694, 34.26411992624786], [72.19316754077367, 34.264087153217574]]]]}, "properties": {"id": "8J6J757V+J7R5", "height": 3.317957878112793, "hmax": 0.0, "ratio": 0.0, "vulnClass": "none"}}, {"type": "Feature", "geometry": {"type": "MultiPolygon", "coordinates": [[[[72.19314400423494, 34.26417459573589], [72.19312286214702, 34.264111640429576], [72.19305929172262, 34.26412631952929], [72.19308349157174, 34.264198539756464], [72.19312233300656, 34.26418960408524], [72.19311927519593, 34.26418033917383], [72.19314400423494, 34.26417459573589]]]]}, "properties": {"id": "8J6J757V+M693", "height": 3.341784715652466, "hmax": 0.0, "ratio": 0.0, "vulnClass": "none"}}, {"type": "Feature", "geometry": {"type": "MultiPolygon", "coordinates": [[[[72.19297693838506, 34.264147509302234], [72.19293412831871, 34.264158247021385], [72.19295989788267, 34.26422897077556], [72.19300270798291, 34.26421823304911], [72.19297693838506, 34.264147509302234]]]]}, "properties": {"id": "8J6J757V+M5GH", "height": 3.89769983291626, "hmax": 0.0, "ratio": 0.0, "vulnClass": "none"}}, {"type": "Feature", "geometry": {"type": "MultiPolygon", "coordinates": [[[[72.19284718640235, 34.26401048919067], [72.1928054852816, 34.264020531120465], [72.19284770173745, 34.26414193300482], [72.19288940291526, 34.264131891063535], [72.19284718640235, 34.26401048919067]]]]}, "properties": {"id": "8J6J757V+J4Q2", "height": 2.883968114852905, "hmax": 0.0, "ratio": 0.0, "vulnClass": "none"}}, {"type": "Feature", "geometry": {"type": "MultiPolygon", "coordinates": [[[[72.19290648790265, 34.26397398731329], [72.19286356942611, 34.263984722525315], [72.19288406498376, 34.264040992292855], [72.19292698648236, 34.264030166998246], [72.19290648790265, 34.26397398731329]]]]}, "properties": {"id": "8J6J757V+J528", "height": 4.068322658538818, "hmax": 0.0, "ratio": 0.0, "vulnClass": "none"}}, {"type": "Feature", "geometry": {"type": "MultiPolygon", "coordinates": [[[[72.19279712600095, 34.26399437764316], [72.19277734604054, 34.263959037998795], [72.19266307066259, 34.26400311397329], [72.19268274508535, 34.264038361070455], [72.19279712600095, 34.26399437764316]]]]}, "properties": {"id": "8J6J757V+H3XV", "height": 3.59045147895813, "hmax": 0.0, "ratio": 0.0, "vulnClass": "none"}}, {"type": "Feature", "geometry": {"type": "MultiPolygon", "coordinates": [[[[72.19277745025636, 34.26407018967199], [72.19276357016162, 34.26403047798527], [72.19271650495604, 34.26404183926028], [72.19273027953217, 34.26408145838772], [72.19277745025636, 34.26407018967199]]]]}, "properties": {"id": "8J6J757V+J3H9", "height": 3.223985433578491, "hmax": 0.0, "ratio": 0.0, "vulnClass": "none"}}, {"type": "Feature", "geometry": {"type": "MultiPolygon", "coordinates": [[[[72.19256670797154, 34.26395583242798], [72.19253320604311, 34.26396092392345], [72.19254186938488, 34.264000786487195], [72.19257537132896, 34.263995694990136], [72.19256670797154, 34.26395583242798]]]]}, "properties": {"id": "8J6J757V+H2V4", "height": 3.082705497741699, "hmax": 0.0, "ratio": 0.0, "vulnClass": "none"}}, {"type": "Feature", "geometry": {"type": "MultiPolygon", "coordinates": [[[[72.19268274508535, 34.264038361070455], [72.19264749334172, 34.263975262564344], [72.19253882888921, 34.264017123252984], [72.19257408056454, 34.26408022178685], [72.19268274508535, 34.264038361070455]]]]}, "properties": {"id": "8J6J757V+J294", "height": 3.743338346481323, "hmax": 0.0, "ratio": 0.0, "vulnClass": "none"}}, {"type": "Feature", "geometry": {"type": "MultiPolygon", "coordinates": [[[[72.19251511875736, 34.263949782007366], [72.19249875274959, 34.26392605919007], [72.1924108163751, 34.263968214625024], [72.19242729385279, 34.263991849863444], [72.19251511875736, 34.263949782007366]]]]}, "properties": {"id": "8J6J757R+HXP9", "height": 2.690289258956909, "hmax": 0.0, "ratio": 0.0, "vulnClass": "none"}}, {"type": "Feature", "geometry": {"type": "MultiPolygon", "coordinates": [[[[72.19258904160024, 34.26407109946436], [72.19253730049789, 34.26408920453616], [72.19257265901331, 34.26415888613378], [72.19262439715764, 34.26414087112567], [72.19258904160024, 34.26407109946436]]]]}, "properties": {"id": "8J6J757V+J2WP", "height": 3.806407928466797, "hmax": 0.0, "ratio": 0.0, "vulnClass": "none"}}, {"type": "Feature", "geometry": {"type": "MultiPolygon", "coordinates": [[[[72.19250615954067, 34.264160426718256], [72.19247643315416, 34.26416299052658], [72.19248002231025, 34.26419218976467], [72.19250974870707, 34.264189625956], [72.19250615954067, 34.264160426718256]]]]}, "properties": {"id": "8J6J757R+MXH5", "height": 3.705254554748535, "hmax": 0.0, "ratio": 0.0, "vulnClass": "none"}}, {"type": "Feature", "geometry": {"type": "MultiPolygon", "coordinates": [[[[72.19267085026743, 34.264275260969484], [72.19265904786356, 34.264241636638545], [72.19250930549173, 34.26427804842862], [72.1925211108344, 34.264311582694404], [72.19267085026743, 34.264275260969484]]]]}, "properties": {"id": "8J6J757V+P285", "height": 3.304852485656738, "hmax": 0.0, "ratio": 0.0, "vulnClass": "none"}}, {"type": "Feature", "geometry": {"type": "MultiPolygon", "coordinates": [[[[72.19267606092758, 34.264275290261864], [72.19261995602858, 34.26429401650243], [72.1926662957599, 34.26438937079146], [72.1927222952172, 34.264370551968966], [72.19267606092758, 34.264275290261864]]]]}, "properties": {"id": "8J6J757V+P3M7", "height": 3.035236120223999, "hmax": 0.0, "ratio": 0.0, "vulnClass": "none"}}, {"type": "Feature", "geometry": {"type": "MultiPolygon", "coordinates": [[[[72.1925181009301, 34.26433026394013], [72.19248152144682, 34.26433321152599], [72.19248490260802, 34.26436213555942], [72.19252159059698, 34.26435919046018], [72.1925181009301, 34.26433026394013]]]]}, "properties": {"id": "8J6J757V+P2JR", "height": 3.281464576721191, "hmax": 0.0, "ratio": 0.0, "vulnClass": "none"}}, {"type": "Feature", "geometry": {"type": "MultiPolygon", "coordinates": [[[[72.1925030826499, 34.264429259896964], [72.19249252230472, 34.26439746693165], [72.19239985573957, 34.26441860018081], [72.19241041605133, 34.26445039315243], [72.1925030826499, 34.264429259896964]]]]}, "properties": {"id": "8J6J757R+QX8V", "height": 3.253689050674438, "hmax": 0.0, "ratio": 0.0, "vulnClass": "none"}}, {"type": "Feature", "geometry": {"type": "MultiPolygon", "coordinates": [[[[72.19255662342492, 34.264412548280625], [72.19264736403363, 34.26439055945586], [72.19263753978676, 34.26436274977197], [72.19254690769958, 34.26438474107787], [72.19255662342492, 34.264412548280625]]]]}, "properties": {"id": "8J6J757V+Q25C", "height": 2.872854471206665, "hmax": 0.0, "ratio": 0.0, "vulnClass": "none"}}, {"type": "Feature", "geometry": {"type": "MultiPolygon", "coordinates": [[[[72.19278128222423, 34.26447412890642], [72.19277182866227, 34.26437312966343], [72.19272613274369, 34.26437595850913], [72.19273547476224, 34.264477045342844], [72.19278128222423, 34.26447412890642]]]]}, "properties": {"id": "8J6J757V+Q4C2", "height": 2.833268642425537, "hmax": 0.0, "ratio": 0.0, "vulnClass": "none"}}, {"type": "Feature", "geometry": {"type": "MultiPolygon", "coordinates": [[[[72.19280531243481, 34.26435226224525], [72.19276969106865, 34.26425129423008], [72.19268847339798, 34.26427097736192], [72.19272398617869, 34.264371942909236], [72.19280531243481, 34.26435226224525]]]]}, "properties": {"id": "8J6J757V+P3HH", "height": 2.526963710784912, "hmax": 0.0, "ratio": 0.0, "vulnClass": "none"}}, {"type": "Feature", "geometry": {"type": "MultiPolygon", "coordinates": [[[[72.19233120228355, 34.26433472360358], [72.19229139561281, 34.264340031075605], [72.19230038264416, 34.26438648168644], [72.19234018933668, 34.26438117421258], [72.19233120228355, 34.26433472360358]]]]}, "properties": {"id": "8J6J757R+PWWC", "height": 2.468417882919312, "hmax": 0.0, "ratio": 0.0, "vulnClass": "none"}}, {"type": "Feature", "geometry": {"type": "MultiPolygon", "coordinates": [[[[72.1925211108344, 34.264311582694404], [72.19250930549173, 34.26427804842862], [72.19236000296608, 34.264314289824], [72.19237191674549, 34.26434782658846], [72.1925211108344, 34.264311582694404]]]]}, "properties": {"id": "8J6J757R+PXGC", "height": 3.3907151222229, "hmax": 0.0, "ratio": 0.0, "vulnClass": "none"}}, {"type": "Feature", "geometry": {"type": "MultiPolygon", "coordinates": [[[[72.19235528479841, 34.264185183609044], [72.19231489080045, 34.26419182980748], [72.19233779264664, 34.264286737047165], [72.19237818668934, 34.264280090843414], [72.19235528479841, 34.264185183609044]]]]}, "properties": {"id": "8J6J757R+MWXC", "height": 3.735489845275879, "hmax": 0.0, "ratio": 0.0, "vulnClass": "none"}}, {"type": "Feature", "geometry": {"type": "MultiPolygon", "coordinates": [[[[72.19218434609814, 34.26426149421816], [72.19216430611989, 34.2641752163769], [72.19202938808142, 34.26419682301352], [72.19205521311848, 34.26430829392261], [72.19214788390806, 34.26429356135277], [72.19214199918054, 34.26426809558576], [72.19218434609814, 34.26426149421816]]]]}, "properties": {"id": "8J6J757R+MRXF", "height": 4.213063716888428, "hmax": 0.0, "ratio": 0.0, "vulnClass": "none"}}, {"type": "Feature", "geometry": {"type": "MultiPolygon", "coordinates": [[[[72.19203924941563, 34.264337766044676], [72.19203334610566, 34.26430959548589], [72.1919621017024, 34.26431995137586], [72.19196811348186, 34.26434812442437], [72.19203924941563, 34.264337766044676]]]]}, "properties": {"id": "8J6J757R+PRJ2", "height": 5.708793640136719, "hmax": 0.0, "ratio": 0.0, "vulnClass": "none"}}, {"type": "Feature", "geometry": {"type": "MultiPolygon", "coordinates": [[[[72.19217777729516, 34.26440350289421], [72.19215828383, 34.2643073215898], [72.19206752631456, 34.264320024688615], [72.19208691118395, 34.264416203514934], [72.19217777729516, 34.26440350289421]]]]}, "properties": {"id": "8J6J757R+PRXH", "height": 3.85646653175354, "hmax": 0.0, "ratio": 0.0, "vulnClass": "none"}}, {"type": "Feature", "geometry": {"type": "MultiPolygon", "coordinates": [[[[72.19184715872566, 34.26434490043491], [72.19174829349771, 34.26435327070833], [72.19175101919852, 34.26437577940463], [72.19180339012878, 34.264371391213686], [72.19180894705836, 34.26441650116946], [72.19185544140738, 34.26441251908523], [72.19184715872566, 34.26434490043491]]]]}, "properties": {"id": "8J6J757R+QP42", "height": 4.261940479278564, "hmax": 0.0, "ratio": 0.0, "vulnClass": "none"}}, {"type": "Feature", "geometry": {"type": "MultiPolygon", "coordinates": [[[[72.1919621017024, 34.26431995137586], [72.19187939960274, 34.264332027716826], [72.19190390220923, 34.26444734458184], [72.19198660442083, 34.26443526822994], [72.1919621017024, 34.26431995137586]]]]}, "properties": {"id": "8J6J757R+QQ39", "height": 5.240888118743896, "hmax": 0.0, "ratio": 0.0, "vulnClass": "none"}}, {"type": "Feature", "geometry": {"type": "MultiPolygon", "coordinates": [[[[72.1920459623353, 34.26429915743793], [72.19202198360335, 34.26419746455884], [72.19191948562947, 34.26421386477163], [72.19183390289237, 34.2642276779449], [72.19185766141871, 34.26432945595113], [72.1920459623353, 34.26429915743793]]]]}, "properties": {"id": "8J6J757R+PQ4C", "height": 5.910266876220703, "hmax": 0.0, "ratio": 0.0, "vulnClass": "none"}}, {"type": "Feature", "geometry": {"type": "MultiPolygon", "coordinates": [[[[72.19510097594389, 34.262997958643105], [72.19501696023887, 34.262771842711295], [72.19490887975002, 34.262799475975], [72.19489113650242, 34.26275183336787], [72.19482116113943, 34.26276979225657], [72.19487696619458, 34.262920171010784], [72.19473745510408, 34.2629559185014], [72.19478329983116, 34.263079295951506], [72.19510097594389, 34.262997958643105]]]]}, "properties": {"id": "8J6J757V+5XF4", "height": 5.596442699432373, "hmax": 0.0, "ratio": 0.0, "vulnClass": "none"}}, {"type": "Feature", "geometry": {"type": "MultiPolygon", "coordinates": [[[[72.19481731980889, 34.262813514977196], [72.19481185408084, 34.26275254159427], [72.19464604949553, 34.262762716466774], [72.19465150013819, 34.26282414023572], [72.19481731980889, 34.262813514977196]]]]}, "properties": {"id": "8J6J757V+4V9F", "height": 2.775434255599976, "hmax": 0.0, "ratio": 0.0, "vulnClass": "none"}}, {"type": "Feature", "geometry": {"type": "MultiPolygon", "coordinates": [[[[72.19465380017292, 34.26281373604369], [72.19464617671075, 34.26275235265136], [72.19443690226318, 34.26277027565583], [72.19444153655358, 34.262807251308686], [72.19448716202733, 34.262803248291995], [72.19449014507337, 34.262827836190226], [72.19465380017292, 34.26281373604369]]]]}, "properties": {"id": "8J6J757V+4R7G", "height": 2.697867155075073, "hmax": 0.0, "ratio": 0.0, "vulnClass": "none"}}, {"type": "Feature", "geometry": {"type": "MultiPolygon", "coordinates": [[[[72.1951582366502, 34.263081662961326], [72.19512227017606, 34.26298447376254], [72.19479168137808, 34.26306885075794], [72.19482765048625, 34.26316594995871], [72.1951582366502, 34.263081662961326]]]]}, "properties": {"id": "8J6J757V+6XQ2", "height": 5.743722438812256, "hmax": 0.0, "ratio": 0.0, "vulnClass": "none"}}, {"type": "Feature", "geometry": {"type": "MultiPolygon", "coordinates": [[[[72.19398900702566, 34.26299980183783], [72.19389941229659, 34.26301676982055], [72.19391286995807, 34.26306593698653], [72.19409456976044, 34.26303160772175], [72.19407278160979, 34.26295214114045], [72.19398067667207, 34.26296950240312], [72.19398900702566, 34.26299980183783]]]]}, "properties": {"id": "8J6J757V+6J2C", "height": 3.770256996154785, "hmax": 0.0, "ratio": 0.0, "vulnClass": "none"}}, {"type": "Feature", "geometry": {"type": "MultiPolygon", "coordinates": [[[[72.19416598472267, 34.26285926307265], [72.19416101702004, 34.26279965326457], [72.19406855397403, 34.26280492690374], [72.19407352161112, 34.262864536712286], [72.19416598472267, 34.26285926307265]]]]}, "properties": {"id": "8J6J757V+4JQ9", "height": 3.987893342971802, "hmax": 0.0, "ratio": 0.0, "vulnClass": "none"}}, {"type": "Feature", "geometry": {"type": "MultiPolygon", "coordinates": [[[[72.19378778565262, 34.26289954724073], [72.19371467058916, 34.26290742740383], [72.19372201597433, 34.2629542910475], [72.1937951340723, 34.262946320805185], [72.19378778565262, 34.26289954724073]]]]}, "properties": {"id": "8J6J757V+5GC2", "height": 2.54246711730957, "hmax": 0.0, "ratio": 0.0, "vulnClass": "none"}}, {"type": "Feature", "geometry": {"type": "MultiPolygon", "coordinates": [[[[72.1939234002961, 34.2629320418217], [72.19390662445919, 34.26286837536082], [72.19378974535162, 34.26288958599732], [72.19380641560477, 34.26295315990725], [72.1939234002961, 34.2629320418217]]]]}, "properties": {"id": "8J6J757V+5G9F", "height": 2.684382200241089, "hmax": 0.0, "ratio": 0.0, "vulnClass": "none"}}, {"type": "Feature", "geometry": {"type": "MultiPolygon", "coordinates": [[[[72.19391071191752, 34.262872795991306], [72.19388602250872, 34.262782625746254], [72.19376572939218, 34.26280529061572], [72.1937904156816, 34.262895550955555], [72.19391071191752, 34.262872795991306]]]]}, "properties": {"id": "8J6J757V+4GPH", "height": 2.472859859466553, "hmax": 0.0, "ratio": 0.0, "vulnClass": "none"}}, {"type": "Feature", "geometry": {"type": "MultiPolygon", "coordinates": [[[[72.19368434761475, 34.26296388482449], [72.19367046740672, 34.26291110213704], [72.19352147914114, 34.2629379771107], [72.19353535626372, 34.262990849887274], [72.19368434761475, 34.26296388482449]]]]}, "properties": {"id": "8J6J757V+5CQ3", "height": 2.495215177536011, "hmax": 0.0, "ratio": 0.0, "vulnClass": "none"}}, {"type": "Feature", "geometry": {"type": "MultiPolygon", "coordinates": [[[[72.19347513258518, 34.26306492161507], [72.19346090606304, 34.263012761989835], [72.19338824719738, 34.263026511861], [72.19340247367569, 34.26307867149247], [72.19347513258518, 34.26306492161507]]]]}, "properties": {"id": "8J6J757V+697X", "height": 3.306349277496338, "hmax": 0.0, "ratio": 0.0, "vulnClass": "none"}}, {"type": "Feature", "geometry": {"type": "MultiPolygon", "coordinates": [[[[72.1935467927077, 34.26314327744414], [72.19352828016635, 34.26300447999477], [72.19347578666363, 34.26300931686927], [72.19349582997874, 34.26314778881979], [72.1935467927077, 34.26314327744414]]]]}, "properties": {"id": "8J6J757V+6CJ3", "height": 3.322124004364014, "hmax": 0.0, "ratio": 0.0, "vulnClass": "none"}}, {"type": "Feature", "geometry": {"type": "MultiPolygon", "coordinates": [[[[72.19376982247772, 34.26295980354704], [72.19374972532466, 34.26296339961564], [72.19375792315029, 34.26299441719092], [72.1937779118191, 34.26299081863553], [72.19376982247772, 34.26295980354704]]]]}, "properties": {"id": "8J6J757V+5GR3", "height": 2.877505302429199, "hmax": 0.0, "ratio": 0.0, "vulnClass": "none"}}, {"type": "Feature", "geometry": {"type": "MultiPolygon", "coordinates": [[[[72.19387981098104, 34.26297278047421], [72.19387780752857, 34.262948124864664], [72.19379220023421, 34.26295292434738], [72.19379410115805, 34.26297739731759], [72.19387981098104, 34.26297278047421]]]]}, "properties": {"id": "8J6J757V+5GPH", "height": 3.059581756591797, "hmax": 0.0, "ratio": 0.0, "vulnClass": "none"}}, {"type": "Feature", "geometry": {"type": "MultiPolygon", "coordinates": [[[[72.19390774918377, 34.263063205444844], [72.19388476494927, 34.262970730486394], [72.19385702848676, 34.26297550372614], [72.19387111154626, 34.26303198700633], [72.19379467347295, 34.263045109659956], [72.19380357758004, 34.263081011269016], [72.19390774918377, 34.263063205444844]]]]}, "properties": {"id": "8J6J757V+6G9F", "height": 2.785234928131104, "hmax": 0.0, "ratio": 0.0, "vulnClass": "none"}}, {"type": "Feature", "geometry": {"type": "MultiPolygon", "coordinates": [[[[72.19405982075122, 34.26322777943519], [72.19401269587644, 34.263048211797276], [72.19389330925402, 34.26306972565985], [72.1939120999762, 34.26314137108481], [72.19397523328458, 34.26313001688282], [72.19399305892016, 34.263198034368116], [72.19383959211358, 34.26322570856591], [72.19384998890415, 34.26326570091706], [72.19405982075122, 34.26322777943519]]]]}, "properties": {"id": "8J6J757V+7H89", "height": 2.786599636077881, "hmax": 0.0, "ratio": 0.0, "vulnClass": "none"}}, {"type": "Feature", "geometry": {"type": "MultiPolygon", "coordinates": [[[[72.1937921820291, 34.2630351365764], [72.19373769146294, 34.26304452522362], [72.19374908698478, 34.263090399919854], [72.19380357758004, 34.263081011269016], [72.1937921820291, 34.2630351365764]]]]}, "properties": {"id": "8J6J757V+6GCG", "height": 2.742339372634888, "hmax": 0.0, "ratio": 0.0, "vulnClass": "none"}}, {"type": "Feature", "geometry": {"type": "MultiPolygon", "coordinates": [[[[72.19379704381551, 34.26310772490835], [72.19377165677615, 34.263107143231274], [72.19377092923493, 34.26312903190424], [72.19379631628087, 34.2631296135818], [72.19379704381551, 34.26310772490835]]]]}, "properties": {"id": "8J6J757V+6GVJ", "height": 2.471017599105835, "hmax": 0.0, "ratio": 0.0, "vulnClass": "none"}}, {"type": "Feature", "geometry": {"type": "MultiPolygon", "coordinates": [[[[72.19358901436539, 34.26321554995838], [72.19357265474447, 34.26315243386888], [72.1934981663834, 34.263165691154015], [72.19351452594972, 34.263228807250734], [72.19358901436539, 34.26321554995838]]]]}, "properties": {"id": "8J6J757V+7CFM", "height": 2.674976825714111, "hmax": 0.0, "ratio": 0.0, "vulnClass": "none"}}, {"type": "Feature", "geometry": {"type": "MultiPolygon", "coordinates": [[[[72.19361937820595, 34.263138269907316], [72.19357242737848, 34.26314620862382], [72.193581325409, 34.263182290398035], [72.19362827925036, 34.26317426160227], [72.19361937820595, 34.263138269907316]]]]}, "properties": {"id": "8J6J757V+7C9C", "height": 2.587501049041748, "hmax": 0.0, "ratio": 0.0, "vulnClass": "none"}}, {"type": "Feature", "geometry": {"type": "MultiPolygon", "coordinates": [[[[72.19367133637658, 34.26311034347414], [72.19366004110847, 34.26306798674115], [72.19353551037474, 34.2630907345634], [72.1935466970901, 34.263133088818776], [72.19367133637658, 34.26311034347414]]]]}, "properties": {"id": "8J6J757V+6CX3", "height": 2.936931133270264, "hmax": 0.0, "ratio": 0.0, "vulnClass": "none"}}, {"type": "Feature", "geometry": {"type": "MultiPolygon", "coordinates": [[[[72.19349526028667, 34.26311919966244], [72.19348740898482, 34.26308755899475], [72.19344056367437, 34.26309559022438], [72.19344841795329, 34.263127140817396], [72.19349526028667, 34.26311919966244]]]]}, "properties": {"id": "8J6J757V+69W9", "height": 3.202714681625366, "hmax": 0.0, "ratio": 0.0, "vulnClass": "none"}}, {"type": "Feature", "geometry": {"type": "MultiPolygon", "coordinates": [[[[72.19344341220545, 34.26318300642427], [72.19337926045785, 34.26319559904619], [72.19340601443893, 34.26328897177868], [72.19347005776375, 34.26327637666013], [72.19344341220545, 34.26318300642427]]]]}, "properties": {"id": "8J6J757V+79VG", "height": 2.776541709899902, "hmax": 0.0, "ratio": 0.0, "vulnClass": "none"}}, {"type": "Feature", "geometry": {"type": "MultiPolygon", "coordinates": [[[[72.19383142837368, 34.26328186242064], [72.19381250824868, 34.263210845038714], [72.19360211593944, 34.26324929412431], [72.19362092739942, 34.26332030904408], [72.19383142837368, 34.26328186242064]]]]}, "properties": {"id": "8J6J757V+8F4Q", "height": 2.642802953720093, "hmax": 0.0, "ratio": 0.0, "vulnClass": "none"}}, {"type": "Feature", "geometry": {"type": "MultiPolygon", "coordinates": [[[[72.19299901214399, 34.26356197988417], [72.1929700158703, 34.26348054502441], [72.1929292944509, 34.26349051931298], [72.19295829068733, 34.2635719541805], [72.19299901214399, 34.26356197988417]]]]}, "properties": {"id": "8J6J757V+C585", "height": 4.267080783843994, "hmax": 0.0, "ratio": 0.0, "vulnClass": "none"}}, {"type": "Feature", "geometry": {"type": "MultiPolygon", "coordinates": [[[[72.19336913184428, 34.26336637282237], [72.19362092739942, 34.26332030904408], [72.19360211593944, 34.26324929412431], [72.19331165097077, 34.26330240451397], [72.19332669814855, 34.263359270522116], [72.19336536779487, 34.26335222387902], [72.19336913184428, 34.26336637282237]]]]}, "properties": {"id": "8J6J757V+89H6", "height": 2.918302536010742, "hmax": 0.0, "ratio": 0.0, "vulnClass": "none"}}, {"type": "Feature", "geometry": {"type": "MultiPolygon", "coordinates": [[[[72.1932156325956, 34.26322844833229], [72.19317868620213, 34.26323264976809], [72.19318509543193, 34.263271739474206], [72.19322204184246, 34.26326753803733], [72.1932156325956, 34.26322844833229]]]]}, "properties": {"id": "8J6J757V+8743", "height": 2.953201770782471, "hmax": 0.0, "ratio": 0.0, "vulnClass": "none"}}, {"type": "Feature", "geometry": {"type": "MultiPolygon", "coordinates": [[[[72.19307055371549, 34.26326181265276], [72.19302693771576, 34.26326414842318], [72.19302852424242, 34.263285008376286], [72.19307224874476, 34.26328267509226], [72.19307055371549, 34.26326181265276]]]]}, "properties": {"id": "8J6J757V+863W", "height": 3.49068021774292, "hmax": 0.0, "ratio": 0.0, "vulnClass": "none"}}, {"type": "Feature", "geometry": {"type": "MultiPolygon", "coordinates": [[[[72.19290584228517, 34.26325866866218], [72.1930071724971, 34.26324142951154], [72.19300152618283, 34.26321858345896], [72.19290019599785, 34.263235822606305], [72.19290584228517, 34.26325866866218]]]]}, "properties": {"id": "8J6J757V+75WG", "height": 3.69416332244873, "hmax": 0.0, "ratio": 0.0, "vulnClass": "none"}}, {"type": "Feature", "geometry": {"type": "MultiPolygon", "coordinates": [[[[72.19302700000057, 34.26336024486842], [72.19300311349166, 34.2632720760723], [72.192912104935, 34.263289101059605], [72.19293599135105, 34.26337726986879], [72.19297357611065, 34.26337019848588], [72.19296128909521, 34.263325024460165], [72.1929910055166, 34.26331948549815], [72.19300329254757, 34.26336465952166], [72.19302700000057, 34.26336024486842]]]]}, "properties": {"id": "8J6J757V+85GX", "height": 5.813550472259521, "hmax": 0.0, "ratio": 0.0, "vulnClass": "none"}}, {"type": "Feature", "geometry": {"type": "MultiPolygon", "coordinates": [[[[72.19304624495594, 34.26343126979863], [72.19302700000057, 34.26336024486842], [72.19293599135105, 34.26337726986879], [72.19295523623161, 34.26344829480956], [72.19304624495594, 34.26343126979863]]]]}, "properties": {"id": "8J6J757V+9594", "height": 5.928524494171143, "hmax": 0.0, "ratio": 0.0, "vulnClass": "none"}}, {"type": "Feature", "geometry": {"type": "MultiPolygon", "coordinates": [[[[72.19312513086587, 34.263419646052206], [72.19309888437269, 34.26333061187777], [72.19301875789513, 34.26334689473911], [72.19304500430633, 34.26343592892658], [72.19312513086587, 34.263419646052206]]]]}, "properties": {"id": "8J6J757V+9647", "height": 2.447936534881592, "hmax": 0.0, "ratio": 0.0, "vulnClass": "none"}}, {"type": "Feature", "geometry": {"type": "MultiPolygon", "coordinates": [[[[72.19286536918435, 34.26324485023388], [72.1928333498261, 34.26324781231052], [72.1928375907122, 34.263280271716404], [72.19286971857454, 34.26327731212588], [72.19286536918435, 34.26324485023388]]]]}, "properties": {"id": "8J6J757V+845C", "height": 2.993509769439697, "hmax": 0.0, "ratio": 0.0, "vulnClass": "none"}}, {"type": "Feature", "geometry": {"type": "MultiPolygon", "coordinates": [[[[72.19290019599785, 34.263235822606305], [72.19286874972458, 34.26324114160806], [72.19287439600353, 34.26326398766498], [72.19290584228517, 34.26325866866218], [72.19290019599785, 34.263235822606305]]]]}, "properties": {"id": "8J6J757V+75RV", "height": 2.700138568878174, "hmax": 0.0, "ratio": 0.0, "vulnClass": "none"}}, {"type": "Feature", "geometry": {"type": "MultiPolygon", "coordinates": [[[[72.19282248546206, 34.26331985991928], [72.19278885490546, 34.26324066258247], [72.19270498118074, 34.2632651527277], [72.19273850317323, 34.263344347597126], [72.19282248546206, 34.26331985991928]]]]}, "properties": {"id": "8J6J757V+846M", "height": 3.413845062255859, "hmax": 0.0, "ratio": 0.0, "vulnClass": "none"}}, {"type": "Feature", "geometry": {"type": "MultiPolygon", "coordinates": [[[[72.19263361170083, 34.263573166305264], [72.19266921210362, 34.26354414419991], [72.1926495747157, 34.263527377758976], [72.19261386582195, 34.263556397371815], [72.19263361170083, 34.263573166305264]]]]}, "properties": {"id": "8J6J757V+C3C4", "height": 5.673010349273682, "hmax": 0.0, "ratio": 0.0, "vulnClass": "none"}}, {"type": "Feature", "geometry": {"type": "MultiPolygon", "coordinates": [[[[72.19294489266959, 34.26348835274335], [72.19293246826821, 34.26346363857595], [72.19284415051598, 34.26349442728082], [72.1928564723927, 34.26351895881585], [72.19294489266959, 34.26348835274335]]]]}, "properties": {"id": "8J6J757V+95RP", "height": 4.972032070159912, "hmax": 0.0, "ratio": 0.0, "vulnClass": "none"}}, {"type": "Feature", "geometry": {"type": "MultiPolygon", "coordinates": [[[[72.19281307233116, 34.263589900113445], [72.19277357547493, 34.26351732921999], [72.19270892552979, 34.263541628964006], [72.19274831684173, 34.26361410731238], [72.19281307233116, 34.263589900113445]]]]}, "properties": {"id": "8J6J757V+C4CM", "height": 6.020119190216064, "hmax": 0.0, "ratio": 0.0, "vulnClass": "none"}}, {"type": "Feature", "geometry": {"type": "MultiPolygon", "coordinates": [[[[72.19269058404305, 34.26355445992698], [72.19263715599745, 34.263574329292176], [72.19267643277668, 34.26364698532769], [72.19272986385667, 34.263627025870626], [72.19269058404305, 34.26355445992698]]]]}, "properties": {"id": "8J6J757V+C3V5", "height": 5.102344512939453, "hmax": 0.0, "ratio": 0.0, "vulnClass": "none"}}, {"type": "Feature", "geometry": {"type": "MultiPolygon", "coordinates": [[[[72.19273070087056, 34.263814096775576], [72.193035575517, 34.26369992905085], [72.19301715799578, 34.263666062995135], [72.1929713117494, 34.26368322161874], [72.19295391928168, 34.263651181955886], [72.19269489106934, 34.263748190984], [72.19273070087056, 34.263814096775576]]]]}, "properties": {"id": "8J6J757V+F4X3", "height": 4.166261672973633, "hmax": 0.0, "ratio": 0.0, "vulnClass": "none"}}, {"type": "Feature", "geometry": {"type": "MultiPolygon", "coordinates": [[[[72.19263715599745, 34.263574329292176], [72.19260384557478, 34.26358672697888], [72.19269488041766, 34.263755041790674], [72.19272808240466, 34.26374264159534], [72.19263715599745, 34.263574329292176]]]]}, "properties": {"id": "8J6J757V+F37F", "height": 3.629985332489014, "hmax": 0.0, "ratio": 0.0, "vulnClass": "none"}}, {"type": "Feature", "geometry": {"type": "MultiPolygon", "coordinates": [[[[72.19256127720813, 34.26368815639023], [72.19254752037726, 34.263661067863346], [72.19251434236342, 34.263672747396214], [72.1924955899422, 34.263635898792344], [72.19238749464121, 34.263673715861565], [72.19241989532021, 34.26373765053356], [72.19256127720813, 34.26368815639023]]]]}, "properties": {"id": "8J6J757R+FXGH", "height": 4.032788276672363, "hmax": 0.0, "ratio": 0.0, "vulnClass": "none"}}, {"type": "Feature", "geometry": {"type": "MultiPolygon", "coordinates": [[[[72.1923143956785, 34.263494994562485], [72.19227088999504, 34.263507068290934], [72.19229185731879, 34.263558931838325], [72.19236023935345, 34.26353994630673], [72.1923510129659, 34.263517018158936], [72.19232613664579, 34.26352392995435], [72.1923143956785, 34.263494994562485]]]]}, "properties": {"id": "8J6J757R+CW75", "height": 4.170880317687988, "hmax": 0.0, "ratio": 0.0, "vulnClass": "none"}}, {"type": "Feature", "geometry": {"type": "MultiPolygon", "coordinates": [[[[72.19240269617426, 34.26349737935751], [72.19237311365174, 34.26344991574813], [72.19232662909415, 34.26346994414999], [72.19235621159592, 34.26351740776951], [72.19240269617426, 34.26349737935751]]]]}, "properties": {"id": "8J6J757R+9WX8", "height": 4.354905128479004, "hmax": 0.0, "ratio": 0.0, "vulnClass": "none"}}, {"type": "Feature", "geometry": {"type": "MultiPolygon", "coordinates": [[[[72.19230497484973, 34.26349423772191], [72.1922982281683, 34.263468571909385], [72.19225879596372, 34.2634756908746], [72.19226554263341, 34.26350135668871], [72.19230497484973, 34.26349423772191]]]]}, "properties": {"id": "8J6J757R+9WV6", "height": 3.297298669815063, "hmax": 0.0, "ratio": 0.0, "vulnClass": "none"}}, {"type": "Feature", "geometry": {"type": "MultiPolygon", "coordinates": [[[[72.1920086554575, 34.26351439783597], [72.19199299072115, 34.26346959701276], [72.19193859088035, 34.26348277303058], [72.19195425858524, 34.26352748378267], [72.1920086554575, 34.26351439783597]]]]}, "properties": {"id": "8J6J757R+9QXR", "height": 2.586715459823608, "hmax": 0.0, "ratio": 0.0, "vulnClass": "none"}}, {"type": "Feature", "geometry": {"type": "MultiPolygon", "coordinates": [[[[72.1922207273107, 34.26364095610838], [72.19215500754278, 34.263560301789944], [72.19211639486494, 34.263581952903984], [72.19218222310202, 34.26366260972917], [72.1922207273107, 34.26364095610838]]]]}, "properties": {"id": "8J6J757R+CVVF", "height": 3.208170652389526, "hmax": 0.0, "ratio": 0.0, "vulnClass": "none"}}, {"type": "Feature", "geometry": {"type": "MultiPolygon", "coordinates": [[[[72.19213915405798, 34.26365828695673], [72.1921246612488, 34.26362721511565], [72.19202962254563, 34.26365766884248], [72.19204411532344, 34.26368874069322], [72.19213915405798, 34.26365828695673]]]]}, "properties": {"id": "8J6J757R+FR88", "height": 3.014603137969971, "hmax": 0.0, "ratio": 0.0, "vulnClass": "none"}}, {"type": "Feature", "geometry": {"type": "MultiPolygon", "coordinates": [[[[72.19212048678855, 34.2637462014718], [72.19218043528068, 34.26371963077518], [72.19214946039432, 34.263671594320996], [72.19205556904814, 34.26371325239907], [72.19207157645856, 34.26373795864981], [72.19210551934688, 34.26372287125054], [72.19212048678855, 34.2637462014718]]]]}, "properties": {"id": "8J6J757R+FRQH", "height": 2.526909589767456, "hmax": 0.0, "ratio": 0.0, "vulnClass": "none"}}, {"type": "Feature", "geometry": {"type": "MultiPolygon", "coordinates": [[[[72.19187124358167, 34.263692619827545], [72.19186357498722, 34.26365223915949], [72.19179236408907, 34.263661604134555], [72.19180003264964, 34.263701984805365], [72.19187124358167, 34.263692619827545]]]]}, "properties": {"id": "8J6J757R+FPG4", "height": 4.170010089874268, "hmax": 0.0, "ratio": 0.0, "vulnClass": "none"}}, {"type": "Feature", "geometry": {"type": "MultiPolygon", "coordinates": [[[[72.19196807899284, 34.263679966061495], [72.19196051884445, 34.26363958788465], [72.19186357498722, 34.26365223915949], [72.19187124358167, 34.263692619827545], [72.19196807899284, 34.263679966061495]]]]}, "properties": {"id": "8J6J757R+FQ7M", "height": 2.964153289794922, "hmax": 0.0, "ratio": 0.0, "vulnClass": "none"}}, {"type": "Feature", "geometry": {"type": "MultiPolygon", "coordinates": [[[[72.19179236408907, 34.263661604134555], [72.1917479800739, 34.26366743750194], [72.1917676522627, 34.26377128531828], [72.19191705069858, 34.263751723720596], [72.19190955412239, 34.26371269917977], [72.19180464530034, 34.26372651996592], [72.19179236408907, 34.263661604134555]]]]}, "properties": {"id": "8J6J757R+FPW2", "height": 4.519711494445801, "hmax": 0.0, "ratio": 0.0, "vulnClass": "none"}}, {"type": "Feature", "geometry": {"type": "MultiPolygon", "coordinates": [[[[72.19175640443393, 34.26370468041652], [72.19175173172746, 34.26366563047129], [72.19158569692044, 34.26367940166798], [72.19159036655351, 34.26371854169235], [72.19175640443393, 34.26370468041652]]]]}, "properties": {"id": "8J6J757R+FMFM", "height": 4.519711494445801, "hmax": 0.0, "ratio": 0.0, "vulnClass": "none"}}, {"type": "Feature", "geometry": {"type": "MultiPolygon", "coordinates": [[[[72.19152547644207, 34.26356074163459], [72.19145691972972, 34.263565389573586], [72.19146433836009, 34.26363938875397], [72.19156771747593, 34.26363238422985], [72.1915628439888, 34.26358305310267], [72.19152791017758, 34.26358549727512], [72.19152547644207, 34.26356074163459]]]]}, "properties": {"id": "8J6J757R+CJR3", "height": 2.540794372558594, "hmax": 0.0, "ratio": 0.0, "vulnClass": "none"}}, {"type": "Feature", "geometry": {"type": "MultiPolygon", "coordinates": [[[[72.19184855161026, 34.26331069441798], [72.19167259731768, 34.26331260956119], [72.19167402761893, 34.26340017352262], [72.19184998209442, 34.2633982583864], [72.19184855161026, 34.26331069441798]]]]}, "properties": {"id": "8J6J757R+8PR7", "height": 3.232126474380493, "hmax": 0.0, "ratio": 0.0, "vulnClass": "none"}}, {"type": "Feature", "geometry": {"type": "MultiPolygon", "coordinates": [[[[72.19221691119355, 34.26345534940097], [72.19220043962561, 34.26341521766509], [72.19204665571063, 34.263458928193465], [72.19206323570295, 34.26349906243393], [72.19221691119355, 34.26345534940097]]]]}, "properties": {"id": "8J6J757R+9VJ6", "height": 3.360784530639648, "hmax": 0.0, "ratio": 0.0, "vulnClass": "none"}}, {"type": "Feature", "geometry": {"type": "MultiPolygon", "coordinates": [[[[72.19226450115613, 34.263402082731034], [72.19223066432744, 34.26340419167362], [72.19223357611983, 34.26343743193272], [72.19226740996625, 34.26343541306674], [72.19226450115613, 34.263402082731034]]]]}, "properties": {"id": "8J6J757R+9V9Q", "height": 2.51378607749939, "hmax": 0.0, "ratio": 0.0, "vulnClass": "none"}}, {"type": "Feature", "geometry": {"type": "MultiPolygon", "coordinates": [[[[72.19237311365174, 34.26344991574813], [72.19235012416192, 34.26341315028403], [72.19230364261595, 34.26343308860128], [72.19232662909415, 34.26346994414999], [72.19237311365174, 34.26344991574813]]]]}, "properties": {"id": "8J6J757R+9WGQ", "height": 4.354905128479004, "hmax": 0.0, "ratio": 0.0, "vulnClass": "none"}}, {"type": "Feature", "geometry": {"type": "MultiPolygon", "coordinates": [[[[72.1923869176146, 34.263397226694], [72.19234578615473, 34.26333137910625], [72.19226251120763, 34.26336724098823], [72.19230364261595, 34.26343308860128], [72.1923869176146, 34.263397226694]]]]}, "properties": {"id": "8J6J757R+9W47", "height": 3.204499959945679, "hmax": 0.0, "ratio": 0.0, "vulnClass": "none"}}, {"type": "Feature", "geometry": {"type": "MultiPolygon", "coordinates": [[[[72.1925187401866, 34.2630833874047], [72.19249967114646, 34.263000557386206], [72.19241136844981, 34.263014579088335], [72.1924252222255, 34.26307466306959], [72.19236857367781, 34.26308364105132], [72.1923548284333, 34.26302355955271], [72.1922772237548, 34.26303584319896], [72.19229618408802, 34.263118670754146], [72.1925187401866, 34.2630833874047]]]]}, "properties": {"id": "8J6J757R+6XCH", "height": 4.059482574462891, "hmax": 0.0, "ratio": 0.0, "vulnClass": "none"}}, {"type": "Feature", "geometry": {"type": "MultiPolygon", "coordinates": [[[[72.19228066186164, 34.263108759500795], [72.19227364483967, 34.26304225162241], [72.19223522156112, 34.26304515688112], [72.19224224154834, 34.26311157468349], [72.19228066186164, 34.263108759500795]]]]}, "properties": {"id": "8J6J757R+6WJ3", "height": 2.591454267501831, "hmax": 0.0, "ratio": 0.0, "vulnClass": "none"}}, {"type": "Feature", "geometry": {"type": "MultiPolygon", "coordinates": [[[[72.19219399377732, 34.263054037575216], [72.19216488448251, 34.26305111659593], [72.19215723451127, 34.26310484816356], [72.19218634681978, 34.263107679068824], [72.19219399377732, 34.263054037575216]]]]}, "properties": {"id": "8J6J757R+6VM4", "height": 2.513134479522705, "hmax": 0.0, "ratio": 0.0, "vulnClass": "none"}}, {"type": "Feature", "geometry": {"type": "MultiPolygon", "coordinates": [[[[72.19216704279799, 34.263084159292355], [72.19216070230702, 34.26303975254221], [72.19204883228988, 34.26305070961075], [72.19205517272195, 34.263095116363765], [72.19216704279799, 34.263084159292355]]]]}, "properties": {"id": "8J6J757R+6RHM", "height": 2.562203884124756, "hmax": 0.0, "ratio": 0.0, "vulnClass": "none"}}, {"type": "Feature", "geometry": {"type": "MultiPolygon", "coordinates": [[[[72.19209393883125, 34.26308843291561], [72.19206328967908, 34.26308610762661], [72.1920604291004, 34.263113356098394], [72.19209107826228, 34.26311568138859], [72.19209393883125, 34.26308843291561]]]]}, "properties": {"id": "8J6J757R+6RW3", "height": 2.87606406211853, "hmax": 0.0, "ratio": 0.0, "vulnClass": "none"}}, {"type": "Feature", "geometry": {"type": "MultiPolygon", "coordinates": [[[[72.19211594742038, 34.263118775612796], [72.192118449585, 34.26313821423763], [72.19218933818262, 34.26313199675925], [72.19218683600162, 34.26311255813505], [72.19211594742038, 34.263118775612796]]]]}, "properties": {"id": "8J6J757R+7V25", "height": 2.841892957687378, "hmax": 0.0, "ratio": 0.0, "vulnClass": "none"}}, {"type": "Feature", "geometry": {"type": "MultiPolygon", "coordinates": [[[[72.19208306425003, 34.26320320912664], [72.19205898960843, 34.26313378610051], [72.19194046571654, 34.26316198857636], [72.19196442877775, 34.26323149921037], [72.19208306425003, 34.26320320912664]]]]}, "properties": {"id": "8J6J757R+7RC7", "height": 2.572916984558105, "hmax": 0.0, "ratio": 0.0, "vulnClass": "none"}}, {"type": "Feature", "geometry": {"type": "MultiPolygon", "coordinates": [[[[72.19243483834883, 34.26283446570305], [72.19243180366958, 34.26280491858947], [72.1923173145666, 34.26281302136762], [72.1923218983049, 34.26285801885826], [72.19240776742599, 34.26285187422631], [72.19240621531551, 34.26283651392712], [72.19243483834883, 34.26283446570305]]]]}, "properties": {"id": "8J6J757R+4WQ9", "height": 2.610036373138428, "hmax": 0.0, "ratio": 0.0, "vulnClass": "none"}}, {"type": "Feature", "geometry": {"type": "MultiPolygon", "coordinates": [[[[72.19222608618222, 34.26281381464246], [72.19219061388469, 34.262819401757866], [72.1922416428738, 34.2630414278374], [72.19238189904675, 34.263019222119965], [72.19236558399203, 34.26294826426366], [72.19230740766112, 34.26295747763269], [72.19228625159964, 34.2628655852018], [72.19223975277538, 34.26287299289667], [72.19222608618222, 34.26281381464246]]]]}, "properties": {"id": "8J6J757R+5WCX", "height": 3.411344528198242, "hmax": 0.0, "ratio": 0.0, "vulnClass": "none"}}, {"type": "Feature", "geometry": {"type": "MultiPolygon", "coordinates": [[[[72.19253411713099, 34.26279401253648], [72.19247857100612, 34.26279922973789], [72.19249999338201, 34.26295495119591], [72.1927629247264, 34.262929877872544], [72.19275697595953, 34.26288674215886], [72.19254970243524, 34.26290651068156], [72.19253411713099, 34.26279401253648]]]]}, "properties": {"id": "8J6J757V+524X", "height": 2.946471691131592, "hmax": 0.0, "ratio": 0.0, "vulnClass": "none"}}, {"type": "Feature", "geometry": {"type": "MultiPolygon", "coordinates": [[[[72.19262017388725, 34.26276263133804], [72.1925602125995, 34.26276675577428], [72.19256773468327, 34.26284093758109], [72.19262758753274, 34.262836810657], [72.19262017388725, 34.26276263133804]]]]}, "properties": {"id": "8J6J757V+42H2", "height": 2.510717630386353, "hmax": 0.0, "ratio": 0.0, "vulnClass": "none"}}, {"type": "Feature", "geometry": {"type": "MultiPolygon", "coordinates": [[[[72.19288201859271, 34.26281920458543], [72.19287990761669, 34.26279779173768], [72.19275791467754, 34.262806263817005], [72.19277113546416, 34.262937638282835], [72.19289301710764, 34.262929253790034], [72.19288715242868, 34.262870524850356], [72.19280531843992, 34.26287613128824], [72.1928001816589, 34.262824901099144], [72.19288201859271, 34.26281920458543]]]]}, "properties": {"id": "8J6J757V+44WR", "height": 2.762158393859863, "hmax": 0.0, "ratio": 0.0, "vulnClass": "none"}}, {"type": "Feature", "geometry": {"type": "MultiPolygon", "coordinates": [[[[72.19275041451652, 34.26283917527638], [72.19274447474432, 34.26279576933186], [72.19265265431774, 34.26280457229772], [72.19265870253386, 34.26284798073112], [72.19275041451652, 34.26283917527638]]]]}, "properties": {"id": "8J6J757V+43GV", "height": 2.480557680130005, "hmax": 0.0, "ratio": 0.0, "vulnClass": "none"}}, {"type": "Feature", "geometry": {"type": "MultiPolygon", "coordinates": [[[[72.19249030219008, 34.26288396489986], [72.19243965608133, 34.2628887535318], [72.19244622034516, 34.26293623034537], [72.19249675799114, 34.26293143922522], [72.19249030219008, 34.26288396489986]]]]}, "properties": {"id": "8J6J757R+5X8H", "height": 3.298719882965088, "hmax": 0.0, "ratio": 0.0, "vulnClass": "none"}}, {"type": "Feature", "geometry": {"type": "MultiPolygon", "coordinates": [[[[72.19243069058335, 34.263008170968064], [72.19250638862508, 34.26300098180592], [72.19249999338201, 34.26295495119591], [72.19242440387292, 34.26296214284315], [72.19243069058335, 34.263008170968064]]]]}, "properties": {"id": "8J6J757R+5XW9", "height": 3.28743577003479, "hmax": 0.0, "ratio": 0.0, "vulnClass": "none"}}, {"type": "Feature", "geometry": {"type": "MultiPolygon", "coordinates": [[[[72.19250846991146, 34.263010224346466], [72.19250160272276, 34.262984916362285], [72.19248565215855, 34.262987886109514], [72.19250603074786, 34.26306398524283], [72.1925548648932, 34.263054918217385], [72.19254124496781, 34.26300412458595], [72.19250846991146, 34.263010224346466]]]]}, "properties": {"id": "8J6J757V+6264", "height": 2.903641223907471, "hmax": 0.0, "ratio": 0.0, "vulnClass": "none"}}, {"type": "Feature", "geometry": {"type": "MultiPolygon", "coordinates": [[[[72.19252736086672, 34.26312126579435], [72.1925187401866, 34.2630833874047], [72.19240096797283, 34.263102052151055], [72.1924096970923, 34.26313993303341], [72.19252736086672, 34.26312126579435]]]]}, "properties": {"id": "8J6J757R+6XWH", "height": 3.932745456695557, "hmax": 0.0, "ratio": 0.0, "vulnClass": "none"}}, {"type": "Feature", "geometry": {"type": "MultiPolygon", "coordinates": [[[[72.19255719489561, 34.26321993772444], [72.19252819585034, 34.26312227653386], [72.1924856721444, 34.263130947329344], [72.19251467713265, 34.2632284283741], [72.19255719489561, 34.26321993772444]]]]}, "properties": {"id": "8J6J757V+72C4", "height": 2.78288459777832, "hmax": 0.0, "ratio": 0.0, "vulnClass": "none"}}, {"type": "Feature", "geometry": {"type": "MultiPolygon", "coordinates": [[[[72.19267348263936, 34.26326551248293], [72.19263495049766, 34.26316393683949], [72.19255170913094, 34.26318573701311], [72.19259024117859, 34.263287312677974], [72.19267348263936, 34.26326551248293]]]]}, "properties": {"id": "8J6J757V+72X4", "height": 2.670156717300415, "hmax": 0.0, "ratio": 0.0, "vulnClass": "none"}}, {"type": "Feature", "geometry": {"type": "MultiPolygon", "coordinates": [[[[72.1929290748474, 34.26304321271683], [72.19286565496279, 34.263053387917594], [72.19287344313233, 34.26308692022591], [72.1929368630418, 34.26307674502237], [72.1929290748474, 34.26304321271683]]]]}, "properties": {"id": "8J6J757V+65CQ", "height": 2.935982465744019, "hmax": 0.0, "ratio": 0.0, "vulnClass": "none"}}, {"type": "Feature", "geometry": {"type": "MultiPolygon", "coordinates": [[[[72.19275004395278, 34.26300052707846], [72.1927028029454, 34.2630041318297], [72.19271440592026, 34.26310905660867], [72.19279245191956, 34.26310309297931], [72.19278875650738, 34.26307055592897], [72.19275806007778, 34.26307291729189], [72.19275004395278, 34.26300052707846]]]]}, "properties": {"id": "8J6J757V+63HG", "height": 3.308050155639648, "hmax": 0.0, "ratio": 0.0, "vulnClass": "none"}}, {"type": "Feature", "geometry": {"type": "MultiPolygon", "coordinates": [[[[72.19277261276586, 34.26295525049976], [72.19273190888825, 34.26296143902392], [72.19273833086811, 34.26299034260905], [72.19277892327311, 34.262984241673536], [72.19277261276586, 34.26295525049976]]]]}, "properties": {"id": "8J6J757V+54JR", "height": 3.194640636444092, "hmax": 0.0, "ratio": 0.0, "vulnClass": "none"}}, {"type": "Feature", "geometry": {"type": "MultiPolygon", "coordinates": [[[[72.1928159384003, 34.262948581180666], [72.19277261276586, 34.26295525049976], [72.19277892327311, 34.262984241673536], [72.19282224293228, 34.2629777525065], [72.1928159384003, 34.262948581180666]]]]}, "properties": {"id": "8J6J757V+54MP", "height": 3.138660907745361, "hmax": 0.0, "ratio": 0.0, "vulnClass": "none"}}, {"type": "Feature", "geometry": {"type": "MultiPolygon", "coordinates": [[[[72.19286996077051, 34.263093691462565], [72.19285984720469, 34.26299294751946], [72.19277725066132, 34.262998626602986], [72.19278725563667, 34.26309936806131], [72.19286996077051, 34.263093691462565]]]]}, "properties": {"id": "8J6J757V+648V", "height": 2.996358394622803, "hmax": 0.0, "ratio": 0.0, "vulnClass": "none"}}, {"type": "Feature", "geometry": {"type": "MultiPolygon", "coordinates": [[[[72.19295648337614, 34.26298299273967], [72.19292880715327, 34.263002280560556], [72.19293769329937, 34.26305503900499], [72.19295041646114, 34.26306750024171], [72.19300411161036, 34.26302978805582], [72.19295648337614, 34.26298299273967]]]]}, "properties": {"id": "8J6J757V+6584", "height": 2.934208631515503, "hmax": 0.0, "ratio": 0.0, "vulnClass": "none"}}, {"type": "Feature", "geometry": {"type": "MultiPolygon", "coordinates": [[[[72.19303850845108, 34.262968376040085], [72.19300001757505, 34.262950456398976], [72.19296940853934, 34.26299590933113], [72.19300789942825, 34.26301382898245], [72.19303850845108, 34.262968376040085]]]]}, "properties": {"id": "8J6J757V+56R6", "height": 2.471444606781006, "hmax": 0.0, "ratio": 0.0, "vulnClass": "none"}}, {"type": "Feature", "geometry": {"type": "MultiPolygon", "coordinates": [[[[72.1931450339727, 34.26302346231968], [72.19312665982652, 34.26299482570918], [72.19307960927084, 34.263015562602114], [72.19309787491308, 34.26304419673263], [72.1931450339727, 34.26302346231968]]]]}, "properties": {"id": "8J6J757V+665P", "height": 2.673681735992432, "hmax": 0.0, "ratio": 0.0, "vulnClass": "none"}}, {"type": "Feature", "geometry": {"type": "MultiPolygon", "coordinates": [[[[72.19316266467875, 34.26322795561569], [72.19314445135387, 34.26316182219613], [72.19299169893107, 34.26319086387658], [72.1930099121392, 34.26325699731299], [72.19316266467875, 34.26322795561569]]]]}, "properties": {"id": "8J6J757V+76P7", "height": 3.69416332244873, "hmax": 0.0, "ratio": 0.0, "vulnClass": "none"}}, {"type": "Feature", "geometry": {"type": "MultiPolygon", "coordinates": [[[[72.19327807825684, 34.263185527836136], [72.19324583580465, 34.26311681929405], [72.1931332267517, 34.26315327157544], [72.19316557761357, 34.263221982629325], [72.19327807825684, 34.263185527836136]]]]}, "properties": {"id": "8J6J757V+778P", "height": 3.479070663452148, "hmax": 0.0, "ratio": 0.0, "vulnClass": "none"}}, {"type": "Feature", "geometry": {"type": "MultiPolygon", "coordinates": [[[[72.19330843546378, 34.26307579536233], [72.19324598970299, 34.263089328465185], [72.19327800108763, 34.26319111508425], [72.19346184284659, 34.26315115669888], [72.19344917391781, 34.263110931962245], [72.19332778104238, 34.26313726714556], [72.19330843546378, 34.26307579536233]]]]}, "properties": {"id": "8J6J757V+784H", "height": 3.634784460067749, "hmax": 0.0, "ratio": 0.0, "vulnClass": "none"}}, {"type": "Feature", "geometry": {"type": "MultiPolygon", "coordinates": [[[[72.19321063880182, 34.263042273727336], [72.19319192605622, 34.26299442839014], [72.19314657039561, 34.263006640335945], [72.1931652831172, 34.26305448567888], [72.19321063880182, 34.263042273727336]]]]}, "properties": {"id": "8J6J757V+673W", "height": 2.598835945129395, "hmax": 0.0, "ratio": 0.0, "vulnClass": "none"}}, {"type": "Feature", "geometry": {"type": "MultiPolygon", "coordinates": [[[[72.19353317375887, 34.26298791522252], [72.19351736864598, 34.262924451250555], [72.19335029589121, 34.262953165251], [72.19336610387509, 34.263016539161505], [72.19353317375887, 34.26298791522252]]]]}, "properties": {"id": "8J6J757V+59PR", "height": 2.998851776123047, "hmax": 0.0, "ratio": 0.0, "vulnClass": "none"}}, {"type": "Feature", "geometry": {"type": "MultiPolygon", "coordinates": [[[[72.19343146648261, 34.2628891290048], [72.19342530456139, 34.262865459844235], [72.19332208260407, 34.26288409833235], [72.19334086082704, 34.26295610412813], [72.19338804950628, 34.26294753993068], [72.19337543015534, 34.262899293379554], [72.19343146648261, 34.2628891290048]]]]}, "properties": {"id": "8J6J757V+5899", "height": 3.000567674636841, "hmax": 0.0, "ratio": 0.0, "vulnClass": "none"}}, {"type": "Feature", "geometry": {"type": "MultiPolygon", "coordinates": [[[[72.19314811375529, 34.26286550796618], [72.19312057862389, 34.262867491144355], [72.1931257724998, 34.26291700987032], [72.19315319915607, 34.26291502420544], [72.19314811375529, 34.26286550796618]]]]}, "properties": {"id": "8J6J757V+572M", "height": 3.119833469390869, "hmax": 0.0, "ratio": 0.0, "vulnClass": "none"}}, {"type": "Feature", "geometry": {"type": "MultiPolygon", "coordinates": [[[[72.19327355119799, 34.26304083082302], [72.19322529909994, 34.26293768041736], [72.19317162993978, 34.26295502043395], [72.19321988197909, 34.26305817085777], [72.19327355119799, 34.26304083082302]]]]}, "properties": {"id": "8J6J757V+57XR", "height": 3.048834562301636, "hmax": 0.0, "ratio": 0.0, "vulnClass": "none"}}, {"type": "Feature", "geometry": {"type": "MultiPolygon", "coordinates": [[[[72.19290248580063, 34.262928569354095], [72.19289301710764, 34.262929253790034], [72.19289621502489, 34.26296042725501], [72.19290557223513, 34.26295983040921], [72.19290248580063, 34.262928569354095]]]]}, "properties": {"id": "8J6J757V+55CQ", "height": 2.554254293441772, "hmax": 0.0, "ratio": 0.0, "vulnClass": "none"}}, {"type": "Feature", "geometry": {"type": "MultiPolygon", "coordinates": [[[[72.19306017431892, 34.26287187610793], [72.19297311478307, 34.26287790377069], [72.19298087885372, 34.262954615178884], [72.19306782997762, 34.26294858502812], [72.19306017431892, 34.26287187610793]]]]}, "properties": {"id": "8J6J757V+566G", "height": 2.651858806610107, "hmax": 0.0, "ratio": 0.0, "vulnClass": "none"}}, {"type": "Feature", "geometry": {"type": "MultiPolygon", "coordinates": [[[[72.19312403921093, 34.26290056367956], [72.19312057862389, 34.262867491144355], [72.19305985183989, 34.262871778571856], [72.19306330940833, 34.26290494118439], [72.19312403921093, 34.26290056367956]]]]}, "properties": {"id": "8J6J757V+564H", "height": 2.97358250617981, "hmax": 0.0, "ratio": 0.0, "vulnClass": "none"}}, {"type": "Feature", "geometry": {"type": "MultiPolygon", "coordinates": [[[[72.19311389907814, 34.26280387568303], [72.1930799450196, 34.26280625261758], [72.19308662453966, 34.26286986807949], [72.19312057862389, 34.262867491144355], [72.19311389907814, 34.26280387568303]]]]}, "properties": {"id": "8J6J757V+46QC", "height": 3.135660648345947, "hmax": 0.0, "ratio": 0.0, "vulnClass": "none"}}, {"type": "Feature", "geometry": {"type": "MultiPolygon", "coordinates": [[[[72.19310938258675, 34.262779703345785], [72.1930300755687, 34.26277788577919], [72.19302819785862, 34.26283436392695], [72.1930791887242, 34.26283553254856], [72.19308024884818, 34.26280364536334], [72.19310856504286, 34.26280429431138], [72.19310938258675, 34.262779703345785]]]]}, "properties": {"id": "8J6J757V+46F5", "height": 2.459733724594116, "hmax": 0.0, "ratio": 0.0, "vulnClass": "none"}}, {"type": "Feature", "geometry": {"type": "MultiPolygon", "coordinates": [[[[72.19332243341393, 34.262847417180126], [72.19331457252063, 34.2627703429841], [72.19312683836539, 34.26278370920942], [72.19313481057254, 34.26286069581848], [72.19332243341393, 34.262847417180126]]]]}, "properties": {"id": "8J6J757V+47HJ", "height": 3.346484422683716, "hmax": 0.0, "ratio": 0.0, "vulnClass": "none"}}, {"type": "Feature", "geometry": {"type": "MultiPolygon", "coordinates": [[[[72.19496513712411, 34.262678076428436], [72.19492971289216, 34.262682223118695], [72.19493369642883, 34.262706112760036], [72.19496911767813, 34.262702056146054], [72.19496513712411, 34.262678076428436]]]]}, "properties": {"id": "8J6J757V+3XGM", "height": 2.576613426208496, "hmax": 0.0, "ratio": 0.0, "vulnClass": "none"}}, {"type": "Feature", "geometry": {"type": "MultiPolygon", "coordinates": [[[[72.19600813566609, 34.26267689888246], [72.19592301427733, 34.26268342375797], [72.19594510208726, 34.262884683498754], [72.19606124248834, 34.26287589395451], [72.19605715293092, 34.26283884066989], [72.19602613114431, 34.26284119541006], [72.19600813566609, 34.26267689888246]]]]}, "properties": {"id": "8J6J757W+499F", "height": 3.252283573150635, "hmax": 0.0, "ratio": 0.0, "vulnClass": "none"}}, {"type": "Feature", "geometry": {"type": "MultiPolygon", "coordinates": [[[[72.19639796987448, 34.26285836167153], [72.19637770488598, 34.26268391692985], [72.19617282426263, 34.26270032088208], [72.19619308882653, 34.26287476563651], [72.19639796987448, 34.26285836167153]]]]}, "properties": {"id": "8J6J757W+4G72", "height": 2.967480897903442, "hmax": 0.0, "ratio": 0.0, "vulnClass": "none"}}, {"type": "Feature", "geometry": {"type": "MultiPolygon", "coordinates": [[[[72.19684568494633, 34.26347447756592], [72.1967994979261, 34.2634757642381], [72.19680133587747, 34.263521780522574], [72.19684752292297, 34.26352049385097], [72.19684568494633, 34.26347447756592]]]]}, "properties": {"id": "8J6J757W+9PWV", "height": 3.514037847518921, "hmax": 0.0, "ratio": 0.0, "vulnClass": "none"}}, {"type": "Feature", "geometry": {"type": "MultiPolygon", "coordinates": [[[[72.1968502734943, 34.26358807580331], [72.19684752292297, 34.26352049385097], [72.19680133587747, 34.263521780522574], [72.1968040864117, 34.26358936247412], [72.1968502734943, 34.26358807580331]]]]}, "properties": {"id": "8J6J757W+CPG3", "height": 2.976584434509277, "hmax": 0.0, "ratio": 0.0, "vulnClass": "none"}}, {"type": "Feature", "geometry": {"type": "MultiPolygon", "coordinates": [[[[72.19650030497029, 34.26357267348691], [72.19641547445184, 34.26357695170211], [72.19641854667839, 34.26361848896441], [72.19650337723874, 34.26361421074916], [72.19650030497029, 34.26357267348691]]]]}, "properties": {"id": "8J6J757W+CHPW", "height": 4.729681491851807, "hmax": 0.0, "ratio": 0.0, "vulnClass": "none"}}, {"type": "Feature", "geometry": {"type": "MultiPolygon", "coordinates": [[[[72.1966183341729, 34.26349721898821], [72.19652509815586, 34.26349959212056], [72.19652910710174, 34.2636110135987], [72.19679305419633, 34.26360443470932], [72.1967902712948, 34.26352801775565], [72.19661956049578, 34.263532223519555], [72.1966183341729, 34.26349721898821]]]]}, "properties": {"id": "8J6J757W+CMCG", "height": 6.03507137298584, "hmax": 0.0, "ratio": 0.0, "vulnClass": "none"}}, {"type": "Feature", "geometry": {"type": "MultiPolygon", "coordinates": [[[[72.19649049618386, 34.26347896806044], [72.19648449412186, 34.26341122153348], [72.19644608867156, 34.26341358765081], [72.19644900213233, 34.26344682789174], [72.19636392185227, 34.26345209195792], [72.19636701038763, 34.26348659824471], [72.19649049618386, 34.26347896806044]]]]}, "properties": {"id": "8J6J757W+9HM9", "height": 4.207472801208496, "hmax": 0.0, "ratio": 0.0, "vulnClass": "none"}}, {"type": "Feature", "geometry": {"type": "MultiPolygon", "coordinates": [[[[72.19703990812953, 34.26328204483934], [72.19699382588286, 34.26328017889205], [72.19699141314234, 34.263320148290155], [72.19703749541067, 34.26332201423942], [72.19703990812953, 34.26328204483934]]]]}, "properties": {"id": "8J6J757W+8RC4", "height": 3.426325082778931, "hmax": 0.0, "ratio": 0.0, "vulnClass": "none"}}, {"type": "Feature", "geometry": {"type": "MultiPolygon", "coordinates": [[[[72.19698425315579, 34.263310158562014], [72.19698240214238, 34.263284154285884], [72.19690214652972, 34.26328799667675], [72.1969039975183, 34.26331400095287], [72.19698425315579, 34.263310158562014]]]]}, "properties": {"id": "8J6J757W+8Q8R", "height": 2.836276054382324, "hmax": 0.0, "ratio": 0.0, "vulnClass": "none"}}, {"type": "Feature", "geometry": {"type": "MultiPolygon", "coordinates": [[[[72.19688664608812, 34.2633068429162], [72.19678242864019, 34.26330968608188], [72.19678665544214, 34.26341128668696], [72.19689087899737, 34.263408263369755], [72.19688664608812, 34.2633068429162]]]]}, "properties": {"id": "8J6J757W+8PW9", "height": 2.905764102935791, "hmax": 0.0, "ratio": 0.0, "vulnClass": "none"}}, {"type": "Feature", "geometry": {"type": "MultiPolygon", "coordinates": [[[[72.19650049790646, 34.26288676064503], [72.19645669204544, 34.26288828199204], [72.19645885747401, 34.26293097039152], [72.19650277483997, 34.26292936145116], [72.19650049790646, 34.26288676064503]]]]}, "properties": {"id": "8J6J757W+5H97", "height": 3.526506662368774, "hmax": 0.0, "ratio": 0.0, "vulnClass": "none"}}, {"type": "Feature", "geometry": {"type": "MultiPolygon", "coordinates": [[[[72.19670405570754, 34.263119488115976], [72.19662178458806, 34.26312517725065], [72.19663303871936, 34.263237485733946], [72.19671519846577, 34.26323188419103], [72.19670405570754, 34.263119488115976]]]]}, "properties": {"id": "8J6J757W+7MF3", "height": 2.594324588775635, "hmax": 0.0, "ratio": 0.0, "vulnClass": "none"}}, {"type": "Feature", "geometry": {"type": "MultiPolygon", "coordinates": [[[[72.19673093994375, 34.26311748923231], [72.19672758829802, 34.26306801276979], [72.19660460287909, 34.263073671462394], [72.19660795146144, 34.26312323800173], [72.19673093994375, 34.26311748923231]]]]}, "properties": {"id": "8J6J757W+6MMV", "height": 2.967414379119873, "hmax": 0.0, "ratio": 0.0, "vulnClass": "none"}}, {"type": "Feature", "geometry": {"type": "MultiPolygon", "coordinates": [[[[72.196620588235, 34.26323314420431], [72.19661323928922, 34.26313075096913], [72.19649415649678, 34.26313658902145], [72.19650527364406, 34.26329225437103], [72.1965609532129, 34.26328956247025], [72.1965571878221, 34.26323620027869], [72.196620588235, 34.26323314420431]]]]}, "properties": {"id": "8J6J757W+7JM4", "height": 2.827590227127075, "hmax": 0.0, "ratio": 0.0, "vulnClass": "none"}}, {"type": "Feature", "geometry": {"type": "MultiPolygon", "coordinates": [[[[72.19633596172699, 34.26312683791232], [72.19609864692843, 34.26314231894803], [72.19611878852398, 34.2633564249121], [72.19649048060103, 34.2633323009471], [72.19647490390255, 34.263167068237244], [72.19641669021476, 34.26317087398455], [72.19642471274713, 34.26325624514103], [72.19634865544822, 34.26326117487176], [72.19634592392369, 34.26323226577841], [72.19630697011176, 34.26323479959235], [72.19630969863158, 34.26326379876294], [72.19614681338307, 34.26327431291494], [72.19613911142437, 34.263192374616125], [72.19634095329283, 34.26317923657587], [72.19633596172699, 34.26312683791232]]]]}, "properties": {"id": "8J6J757W+8G36", "height": 3.854348659515381, "hmax": 0.0, "ratio": 0.0, "vulnClass": "none"}}, {"type": "Feature", "geometry": {"type": "MultiPolygon", "coordinates": [[[[72.19618161842338, 34.26286053049396], [72.19617124464435, 34.262783849613356], [72.19608880253088, 34.262791427538346], [72.19609917324343, 34.26286819849921], [72.19618161842338, 34.26286053049396]]]]}, "properties": {"id": "8J6J757W+4FJ3", "height": 2.833351612091064, "hmax": 0.0, "ratio": 0.0, "vulnClass": "none"}}, {"type": "Feature", "geometry": {"type": "MultiPolygon", "coordinates": [[[[72.19578661784732, 34.262896740276645], [72.19570704724931, 34.26290285121253], [72.19572247397537, 34.26303986500932], [72.19580193621121, 34.26303375158587], [72.19578661784732, 34.262896740276645]]]]}, "properties": {"id": "8J6J757W+58JJ", "height": 3.953808307647705, "hmax": 0.0, "ratio": 0.0, "vulnClass": "none"}}, {"type": "Feature", "geometry": {"type": "MultiPolygon", "coordinates": [[[[72.19572197719579, 34.262767163493926], [72.19568177177919, 34.26276489074503], [72.19567746037818, 34.26281951034709], [72.19571755732905, 34.26282178061461], [72.19572197719579, 34.262767163493926]]]]}, "properties": {"id": "8J6J757W+478M", "height": 3.012815475463867, "hmax": 0.0, "ratio": 0.0, "vulnClass": "none"}}, {"type": "Feature", "geometry": {"type": "MultiPolygon", "coordinates": [[[[72.19594676236848, 34.262883729909674], [72.19593549614642, 34.26280450450852], [72.19567744477227, 34.26282978657686], [72.19568871075192, 34.262909011989656], [72.19594676236848, 34.262883729909674]]]]}, "properties": {"id": "8J6J757W+48V9", "height": 4.14345121383667, "hmax": 0.0, "ratio": 0.0, "vulnClass": "none"}}, {"type": "Feature", "geometry": {"type": "MultiPolygon", "coordinates": [[[[72.19568871075192, 34.262909011989656], [72.19565842972771, 34.26269620628698], [72.19544525658301, 34.26271710670689], [72.19547553407722, 34.26293000251243], [72.19568871075192, 34.262909011989656]]]]}, "properties": {"id": "8J6J757W+46GC", "height": 5.566736698150635, "hmax": 0.0, "ratio": 0.0, "vulnClass": "none"}}, {"type": "Feature", "geometry": {"type": "MultiPolygon", "coordinates": [[[[72.19558001144686, 34.262932394840576], [72.19548632870426, 34.26294169817024], [72.1954920611206, 34.26298158359606], [72.19554456652078, 34.26297638554213], [72.19555604338375, 34.2630557960827], [72.19559722080922, 34.26305169080288], [72.19558001144686, 34.262932394840576]]]]}, "properties": {"id": "8J6J757W+56V8", "height": 5.024162292480469, "hmax": 0.0, "ratio": 0.0, "vulnClass": "none"}}, {"type": "Feature", "geometry": {"type": "MultiPolygon", "coordinates": [[[[72.19540996791943, 34.262949234592796], [72.19537499849744, 34.26295276080585], [72.1953841900303, 34.2630159829832], [72.19534421200996, 34.26301993536632], [72.19535233801471, 34.263076011651336], [72.19555604338375, 34.2630557960827], [72.19554456652078, 34.26297638554213], [72.19541569730744, 34.26298921009736], [72.19540996791943, 34.262949234592796]]]]}, "properties": {"id": "8J6J757W+654V", "height": 3.746882677078247, "hmax": 0.0, "ratio": 0.0, "vulnClass": "none"}}, {"type": "Feature", "geometry": {"type": "MultiPolygon", "coordinates": [[[[72.19575140822504, 34.263165739597845], [72.19573344061432, 34.2630398456699], [72.19540861375856, 34.26307171130613], [72.1954265778922, 34.26319769533452], [72.19575140822504, 34.263165739597845]]]]}, "properties": {"id": "8J6J757W+66WP", "height": 3.756762266159058, "hmax": 0.0, "ratio": 0.0, "vulnClass": "none"}}, {"type": "Feature", "geometry": {"type": "MultiPolygon", "coordinates": [[[[72.1963252880088, 34.263444987529674], [72.19631616466114, 34.263343725561], [72.19627830469292, 34.26334601396781], [72.19628731950269, 34.26344727345344], [72.1963252880088, 34.263444987529674]]]]}, "properties": {"id": "8J6J757W+9G3W", "height": 4.144693374633789, "hmax": 0.0, "ratio": 0.0, "vulnClass": "none"}}]}