{"type": "FeatureCollection", "features": [{"type": "Feature", "geometry": {"type": "MultiPolygon", "coordinates": [[[[72.10862315581515, 34.30693701990405], [72.1086264833186, 34.306887520129905], [72.10847920055386, 34.306880705523454], [72.10846905399777, 34.307033978502574], [72.10852241551805, 34.30703641096826], [72.1085293398698, 34.306932730382286], [72.10862315581515, 34.30693701990405]]]]}, "properties": {"id": "8J6J8445+QCCQ", "height": 2.531699180603027, "hmax": 0.0, "ratio": 0.0, "vulnClass": "none"}}, {"type": "Feature", "geometry": {"type": "MultiPolygon", "coordinates": [[[[72.10846666881778, 34.30703067702444], [72.10846210075962, 34.30692951936195], [72.10842991115464, 34.30693056175241], [72.10843290281042, 34.306998509732765], [72.10838896923241, 34.30699990566298], [72.10839044012869, 34.307033022710264], [72.10846666881778, 34.30703067702444]]]]}, "properties": {"id": "8J6J8445+Q9VQ", "height": 2.817702293395996, "hmax": 0.0, "ratio": 0.0, "vulnClass": "none"}}, {"type": "Feature", "geometry": {"type": "MultiPolygon", "coordinates": [[[[72.1083883763076, 34.306944363874834], [72.10833142067688, 34.306942207010245], [72.10832198918511, 34.307112623936604], [72.10837894802033, 34.30711469074189], [72.1083883763076, 34.306944363874834]]]]}, "properties": {"id": "8J6J8445+R893", "height": 2.825542688369751, "hmax": 0.0, "ratio": 0.0, "vulnClass": "none"}}, {"type": "Feature", "geometry": {"type": "MultiPolygon", "coordinates": [[[[72.10841154278005, 34.30687703387337], [72.10836144374142, 34.30687449815336], [72.10835611562472, 34.30694747784394], [72.10840621470628, 34.3069500135683], [72.10841154278005, 34.30687703387337]]]]}, "properties": {"id": "8J6J8445+Q96F", "height": 3.002734184265137, "hmax": 0.0, "ratio": 0.0, "vulnClass": "none"}}, {"type": "Feature", "geometry": {"type": "MultiPolygon", "coordinates": [[[[72.10849947653018, 34.30681213536442], [72.10834799215662, 34.30680747490754], [72.10834559538843, 34.306861503784006], [72.1084969713188, 34.306866161684646], [72.10849947653018, 34.30681213536442]]]]}, "properties": {"id": "8J6J8445+P9MG", "height": 3.136926412582397, "hmax": 0.0, "ratio": 0.0, "vulnClass": "none"}}, {"type": "Feature", "geometry": {"type": "MultiPolygon", "coordinates": [[[[72.10792855122415, 34.30700777711632], [72.1078755771908, 34.30700355069824], [72.10787123691166, 34.307041398127545], [72.10792421096835, 34.30704562454868], [72.10792855122415, 34.30700777711632]]]]}, "properties": {"id": "8J6J8445+R52X", "height": 3.70931077003479, "hmax": 0.0, "ratio": 0.0, "vulnClass": "none"}}, {"type": "Feature", "geometry": {"type": "MultiPolygon", "coordinates": [[[[72.1077857177787, 34.30742527731299], [72.10779658764247, 34.30732060832134], [72.10772875267446, 34.30731576024495], [72.1077258562441, 34.307343185256755], [72.10759322233434, 34.30733365087547], [72.10758514015824, 34.30741089226542], [72.1077857177787, 34.30742527731299]]]]}, "properties": {"id": "8J6J8445+W3WV", "height": 2.640916585922241, "hmax": 0.0, "ratio": 0.0, "vulnClass": "none"}}, {"type": "Feature", "geometry": {"type": "MultiPolygon", "coordinates": [[[[72.108302782465, 34.30725450516834], [72.10823950657203, 34.3072529200747], [72.10823449374199, 34.30739585777575], [72.10844657873568, 34.30740095851058], [72.10845088049479, 34.30727873676725], [72.10830196626596, 34.307275128516416], [72.108302782465, 34.30725450516834]]]]}, "properties": {"id": "8J6J8445+W8P9", "height": 2.446797609329224, "hmax": 0.0, "ratio": 0.0, "vulnClass": "none"}}, {"type": "Feature", "geometry": {"type": "MultiPolygon", "coordinates": [[[[72.10793547212519, 34.30673643147233], [72.10797423322538, 34.3064488913563], [72.10796232172605, 34.30644779862729], [72.10795910870361, 34.30647179075516], [72.10787280690882, 34.306463802162284], [72.10786625990741, 34.30651214412349], [72.10790534987439, 34.306515772048634], [72.10787635168327, 34.30673088797617], [72.10793547212519, 34.30673643147233]]]]}, "properties": {"id": "8J6J8445+J5MF", "height": 2.961319446563721, "hmax": 0.0, "ratio": 0.0, "vulnClass": "none"}}, {"type": "Feature", "geometry": {"type": "MultiPolygon", "coordinates": [[[[72.10836836358655, 34.30658097736118], [72.1082702748548, 34.30657775855956], [72.10825675346258, 34.30685471743497], [72.10831512931733, 34.30685663745867], [72.10831749867805, 34.3068065742058], [72.1083572118521, 34.30680787300884], [72.10836836358655, 34.30658097736118]]]]}, "properties": {"id": "8J6J8445+M8M9", "height": 3.775062084197998, "hmax": 0.0, "ratio": 0.0, "vulnClass": "none"}}, {"type": "Feature", "geometry": {"type": "MultiPolygon", "coordinates": [[[[72.1090194110693, 34.30616799928431], [72.10900760296892, 34.30610371918817], [72.10893035891802, 34.30611352308194], [72.1089333007841, 34.306129097083684], [72.1088894426186, 34.306134641544105], [72.10889830876894, 34.30618334764481], [72.1090194110693, 34.30616799928431]]]]}, "properties": {"id": "8J6J8445+FH4W", "height": 2.693696975708008, "hmax": 0.0, "ratio": 0.0, "vulnClass": "none"}}, {"type": "Feature", "geometry": {"type": "MultiPolygon", "coordinates": [[[[72.10890155768813, 34.30603162437352], [72.10886465841187, 34.306036972627666], [72.10888384453001, 34.306130002188105], [72.10892074075726, 34.3061247439998], [72.10890155768813, 34.30603162437352]]]]}, "properties": {"id": "8J6J8445+CHJ8", "height": 2.555412769317627, "hmax": 0.0, "ratio": 0.0, "vulnClass": "none"}}, {"type": "Feature", "geometry": {"type": "MultiPolygon", "coordinates": [[[[72.1089839807036, 34.3054306078141], [72.1087268627951, 34.30537044903042], [72.10870487514075, 34.305435102692215], [72.10896199322413, 34.30549526153082], [72.1089839807036, 34.3054306078141]]]]}, "properties": {"id": "8J6J8445+5GH6", "height": 2.552378416061401, "hmax": 0.0, "ratio": 0.0, "vulnClass": "none"}}, {"type": "Feature", "geometry": {"type": "MultiPolygon", "coordinates": [[[[72.11023668901373, 34.30555952685682], [72.1102329371496, 34.30552004597479], [72.11018732066933, 34.30552302540832], [72.11018412478823, 34.30548950706144], [72.11017661094886, 34.305490050802284], [72.11017970137671, 34.30552347651698], [72.11007018148807, 34.30553053598578], [72.11007393018751, 34.30557010693854], [72.11023668901373, 34.30555952685682]]]]}, "properties": {"id": "8J6J8446+636Q", "height": 3.785406112670898, "hmax": 0.0, "ratio": 0.0, "vulnClass": "none"}}, {"type": "Feature", "geometry": {"type": "MultiPolygon", "coordinates": [[[[72.11000357570984, 34.305417006297716], [72.10997165052342, 34.30541985820564], [72.10998733818998, 34.30554525634825], [72.11001936887406, 34.305542497071016], [72.11000357570984, 34.305417006297716]]]]}, "properties": {"id": "8J6J8445+5XX9", "height": 3.673313856124878, "hmax": 0.0, "ratio": 0.0, "vulnClass": "none"}}, {"type": "Feature", "geometry": {"type": "MultiPolygon", "coordinates": [[[[72.10999822241543, 34.305823422856285], [72.10999130644447, 34.30568930771573], [72.1099349692718, 34.30569131278131], [72.10993771814965, 34.305744201227114], [72.1098763789049, 34.30574635858427], [72.10987740828719, 34.30576702553598], [72.10978507069174, 34.305770343894196], [72.10978821127499, 34.30583081356426], [72.10999822241543, 34.305823422856285]]]]}, "properties": {"id": "8J6J8445+8X72", "height": 2.454205513000488, "hmax": 0.0, "ratio": 0.0, "vulnClass": "none"}}, {"type": "Feature", "geometry": {"type": "MultiPolygon", "coordinates": [[[[72.11239422052473, 34.30701811283809], [72.11236835801574, 34.306932768625], [72.1120098199915, 34.307007601136505], [72.11203579068935, 34.307092947968236], [72.11239422052473, 34.30701811283809]]]]}, "properties": {"id": "8J6J8446+RV4F", "height": 2.501085758209229, "hmax": 0.0, "ratio": 0.0, "vulnClass": "none"}}, {"type": "Feature", "geometry": {"type": "MultiPolygon", "coordinates": [[[[72.11644995249354, 34.300451637244436], [72.11638770564986, 34.30045503860306], [72.1163911262275, 34.300497937015], [72.11645337310301, 34.30049453565626], [72.11644995249354, 34.300451637244436]]]]}, "properties": {"id": "8J6J8428+5HMV", "height": 2.457135200500488, "hmax": 0.0, "ratio": 0.0, "vulnClass": "none"}}, {"type": "Feature", "geometry": {"type": "MultiPolygon", "coordinates": [[[[72.11137975878952, 34.293839566862516], [72.11125793169789, 34.29380685490436], [72.11122292180077, 34.29389671234868], [72.11134463739475, 34.29392951185636], [72.11137975878952, 34.293839566862516]]]]}, "properties": {"id": "8J6J74V6+GGVP", "height": 2.539129734039307, "hmax": 0.0, "ratio": 0.0, "vulnClass": "none"}}, {"type": "Feature", "geometry": {"type": "MultiPolygon", "coordinates": [[[[72.11033754840638, 34.29470738293768], [72.11024059100232, 34.29469373624197], [72.11021254793192, 34.29483063200209], [72.11060761248054, 34.29488647091031], [72.11061518155375, 34.29484942062718], [72.1103169630724, 34.2948073159772], [72.11033754840638, 34.29470738293768]]]]}, "properties": {"id": "8J6J74V6+W4H4", "height": 2.521733283996582, "hmax": 0.0, "ratio": 0.0, "vulnClass": "none"}}, {"type": "Feature", "geometry": {"type": "MultiPolygon", "coordinates": [[[[72.11064772298272, 34.29484748440948], [72.11061594689444, 34.29484610341147], [72.11061371354124, 34.29487958378203], [72.11064559816663, 34.29488096734269], [72.11064772298272, 34.29484748440948]]]]}, "properties": {"id": "8J6J74V6+W7RC", "height": 2.521733283996582, "hmax": 0.0, "ratio": 0.0, "vulnClass": "none"}}, {"type": "Feature", "geometry": {"type": "MultiPolygon", "coordinates": [[[[72.11117967012615, 34.29435713231005], [72.11116765653684, 34.29440345259917], [72.1114223164391, 34.29444885419521], [72.11143432989859, 34.294402533874575], [72.11117967012615, 34.29435713231005]]]]}, "properties": {"id": "8J6J74V6+QG74", "height": 3.842953443527222, "hmax": 0.0, "ratio": 0.0, "vulnClass": "none"}}]}