{"type": "FeatureCollection", "features": [{"type": "Feature", "geometry": {"type": "MultiPolygon", "coordinates": [[[[72.38470807038861, 34.3467219756815], [72.38469913963418, 34.34666309732415], [72.38458563056426, 34.34667482445998], [72.38459456123938, 34.34673370282192], [72.38470807038861, 34.3467219756815]]]]}, "properties": {"id": "Pakistan_123102132_310910", "height": 5.114195823669434, "hmax": 0.0, "ratio": 0.0, "vulnClass": "none"}}, {"type": "Feature", "geometry": {"type": "MultiPolygon", "coordinates": [[[[72.38938847549458, 34.34798170933969], [72.38938718404991, 34.34794625290683], [72.38933758141724, 34.347947538395005], [72.38933887563532, 34.34798290473726], [72.38938847549458, 34.34798170933969]]]]}, "properties": {"id": "Pakistan_123102132_39606", "height": 2.880118370056152, "hmax": 0.0, "ratio": 0.0, "vulnClass": "none"}}, {"type": "Feature", "geometry": {"type": "MultiPolygon", "coordinates": [[[[72.3896380415371, 34.34832473542089], [72.38963936138613, 34.348271665338956], [72.38959112904287, 34.34827081656581], [72.38958980916345, 34.34832388664582], [72.3896380415371, 34.34832473542089]]]]}, "properties": {"id": "Pakistan_123102132_495674", "height": 2.504585981369019, "hmax": 0.0, "ratio": 0.0, "vulnClass": "none"}}, {"type": "Feature", "geometry": {"type": "MultiPolygon", "coordinates": [[[[72.38945265256875, 34.34814480746818], [72.38945055144922, 34.348293149227096], [72.38959267518587, 34.34829455895555], [72.3895947760551, 34.348146217182745], [72.38945265256875, 34.34814480746818]]]]}, "properties": {"id": "Pakistan_123102132_94849", "height": 3.523247718811035, "hmax": 0.0, "ratio": 0.0, "vulnClass": "none"}}]}