{"type": "FeatureCollection", "features": [{"type": "Feature", "geometry": {"type": "MultiPolygon", "coordinates": [[[[71.77816271854303, 34.421738851010424], [71.77812922281097, 34.42174725126515], [71.77813640777428, 34.42176690906119], [71.77818428627678, 34.42180882073418], [71.7782181149081, 34.42180024898068], [71.77820896427619, 34.421775131486214], [71.77816271854303, 34.421738851010424]]]]}, "properties": {"id": "8J6HCQCH+P73W", "height": 3.052295207977295, "hmax": 0.0, "ratio": 0.0, "vulnClass": "none"}}, {"type": "Feature", "geometry": {"type": "MultiPolygon", "coordinates": [[[[71.77845445732866, 34.421749337610734], [71.77838252459628, 34.42168804451305], [71.77821001514279, 34.4218270747531], [71.77828194785171, 34.421888367950885], [71.77845445732866, 34.421749337610734]]]]}, "properties": {"id": "8J6HCQCH+P88G", "height": 3.273637771606445, "hmax": 0.0, "ratio": 0.0, "vulnClass": "none"}}, {"type": "Feature", "geometry": {"type": "MultiPolygon", "coordinates": [[[[71.78006523820248, 34.421531679190174], [71.78027845963388, 34.421536216538414], [71.7802798301452, 34.42149199821259], [71.78023549225097, 34.42149101009148], [71.7802380862817, 34.42140923927995], [71.780069206476, 34.421405600034134], [71.78006523820248, 34.421531679190174]]]]}, "properties": {"id": "Pakistan_123102132_406572", "height": 2.681969404220581, "hmax": 0.0, "ratio": 0.0, "vulnClass": "none"}}, {"type": "Feature", "geometry": {"type": "MultiPolygon", "coordinates": [[[[71.78057081059046, 34.42157609697629], [71.78057368898374, 34.42152092236136], [71.78036493809142, 34.42151325860877], [71.78035996341829, 34.42160605283664], [71.78041350937411, 34.42160800460227], [71.7804154933843, 34.42157047215159], [71.78057081059046, 34.42157609697629]]]]}, "properties": {"id": "Pakistan_123102132_511340", "height": 3.147566318511963, "hmax": 0.0, "ratio": 0.0, "vulnClass": "none"}}, {"type": "Feature", "geometry": {"type": "MultiPolygon", "coordinates": [[[[71.78035349009625, 34.42166987544229], [71.78034816415149, 34.42178032613484], [71.78111550828827, 34.421805591486624], [71.78111853330559, 34.421743750998644], [71.78113461076053, 34.421744264686765], [71.78113756509985, 34.42168143089144], [71.78097429853773, 34.42167604800557], [71.78097479408704, 34.421665966359605], [71.78084085743026, 34.42166153628021], [71.78084707710538, 34.42153344336473], [71.78077603434545, 34.4215311209251], [71.78076772171748, 34.42170242169339], [71.78063378503214, 34.42169799138412], [71.78063538235595, 34.42166486517011], [71.78057791787447, 34.4216629905132], [71.78057726335481, 34.42167721400499], [71.78035349009625, 34.42166987544229]]]]}, "properties": {"id": "Pakistan_123102132_428236", "height": 4.677186012268066, "hmax": 0.0, "ratio": 0.0, "vulnClass": "none"}}, {"type": "Feature", "geometry": {"type": "MultiPolygon", "coordinates": [[[[71.78131511518802, 34.420690698390935], [71.78131170651625, 34.42063779166305], [71.78124219914663, 34.42064082770971], [71.78123959007722, 34.420601101212746], [71.78093867788593, 34.42061435462967], [71.78092976395801, 34.42047531762007], [71.78100591629894, 34.420472006155514], [71.7810030162337, 34.42042569240651], [71.78086923101681, 34.42043154137181], [71.78088717079221, 34.42070952821046], [71.78131511518802, 34.420690698390935]]]]}, "properties": {"id": "Pakistan_123102132_166317", "height": 4.006630897521973, "hmax": 0.0, "ratio": 0.0, "vulnClass": "none"}}, {"type": "Feature", "geometry": {"type": "MultiPolygon", "coordinates": [[[[71.78037299882361, 34.418358065614704], [71.78027287694691, 34.418351191216864], [71.78025428119444, 34.418535380188594], [71.78035428772722, 34.418542431831355], [71.7803577389673, 34.41850917419882], [71.78031922676183, 34.418506627167034], [71.78033167387609, 34.418383475301226], [71.7803701791167, 34.41838620240646], [71.78037299882361, 34.418358065614704]]]]}, "properties": {"id": "8J6HCQ9J+94FW", "height": 2.528725385665894, "hmax": 0.0, "ratio": 0.0, "vulnClass": "none"}}, {"type": "Feature", "geometry": {"type": "MultiPolygon", "coordinates": [[[[71.77968946032117, 34.4183235586095], [71.77963425180175, 34.41832814235145], [71.77966281196704, 34.41857017644555], [71.77979994890507, 34.41855909930692], [71.77979772367217, 34.41854056375385], [71.77975757443178, 34.418543831933015], [71.77975429264993, 34.41851598501464], [71.77971261540357, 34.418519393171366], [71.77968946032117, 34.4183235586095]]]]}, "properties": {"id": "8J6HCQ9H+9VPC", "height": 2.660079002380371, "hmax": 0.0, "ratio": 0.0, "vulnClass": "none"}}, {"type": "Feature", "geometry": {"type": "MultiPolygon", "coordinates": [[[[71.77958015537382, 34.418584311705615], [71.77957115052263, 34.41854405609471], [71.77943636356203, 34.418564748827336], [71.7794762825994, 34.41874317928245], [71.77955100593313, 34.4187317192046], [71.77954311138244, 34.418696540205964], [71.77951542924735, 34.41870085794356], [71.77949230426442, 34.41859776920916], [71.77958015537382, 34.418584311705615]]]]}, "properties": {"id": "8J6HCQ9H+FQ59", "height": 3.767326354980469, "hmax": 0.0, "ratio": 0.0, "vulnClass": "none"}}, {"type": "Feature", "geometry": {"type": "MultiPolygon", "coordinates": [[[[71.77965639864108, 34.41876279816871], [71.779573174014, 34.41878322763451], [71.77965555169351, 34.41901442229949], [71.77973877308388, 34.418994082830125], [71.77965639864108, 34.41876279816871]]]]}, "properties": {"id": "8J6HCQ9H+HV2H", "height": 2.61147665977478, "hmax": 0.0, "ratio": 0.0, "vulnClass": "none"}}, {"type": "Feature", "geometry": {"type": "MultiPolygon", "coordinates": [[[[71.78031729468293, 34.41871288674485], [71.78020984442392, 34.4187070810152], [71.78020324940704, 34.41879108983448], [71.78031069977233, 34.41879689557588], [71.78031729468293, 34.41871288674485]]]]}, "properties": {"id": "8J6HCQ9J+G423", "height": 2.542245388031006, "hmax": 0.0, "ratio": 0.0, "vulnClass": "none"}}, {"type": "Feature", "geometry": {"type": "MultiPolygon", "coordinates": [[[[71.78059530006871, 34.4185878091081], [71.78060995722252, 34.41844389510618], [71.78050593415591, 34.41843664771452], [71.78050052437706, 34.41848977276172], [71.78036059668717, 34.41848004696556], [71.78035145763876, 34.41857083874199], [71.78059530006871, 34.4185878091081]]]]}, "properties": {"id": "8J6HCQ9J+C55X", "height": 3.166466951370239, "hmax": 0.0, "ratio": 0.0, "vulnClass": "none"}}, {"type": "Feature", "geometry": {"type": "MultiPolygon", "coordinates": [[[[71.78040828966199, 34.416358170994286], [71.78028774092802, 34.416350848585694], [71.78028509024821, 34.416380251674944], [71.78040563556948, 34.41638766412878], [71.78040828966199, 34.416358170994286]]]]}, "properties": {"id": "8J6HCQ8J+G4XJ", "height": 3.030308485031128, "hmax": 0.0, "ratio": 0.0, "vulnClass": "none"}}, {"type": "Feature", "geometry": {"type": "MultiPolygon", "coordinates": [[[[71.78033951666414, 34.41642720209221], [71.78028306659805, 34.41642165874848], [71.78027624482814, 34.416469068320055], [71.78033269147078, 34.41647470170892], [71.78033951666414, 34.41642720209221]]]]}, "properties": {"id": "8J6HCQ8J+H4FX", "height": 2.46019434928894, "hmax": 0.0, "ratio": 0.0, "vulnClass": "none"}}, {"type": "Feature", "geometry": {"type": "MultiPolygon", "coordinates": [[[[71.78033265035108, 34.41647010392929], [71.78022349567716, 34.41646344220405], [71.7802193021461, 34.41651038023827], [71.78032845688018, 34.41651704197062], [71.78033265035108, 34.41647010392929]]]]}, "properties": {"id": "8J6HCQ8J+H4RQ", "height": 3.127045631408691, "hmax": 0.0, "ratio": 0.0, "vulnClass": "none"}}, {"type": "Feature", "geometry": {"type": "MultiPolygon", "coordinates": [[[[71.78027638503104, 34.41643139713284], [71.78022943758968, 34.41642195811726], [71.78021941230861, 34.41645648462764], [71.78026625457417, 34.41646583074491], [71.78027638503104, 34.41643139713284]]]]}, "properties": {"id": "8J6HCQ8J+H3HQ", "height": 3.491455078125, "hmax": 0.0, "ratio": 0.0, "vulnClass": "none"}}, {"type": "Feature", "geometry": {"type": "MultiPolygon", "coordinates": [[[[71.78028753855283, 34.41639014049853], [71.78023325456311, 34.416384834470705], [71.78022878258854, 34.41641635271757], [71.78028306659805, 34.41642165874848], [71.78028753855283, 34.41639014049853]]]]}, "properties": {"id": "8J6HCQ8J+H463", "height": 4.185044288635254, "hmax": 0.0, "ratio": 0.0, "vulnClass": "none"}}, {"type": "Feature", "geometry": {"type": "MultiPolygon", "coordinates": [[[[71.78028231926729, 34.416256879045804], [71.78021836349076, 34.41625988063736], [71.7802249026475, 34.4163530684426], [71.7802887533022, 34.41634997394853], [71.78028231926729, 34.416256879045804]]]]}, "properties": {"id": "8J6HCQ8J+G4C2", "height": 4.085807800292969, "hmax": 0.0, "ratio": 0.0, "vulnClass": "none"}}, {"type": "Feature", "geometry": {"type": "MultiPolygon", "coordinates": [[[[71.78051225281473, 34.41625067966447], [71.78050952380174, 34.41620274803764], [71.78012395115545, 34.41621764490917], [71.78012667994706, 34.416265576532126], [71.78051225281473, 34.41625067966447]]]]}, "properties": {"id": "8J6HCQ8J+F4W6", "height": 3.675535202026367, "hmax": 0.0, "ratio": 0.0, "vulnClass": "none"}}, {"type": "Feature", "geometry": {"type": "MultiPolygon", "coordinates": [[[[71.78024249129324, 34.41606754530171], [71.78019580212515, 34.41606838805233], [71.78019683785112, 34.41610942508409], [71.78024363568954, 34.41610858519723], [71.78024249129324, 34.41606754530171]]]]}, "properties": {"id": "8J6HCQ8J+C3QC", "height": 3.381760120391846, "hmax": 0.0, "ratio": 0.0, "vulnClass": "none"}}, {"type": "Feature", "geometry": {"type": "MultiPolygon", "coordinates": [[[[71.78020175323573, 34.41593028345562], [71.78007155678883, 34.4159419947281], [71.78008281287796, 34.41602845685808], [71.78021311119784, 34.41601692852463], [71.78020175323573, 34.41593028345562]]]]}, "properties": {"id": "8J6HCQ8J+93R4", "height": 3.030626773834229, "hmax": 0.0, "ratio": 0.0, "vulnClass": "none"}}, {"type": "Feature", "geometry": {"type": "MultiPolygon", "coordinates": [[[[71.78027596148739, 34.415923676369225], [71.78020185842841, 34.415930376358794], [71.78021311465234, 34.416016838484346], [71.78028721433357, 34.41601022853257], [71.78027596148739, 34.415923676369225]]]]}, "properties": {"id": "8J6HCQ8J+93QX", "height": 3.132522106170654, "hmax": 0.0, "ratio": 0.0, "vulnClass": "none"}}, {"type": "Feature", "geometry": {"type": "MultiPolygon", "coordinates": [[[[71.7801393249504, 34.41583111637232], [71.780059581483, 34.4158289249126], [71.78005817198745, 34.415865661338586], [71.7801378068425, 34.41586784993822], [71.7801393249504, 34.41583111637232]]]]}, "properties": {"id": "8J6HCQ8J+82QR", "height": 2.497262001037598, "hmax": 0.0, "ratio": 0.0, "vulnClass": "none"}}, {"type": "Feature", "geometry": {"type": "MultiPolygon", "coordinates": [[[[71.78040255424, 34.41562885762179], [71.7803429410332, 34.415637742117326], [71.78035292701003, 34.41568361167864], [71.7804125402492, 34.41567472718006], [71.78040255424, 34.41562885762179]]]]}, "properties": {"id": "8J6HCQ8J+7566", "height": 2.470095157623291, "hmax": 0.0, "ratio": 0.0, "vulnClass": "none"}}, {"type": "Feature", "geometry": {"type": "MultiPolygon", "coordinates": [[[[71.78075487856393, 34.4156074055676], [71.78071697106186, 34.41554376559754], [71.78054483258377, 34.41561403931618], [71.78058263133131, 34.415677676470985], [71.78075487856393, 34.4156074055676]]]]}, "properties": {"id": "8J6HCQ8J+67RH", "height": 3.147767782211304, "hmax": 0.0, "ratio": 0.0, "vulnClass": "none"}}, {"type": "Feature", "geometry": {"type": "MultiPolygon", "coordinates": [[[[71.7807903421173, 34.41564403187569], [71.7807818229745, 34.41560811543264], [71.78070980837559, 34.41561991811619], [71.78071833094184, 34.41565574452222], [71.7807903421173, 34.41564403187569]]]]}, "properties": {"id": "8J6HCQ8J+7826", "height": 3.147767782211304, "hmax": 0.0, "ratio": 0.0, "vulnClass": "none"}}, {"type": "Feature", "geometry": {"type": "MultiPolygon", "coordinates": [[[[71.78081101767165, 34.41574579405187], [71.78078944185785, 34.41564481933991], [71.78070631761514, 34.415657050382634], [71.78072789332958, 34.41575802510368], [71.78060288083833, 34.41577636298508], [71.78061128247697, 34.41581534080695], [71.78086043144636, 34.41577882208464], [71.78085202969274, 34.41573984427341], [71.78081101767165, 34.41574579405187]]]]}, "properties": {"id": "8J6HCQ8J+77XQ", "height": 2.442431926727295, "hmax": 0.0, "ratio": 0.0, "vulnClass": "none"}}, {"type": "Feature", "geometry": {"type": "MultiPolygon", "coordinates": [[[[71.78088732891396, 34.41588849945885], [71.78087716636877, 34.41581603654158], [71.78076473142164, 34.415826864514074], [71.78077489386943, 34.41589932743522], [71.78088732891396, 34.41588849945885]]]]}, "properties": {"id": "8J6HCQ8J+88W7", "height": 2.685638904571533, "hmax": 0.0, "ratio": 0.0, "vulnClass": "none"}}, {"type": "Feature", "geometry": {"type": "MultiPolygon", "coordinates": [[[[71.7808369216509, 34.415889875425655], [71.78077725489982, 34.41589731661764], [71.78078747510081, 34.41595409821014], [71.78084724708567, 34.415946749918085], [71.7808369216509, 34.415889875425655]]]]}, "properties": {"id": "8J6HCQ8J+987X", "height": 3.071531534194946, "hmax": 0.0, "ratio": 0.0, "vulnClass": "none"}}, {"type": "Feature", "geometry": {"type": "MultiPolygon", "coordinates": [[[[71.7808508227764, 34.415966943403774], [71.78080733247825, 34.415972287099414], [71.78081566830375, 34.41601865394389], [71.78085927072706, 34.41601322306864], [71.7808508227764, 34.415966943403774]]]]}, "properties": {"id": "8J6HCQ8J+98WP", "height": 3.233024120330811, "hmax": 0.0, "ratio": 0.0, "vulnClass": "none"}}, {"type": "Feature", "geometry": {"type": "MultiPolygon", "coordinates": [[[[71.78095185756665, 34.41597546365848], [71.78090606840516, 34.415981197484356], [71.78091073720014, 34.41600691777657], [71.78081566484988, 34.41601874398422], [71.78082884875718, 34.4160918272905], [71.78096981905291, 34.41607427010994], [71.78095185756665, 34.41597546365848]]]]}, "properties": {"id": "8J6HCQ8J+C96P", "height": 3.262925624847412, "hmax": 0.0, "ratio": 0.0, "vulnClass": "none"}}, {"type": "Feature", "geometry": {"type": "MultiPolygon", "coordinates": [[[[71.78124904414844, 34.41598518518698], [71.78121597045832, 34.41598548567154], [71.78121641351055, 34.41602497486507], [71.78124948376289, 34.416024764421614], [71.78124904414844, 34.41598518518698]]]]}, "properties": {"id": "8J6HCQ8J+CF57", "height": 2.683997392654419, "hmax": 0.0, "ratio": 0.0, "vulnClass": "none"}}, {"type": "Feature", "geometry": {"type": "MultiPolygon", "coordinates": [[[[71.7812556966156, 34.415967694683275], [71.78123747308281, 34.41596928766424], [71.78124674418852, 34.41604515206854], [71.78139579199306, 34.41603249399492], [71.78138900664729, 34.41597688449354], [71.78125817902581, 34.415988039623734], [71.7812556966156, 34.415967694683275]]]]}, "properties": {"id": "8J6HCQ8J+CG46", "height": 2.714617252349854, "hmax": 0.0, "ratio": 0.0, "vulnClass": "none"}}, {"type": "Feature", "geometry": {"type": "MultiPolygon", "coordinates": [[[[71.78115589741722, 34.415691607309476], [71.78109202971548, 34.41570083075563], [71.78110223154054, 34.41574959015626], [71.7811662079262, 34.415740369568866], [71.78115589741722, 34.415691607309476]]]]}, "properties": {"id": "8J6HCQ8J+7FJR", "height": 2.74141263961792, "hmax": 0.0, "ratio": 0.0, "vulnClass": "none"}}, {"type": "Feature", "geometry": {"type": "MultiPolygon", "coordinates": [[[[71.78110223154054, 34.41574959015626], [71.78109202971548, 34.41570083075563], [71.78095761846063, 34.41572036351612], [71.78095530981892, 34.415709667200844], [71.7808997545195, 34.41571766742595], [71.78090195450717, 34.415728360879626], [71.78086094249394, 34.41573431067538], [71.78087114418548, 34.41578307008777], [71.78110223154054, 34.41574959015626]]]]}, "properties": {"id": "8J6HCQ8J+79XM", "height": 2.564394474029541, "hmax": 0.0, "ratio": 0.0, "vulnClass": "none"}}, {"type": "Feature", "geometry": {"type": "MultiPolygon", "coordinates": [[[[71.78147818638114, 34.412624814836576], [71.78139520727616, 34.41262199832995], [71.78138386926815, 34.41285243599742], [71.78149041729753, 34.41285605355706], [71.78149404355719, 34.41278134002957], [71.7814705835233, 34.41278054186036], [71.78147818638114, 34.412624814836576]]]]}, "properties": {"id": "8J6HCQ7J+3HVX", "height": 3.329760074615479, "hmax": 0.0, "ratio": 0.0, "vulnClass": "none"}}, {"type": "Feature", "geometry": {"type": "MultiPolygon", "coordinates": [[[[71.78139520727616, 34.41262199832995], [71.78134415886852, 34.41262029321222], [71.78133375966225, 34.412831918143276], [71.78138480819783, 34.41283362327254], [71.78139520727616, 34.41262199832995]]]]}, "properties": {"id": "8J6HCQ7J+3GX4", "height": 3.302929878234863, "hmax": 0.0, "ratio": 0.0, "vulnClass": "none"}}, {"type": "Feature", "geometry": {"type": "MultiPolygon", "coordinates": [[[[71.7814953362456, 34.412756137293016], [71.78149041729753, 34.41285605355706], [71.78179333731029, 34.41286628496878], [71.78179825244757, 34.41276645871288], [71.7814953362456, 34.412756137293016]]]]}, "properties": {"id": "8J6HCQ7J+4MCG", "height": 3.256134986877441, "hmax": 0.0, "ratio": 0.0, "vulnClass": "none"}}, {"type": "Feature", "geometry": {"type": "MultiPolygon", "coordinates": [[[[71.78214092189833, 34.414088606966715], [71.78199882219403, 34.414056293220554], [71.7819862766133, 34.41409417853605], [71.78212837637459, 34.414126492299985], [71.78214092189833, 34.414088606966715]]]]}, "properties": {"id": "8J6HCQ7J+JRPJ", "height": 2.567383050918579, "hmax": 0.0, "ratio": 0.0, "vulnClass": "none"}}, {"type": "Feature", "geometry": {"type": "MultiPolygon", "coordinates": [[[[71.7839007690756, 34.413524387288064], [71.78416012659928, 34.41362711293503], [71.78418212665642, 34.41358938604299], [71.78410585158016, 34.41355916755783], [71.78413204574018, 34.41351416027389], [71.78394896344412, 34.41344165320644], [71.7839007690756, 34.413524387288064]]]]}, "properties": {"id": "Pakistan_123102132_422074", "height": 3.038453817367554, "hmax": 0.0, "ratio": 0.0, "vulnClass": "none"}}, {"type": "Feature", "geometry": {"type": "MultiPolygon", "coordinates": [[[[71.78397463181241, 34.41338482489971], [71.78406012764928, 34.41341564665749], [71.784084393785, 34.4133698675896], [71.78399878933887, 34.41333904299142], [71.78397463181241, 34.41338482489971]]]]}, "properties": {"id": "Pakistan_123102132_169453", "height": 3.220089673995972, "hmax": 0.0, "ratio": 0.0, "vulnClass": "none"}}, {"type": "Feature", "geometry": {"type": "MultiPolygon", "coordinates": [[[[71.78411720938237, 34.41338479171765], [71.78408509903257, 34.41337700653446], [71.78407254246035, 34.41341236812908], [71.784104652822, 34.413420153316245], [71.78411720938237, 34.41338479171765]]]]}, "properties": {"id": "Pakistan_123102132_311226", "height": 3.220089673995972, "hmax": 0.0, "ratio": 0.0, "vulnClass": "none"}}, {"type": "Feature", "geometry": {"type": "MultiPolygon", "coordinates": [[[[71.78414882172076, 34.413524786623604], [71.78420018624854, 34.41354380414163], [71.78421621591133, 34.41351430234596], [71.7841648513969, 34.41349528483543], [71.78414882172076, 34.413524786623604]]]]}, "properties": {"id": "Pakistan_123102132_70720", "height": 3.467593669891357, "hmax": 0.0, "ratio": 0.0, "vulnClass": "none"}}, {"type": "Feature", "geometry": {"type": "MultiPolygon", "coordinates": [[[[71.78361940424709, 34.4134056693707], [71.78347526604544, 34.41368479792035], [71.7836705701267, 34.41375339121547], [71.78372661010225, 34.413644725623044], [71.78360406313273, 34.413601661961025], [71.78365622451817, 34.413500555480056], [71.783692602962, 34.41351332021372], [71.78372832218585, 34.41344395784733], [71.78361940424709, 34.4134056693707]]]]}, "properties": {"id": "Pakistan_123102132_101258", "height": 3.001367092132568, "hmax": 0.0, "ratio": 0.0, "vulnClass": "none"}}, {"type": "Feature", "geometry": {"type": "MultiPolygon", "coordinates": [[[[71.78409637516233, 34.41373269159118], [71.78408279932533, 34.413769107936744], [71.78412448260936, 34.41377966873999], [71.78413805843073, 34.413743252388926], [71.78409637516233, 34.41373269159118]]]]}, "properties": {"id": "Pakistan_123102132_526639", "height": 2.474090337753296, "hmax": 0.0, "ratio": 0.0, "vulnClass": "none"}}, {"type": "Feature", "geometry": {"type": "MultiPolygon", "coordinates": [[[[71.78383381910541, 34.413824114865136], [71.78406910505159, 34.41390511640836], [71.78411204836144, 34.41382035131032], [71.7838767660485, 34.41373925981933], [71.78383381910541, 34.413824114865136]]]]}, "properties": {"id": "Pakistan_123102132_135442", "height": 3.595699310302734, "hmax": 0.0, "ratio": 0.0, "vulnClass": "none"}}, {"type": "Feature", "geometry": {"type": "MultiPolygon", "coordinates": [[[[71.78396372410886, 34.41367232752411], [71.78392484848592, 34.41365661293911], [71.78389928709757, 34.41369929340973], [71.78393815928398, 34.41371509804425], [71.78396372410886, 34.41367232752411]]]]}, "properties": {"id": "Pakistan_123102132_3233", "height": 2.808007717132568, "hmax": 0.0, "ratio": 0.0, "vulnClass": "none"}}, {"type": "Feature", "geometry": {"type": "MultiPolygon", "coordinates": [[[[71.78416340055563, 34.4137148068636], [71.7841178200111, 34.413692426420646], [71.7841001330673, 34.41371692735565], [71.78414571361935, 34.41373930780561], [71.78416340055563, 34.4137148068636]]]]}, "properties": {"id": "Pakistan_123102132_403546", "height": 2.944618463516235, "hmax": 0.0, "ratio": 0.0, "vulnClass": "none"}}, {"type": "Feature", "geometry": {"type": "MultiPolygon", "coordinates": [[[[71.78422238143123, 34.41310076122723], [71.78449281464441, 34.41320675195301], [71.78452567377215, 34.41314957194508], [71.78438006183802, 34.413092562684525], [71.78440021639838, 34.413057581254726], [71.78433453530688, 34.41303187788029], [71.7843652974364, 34.41297833812231], [71.78430625918799, 34.41295524309091], [71.78422238143123, 34.41310076122723]]]]}, "properties": {"id": "Pakistan_123102132_422076", "height": 2.555918455123901, "hmax": 0.0, "ratio": 0.0, "vulnClass": "none"}}, {"type": "Feature", "geometry": {"type": "MultiPolygon", "coordinates": [[[[71.78634495536845, 34.41399464399291], [71.78620868279707, 34.413969158095135], [71.78618669614997, 34.41404915740656], [71.78632286019527, 34.4140746404782], [71.78634495536845, 34.41399464399291]]]]}, "properties": {"id": "Pakistan_123102132_283422", "height": 2.916820287704468, "hmax": 0.0, "ratio": 0.0, "vulnClass": "none"}}, {"type": "Feature", "geometry": {"type": "MultiPolygon", "coordinates": [[[[71.78672737938194, 34.41414125011611], [71.78674853149644, 34.41400633864813], [71.7864594464852, 34.41397548261453], [71.78643829392144, 34.41411039400733], [71.78672737938194, 34.41414125011611]]]]}, "properties": {"id": "Pakistan_123102132_92077", "height": 3.396373271942139, "hmax": 0.0, "ratio": 0.0, "vulnClass": "none"}}, {"type": "Feature", "geometry": {"type": "MultiPolygon", "coordinates": [[[[71.79071965220344, 34.41268256220066], [71.79070745467308, 34.41273136361653], [71.79082976854383, 34.4127521515622], [71.7908419694507, 34.41270326008917], [71.79071965220344, 34.41268256220066]]]]}, "properties": {"id": "Pakistan_123102132_446752", "height": 2.561242580413818, "hmax": 0.0, "ratio": 0.0, "vulnClass": "none"}}, {"type": "Feature", "geometry": {"type": "MultiPolygon", "coordinates": [[[[71.79064945686113, 34.41338068113998], [71.79050749574361, 34.41337596118229], [71.7905029267456, 34.413469848493186], [71.79064489146398, 34.41347447842379], [71.79064945686113, 34.41338068113998]]]]}, "properties": {"id": "Pakistan_123102132_443675", "height": 2.485225915908813, "hmax": 0.0, "ratio": 0.0, "vulnClass": "none"}}, {"type": "Feature", "geometry": {"type": "MultiPolygon", "coordinates": [[[[71.7919143810614, 34.41386140007661], [71.79187222789952, 34.4138773282907], [71.791863069294, 34.4138608641368], [71.79173098619843, 34.41391066419224], [71.79178775226111, 34.41401319219824], [71.79196210078075, 34.41394737667178], [71.7919143810614, 34.41386140007661]]]]}, "properties": {"id": "Pakistan_123102132_221841", "height": 2.919387578964233, "hmax": 0.0, "ratio": 0.0, "vulnClass": "none"}}, {"type": "Feature", "geometry": {"type": "MultiPolygon", "coordinates": [[[[71.78947024019453, 34.419879377900266], [71.7895122426385, 34.41988453745583], [71.7895241257993, 34.41981842273136], [71.7894349228543, 34.41980751637441], [71.78942054642694, 34.41988762609738], [71.78946774700294, 34.41989337291258], [71.78947024019453, 34.419879377900266]]]]}, "properties": {"id": "Pakistan_123102132_452879", "height": 2.476123094558716, "hmax": 0.0, "ratio": 0.0, "vulnClass": "none"}}, {"type": "Feature", "geometry": {"type": "MultiPolygon", "coordinates": [[[[71.79192337086639, 34.41587959438201], [71.79187809825753, 34.415760874077066], [71.79175693753494, 34.415792303566406], [71.79172738096722, 34.415714825489935], [71.7916972809344, 34.41572268782897], [71.79177210988267, 34.41591888626083], [71.79192337086639, 34.41587959438201]]]]}, "properties": {"id": "Pakistan_123102132_514413", "height": 2.972688913345337, "hmax": 0.0, "ratio": 0.0, "vulnClass": "none"}}, {"type": "Feature", "geometry": {"type": "MultiPolygon", "coordinates": [[[[71.79193913118914, 34.415572569005796], [71.79185210045215, 34.415610212409376], [71.7919553047955, 34.41577254515969], [71.79206688234252, 34.41572436978629], [71.79204143821433, 34.415684404388415], [71.79201699675407, 34.41569502918144], [71.79193913118914, 34.415572569005796]]]]}, "properties": {"id": "Pakistan_123102132_138594", "height": 3.539626836776733, "hmax": 0.0, "ratio": 0.0, "vulnClass": "none"}}, {"type": "Feature", "geometry": {"type": "MultiPolygon", "coordinates": [[[[71.79196974913872, 34.41550847803373], [71.79207559837829, 34.415704048584075], [71.79225087998124, 34.41563951909435], [71.7922229462512, 34.415587861389064], [71.79214683305277, 34.415615877123635], [71.79206902595146, 34.41547196722065], [71.79196974913872, 34.41550847803373]]]]}, "properties": {"id": "Pakistan_123102132_33803", "height": 3.632625341415405, "hmax": 0.0, "ratio": 0.0, "vulnClass": "none"}}, {"type": "Feature", "geometry": {"type": "MultiPolygon", "coordinates": [[[[71.79218469051692, 34.41536522329065], [71.79221086763329, 34.41540592895483], [71.79228629727518, 34.41537302811789], [71.79226012012984, 34.41533232246823], [71.79218469051692, 34.41536522329065]]]]}, "properties": {"id": "Pakistan_123102132_449752", "height": 3.055238008499146, "hmax": 0.0, "ratio": 0.0, "vulnClass": "none"}}, {"type": "Feature", "geometry": {"type": "MultiPolygon", "coordinates": [[[[71.79236915748369, 34.41559530484685], [71.79233253287236, 34.41551493741106], [71.79221124038351, 34.41555267312798], [71.79224797697876, 34.41563295340499], [71.79236915748369, 34.41559530484685]]]]}, "properties": {"id": "Pakistan_123102132_440576", "height": 2.730838537216187, "hmax": 0.0, "ratio": 0.0, "vulnClass": "none"}}, {"type": "Feature", "geometry": {"type": "MultiPolygon", "coordinates": [[[[71.79256976322198, 34.41447257238865], [71.792602932035, 34.414518148339305], [71.7926640110136, 34.4144879350367], [71.79263095082321, 34.414442361953014], [71.79256976322198, 34.41447257238865]]]]}, "properties": {"id": "Pakistan_123102132_596943", "height": 2.816078186035156, "hmax": 0.0, "ratio": 0.0, "vulnClass": "none"}}, {"type": "Feature", "geometry": {"type": "MultiPolygon", "coordinates": [[[[71.79238183266102, 34.414552273045054], [71.79251671986286, 34.41490435305362], [71.79266304140867, 34.41486619237571], [71.79264069285979, 34.414807831350096], [71.7925562176218, 34.414829859452766], [71.79252308994904, 34.41474336477385], [71.79272455756421, 34.414690788338426], [71.79270606429097, 34.41464253313375], [71.79253777290558, 34.4146864264184], [71.79253391764215, 34.414676320603306], [71.79259971629949, 34.414659210189114], [71.79254662062313, 34.41452036565879], [71.79244907217544, 34.41454583607359], [71.792445216928, 34.41453573025647], [71.79238183266102, 34.414552273045054]]]]}, "properties": {"id": "Pakistan_123102132_116894", "height": 3.968839645385742, "hmax": 0.0, "ratio": 0.0, "vulnClass": "none"}}, {"type": "Feature", "geometry": {"type": "MultiPolygon", "coordinates": [[[[71.79026992780244, 34.415842753047265], [71.79014895532191, 34.41580099898593], [71.79012884398956, 34.4158405792561], [71.79024981651396, 34.41588233333977], [71.79026992780244, 34.415842753047265]]]]}, "properties": {"id": "Pakistan_123102132_286557", "height": 2.782538414001465, "hmax": 0.0, "ratio": 0.0, "vulnClass": "none"}}, {"type": "Feature", "geometry": {"type": "MultiPolygon", "coordinates": [[[[71.79052306601857, 34.41606869239661], [71.79070619134673, 34.41614037984659], [71.79072902559714, 34.416100690727994], [71.7906050512883, 34.41605209839063], [71.79062579215284, 34.416015959574146], [71.79040473598394, 34.415929395432656], [71.79038656093756, 34.41596100489262], [71.79041281131046, 34.415971338486585], [71.79031413300547, 34.416142880798255], [71.79015651166196, 34.41608114628451], [71.79013053356923, 34.41612625073108], [71.79028590434625, 34.41618711497836], [71.79028019486736, 34.41619705974472], [71.79056832906534, 34.41630990177956], [71.79060840042264, 34.41624038119873], [71.79045817210037, 34.41618154519068], [71.79052306601857, 34.41606869239661]]]]}, "properties": {"id": "Pakistan_123102132_317415", "height": 2.983880043029785, "hmax": 0.0, "ratio": 0.0, "vulnClass": "none"}}, {"type": "Feature", "geometry": {"type": "MultiPolygon", "coordinates": [[[[71.79000000406813, 34.41606991453384], [71.79013209031054, 34.41611682780546], [71.7902421711799, 34.4159059272607], [71.79017886425518, 34.4158834438973], [71.79009554225097, 34.41604304137755], [71.79002687173393, 34.416018614404], [71.79000000406813, 34.41606991453384]]]]}, "properties": {"id": "Pakistan_123102132_425233", "height": 3.17931342124939, "hmax": 0.0, "ratio": 0.0, "vulnClass": "none"}}, {"type": "Feature", "geometry": {"type": "MultiPolygon", "coordinates": [[[[71.78960932356888, 34.416391785669916], [71.7897871268007, 34.41643485308181], [71.78980527871538, 34.416383954952316], [71.7896274755779, 34.41634088757209], [71.78960932356888, 34.416391785669916]]]]}, "properties": {"id": "Pakistan_123102132_394313", "height": 6.666671752929688, "hmax": 0.0, "ratio": 0.0, "vulnClass": "none"}}, {"type": "Feature", "geometry": {"type": "MultiPolygon", "coordinates": [[[[71.78995743371725, 34.41642085026442], [71.78980457204763, 34.41635978111767], [71.78978503089292, 34.41639297695563], [71.78993800125376, 34.41645404898344], [71.78995743371725, 34.41642085026442]]]]}, "properties": {"id": "Pakistan_123102132_418987", "height": 7.09493350982666, "hmax": 0.0, "ratio": 0.0, "vulnClass": "none"}}, {"type": "Feature", "geometry": {"type": "MultiPolygon", "coordinates": [[[[71.79039757157342, 34.41648072264555], [71.79003545568996, 34.41636287226144], [71.78999514492475, 34.41644716793121], [71.79035726453992, 34.41656492840961], [71.79039757157342, 34.41648072264555]]]]}, "properties": {"id": "Pakistan_123102132_412805", "height": 3.057484149932861, "hmax": 0.0, "ratio": 0.0, "vulnClass": "none"}}, {"type": "Feature", "geometry": {"type": "MultiPolygon", "coordinates": [[[[71.79011455795387, 34.41658658386753], [71.78997146585182, 34.416560111699084], [71.789986652851, 34.41650426854453], [71.78990489810911, 34.41648923197989], [71.78989313365868, 34.41653236634914], [71.7897935620512, 34.41651397742965], [71.78977267629975, 34.41659085176421], [71.7900204156477, 34.41663665751132], [71.79000015252191, 34.41671147521861], [71.7897754174653, 34.416669879060265], [71.789750227918, 34.416762593610784], [71.78990088094699, 34.41679043639136], [71.78987403450408, 34.41688950678433], [71.7896732711071, 34.41685241584873], [71.78965948218936, 34.416902977921936], [71.79001100773797, 34.41696791440467], [71.79011455795387, 34.41658658386753]]]]}, "properties": {"id": "Pakistan_123102132_3248", "height": 5.131309032440186, "hmax": 0.0, "ratio": 0.0, "vulnClass": "none"}}, {"type": "Feature", "geometry": {"type": "MultiPolygon", "coordinates": [[[[71.78964910073398, 34.416682513688045], [71.78963629844003, 34.41673571549786], [71.78974037654733, 34.41675287097481], [71.78975328742882, 34.416699672005116], [71.78964910073398, 34.416682513688045]]]]}, "properties": {"id": "Pakistan_123102132_258782", "height": 3.162644624710083, "hmax": 0.0, "ratio": 0.0, "vulnClass": "none"}}, {"type": "Feature", "geometry": {"type": "MultiPolygon", "coordinates": [[[[71.78963101999896, 34.41664625640747], [71.7897056500337, 34.41665137176196], [71.78971196214943, 34.416588715874916], [71.78963733216946, 34.416583600527346], [71.78963101999896, 34.41664625640747]]]]}, "properties": {"id": "Pakistan_123102132_67743", "height": 2.460900783538818, "hmax": 0.0, "ratio": 0.0, "vulnClass": "none"}}, {"type": "Feature", "geometry": {"type": "MultiPolygon", "coordinates": [[[[71.79053040447418, 34.416320442516586], [71.79043927738418, 34.416288846317144], [71.79038271968037, 34.41639984499547], [71.79047395551179, 34.41643144409602], [71.79053040447418, 34.416320442516586]]]]}, "properties": {"id": "Pakistan_123102132_440571", "height": 4.092489719390869, "hmax": 0.0, "ratio": 0.0, "vulnClass": "none"}}, {"type": "Feature", "geometry": {"type": "MultiPolygon", "coordinates": [[[[71.7906523141928, 34.416172764154624], [71.7906122504062, 34.41617099083252], [71.79061002796881, 34.41620635419053], [71.79065009521548, 34.41620803747312], [71.7906523141928, 34.416172764154624]]]]}, "properties": {"id": "Pakistan_123102132_526659", "height": 2.857818603515625, "hmax": 0.0, "ratio": 0.0, "vulnClass": "none"}}, {"type": "Feature", "geometry": {"type": "MultiPolygon", "coordinates": [[[[71.7891308235262, 34.41761032012044], [71.78935894472016, 34.41766011834458], [71.7893898140029, 34.417563947880346], [71.78916169304294, 34.41751414972689], [71.7891308235262, 34.41761032012044]]]]}, "properties": {"id": "Pakistan_123102132_471253", "height": 2.462108135223389, "hmax": 0.0, "ratio": 0.0, "vulnClass": "none"}}, {"type": "Feature", "geometry": {"type": "MultiPolygon", "coordinates": [[[[71.78714836487123, 34.41722940990559], [71.78713949808038, 34.417279199750425], [71.78721040507314, 34.41728782401288], [71.78721927182363, 34.41723803416064], [71.78714836487123, 34.41722940990559]]]]}, "properties": {"id": "Pakistan_123102132_535788", "height": 5.002013206481934, "hmax": 0.0, "ratio": 0.0, "vulnClass": "none"}}, {"type": "Feature", "geometry": {"type": "MultiPolygon", "coordinates": [[[[71.78740382027661, 34.417704359742814], [71.78733409042083, 34.41767918233434], [71.78728087829928, 34.41777936145581], [71.7873504995671, 34.41780453604143], [71.78740382027661, 34.417704359742814]]]]}, "properties": {"id": "Pakistan_123102132_609290", "height": 4.997438430786133, "hmax": 0.0, "ratio": 0.0, "vulnClass": "none"}}, {"type": "Feature", "geometry": {"type": "MultiPolygon", "coordinates": [[[[71.78748944550247, 34.417714903058574], [71.78743328862042, 34.417704503596255], [71.7874267115677, 34.417728576051466], [71.78748286846458, 34.41773897551763], [71.78748944550247, 34.417714903058574]]]]}, "properties": {"id": "Pakistan_123102132_400565", "height": 6.091948509216309, "hmax": 0.0, "ratio": 0.0, "vulnClass": "none"}}, {"type": "Feature", "geometry": {"type": "MultiPolygon", "coordinates": [[[[71.78591714713139, 34.417992170101655], [71.78613705932867, 34.418020577506404], [71.78615423561476, 34.41792990636726], [71.7859343236445, 34.41790149900613], [71.78591714713139, 34.417992170101655]]]]}, "properties": {"id": "Pakistan_123102132_92073", "height": 2.707837581634521, "hmax": 0.0, "ratio": 0.0, "vulnClass": "none"}}, {"type": "Feature", "geometry": {"type": "MultiPolygon", "coordinates": [[[[71.78576912795391, 34.417764930741356], [71.78574359069701, 34.417920546919945], [71.78586888875672, 34.417934568534086], [71.78586167841817, 34.4179780024957], [71.78591171283053, 34.41798355479953], [71.78592288269039, 34.417916250017065], [71.7858385199671, 34.41790682038731], [71.78586020269337, 34.4177751678918], [71.78576912795391, 34.417764930741356]]]]}, "properties": {"id": "Pakistan_123102132_431330", "height": 2.780462265014648, "hmax": 0.0, "ratio": 0.0, "vulnClass": "none"}}, {"type": "Feature", "geometry": {"type": "MultiPolygon", "coordinates": [[[[71.78587611081227, 34.41755575570861], [71.78598287061217, 34.41756820797471], [71.78599477499571, 34.41749875934444], [71.7857539689808, 34.41747070342143], [71.78571195191276, 34.417715837286465], [71.78610899936331, 34.41776215359265], [71.78612497180595, 34.4176688369776], [71.78594090127231, 34.41764741116421], [71.78593194749217, 34.41769945189455], [71.78585312268757, 34.41769025808148], [71.78587611081227, 34.41755575570861]]]]}, "properties": {"id": "Pakistan_123102132_578486", "height": 2.461931228637695, "hmax": 0.0, "ratio": 0.0, "vulnClass": "none"}}, {"type": "Feature", "geometry": {"type": "MultiPolygon", "coordinates": [[[[71.78686171916381, 34.41673119667372], [71.78683203387907, 34.41701225727231], [71.78711424640628, 34.4170325668988], [71.78714893615633, 34.4167031470356], [71.7871180263711, 34.416700892198016], [71.78711291231146, 34.41674924848306], [71.78686171916381, 34.41673119667372]]]]}, "properties": {"id": "Pakistan_123102132_231049", "height": 3.060864448547363, "hmax": 0.0, "ratio": 0.0, "vulnClass": "none"}}, {"type": "Feature", "geometry": {"type": "MultiPolygon", "coordinates": [[[[71.78856704199389, 34.41669445880817], [71.78852192726984, 34.416750777029755], [71.78868589605452, 34.4168399002049], [71.78874381339959, 34.41676733417411], [71.78865026625228, 34.416716565151916], [71.78863735836657, 34.416732719990975], [71.78856704199389, 34.41669445880817]]]]}, "properties": {"id": "Pakistan_123102132_95161", "height": 2.525596141815186, "hmax": 0.0, "ratio": 0.0, "vulnClass": "none"}}, {"type": "Feature", "geometry": {"type": "MultiPolygon", "coordinates": [[[[71.78859765937358, 34.416454251694816], [71.78896043555771, 34.41665143943958], [71.78906335474181, 34.41652264201173], [71.78899229156185, 34.41648400092222], [71.78894602873274, 34.41654191151201], [71.7888219093036, 34.416474385930236], [71.7888736560437, 34.41640958923976], [71.788818254326, 34.41637947146682], [71.7887665075655, 34.416444268132715], [71.78865431934359, 34.416383275020124], [71.78859765937358, 34.416454251694816]]]]}, "properties": {"id": "Pakistan_123102132_560061", "height": 2.875199317932129, "hmax": 0.0, "ratio": 0.0, "vulnClass": "none"}}, {"type": "Feature", "geometry": {"type": "MultiPolygon", "coordinates": [[[[71.78872059721942, 34.41652138591998], [71.78858241019665, 34.41644348579103], [71.78854740802687, 34.41648564875371], [71.7884425460158, 34.41642647036493], [71.78841574897689, 34.41645884433962], [71.78849495383061, 34.41650355829208], [71.78845801152606, 34.41654810378715], [71.78856883743826, 34.41661059351417], [71.78863884528127, 34.41652617752935], [71.7886918636359, 34.41655605248436], [71.78872059721942, 34.41652138591998]]]]}, "properties": {"id": "Pakistan_123102132_415848", "height": 3.367611408233643, "hmax": 0.0, "ratio": 0.0, "vulnClass": "none"}}, {"type": "Feature", "geometry": {"type": "MultiPolygon", "coordinates": [[[[71.78816050655665, 34.41648124799508], [71.7884883730993, 34.41673520369892], [71.78854644485747, 34.41668418326493], [71.78848465627222, 34.416636231693566], [71.78851279019896, 34.41661155402429], [71.7882468243337, 34.41640546292329], [71.78816050655665, 34.41648124799508]]]]}, "properties": {"id": "Pakistan_123102132_157029", "height": 3.367611408233643, "hmax": 0.0, "ratio": 0.0, "vulnClass": "none"}}, {"type": "Feature", "geometry": {"type": "MultiPolygon", "coordinates": [[[[71.78818569691855, 34.41592534779516], [71.78863930605829, 34.41619297324476], [71.78869391733828, 34.41613005454244], [71.7882999745413, 34.41589761664715], [71.78834617031886, 34.41584430124852], [71.78828650756994, 34.41580902388652], [71.78818569691855, 34.41592534779516]]]]}, "properties": {"id": "Pakistan_123102132_544913", "height": 2.683330535888672, "hmax": 0.0, "ratio": 0.0, "vulnClass": "none"}}, {"type": "Feature", "geometry": {"type": "MultiPolygon", "coordinates": [[[[71.78753969579822, 34.415504396517555], [71.78749689216774, 34.415503181072324], [71.78748983477209, 34.41567334413323], [71.78753263848894, 34.415674559585796], [71.78753969579822, 34.415504396517555]]]]}, "properties": {"id": "Pakistan_123102132_206563", "height": 2.538491725921631, "hmax": 0.0, "ratio": 0.0, "vulnClass": "none"}}, {"type": "Feature", "geometry": {"type": "MultiPolygon", "coordinates": [[[[71.78739236138678, 34.41550358748343], [71.78739396502363, 34.41556113356306], [71.7874647065124, 34.415559838816456], [71.78746310282686, 34.415502292735034], [71.78739236138678, 34.41550358748343]]]]}, "properties": {"id": "Pakistan_123102132_474441", "height": 3.399833917617798, "hmax": 0.0, "ratio": 0.0, "vulnClass": "none"}}, {"type": "Feature", "geometry": {"type": "MultiPolygon", "coordinates": [[[[71.78743803055153, 34.41541573821422], [71.78732544784866, 34.415413409196745], [71.7873180332455, 34.41565539767691], [71.78738410476309, 34.41565677427479], [71.78738874844895, 34.41550421354725], [71.78743525987356, 34.415505165985344], [71.78743803055153, 34.41541573821422]]]]}, "properties": {"id": "Pakistan_123102132_354209", "height": 3.188993692398071, "hmax": 0.0, "ratio": 0.0, "vulnClass": "none"}}, {"type": "Feature", "geometry": {"type": "MultiPolygon", "coordinates": [[[[71.78717550587298, 34.41511708019632], [71.78718120652367, 34.415158510323245], [71.7872023805399, 34.41515654336247], [71.78721371458997, 34.41523832026755], [71.7873407656905, 34.41522633833801], [71.78732373423885, 34.4151030412727], [71.78717550587298, 34.41511708019632]]]]}, "properties": {"id": "Pakistan_123102132_443668", "height": 4.451834201812744, "hmax": 0.0, "ratio": 0.0, "vulnClass": "none"}}, {"type": "Feature", "geometry": {"type": "MultiPolygon", "coordinates": [[[[71.78686715534428, 34.41500414944269], [71.78679805916323, 34.41498520752894], [71.78678363573835, 34.41502106112218], [71.78685273194436, 34.41504000304548], [71.78686715534428, 34.41500414944269]]]]}, "properties": {"id": "Pakistan_123102132_412788", "height": 2.62874960899353, "hmax": 0.0, "ratio": 0.0, "vulnClass": "none"}}, {"type": "Feature", "geometry": {"type": "MultiPolygon", "coordinates": [[[[71.7871068389805, 34.4149533985047], [71.7873751758714, 34.414972351042245], [71.78739258066673, 34.41480462317993], [71.78737866882312, 34.41480723176464], [71.78737245123618, 34.41478498607034], [71.78744240757432, 34.414789979882556], [71.78744931769317, 34.41472310368516], [71.78738098765871, 34.41471824276723], [71.78738098765871, 34.41471824276723], [71.7872762110543, 34.41471089133265], [71.7872713628482, 34.414757992789774], [71.78731127924127, 34.41476075476061], [71.78730833618961, 34.414789339212184], [71.787249006537, 34.41478516551078], [71.78724046317804, 34.414786743518334], [71.78722996151019, 34.41488777525145], [71.78714330111852, 34.41488162106439], [71.78712840663302, 34.414827511049985], [71.78707938114997, 34.414824058851245], [71.78707712767942, 34.414845991692914], [71.7871068389805, 34.4149533985047]]]]}, "properties": {"id": "Pakistan_123102132_578493", "height": 3.900209903717041, "hmax": 0.0, "ratio": 0.0, "vulnClass": "none"}}, {"type": "Feature", "geometry": {"type": "MultiPolygon", "coordinates": [[[[71.78706032077713, 34.414645818307584], [71.78704499663229, 34.41457736607361], [71.7869931467573, 34.41458519615355], [71.78700846741313, 34.41465373843256], [71.78706032077713, 34.414645818307584]]]]}, "properties": {"id": "Pakistan_123102132_385038", "height": 3.91058087348938, "hmax": 0.0, "ratio": 0.0, "vulnClass": "none"}}, {"type": "Feature", "geometry": {"type": "MultiPolygon", "coordinates": [[[[71.78671518013302, 34.415226833874556], [71.78717625078703, 34.415327737166116], [71.78719847174463, 34.41525864974514], [71.78706656503401, 34.415229854533955], [71.78710421450663, 34.41511286230465], [71.78704565014996, 34.41510005599353], [71.78701306182192, 34.415201318133164], [71.78688870540769, 34.41517416336663], [71.78689895376127, 34.41514225589563], [71.78681126850921, 34.4151230955779], [71.78682855433784, 34.41506929094686], [71.78676988141723, 34.41505648165048], [71.78671518013302, 34.415226833874556]]]]}, "properties": {"id": "Pakistan_123102132_526645", "height": 4.158567428588867, "hmax": 0.0, "ratio": 0.0, "vulnClass": "none"}}, {"type": "Feature", "geometry": {"type": "MultiPolygon", "coordinates": [[[[71.78707281796306, 34.41536764978573], [71.78702604567947, 34.41534226470978], [71.78699029141767, 34.41538702125907], [71.78703717236041, 34.41541240920614], [71.78707281796306, 34.41536764978573]]]]}, "properties": {"id": "Pakistan_123102132_369510", "height": 2.508962631225586, "hmax": 0.0, "ratio": 0.0, "vulnClass": "none"}}, {"type": "Feature", "geometry": {"type": "MultiPolygon", "coordinates": [[[[71.78708125747995, 34.4154227617904], [71.78700252743371, 34.41539978114762], [71.7869815026859, 34.41544898091354], [71.78708636864397, 34.41547958891036], [71.78710524120879, 34.415435470033394], [71.7872253834598, 34.41547044536522], [71.78725320761944, 34.415405561176264], [71.78710682439974, 34.41536286565167], [71.78708125747995, 34.4154227617904]]]]}, "properties": {"id": "Pakistan_123102132_249605", "height": 2.608620882034302, "hmax": 0.0, "ratio": 0.0, "vulnClass": "none"}}, {"type": "Feature", "geometry": {"type": "MultiPolygon", "coordinates": [[[[71.78689638302856, 34.415672432020884], [71.78718931700114, 34.415727904165934], [71.78721276216092, 34.41564388710278], [71.78718727990004, 34.41563907105249], [71.7872048120138, 34.415575989295455], [71.78710450589134, 34.41555694799394], [71.78708620462248, 34.415623073982346], [71.78691895416554, 34.41559136637945], [71.78689638302856, 34.415672432020884]]]]}, "properties": {"id": "Pakistan_123102132_459071", "height": 3.197247505187988, "hmax": 0.0, "ratio": 0.0, "vulnClass": "none"}}, {"type": "Feature", "geometry": {"type": "MultiPolygon", "coordinates": [[[[71.78714896843557, 34.41599777863243], [71.78718525352772, 34.41585677553582], [71.78696961971691, 34.41581901886538], [71.7869086628132, 34.41605617438236], [71.78710117748163, 34.416089898292086], [71.78712596084779, 34.41599365855447], [71.78714896843557, 34.41599777863243]]]]}, "properties": {"id": "Pakistan_123102132_578494", "height": 2.755913972854614, "hmax": 0.0, "ratio": 0.0, "vulnClass": "none"}}, {"type": "Feature", "geometry": {"type": "MultiPolygon", "coordinates": [[[[71.78436148469898, 34.41504495196779], [71.78430836941372, 34.41513972442617], [71.78459338673754, 34.415248442321605], [71.78463529209041, 34.415173744465974], [71.7845624024318, 34.41514595872451], [71.78457361214369, 34.415125883992324], [71.78436148469898, 34.41504495196779]]]]}, "properties": {"id": "Pakistan_123102132_397500", "height": 2.675166130065918, "hmax": 0.0, "ratio": 0.0, "vulnClass": "none"}}, {"type": "Feature", "geometry": {"type": "MultiPolygon", "coordinates": [[[[71.78467895675179, 34.415036091002165], [71.78447428788361, 34.41497906000619], [71.78448819833476, 34.41494526623993], [71.7844063084809, 34.414922471196874], [71.78437379146303, 34.41500192260708], [71.78466024169745, 34.41508174584907], [71.78467895675179, 34.415036091002165]]]]}, "properties": {"id": "Pakistan_123102132_237186", "height": 3.013895988464355, "hmax": 0.0, "ratio": 0.0, "vulnClass": "none"}}, {"type": "Feature", "geometry": {"type": "MultiPolygon", "coordinates": [[[[71.78363439501281, 34.414453301018646], [71.78361666494345, 34.41455837822869], [71.78375980813479, 34.414574854463766], [71.78375350090855, 34.41461173246941], [71.78376931144486, 34.414613500584274], [71.78379334509171, 34.41447163537418], [71.78363439501281, 34.414453301018646]]]]}, "properties": {"id": "Pakistan_123102132_329633", "height": 2.82324481010437, "hmax": 0.0, "ratio": 0.0, "vulnClass": "none"}}, {"type": "Feature", "geometry": {"type": "MultiPolygon", "coordinates": [[[[71.78401379425857, 34.414860405930945], [71.78386744145878, 34.415276746736005], [71.78391453707805, 34.41528799087201], [71.78393028461976, 34.41524315936514], [71.78396983706855, 34.41525258258124], [71.78401511346111, 34.4151239849527], [71.78413635062363, 34.415153043423246], [71.7841449046833, 34.415128482402565], [71.7842735798731, 34.41515926872393], [71.78428651437412, 34.415122565095], [71.78414792655866, 34.41508935475776], [71.78415293309104, 34.41507506548838], [71.78402177646612, 34.415043763079254], [71.78405046191716, 34.41496213791028], [71.78432516589342, 34.415027772542146], [71.78433945415532, 34.41498695848525], [71.78410936758873, 34.41493196193412], [71.78412511839602, 34.41488704034968], [71.78401379425857, 34.414860405930945]]]]}, "properties": {"id": "Pakistan_123102132_104354", "height": 3.413082599639893, "hmax": 0.0, "ratio": 0.0, "vulnClass": "none"}}, {"type": "Feature", "geometry": {"type": "MultiPolygon", "coordinates": [[[[71.78267333057651, 34.415006373585044], [71.78258642264841, 34.41498966427254], [71.78257468237824, 34.4150320774218], [71.78266148170032, 34.41504878388425], [71.78267333057651, 34.415006373585044]]]]}, "properties": {"id": "8J6HCQ8M+225Q", "height": 3.205231189727783, "hmax": 0.0, "ratio": 0.0, "vulnClass": "none"}}, {"type": "Feature", "geometry": {"type": "MultiPolygon", "coordinates": [[[[71.78269119606921, 34.414974396677266], [71.78273433940836, 34.4148390736897], [71.78264417751669, 34.414819304412994], [71.78260092540123, 34.41495462450079], [71.78269119606921, 34.414974396677266]]]]}, "properties": {"id": "8J6HCQ7M+X33V", "height": 3.324850797653198, "hmax": 0.0, "ratio": 0.0, "vulnClass": "none"}}, {"type": "Feature", "geometry": {"type": "MultiPolygon", "coordinates": [[[[71.7816077816424, 34.414667810828966], [71.78143500628427, 34.414649830522116], [71.78142251359195, 34.41473170125859], [71.78159539775905, 34.41474968445382], [71.7816077816424, 34.414667810828966]]]]}, "properties": {"id": "8J6HCQ7J+VJCV", "height": 2.641271114349365, "hmax": 0.0, "ratio": 0.0, "vulnClass": "none"}}, {"type": "Feature", "geometry": {"type": "MultiPolygon", "coordinates": [[[[71.78149799614995, 34.414822288554376], [71.78145589840065, 34.414822531693034], [71.78145610088698, 34.41484561065198], [71.78149819864788, 34.414845367513905], [71.78149799614995, 34.414822288554376]]]]}, "properties": {"id": "8J6HCQ7J+WHQ7", "height": 2.901021718978882, "hmax": 0.0, "ratio": 0.0, "vulnClass": "none"}}, {"type": "Feature", "geometry": {"type": "MultiPolygon", "coordinates": [[[[71.78227870046774, 34.41632136421683], [71.78252562245666, 34.416388344412255], [71.78261430525389, 34.41616589188], [71.78245306644257, 34.416122078588415], [71.78247135526362, 34.416076232642595], [71.78249309840815, 34.416082122926326], [71.78249237057696, 34.41608408665153], [71.78263186617184, 34.41612200963208], [71.78268360713639, 34.415992230830184], [71.78261579780833, 34.41597377108946], [71.78258872518714, 34.41604164822612], [71.78248463992728, 34.41601340035943], [71.78250063311398, 34.41597353276162], [71.78250547737386, 34.4159748320258], [71.78254097347468, 34.41588581557275], [71.78261115224453, 34.41590487852964], [71.78263774533104, 34.41583816046672], [71.78250223217084, 34.4158013338139], [71.78243449442141, 34.41597107016426], [71.78242566818034, 34.41596867459846], [71.78234853040014, 34.41616231857173], [71.78234271520779, 34.416160813470974], [71.78227870046774, 34.41632136421683]]]]}, "properties": {"id": "Pakistan_123102132_85938", "height": 3.631971120834351, "hmax": 0.0, "ratio": 0.0, "vulnClass": "none"}}, {"type": "Feature", "geometry": {"type": "MultiPolygon", "coordinates": [[[[71.78141235159848, 34.415872947059576], [71.78125673929534, 34.41587245333087], [71.78125632513029, 34.41595130733697], [71.78141204968026, 34.41595171389586], [71.78141235159848, 34.415872947059576]]]]}, "properties": {"id": "8J6HCQ8J+9G8G", "height": 2.524620056152344, "hmax": 0.0, "ratio": 0.0, "vulnClass": "none"}}, {"type": "Feature", "geometry": {"type": "MultiPolygon", "coordinates": [[[[71.78150454933686, 34.41923970746852], [71.7815030952466, 34.419461932966264], [71.7816089033231, 34.41946237658373], [71.78160994035947, 34.41930206030105], [71.7815670936086, 34.41930192315697], [71.78156740521563, 34.41923992102456], [71.78150454933686, 34.41923970746852]]]]}, "properties": {"id": "Pakistan_123102132_529703", "height": 2.624118566513062, "hmax": 0.0, "ratio": 0.0, "vulnClass": "none"}}, {"type": "Feature", "geometry": {"type": "MultiPolygon", "coordinates": [[[[71.78157930772271, 34.41977462305531], [71.78177665306593, 34.41981866763778], [71.78180447185552, 34.41973422625809], [71.78160702149049, 34.41969008882818], [71.78157930772271, 34.41977462305531]]]]}, "properties": {"id": "Pakistan_123102132_268104", "height": 3.21973991394043, "hmax": 0.0, "ratio": 0.0, "vulnClass": "none"}}, {"type": "Feature", "geometry": {"type": "MultiPolygon", "coordinates": [[[[71.78453489880052, 34.419269919364226], [71.78436967583787, 34.41923339434528], [71.78438311300026, 34.419192107267634], [71.78428043902818, 34.41916948609858], [71.78426169143455, 34.41922730771109], [71.78410649740552, 34.41919302917416], [71.78406629412413, 34.419316893145044], [71.78430917030856, 34.4193705142077], [71.78430646251277, 34.41937873503273], [71.78448667795789, 34.4194185388983], [71.78453489880052, 34.419269919364226]]]]}, "properties": {"id": "Pakistan_123102132_264975", "height": 2.984567880630493, "hmax": 0.0, "ratio": 0.0, "vulnClass": "none"}}, {"type": "Feature", "geometry": {"type": "MultiPolygon", "coordinates": [[[[71.78374578085756, 34.41890809328875], [71.78381539501787, 34.41892777168679], [71.78383181595886, 34.41888809544691], [71.78376219837506, 34.418868507100285], [71.78374578085756, 34.41890809328875]]]]}, "properties": {"id": "Pakistan_123102132_495950", "height": 2.505459785461426, "hmax": 0.0, "ratio": 0.0, "vulnClass": "none"}}, {"type": "Feature", "geometry": {"type": "MultiPolygon", "coordinates": [[[[71.78369722355843, 34.41892925785367], [71.78364709932158, 34.418914689125884], [71.78363573862453, 34.418941519621484], [71.78368575422321, 34.41895608549467], [71.78369722355843, 34.41892925785367]]]]}, "properties": {"id": "Pakistan_123102132_95140", "height": 2.772459983825684, "hmax": 0.0, "ratio": 0.0, "vulnClass": "none"}}, {"type": "Feature", "geometry": {"type": "MultiPolygon", "coordinates": [[[[71.78664966053115, 34.41849733486742], [71.78661000068644, 34.41858723453432], [71.78668451681217, 34.418609563901796], [71.78666950963974, 34.41864359946589], [71.7869741334618, 34.4187348916428], [71.78702272790396, 34.418624676807994], [71.7869407940104, 34.41860007956297], [71.78693053981853, 34.41862360463117], [71.78671720628681, 34.41855967954426], [71.78671815134985, 34.41855772150475], [71.7867560000981, 34.418569081957536], [71.78677148664681, 34.41853388727811], [71.78664966053115, 34.41849733486742]]]]}, "properties": {"id": "Pakistan_123102132_212779", "height": 3.092099666595459, "hmax": 0.0, "ratio": 0.0, "vulnClass": "none"}}, {"type": "Feature", "geometry": {"type": "MultiPolygon", "coordinates": [[[[71.78655983826191, 34.418712820434926], [71.78659703428035, 34.41866170265955], [71.78654462432115, 34.41863580856747], [71.78641041449742, 34.418820383254335], [71.7866226141634, 34.418925288891174], [71.78668058988666, 34.41884560510327], [71.7865523991448, 34.418782116158496], [71.78659143361791, 34.41872843292338], [71.78655983826191, 34.418712820434926]]]]}, "properties": {"id": "Pakistan_123102132_489856", "height": 3.433819055557251, "hmax": 0.0, "ratio": 0.0, "vulnClass": "none"}}, {"type": "Feature", "geometry": {"type": "MultiPolygon", "coordinates": [[[[71.78665358256225, 34.41899135850349], [71.78680959258078, 34.419089558492054], [71.78684136321885, 34.41905515255892], [71.786798246963, 34.419027970728024], [71.78683183186102, 34.418991629614126], [71.78671904678575, 34.41892061438729], [71.78665358256225, 34.41899135850349]]]]}, "properties": {"id": "Pakistan_123102132_311238", "height": 3.753147125244141, "hmax": 0.0, "ratio": 0.0, "vulnClass": "none"}}, {"type": "Feature", "geometry": {"type": "MultiPolygon", "coordinates": [[[[71.78733247414729, 34.41940885346761], [71.78734314276974, 34.41940859318877], [71.78734144125, 34.419362130732175], [71.7871940294673, 34.41936600605959], [71.78719514069934, 34.41939379577674], [71.78712415798876, 34.41939562471573], [71.78712704477242, 34.41947078015002], [71.78733465878175, 34.41946542335357], [71.78733247414729, 34.41940885346761]]]]}, "properties": {"id": "Pakistan_123102132_520477", "height": 2.693098306655884, "hmax": 0.0, "ratio": 0.0, "vulnClass": "none"}}, {"type": "Feature", "geometry": {"type": "MultiPolygon", "coordinates": [[[[71.78891986402218, 34.41979794741878], [71.78896510645997, 34.41983212453273], [71.78899450549977, 34.419805677404874], [71.7889492630625, 34.41977150030181], [71.78891986402218, 34.41979794741878]]]]}, "properties": {"id": "Pakistan_123102132_76859", "height": 3.40713906288147, "hmax": 0.0, "ratio": 0.0, "vulnClass": "none"}}, {"type": "Feature", "geometry": {"type": "MultiPolygon", "coordinates": [[[[71.78884343373338, 34.419868224286176], [71.78902634064397, 34.420008318534634], [71.78910526306124, 34.4199382873058], [71.788922359598, 34.41979810313443], [71.78884343373338, 34.419868224286176]]]]}, "properties": {"id": "Pakistan_123102132_175629", "height": 3.462654113769531, "hmax": 0.0, "ratio": 0.0, "vulnClass": "none"}}, {"type": "Feature", "geometry": {"type": "MultiPolygon", "coordinates": [[[[71.78567622340252, 34.42072411582877], [71.78587492954031, 34.42086904676628], [71.78592681775729, 34.42082056901945], [71.78582069355352, 34.42074314854473], [71.78591656743336, 34.42065373649514], [71.78582398552051, 34.420586226190345], [71.78567622340252, 34.42072411582877]]]]}, "properties": {"id": "Pakistan_123102132_295689", "height": 2.768457412719727, "hmax": 0.0, "ratio": 0.0, "vulnClass": "none"}}, {"type": "Feature", "geometry": {"type": "MultiPolygon", "coordinates": [[[[71.78643910424768, 34.42060447887448], [71.78628634176657, 34.42056341697973], [71.78623973364613, 34.420681344852284], [71.78639486255919, 34.42072309997084], [71.78637860105637, 34.42076431300164], [71.78640766867908, 34.4207721077688], [71.78638875469346, 34.420820101027296], [71.78643967567504, 34.420833788312365], [71.78646015387001, 34.42078187040123], [71.78642506023206, 34.42077238492183], [71.78645505315949, 34.42069638176549], [71.78640779200731, 34.42068369206107], [71.78643910424768, 34.42060447887448]]]]}, "properties": {"id": "Pakistan_123102132_227946", "height": 2.451287508010864, "hmax": 0.0, "ratio": 0.0, "vulnClass": "none"}}, {"type": "Feature", "geometry": {"type": "MultiPolygon", "coordinates": [[[[71.78644805945899, 34.42085059299952], [71.78638176480035, 34.42084073754821], [71.78637425417628, 34.42087497022103], [71.78644043675774, 34.42088491286088], [71.78644805945899, 34.42085059299952]]]]}, "properties": {"id": "Pakistan_123102132_335715", "height": 3.217068910598755, "hmax": 0.0, "ratio": 0.0, "vulnClass": "none"}}, {"type": "Feature", "geometry": {"type": "MultiPolygon", "coordinates": [[[[71.78669216747456, 34.420585356778744], [71.78695793966995, 34.420671751778805], [71.78697662061349, 34.42063267530759], [71.78686865774215, 34.420597569161], [71.78689123459839, 34.42055048332308], [71.78683666252296, 34.420532734430246], [71.78686409414327, 34.420475321015], [71.7867607519131, 34.4204416882616], [71.78669216747456, 34.420585356778744]]]]}, "properties": {"id": "Pakistan_123102132_218832", "height": 3.039392709732056, "hmax": 0.0, "ratio": 0.0, "vulnClass": "none"}}, {"type": "Feature", "geometry": {"type": "MultiPolygon", "coordinates": [[[[71.78757817295475, 34.42126382012587], [71.78765434042325, 34.421282857523515], [71.78767365038918, 34.42123018762596], [71.7875974829622, 34.42121115024266], [71.78757817295475, 34.42126382012587]]]]}, "properties": {"id": "Pakistan_123102132_381828", "height": 2.607076168060303, "hmax": 0.0, "ratio": 0.0, "vulnClass": "none"}}, {"type": "Feature", "geometry": {"type": "MultiPolygon", "coordinates": [[[[71.78902575359368, 34.42138506227497], [71.78941186561111, 34.4214277461173], [71.78942738174588, 34.42133207360862], [71.78908751425139, 34.421294570898304], [71.7890929387132, 34.4212608239943], [71.78904679984237, 34.42125573583449], [71.78902575359368, 34.42138506227497]]]]}, "properties": {"id": "Pakistan_123102132_446746", "height": 3.949090480804443, "hmax": 0.0, "ratio": 0.0, "vulnClass": "none"}}, {"type": "Feature", "geometry": {"type": "MultiPolygon", "coordinates": [[[[71.78634021733149, 34.4210196372818], [71.7863022113634, 34.42110038687041], [71.78639762063504, 34.4211310173073], [71.78643573518438, 34.42105027054268], [71.78634021733149, 34.4210196372818]]]]}, "properties": {"id": "Pakistan_123102132_197272", "height": 3.751481056213379, "hmax": 0.0, "ratio": 0.0, "vulnClass": "none"}}, {"type": "Feature", "geometry": {"type": "MultiPolygon", "coordinates": [[[[71.78609809556552, 34.42099443134486], [71.78624400848895, 34.4210610007943], [71.7862405522798, 34.42106604737921], [71.7862857716596, 34.42108661501738], [71.78633237177415, 34.42101717764356], [71.78626246019884, 34.42098532505215], [71.78624769372058, 34.42100737938661], [71.78612647306556, 34.42095209494853], [71.78609809556552, 34.42099443134486]]]]}, "properties": {"id": "Pakistan_123102132_181910", "height": 3.751481056213379, "hmax": 0.0, "ratio": 0.0, "vulnClass": "none"}}, {"type": "Feature", "geometry": {"type": "MultiPolygon", "coordinates": [[[[71.78532415318558, 34.42084058669895], [71.78515266841852, 34.42071475793496], [71.78500346836599, 34.42085323980118], [71.78517506526234, 34.420978981593926], [71.78532415318558, 34.42084058669895]]]]}, "properties": {"id": "Pakistan_123102132_391217", "height": 5.715770721435547, "hmax": 0.0, "ratio": 0.0, "vulnClass": "none"}}, {"type": "Feature", "geometry": {"type": "MultiPolygon", "coordinates": [[[[71.78464860175293, 34.42061406675088], [71.78459841673141, 34.420680524904085], [71.78465644443668, 34.42071026306869], [71.78470536868721, 34.420645484210226], [71.7848377377026, 34.420713501514655], [71.78492802486294, 34.42059392950736], [71.78485357497388, 34.42055564751654], [71.78481668056214, 34.42060451934337], [71.78466596489076, 34.420527096216134], [71.78467077676387, 34.420520733381515], [71.78455675499876, 34.42046212174604], [71.78449969539297, 34.42053768248021], [71.78464860175293, 34.42061406675088]]]]}, "properties": {"id": "Pakistan_123102132_113742", "height": 4.738138198852539, "hmax": 0.0, "ratio": 0.0, "vulnClass": "none"}}, {"type": "Feature", "geometry": {"type": "MultiPolygon", "coordinates": [[[[71.78471361722173, 34.42036494196906], [71.78505079031405, 34.42051234614141], [71.78509509208163, 34.42044329944014], [71.78475803127273, 34.420295808218555], [71.78471361722173, 34.42036494196906]]]]}, "properties": {"id": "Pakistan_123102132_326461", "height": 2.785093784332275, "hmax": 0.0, "ratio": 0.0, "vulnClass": "none"}}, {"type": "Feature", "geometry": {"type": "MultiPolygon", "coordinates": [[[[71.78536314596488, 34.42029406423488], [71.78503365695173, 34.42006250011756], [71.78494171512736, 34.420151474145605], [71.78527131284936, 34.42038304137237], [71.78536314596488, 34.42029406423488]]]]}, "properties": {"id": "Pakistan_123102132_305051", "height": 2.816356897354126, "hmax": 0.0, "ratio": 0.0, "vulnClass": "none"}}, {"type": "Feature", "geometry": {"type": "MultiPolygon", "coordinates": [[[[71.78283364014924, 34.42180622836929], [71.78309996011237, 34.42183009505273], [71.7831114716326, 34.421742610216626], [71.7828451519401, 34.42171874357344], [71.78283364014924, 34.42180622836929]]]]}, "properties": {"id": "Pakistan_123102132_243327", "height": 3.200125217437744, "hmax": 0.0, "ratio": 0.0, "vulnClass": "none"}}, {"type": "Feature", "geometry": {"type": "MultiPolygon", "coordinates": [[[[71.78240438019193, 34.422105968005646], [71.7823863172819, 34.42228485362545], [71.78247537853507, 34.422290984502766], [71.78249291157434, 34.42211740265805], [71.78277267822016, 34.42213666696068], [71.78277741759734, 34.42208965307544], [71.78268032982794, 34.4220829505442], [71.7826969841882, 34.42191808825249], [71.78248772674141, 34.421903745048006], [71.78248577191283, 34.42192352245867], [71.78243392106562, 34.42191990374109], [71.78242324284906, 34.422025346564325], [71.78187846369966, 34.42198783526585], [71.78187023494122, 34.42206909721733], [71.78240438019193, 34.422105968005646]]]]}, "properties": {"id": "Pakistan_123102132_566167", "height": 3.047372341156006, "hmax": 0.0, "ratio": 0.0, "vulnClass": "none"}}, {"type": "Feature", "geometry": {"type": "MultiPolygon", "coordinates": [[[[71.78232768465686, 34.422452395864774], [71.78247916611446, 34.4224644968778], [71.78249237128692, 34.422352721275956], [71.78234089347983, 34.42234053025002], [71.78232768465686, 34.422452395864774]]]]}, "properties": {"id": "Pakistan_123102132_409718", "height": 2.757506847381592, "hmax": 0.0, "ratio": 0.0, "vulnClass": "none"}}, {"type": "Feature", "geometry": {"type": "MultiPolygon", "coordinates": [[[[71.78156121615555, 34.42376795379723], [71.7815932544259, 34.42356789515314], [71.78149837122993, 34.42355755432264], [71.78148062844485, 34.42366848917412], [71.78138303908737, 34.42365780656993], [71.7813687432835, 34.42374693030837], [71.78156121615555, 34.42376795379723]]]]}, "properties": {"id": "Pakistan_123102132_246450", "height": 3.650038719177246, "hmax": 0.0, "ratio": 0.0, "vulnClass": "none"}}, {"type": "Feature", "geometry": {"type": "MultiPolygon", "coordinates": [[[[71.78273792213483, 34.42375216667285], [71.78277968441199, 34.4237579531886], [71.78279159230864, 34.423699861661675], [71.78274983005893, 34.42369407515152], [71.78273792213483, 34.42375216667285]]]]}, "properties": {"id": "Pakistan_123102132_603079", "height": 2.62455940246582, "hmax": 0.0, "ratio": 0.0, "vulnClass": "none"}}, {"type": "Feature", "geometry": {"type": "MultiPolygon", "coordinates": [[[[71.78301159491228, 34.423692224963304], [71.78322911515409, 34.42375500519991], [71.78326343106211, 34.423674159566964], [71.78304591099449, 34.42361137940114], [71.78301159491228, 34.423692224963304]]]]}, "properties": {"id": "Pakistan_123102132_406581", "height": 3.632997751235962, "hmax": 0.0, "ratio": 0.0, "vulnClass": "none"}}, {"type": "Feature", "geometry": {"type": "MultiPolygon", "coordinates": [[[[71.78170665283949, 34.42488472561288], [71.78195697034978, 34.42488933611181], [71.7819593840235, 34.42480089078376], [71.78182699612591, 34.42479848532003], [71.7818292406854, 34.424714451975014], [71.78180880594034, 34.42471409398355], [71.78180941597469, 34.42468968448016], [71.78187647564985, 34.42469100017119], [71.78187780088159, 34.42464227406356], [71.78166867609436, 34.42463847810879], [71.7816655691581, 34.4247534938828], [71.78171013306016, 34.42475430722565], [71.78170665283949, 34.42488472561288]]]]}, "properties": {"id": "Pakistan_123102132_449719", "height": 3.225715637207031, "hmax": 0.0, "ratio": 0.0, "vulnClass": "none"}}, {"type": "Feature", "geometry": {"type": "MultiPolygon", "coordinates": [[[[71.78165828638708, 34.42487245556374], [71.78165589385736, 34.424912140424105], [71.78170139432521, 34.4249140600183], [71.78170379028762, 34.42487428511558], [71.78165828638708, 34.42487245556374]]]]}, "properties": {"id": "Pakistan_123102132_403540", "height": 2.484963417053223, "hmax": 0.0, "ratio": 0.0, "vulnClass": "none"}}, {"type": "Feature", "geometry": {"type": "MultiPolygon", "coordinates": [[[[71.7818579057659, 34.42503616443236], [71.78185845418076, 34.42500201913014], [71.78180311562271, 34.42500137268597], [71.78180256718537, 34.425035517986686], [71.7818579057659, 34.42503616443236]]]]}, "properties": {"id": "Pakistan_123102132_268106", "height": 3.142239809036255, "hmax": 0.0, "ratio": 0.0, "vulnClass": "none"}}, {"type": "Feature", "geometry": {"type": "MultiPolygon", "coordinates": [[[[71.78299567599781, 34.42575256784171], [71.78299326819513, 34.42580117533794], [71.78304149953254, 34.4258028058276], [71.78304379864728, 34.42575419546777], [71.78299567599781, 34.42575256784171]]]]}, "properties": {"id": "Pakistan_123102132_320413", "height": 2.699512004852295, "hmax": 0.0, "ratio": 0.0, "vulnClass": "none"}}, {"type": "Feature", "geometry": {"type": "MultiPolygon", "coordinates": [[[[71.78271469448569, 34.42635743079835], [71.78262498914074, 34.42634812841344], [71.78263240941001, 34.42629929240774], [71.78252948896048, 34.42628856037177], [71.78250800953458, 34.426428869882415], [71.78270074425143, 34.42644890720778], [71.78271469448569, 34.42635743079835]]]]}, "properties": {"id": "Pakistan_123102132_58519", "height": 2.980360984802246, "hmax": 0.0, "ratio": 0.0, "vulnClass": "none"}}, {"type": "Feature", "geometry": {"type": "MultiPolygon", "coordinates": [[[[71.78228523453733, 34.426559641867186], [71.78242437076895, 34.426564838445316], [71.78242810780813, 34.426498600253936], [71.78245754460173, 34.42649964588483], [71.78246181158785, 34.426422425633184], [71.78229313361842, 34.42641609054695], [71.78228523453733, 34.426559641867186]]]]}, "properties": {"id": "Pakistan_123102132_544897", "height": 3.233166694641113, "hmax": 0.0, "ratio": 0.0, "vulnClass": "none"}}, {"type": "Feature", "geometry": {"type": "MultiPolygon", "coordinates": [[[[71.78287472456252, 34.42671973638793], [71.7830219727328, 34.426774357575646], [71.78309322320408, 34.42664374066597], [71.78300399440558, 34.42661065643983], [71.78302295796004, 34.42657564404459], [71.78290831149958, 34.426533147744365], [71.78288467342578, 34.42657659950249], [71.78294130072311, 34.42659755895856], [71.78287472456252, 34.42671973638793]]]]}, "properties": {"id": "Pakistan_123102132_505206", "height": 2.992185115814209, "hmax": 0.0, "ratio": 0.0, "vulnClass": "none"}}, {"type": "Feature", "geometry": {"type": "MultiPolygon", "coordinates": [[[[71.78281662900787, 34.426620774684245], [71.7828456572985, 34.42666083630784], [71.78290020291865, 34.42663397139206], [71.78287117460916, 34.426593909780344], [71.78281662900787, 34.426620774684245]]]]}, "properties": {"id": "Pakistan_123102132_249592", "height": 2.721319198608398, "hmax": 0.0, "ratio": 0.0, "vulnClass": "none"}}, {"type": "Feature", "geometry": {"type": "MultiPolygon", "coordinates": [[[[71.7831255169193, 34.42657879512957], [71.78303608749616, 34.4265622898018], [71.78302747967714, 34.42659387949302], [71.78311690913128, 34.42661038482882], [71.7831255169193, 34.42657879512957]]]]}, "properties": {"id": "Pakistan_123102132_440541", "height": 2.992185115814209, "hmax": 0.0, "ratio": 0.0, "vulnClass": "none"}}, {"type": "Feature", "geometry": {"type": "MultiPolygon", "coordinates": [[[[71.78258658331809, 34.42597685776117], [71.78255232776098, 34.42609862432141], [71.78260221125142, 34.42610823005063], [71.78263646674226, 34.42598646347269], [71.78258658331809, 34.42597685776117]]]]}, "properties": {"id": "Pakistan_123102132_486762", "height": 3.393475294113159, "hmax": 0.0, "ratio": 0.0, "vulnClass": "none"}}, {"type": "Feature", "geometry": {"type": "MultiPolygon", "coordinates": [[[[71.7849795367764, 34.42742408818398], [71.7850911775104, 34.427471280465085], [71.7851173709062, 34.42742924746742], [71.7850173949797, 34.427387048999016], [71.78503304444625, 34.427361863511436], [71.7849744929443, 34.42733715897832], [71.7849482995119, 34.42737919194343], [71.7849950741484, 34.42739898988348], [71.7849795367764, 34.42742408818398]]]]}, "properties": {"id": "Pakistan_123102132_76851", "height": 2.766086578369141, "hmax": 0.0, "ratio": 0.0, "vulnClass": "none"}}, {"type": "Feature", "geometry": {"type": "MultiPolygon", "coordinates": [[[[71.78475367210022, 34.4275276538709], [71.78504029926566, 34.42759828865341], [71.78507958658733, 34.42748990303885], [71.78491353854619, 34.42744894015482], [71.78492387226002, 34.42742055032944], [71.78485103066309, 34.42740259005858], [71.7848355809375, 34.427445266255404], [71.78478773853567, 34.42743346184276], [71.78475367210022, 34.4275276538709]]]]}, "properties": {"id": "Pakistan_123102132_369503", "height": 2.782531976699829, "hmax": 0.0, "ratio": 0.0, "vulnClass": "none"}}, {"type": "Feature", "geometry": {"type": "MultiPolygon", "coordinates": [[[[71.78893602059631, 34.42761439540713], [71.78959725477718, 34.4277392995473], [71.78960798670923, 34.42770046449157], [71.78939535182153, 34.42766026634904], [71.7894149067473, 34.42758984676091], [71.7892340227874, 34.42755562021423], [71.78924122635772, 34.42752940100525], [71.7890844228408, 34.42749977286398], [71.78906336036688, 34.42757547052757], [71.78895266993496, 34.42755453504959], [71.78893602059631, 34.42761439540713]]]]}, "properties": {"id": "Pakistan_123102132_590726", "height": 2.792105913162231, "hmax": 0.0, "ratio": 0.0, "vulnClass": "none"}}, {"type": "Feature", "geometry": {"type": "MultiPolygon", "coordinates": [[[[71.7888110486753, 34.42753747333319], [71.78868009844523, 34.42750591038238], [71.78866413322812, 34.42755073672713], [71.78879508351946, 34.42758229969848], [71.7888110486753, 34.42753747333319]]]]}, "properties": {"id": "Pakistan_123102132_354214", "height": 2.851265668869019, "hmax": 0.0, "ratio": 0.0, "vulnClass": "none"}}, {"type": "Feature", "geometry": {"type": "MultiPolygon", "coordinates": [[[[71.78543449054986, 34.42602288997513], [71.78540679345996, 34.426109859051444], [71.78555727830287, 34.42614248017047], [71.78558508046376, 34.42605560395167], [71.78543449054986, 34.42602288997513]]]]}, "properties": {"id": "Pakistan_123102132_98190", "height": 3.405457019805908, "hmax": 0.0, "ratio": 0.0, "vulnClass": "none"}}, {"type": "Feature", "geometry": {"type": "MultiPolygon", "coordinates": [[[[71.79040275014556, 34.42655008714614], [71.79052310812031, 34.42658840022974], [71.79061288353743, 34.426396885633004], [71.79048070733685, 34.42635474705455], [71.79044374926836, 34.42643372283155], [71.79045546250572, 34.42643745553553], [71.79040275014556, 34.42655008714614]]]]}, "properties": {"id": "Pakistan_123102132_301987", "height": 2.905584573745728, "hmax": 0.0, "ratio": 0.0, "vulnClass": "none"}}, {"type": "Feature", "geometry": {"type": "MultiPolygon", "coordinates": [[[[71.79069322440014, 34.42640079867922], [71.79067913718494, 34.426447747688385], [71.79074475582924, 34.42646118844514], [71.7907589482285, 34.42641433232185], [71.79069322440014, 34.42640079867922]]]]}, "properties": {"id": "Pakistan_123102132_283440", "height": 3.788179397583008, "hmax": 0.0, "ratio": 0.0, "vulnClass": "none"}}, {"type": "Feature", "geometry": {"type": "MultiPolygon", "coordinates": [[[[71.79083399546818, 34.42629219247358], [71.79087579842772, 34.42622019381871], [71.79081258018547, 34.4261951892204], [71.79082200866232, 34.42617903293746], [71.79075653957696, 34.42615315800507], [71.79073359699497, 34.426192754025756], [71.79061133648169, 34.4261444767175], [71.79053611526997, 34.42627400263981], [71.79104004577356, 34.42647318081133], [71.79106717911317, 34.42642639414722], [71.79094941984975, 34.426379857756125], [71.79096921842068, 34.42634567713845], [71.79083399546818, 34.42629219247358]]]]}, "properties": {"id": "Pakistan_123102132_289610", "height": 3.006117820739746, "hmax": 0.0, "ratio": 0.0, "vulnClass": "none"}}, {"type": "Feature", "geometry": {"type": "MultiPolygon", "coordinates": [[[[71.79108703571374, 34.42603808820081], [71.7909246829301, 34.42599434634972], [71.79093852914568, 34.42595937846829], [71.79075777120462, 34.42591055626599], [71.79071732394962, 34.42601251416464], [71.79106043497112, 34.42610507832974], [71.79108703571374, 34.42603808820081]]]]}, "properties": {"id": "Pakistan_123102132_64633", "height": 2.567167520523071, "hmax": 0.0, "ratio": 0.0, "vulnClass": "none"}}, {"type": "Feature", "geometry": {"type": "MultiPolygon", "coordinates": [[[[71.79111301337055, 34.42587932778465], [71.79115650265902, 34.42589119564765], [71.79118294636748, 34.42582546320921], [71.79113946055192, 34.425813505316135], [71.79111301337055, 34.42587932778465]]]]}, "properties": {"id": "Pakistan_123102132_160082", "height": 2.664839506149292, "hmax": 0.0, "ratio": 0.0, "vulnClass": "none"}}, {"type": "Feature", "geometry": {"type": "MultiPolygon", "coordinates": [[[[71.7894489140673, 34.42730664601002], [71.78985079805493, 34.42740120879461], [71.78986487239989, 34.427360298376676], [71.78982024427171, 34.42734975208601], [71.7898478790534, 34.42726999077618], [71.78949073232866, 34.42718597729109], [71.7894489140673, 34.42730664601002]]]]}, "properties": {"id": "Pakistan_123102132_505234", "height": 2.549401521682739, "hmax": 0.0, "ratio": 0.0, "vulnClass": "none"}}, {"type": "Feature", "geometry": {"type": "MultiPolygon", "coordinates": [[[[71.78918785629978, 34.42745454126751], [71.78952844883247, 34.42753343381814], [71.78956618663243, 34.42742275257652], [71.78960953147788, 34.42743272445044], [71.78962521842497, 34.42738662881255], [71.78951718582046, 34.42736161764216], [71.7894805431245, 34.427469263175404], [71.78934135152831, 34.427437033704706], [71.78936329378799, 34.427372445275], [71.78942302439815, 34.4273862728137], [71.78944153116674, 34.42733186907564], [71.78933209642086, 34.42730655050398], [71.78930280384235, 34.42739266744975], [71.7892157951982, 34.42737253482658], [71.78918785629978, 34.42745454126751]]]]}, "properties": {"id": "Pakistan_123102132_388139", "height": 2.785935640335083, "hmax": 0.0, "ratio": 0.0, "vulnClass": "none"}}, {"type": "Feature", "geometry": {"type": "MultiPolygon", "coordinates": [[[[71.78993683609772, 34.42742681348852], [71.78989600928126, 34.427413573025625], [71.7898599382586, 34.427489237027615], [71.78990065644109, 34.42750247464909], [71.78993683609772, 34.42742681348852]]]]}, "properties": {"id": "Pakistan_123102132_332708", "height": 2.530960559844971, "hmax": 0.0, "ratio": 0.0, "vulnClass": "none"}}, {"type": "Feature", "geometry": {"type": "MultiPolygon", "coordinates": [[[[71.78969472203408, 34.42748615767362], [71.78966360130178, 34.4275688918112], [71.78974428024341, 34.427589578855105], [71.78977539746137, 34.427506934734126], [71.78969472203408, 34.42748615767362]]]]}, "properties": {"id": "Pakistan_123102132_295707", "height": 4.855154991149902, "hmax": 0.0, "ratio": 0.0, "vulnClass": "none"}}, {"type": "Feature", "geometry": {"type": "MultiPolygon", "coordinates": [[[[71.7893562069392, 34.4275178213707], [71.78931336404892, 34.42750894417518], [71.78930005532698, 34.427552578584525], [71.7893430069006, 34.427561458641435], [71.7893562069392, 34.4275178213707]]]]}, "properties": {"id": "Pakistan_123102132_538811", "height": 2.713250637054443, "hmax": 0.0, "ratio": 0.0, "vulnClass": "none"}}, {"type": "Feature", "geometry": {"type": "MultiPolygon", "coordinates": [[[[71.79122625429989, 34.425611727007805], [71.79104757177726, 34.42556268936367], [71.79102823132995, 34.425610491899775], [71.79092931229377, 34.425583287847736], [71.79086502375736, 34.42574266431099], [71.79088278405187, 34.42574754725248], [71.79086151200075, 34.42580034638744], [71.79104267342946, 34.425849990212576], [71.79105385349189, 34.425822162812786], [71.7909838884959, 34.4258029297894], [71.79102318859911, 34.42570535810298], [71.79117205814265, 34.42574613187391], [71.79122625429989, 34.425611727007805]]]]}, "properties": {"id": "Pakistan_123102132_317418", "height": 2.7876296043396, "hmax": 0.0, "ratio": 0.0, "vulnClass": "none"}}, {"type": "Feature", "geometry": {"type": "MultiPolygon", "coordinates": [[[[71.79036485839501, 34.42568400937106], [71.79046947779487, 34.425712895861395], [71.79048521083786, 34.42567410194496], [71.79051664356996, 34.425682678971356], [71.79053671207035, 34.42563291275754], [71.79050291292909, 34.425623642652354], [71.79051540551853, 34.42559278531271], [71.79056524354296, 34.42560644252345], [71.79059827707432, 34.42552483991371], [71.79044618632489, 34.42548298939362], [71.79036485839501, 34.42568400937106]]]]}, "properties": {"id": "Pakistan_123102132_412804", "height": 3.45574426651001, "hmax": 0.0, "ratio": 0.0, "vulnClass": "none"}}, {"type": "Feature", "geometry": {"type": "MultiPolygon", "coordinates": [[[[71.78168419256944, 34.424007156823116], [71.78157105652483, 34.423987772765344], [71.7815376968725, 34.424120198136], [71.78115463612623, 34.42405449587942], [71.7811332153558, 34.42413937596075], [71.78162952489146, 34.42422437525032], [71.78168419256944, 34.424007156823116]]]]}, "properties": {"id": "Pakistan_123102132_64611", "height": 2.45849609375, "hmax": 0.0, "ratio": 0.0, "vulnClass": "none"}}, {"type": "Feature", "geometry": {"type": "MultiPolygon", "coordinates": [[[[71.78088273496135, 34.42237017000515], [71.78081386237488, 34.42237646721318], [71.78082621959861, 34.422468276016836], [71.78102497980878, 34.42245007855995], [71.78101297062743, 34.42236053222082], [71.78095195925421, 34.42236604517427], [71.78094696838862, 34.422328869735885], [71.7808780958382, 34.42233516698237], [71.78088273496135, 34.42237017000515]]]]}, "properties": {"id": "Pakistan_123102132_55386", "height": 3.780213356018066, "hmax": 0.0, "ratio": 0.0, "vulnClass": "none"}}, {"type": "Feature", "geometry": {"type": "MultiPolygon", "coordinates": [[[[71.78096980134256, 34.42193785097467], [71.78091232440094, 34.421939130735645], [71.78091418210833, 34.42199560184881], [71.7809716590888, 34.42199432208916], [71.78096980134256, 34.42193785097467]]]]}, "properties": {"id": "Pakistan_123102132_523514", "height": 2.746557950973511, "hmax": 0.0, "ratio": 0.0, "vulnClass": "none"}}, {"type": "Feature", "geometry": {"type": "MultiPolygon", "coordinates": [[[[71.78103761643159, 34.42214621847638], [71.78103543204594, 34.42210109529602], [71.78085748520954, 34.422106952399695], [71.78085966949901, 34.42215207557781], [71.78103761643159, 34.42214621847638]]]]}, "properties": {"id": "Pakistan_123102132_572326", "height": 2.58487343788147, "hmax": 0.0, "ratio": 0.0, "vulnClass": "none"}}, {"type": "Feature", "geometry": {"type": "MultiPolygon", "coordinates": [[[[71.77943322261257, 34.422721428057315], [71.77970393505146, 34.422744246298194], [71.77971052030672, 34.42269169310397], [71.77943969937762, 34.422668872022946], [71.77943322261257, 34.422721428057315]]]]}, "properties": {"id": "Pakistan_123102132_15407", "height": 3.327210664749146, "hmax": 0.0, "ratio": 0.0, "vulnClass": "none"}}]}