{"type": "FeatureCollection", "features": [{"type": "Feature", "geometry": {"type": "MultiPolygon", "coordinates": [[[[71.7653288150751, 34.44476856193918], [71.76527480057788, 34.44478966412019], [71.76534316175044, 34.44490990602208], [71.76539717283883, 34.44488889385309], [71.7653288150751, 34.44476856193918]]]]}, "properties": {"id": "8J6HCQV8+W4PH", "height": 2.546585083007812, "hmax": 0.0, "ratio": 0.0, "vulnClass": "none"}}, {"type": "Feature", "geometry": {"type": "MultiPolygon", "coordinates": [[[[71.76532024365846, 34.44486946139966], [71.76527479710364, 34.444789754158705], [71.76522730257763, 34.444808234939416], [71.7652727456201, 34.4448880322344], [71.76532024365846, 34.44486946139966]]]]}, "properties": {"id": "8J6HCQV8+W4JH", "height": 2.968025922775269, "hmax": 0.0, "ratio": 0.0, "vulnClass": "none"}}, {"type": "Feature", "geometry": {"type": "MultiPolygon", "coordinates": [[[[71.76500040723329, 34.444821063058484], [71.76491621141263, 34.4448546148998], [71.76502190307379, 34.445036503533714], [71.76522510341096, 34.44495544997616], [71.76520184194622, 34.444915446891926], [71.76508283762963, 34.444962948524015], [71.76500040723329, 34.444821063058484]]]]}, "properties": {"id": "8J6HCQV8+X2FF", "height": 2.863724946975708, "hmax": 0.0, "ratio": 0.0, "vulnClass": "none"}}, {"type": "Feature", "geometry": {"type": "MultiPolygon", "coordinates": [[[[71.77600933382324, 34.445425435113904], [71.77574631922079, 34.445276987085094], [71.7756900779873, 34.445344722958644], [71.77595309268307, 34.44549317111367], [71.77600933382324, 34.445425435113904]]]]}, "properties": {"id": "Pakistan_123102132_508292", "height": 3.673624277114868, "hmax": 0.0, "ratio": 0.0, "vulnClass": "none"}}, {"type": "Feature", "geometry": {"type": "MultiPolygon", "coordinates": [[[[71.77685486075947, 34.444874427327484], [71.77711597848155, 34.44491376454175], [71.77714271100149, 34.44479288330386], [71.77709187173933, 34.44478523270625], [71.77710320204899, 34.44473388665706], [71.77704868487572, 34.444725688343034], [71.777055278716, 34.444695668476335], [71.77713218616891, 34.444707251628905], [71.77714351643971, 34.44465590557344], [71.77706303976717, 34.444643777596745], [71.77705500463777, 34.44468015872843], [71.77690291839424, 34.44465730828765], [71.77685486075947, 34.444874427327484]]]]}, "properties": {"id": "Pakistan_123102132_480592", "height": 2.65542459487915, "hmax": 0.0, "ratio": 0.0, "vulnClass": "none"}}, {"type": "Feature", "geometry": {"type": "MultiPolygon", "coordinates": [[[[71.76592153515934, 34.44429169374874], [71.76587430149112, 34.44428368332021], [71.7658632076143, 34.44432872524502], [71.76591044130615, 34.44433673567918], [71.76592153515934, 34.44429169374874]]]]}, "properties": {"id": "8J6HCQV8+P9CG", "height": 2.601016521453857, "hmax": 0.0, "ratio": 0.0, "vulnClass": "none"}}, {"type": "Feature", "geometry": {"type": "MultiPolygon", "coordinates": [[[[71.77486135941922, 34.44643695100792], [71.77515909985085, 34.446542514262354], [71.77519610015408, 34.446471566754724], [71.77489825122736, 34.44636600073129], [71.77486135941922, 34.44643695100792]]]]}, "properties": {"id": "Pakistan_123102132_132349", "height": 3.946271419525146, "hmax": 0.0, "ratio": 0.0, "vulnClass": "none"}}, {"type": "Feature", "geometry": {"type": "MultiPolygon", "coordinates": [[[[71.77716244595939, 34.446317066913416], [71.77716556829134, 34.44626415233322], [71.7771121224224, 34.44626202105632], [71.77710900005697, 34.446314935633275], [71.77716244595939, 34.446317066913416]]]]}, "properties": {"id": "Pakistan_123102132_514361", "height": 2.580713748931885, "hmax": 0.0, "ratio": 0.0, "vulnClass": "none"}}, {"type": "Feature", "geometry": {"type": "MultiPolygon", "coordinates": [[[[71.77730057997198, 34.44592467645718], [71.77727443080298, 34.44602754692203], [71.77736175741997, 34.44604264958628], [71.7773766218247, 34.445984276421825], [71.77734689938882, 34.44597916593565], [71.77735818406823, 34.44593466861454], [71.77730057997198, 34.44592467645718]]]]}, "properties": {"id": "Pakistan_123102132_107461", "height": 3.108532667160034, "hmax": 0.0, "ratio": 0.0, "vulnClass": "none"}}, {"type": "Feature", "geometry": {"type": "MultiPolygon", "coordinates": [[[[71.77693443824043, 34.445999377886665], [71.77723873760158, 34.44600794805777], [71.77724221922458, 34.445923046482335], [71.7769380323177, 34.445914389165544], [71.77693443824043, 34.445999377886665]]]]}, "properties": {"id": "Pakistan_123102132_354177", "height": 4.273584365844727, "hmax": 0.0, "ratio": 0.0, "vulnClass": "none"}}, {"type": "Feature", "geometry": {"type": "MultiPolygon", "coordinates": [[[[71.77745322175096, 34.44581144345599], [71.77735939360517, 34.44579283448295], [71.77732093188652, 34.44592449238712], [71.77741465148075, 34.445943098529675], [71.77745322175096, 34.44581144345599]]]]}, "properties": {"id": "Pakistan_123102132_98163", "height": 3.814805030822754, "hmax": 0.0, "ratio": 0.0, "vulnClass": "none"}}, {"type": "Feature", "geometry": {"type": "MultiPolygon", "coordinates": [[[[71.77738592235777, 34.446053652211006], [71.77737057615306, 34.4460877674512], [71.77751434548294, 34.44613175898546], [71.77752969164007, 34.44609764372454], [71.77738592235777, 34.446053652211006]]]]}, "properties": {"id": "Pakistan_123102132_599988", "height": 3.559502124786377, "hmax": 0.0, "ratio": 0.0, "vulnClass": "none"}}, {"type": "Feature", "geometry": {"type": "MultiPolygon", "coordinates": [[[[71.77679000409222, 34.44879079522172], [71.77686515339806, 34.44893590618381], [71.77691379179285, 34.44891880301292], [71.77691743460004, 34.448846704323564], [71.77695989976988, 34.44883169149929], [71.77697641129286, 34.44886349275273], [71.7770302341963, 34.44884454346489], [71.77703242216674, 34.448801789040246], [71.77696951179173, 34.448799588166146], [71.77693531952299, 34.44881166472561], [71.7769142407077, 34.448810928219515], [71.77689195978826, 34.44876788861391], [71.77689259956698, 34.44875690953205], [71.77707899533547, 34.448691255724704], [71.7770139738402, 34.448565700144286], [71.77693856786347, 34.44856307939439], [71.776936372937, 34.44860601389542], [71.7769632122247, 34.44860690240594], [71.77696160031928, 34.44863750436417], [71.77673208040557, 34.448718333625166], [71.77668959676411, 34.448716851936815], [71.77661956110467, 34.44874150209837], [71.77658178318592, 34.448668580666094], [71.77653071909508, 34.44868652099674], [71.77657143428019, 34.448765108075754], [71.77648187659815, 34.448796633664685], [71.77652684163085, 34.448883534828816], [71.77679000409222, 34.44879079522172]]]]}, "properties": {"id": "Pakistan_123102132_609254", "height": 2.798465251922607, "hmax": 0.0, "ratio": 0.0, "vulnClass": "none"}}, {"type": "Feature", "geometry": {"type": "MultiPolygon", "coordinates": [[[[71.77693284991936, 34.44786576624596], [71.77692693438934, 34.44786398778885], [71.77688327686924, 34.447963782300576], [71.77696631869607, 34.44798850636659], [71.77700830216963, 34.44789263340685], [71.77708779534132, 34.44791627230836], [71.7771126077559, 34.447859513666], [71.77702956600253, 34.44783478970388], [71.77704412074642, 34.44780146482027], [71.7769705432208, 34.447779604351744], [71.77693284991936, 34.44786576624596]]]]}, "properties": {"id": "Pakistan_123102132_150788", "height": 2.521699190139771, "hmax": 0.0, "ratio": 0.0, "vulnClass": "none"}}, {"type": "Feature", "geometry": {"type": "MultiPolygon", "coordinates": [[[[71.77703371334708, 34.448049500751885], [71.77708724680716, 34.44806353168334], [71.77715843737613, 34.44787865900423], [71.77710479532905, 34.447864625241664], [71.77703371334708, 34.448049500751885]]]]}, "properties": {"id": "Pakistan_123102132_557002", "height": 2.536340236663818, "hmax": 0.0, "ratio": 0.0, "vulnClass": "none"}}, {"type": "Feature", "geometry": {"type": "MultiPolygon", "coordinates": [[[[71.7767796236301, 34.44774509341357], [71.7768771093071, 34.44756677332414], [71.77678679215519, 34.44753320465409], [71.7766893063367, 34.44771152466359], [71.7767796236301, 34.44774509341357]]]]}, "properties": {"id": "Pakistan_123102132_341886", "height": 3.91240930557251, "hmax": 0.0, "ratio": 0.0, "vulnClass": "none"}}]}