{"type": "FeatureCollection", "features": [{"type": "Feature", "geometry": {"type": "MultiPolygon", "coordinates": [[[[71.97576279622494, 34.08664556781587], [71.97570041944894, 34.08662654376209], [71.97568216709409, 34.0866675588963], [71.97574454068956, 34.08668667302259], [71.97576279622494, 34.08664556781587]]]]}, "properties": {"id": "Pakistan_123102310_886571", "height": 4.380924224853516, "hmax": 0.0, "ratio": 0.0, "vulnClass": "none"}}, {"type": "Feature", "geometry": {"type": "MultiPolygon", "coordinates": [[[[71.97573327781153, 34.08669568006079], [71.97569611742902, 34.08668349695661], [71.97568511225178, 34.08670657231715], [71.9756016900423, 34.08667918746765], [71.97558601207214, 34.08671179276827], [71.97570659470874, 34.08675136074304], [71.97573327781153, 34.08669568006079]]]]}, "properties": {"id": "Pakistan_123102310_69501", "height": 5.14247989654541, "hmax": 0.0, "ratio": 0.0, "vulnClass": "none"}}, {"type": "Feature", "geometry": {"type": "MultiPolygon", "coordinates": [[[[71.98022425578895, 34.0869620919704], [71.98022688563205, 34.08701308634135], [71.98037408895676, 34.087007873569334], [71.98037145902492, 34.086956879196734], [71.98022425578895, 34.0869620919704]]]]}, "properties": {"id": "Pakistan_123102310_327654", "height": 2.51470685005188, "hmax": 0.0, "ratio": 0.0, "vulnClass": "none"}}, {"type": "Feature", "geometry": {"type": "MultiPolygon", "coordinates": [[[[71.97998906154939, 34.08718427269547], [71.98002295772483, 34.0873584477588], [71.98045327490117, 34.087300886768034], [71.98042834424666, 34.08717317467849], [71.98042159458423, 34.087174090342636], [71.98040438055786, 34.08708532870391], [71.98028931806043, 34.08710070681381], [71.98031277578073, 34.08722108127056], [71.98017942531335, 34.08723889391773], [71.98016421208831, 34.0871609082539], [71.97998906154939, 34.08718427269547]]]]}, "properties": {"id": "Pakistan_123102310_929177", "height": 4.581124782562256, "hmax": 0.0, "ratio": 0.0, "vulnClass": "none"}}, {"type": "Feature", "geometry": {"type": "MultiPolygon", "coordinates": [[[[71.97995483932277, 34.08703451781664], [71.97996927977032, 34.08710680560587], [71.97997298253901, 34.0871062657131], [71.97998502150138, 34.08716686622933], [71.98004141623234, 34.08715914937364], [71.98003184218022, 34.08711149966674], [71.98011915476637, 34.08709958562989], [71.98012715432927, 34.08713971489383], [71.98018615974121, 34.087131701630256], [71.98017787061791, 34.08709057369495], [71.98036175421558, 34.08706535055243], [71.98035539894424, 34.08703382514511], [71.98017793713092, 34.08705821470478], [71.98017104126986, 34.08702361119668], [71.98013184870747, 34.087028956924], [71.98012816217714, 34.0870107478891], [71.97995483932277, 34.08703451781664]]]]}, "properties": {"id": "Pakistan_123102310_488347", "height": 5.223268985748291, "hmax": 0.0, "ratio": 0.0, "vulnClass": "none"}}, {"type": "Feature", "geometry": {"type": "MultiPolygon", "coordinates": [[[[71.97879441270585, 34.08690933262902], [71.98013811494914, 34.08675201757614], [71.98010809047992, 34.086575594111316], [71.98003813667252, 34.08658378871348], [71.98004163171177, 34.0866043367066], [71.97876777751046, 34.08675345433509], [71.97879441270585, 34.08690933262902]]]]}, "properties": {"id": "Pakistan_123102310_426743", "height": 3.616447448730469, "hmax": 0.0, "ratio": 0.0, "vulnClass": "none"}}, {"type": "Feature", "geometry": {"type": "MultiPolygon", "coordinates": [[[[71.98009591518512, 34.086750528741334], [71.98010216082677, 34.08684001213931], [71.98031074667693, 34.086829999589476], [71.98030450081448, 34.08674051619022], [71.98009591518512, 34.086750528741334]]]]}, "properties": {"id": "Pakistan_123102310_583292", "height": 2.964527606964111, "hmax": 0.0, "ratio": 0.0, "vulnClass": "none"}}, {"type": "Feature", "geometry": {"type": "MultiPolygon", "coordinates": [[[[71.98676568474724, 34.09389000325539], [71.98674527327523, 34.09410196487354], [71.98686256128592, 34.094109621575406], [71.98690601988204, 34.0936571882226], [71.98673814581066, 34.09364612638192], [71.9867273232394, 34.093758807566346], [71.98663110114396, 34.093667385935156], [71.98669459180054, 34.09362162048116], [71.98671064018325, 34.09366708502879], [71.98671563868874, 34.09361474558532], [71.9870637118604, 34.093637622332515], [71.98701968489969, 34.093513408808896], [71.98694219757233, 34.09353223922178], [71.986850276565, 34.093444799409546], [71.98689608809751, 34.093411760468356], [71.98693105057141, 34.09304916952344], [71.98671377898135, 34.093034821871214], [71.98668596887664, 34.093324033128894], [71.98675396198631, 34.09332849664831], [71.98673991036195, 34.093474180375736], [71.98643734935752, 34.0934542229329], [71.98642853470172, 34.093546942044824], [71.98655576537159, 34.0935552938273], [71.98657379029208, 34.0936061252428], [71.98650187811114, 34.09362355984165], [71.98655963224, 34.0936784314274], [71.98597165132485, 34.09382111098951], [71.98595174160751, 34.09402803683736], [71.98621404025822, 34.09396434755715], [71.98629632107539, 34.09404253703594], [71.9863138390163, 34.093860251056654], [71.98676568474724, 34.09389000325539]]]]}, "properties": {"id": "Pakistan_123102310_220935", "height": 4.676369667053223, "hmax": 0.0, "ratio": 0.0, "vulnClass": "none"}}, {"type": "Feature", "geometry": {"type": "MultiPolygon", "coordinates": [[[[71.98620496876987, 34.092860887412414], [71.98620799238932, 34.09279092197993], [71.9860768174866, 34.09278688993979], [71.98607368550576, 34.09285685270522], [71.98620496876987, 34.092860887412414]]]]}, "properties": {"id": "Pakistan_123102310_144300", "height": 2.925766229629517, "hmax": 0.0, "ratio": 0.0, "vulnClass": "none"}}, {"type": "Feature", "geometry": {"type": "MultiPolygon", "coordinates": [[[[71.985984432982, 34.09419686263531], [71.9860690296839, 34.0941883933676], [71.98606188766388, 34.09413927136768], [71.98597729420618, 34.09414765057045], [71.985984432982, 34.09419686263531]]]]}, "properties": {"id": "Pakistan_123102310_502588", "height": 2.54240870475769, "hmax": 0.0, "ratio": 0.0, "vulnClass": "none"}}, {"type": "Feature", "geometry": {"type": "MultiPolygon", "coordinates": [[[[71.9862619274763, 34.095641246874735], [71.98626901444712, 34.09577744382893], [71.98686603433795, 34.09575604468904], [71.98686121167499, 34.09566290064837], [71.98656665985823, 34.09567351747424], [71.98656439793345, 34.09563037448342], [71.9862619274763, 34.095641246874735]]]]}, "properties": {"id": "Pakistan_123102310_77654", "height": 3.168670177459717, "hmax": 0.0, "ratio": 0.0, "vulnClass": "none"}}, {"type": "Feature", "geometry": {"type": "MultiPolygon", "coordinates": [[[[71.9874464156914, 34.09662852459745], [71.98743638658219, 34.096242203915736], [71.98734140852797, 34.096243929102336], [71.9873515486567, 34.09663016236298], [71.9874464156914, 34.09662852459745]]]]}, "properties": {"id": "Pakistan_123102310_374861", "height": 2.953620910644531, "hmax": 0.0, "ratio": 0.0, "vulnClass": "none"}}, {"type": "Feature", "geometry": {"type": "MultiPolygon", "coordinates": [[[[71.98661818452159, 34.096985344201535], [71.98695506956739, 34.09698189618729], [71.98695371752261, 34.096888657073315], [71.98661683604232, 34.0968920150411], [71.98661818452159, 34.096985344201535]]]]}, "properties": {"id": "Pakistan_123102310_787430", "height": 2.938169956207275, "hmax": 0.0, "ratio": 0.0, "vulnClass": "none"}}, {"type": "Feature", "geometry": {"type": "MultiPolygon", "coordinates": [[[[71.98661479928967, 34.09690972283699], [71.98641950020516, 34.09690186313617], [71.98641509379539, 34.0969772030564], [71.98661039305178, 34.09698506277342], [71.98661479928967, 34.09690972283699]]]]}, "properties": {"id": "Pakistan_123102310_929242", "height": 2.938169956207275, "hmax": 0.0, "ratio": 0.0, "vulnClass": "none"}}, {"type": "Feature", "geometry": {"type": "MultiPolygon", "coordinates": [[[[71.98667407268016, 34.09730058764895], [71.98696966484546, 34.097291348385994], [71.98696572984225, 34.09720372475925], [71.98667003291848, 34.0972128713087], [71.98667407268016, 34.09730058764895]]]]}, "properties": {"id": "Pakistan_123102310_502595", "height": 3.850883722305298, "hmax": 0.0, "ratio": 0.0, "vulnClass": "none"}}]}