{"type": "FeatureCollection", "features": [{"type": "Feature", "geometry": {"type": "MultiPolygon", "coordinates": [[[[72.13909479582279, 34.11276812126965], [72.13897075629556, 34.11274720055554], [72.13896145557712, 34.11278520543857], [72.13908538382687, 34.11280621371497], [72.13909479582279, 34.11276812126965]]]]}, "properties": {"id": "8J6J447Q+4J65", "height": 2.563067197799683, "hmax": 0.0, "ratio": 0.0, "vulnClass": "none"}}, {"type": "Feature", "geometry": {"type": "MultiPolygon", "coordinates": [[[[72.13924727799693, 34.11269757612381], [72.1391571265567, 34.11268411630363], [72.13913951621382, 34.11276609881154], [72.13922967077147, 34.11277946857401], [72.13924727799693, 34.11269757612381]]]]}, "properties": {"id": "8J6J447Q+3MW6", "height": 3.451611042022705, "hmax": 0.0, "ratio": 0.0, "vulnClass": "none"}}, {"type": "Feature", "geometry": {"type": "MultiPolygon", "coordinates": [[[[72.13995072890462, 34.112737319395244], [72.13988246483554, 34.112724009594615], [72.13987100983566, 34.112764849010475], [72.13993927696909, 34.11277806874414], [72.13995072890462, 34.112737319395244]]]]}, "properties": {"id": "8J6J447Q+4X32", "height": 3.566516876220703, "hmax": 0.0, "ratio": 0.0, "vulnClass": "none"}}, {"type": "Feature", "geometry": {"type": "MultiPolygon", "coordinates": [[[[72.13986571182228, 34.11296394722475], [72.13983400581202, 34.11296248713976], [72.13983185780403, 34.11299407816975], [72.13986367515484, 34.112995450704865], [72.13986571182228, 34.11296394722475]]]]}, "properties": {"id": "8J6J447Q+5WX2", "height": 2.454207181930542, "hmax": 0.0, "ratio": 0.0, "vulnClass": "none"}}, {"type": "Feature", "geometry": {"type": "MultiPolygon", "coordinates": [[[[72.1394431508496, 34.11319523793936], [72.1394064793443, 34.11318996603458], [72.13939355278288, 34.113251955296754], [72.13943033260841, 34.11325722973091], [72.1394431508496, 34.11319523793936]]]]}, "properties": {"id": "8J6J447Q+7QMV", "height": 4.136241436004639, "hmax": 0.0, "ratio": 0.0, "vulnClass": "none"}}, {"type": "Feature", "geometry": {"type": "MultiPolygon", "coordinates": [[[[72.13871419299555, 34.11501207480354], [72.13862116379194, 34.114997105102944], [72.13857616985433, 34.11519049984933], [72.13866919925711, 34.11520546959403], [72.13871419299555, 34.11501207480354]]]]}, "properties": {"id": "8J6J448Q+2FR4", "height": 2.638521671295166, "hmax": 0.0, "ratio": 0.0, "vulnClass": "none"}}, {"type": "Feature", "geometry": {"type": "MultiPolygon", "coordinates": [[[[72.13840307788257, 34.11532249337364], [72.13837339326743, 34.115318916530164], [72.13836517794742, 34.11536650207195], [72.138394970876, 34.115370081443515], [72.13840307788257, 34.11532249337364]]]]}, "properties": {"id": "8J6J448Q+49JM", "height": 3.404422998428345, "hmax": 0.0, "ratio": 0.0, "vulnClass": "none"}}, {"type": "Feature", "geometry": {"type": "MultiPolygon", "coordinates": [[[[72.13845748669546, 34.11532890035633], [72.13840307788257, 34.11532249337364], [72.1383819034898, 34.11544585952848], [72.13862166420878, 34.11547425688267], [72.13863462309142, 34.115398476236706], [72.13844927142084, 34.11537648590604], [72.13845748669546, 34.11532890035633]]]]}, "properties": {"id": "8J6J448Q+599H", "height": 3.772910833358765, "hmax": 0.0, "ratio": 0.0, "vulnClass": "none"}}, {"type": "Feature", "geometry": {"type": "MultiPolygon", "coordinates": [[[[72.13842062040332, 34.11546443084517], [72.1382450943934, 34.11544997109997], [72.13823892955419, 34.11550102997425], [72.13821298975608, 34.11549889259924], [72.13819406902688, 34.11565827931081], [72.13839564360633, 34.11567487902016], [72.13842062040332, 34.11546443084517]]]]}, "properties": {"id": "8J6J448Q+68FH", "height": 2.832185745239258, "hmax": 0.0, "ratio": 0.0, "vulnClass": "none"}}, {"type": "Feature", "geometry": {"type": "MultiPolygon", "coordinates": [[[[72.13900272963242, 34.11644896017344], [72.13895020871341, 34.11644440033697], [72.13893146304389, 34.11659540772719], [72.13898409538893, 34.11659988002643], [72.13900272963242, 34.11644896017344]]]]}, "properties": {"id": "8J6J448Q+JH4X", "height": 2.82396411895752, "hmax": 0.0, "ratio": 0.0, "vulnClass": "none"}}, {"type": "Feature", "geometry": {"type": "MultiPolygon", "coordinates": [[[[72.13783460121485, 34.11672442999615], [72.13774736177695, 34.11671770771268], [72.13771828419658, 34.11697899219461], [72.13780563219731, 34.116985717037984], [72.13783460121485, 34.11672442999615]]]]}, "properties": {"id": "8J6J448Q+P4R5", "height": 2.711246252059937, "hmax": 0.0, "ratio": 0.0, "vulnClass": "none"}}, {"type": "Feature", "geometry": {"type": "MultiPolygon", "coordinates": [[[[72.13844627865281, 34.11668713143568], [72.13819219989935, 34.11667183142674], [72.13818897820926, 34.116709527247465], [72.13844294877492, 34.11672482474339], [72.13844627865281, 34.11668713143568]]]]}, "properties": {"id": "8J6J448Q+M8GR", "height": 3.000527381896973, "hmax": 0.0, "ratio": 0.0, "vulnClass": "none"}}, {"type": "Feature", "geometry": {"type": "MultiPolygon", "coordinates": [[[[72.13828313265529, 34.11662365078157], [72.13824753264794, 34.11662191915285], [72.13824540511344, 34.11665287958112], [72.13828100513365, 34.11665461121112], [72.13828313265529, 34.11662365078157]]]]}, "properties": {"id": "8J6J448Q+M82F", "height": 2.477784156799316, "hmax": 0.0, "ratio": 0.0, "vulnClass": "none"}}, {"type": "Feature", "geometry": {"type": "MultiPolygon", "coordinates": [[[[72.13775053817093, 34.11651098812304], [72.13774602181273, 34.116542073112875], [72.13783210823358, 34.11655084184619], [72.13783662456117, 34.11651975685163], [72.13775053817093, 34.11651098812304]]]]}, "properties": {"id": "8J6J448Q+J477", "height": 2.597024917602539, "hmax": 0.0, "ratio": 0.0, "vulnClass": "none"}}, {"type": "Feature", "geometry": {"type": "MultiPolygon", "coordinates": [[[[72.13773470321972, 34.11651774028409], [72.13773780865897, 34.1164867125322], [72.13762124177266, 34.11647867511786], [72.13761813932862, 34.11650961279007], [72.13773470321972, 34.11651774028409]]]]}, "properties": {"id": "8J6J448Q+H3VW", "height": 2.857172966003418, "hmax": 0.0, "ratio": 0.0, "vulnClass": "none"}}, {"type": "Feature", "geometry": {"type": "MultiPolygon", "coordinates": [[[[72.13766972068576, 34.11640381324582], [72.13762895586831, 34.116400969374425], [72.13762113347391, 34.116478672591825], [72.13766200662684, 34.11648151899368], [72.13766972068576, 34.11640381324582]]]]}, "properties": {"id": "8J6J448Q+H3CP", "height": 2.870050430297852, "hmax": 0.0, "ratio": 0.0, "vulnClass": "none"}}, {"type": "Feature", "geometry": {"type": "MultiPolygon", "coordinates": [[[[72.13802241857913, 34.1237647507677], [72.13792327351865, 34.12372836333609], [72.13787245775754, 34.12382417449858], [72.138091408634, 34.12390464287873], [72.13813319299189, 34.123825928897105], [72.13801338430599, 34.12378193811317], [72.13802241857913, 34.1237647507677]]]]}, "properties": {"id": "8J6J44FQ+G5HQ", "height": 2.667827367782593, "hmax": 0.0, "ratio": 0.0, "vulnClass": "none"}}, {"type": "Feature", "geometry": {"type": "MultiPolygon", "coordinates": [[[[72.13770146934917, 34.1245874133184], [72.13757257604098, 34.124546004675686], [72.1375391539698, 34.124617792027024], [72.13766804432764, 34.12465929078367], [72.13770146934917, 34.1245874133184]]]]}, "properties": {"id": "8J6J44FQ+R2X5", "height": 3.584429740905762, "hmax": 0.0, "ratio": 0.0, "vulnClass": "none"}}, {"type": "Feature", "geometry": {"type": "MultiPolygon", "coordinates": [[[[72.13808417301159, 34.124710644257235], [72.13770146934917, 34.1245874133184], [72.13766804432764, 34.12465929078367], [72.13805074825054, 34.124782521839634], [72.13808417301159, 34.124710644257235]]]]}, "properties": {"id": "8J6J44FQ+V5C6", "height": 3.786901950836182, "hmax": 0.0, "ratio": 0.0, "vulnClass": "none"}}, {"type": "Feature", "geometry": {"type": "MultiPolygon", "coordinates": [[[[72.13786236151681, 34.11792951081781], [72.13776822708462, 34.11791830072123], [72.13776070139177, 34.11796148514922], [72.137854832833, 34.11797278532852], [72.13786236151681, 34.11792951081781]]]]}, "properties": {"id": "8J6J449Q+54FX", "height": 2.589380502700806, "hmax": 0.0, "ratio": 0.0, "vulnClass": "none"}}, {"type": "Feature", "geometry": {"type": "MultiPolygon", "coordinates": [[[[72.137854832833, 34.11797278532852], [72.13776070139177, 34.11796148514922], [72.13772756898761, 34.118153353166214], [72.13792641543323, 34.118177101807795], [72.13793218390641, 34.118144243111935], [72.13782736388204, 34.118131702091716], [72.137854832833, 34.11797278532852]]]]}, "properties": {"id": "8J6J449Q+64M5", "height": 2.933972358703613, "hmax": 0.0, "ratio": 0.0, "vulnClass": "none"}}, {"type": "Feature", "geometry": {"type": "MultiPolygon", "coordinates": [[[[72.14113364252081, 34.11962612983668], [72.14108740711205, 34.11962153700426], [72.1410683568187, 34.11975270563762], [72.14117216625473, 34.119763147057775], [72.14117835441002, 34.1197210129721], [72.14126498911544, 34.11972970201399], [72.14126962488673, 34.11969825907531], [72.14112519969672, 34.119683716422436], [72.14113364252081, 34.11962612983668]]]]}, "properties": {"id": "8J6J449R+VFJ4", "height": 2.446362257003784, "hmax": 0.0, "ratio": 0.0, "vulnClass": "none"}}, {"type": "Feature", "geometry": {"type": "MultiPolygon", "coordinates": [[[[72.15065708783835, 34.114807665202235], [72.15055629491823, 34.11479144251382], [72.15051844782738, 34.11495354744643], [72.15078773088915, 34.114996939710466], [72.15079647008481, 34.11495937149249], [72.15062808849208, 34.114932204486976], [72.15065708783835, 34.114807665202235]]]]}, "properties": {"id": "8J6J4572+X695", "height": 2.689321994781494, "hmax": 0.0, "ratio": 0.0, "vulnClass": "none"}}, {"type": "Feature", "geometry": {"type": "MultiPolygon", "coordinates": [[[[72.15089379624091, 34.114817307522664], [72.15084254268888, 34.11480728332391], [72.15083270294437, 34.11484212162042], [72.15088395349282, 34.11485223589993], [72.15089379624091, 34.114817307522664]]]]}, "properties": {"id": "8J6J4572+W8Q4", "height": 3.040227651596069, "hmax": 0.0, "ratio": 0.0, "vulnClass": "none"}}, {"type": "Feature", "geometry": {"type": "MultiPolygon", "coordinates": [[[[72.15057709508821, 34.11343541058177], [72.15041723406998, 34.113419258699686], [72.15040582584696, 34.1134976009992], [72.15056569003153, 34.11351366282767], [72.15057709508821, 34.11343541058177]]]]}, "properties": {"id": "8J6J4572+95QP", "height": 2.950595855712891, "hmax": 0.0, "ratio": 0.0, "vulnClass": "none"}}, {"type": "Feature", "geometry": {"type": "MultiPolygon", "coordinates": [[[[72.1495468362161, 34.11429392327408], [72.1494991303382, 34.114281546988494], [72.14944054953787, 34.11443812179706], [72.14948815021896, 34.11445040551818], [72.1495468362161, 34.11429392327408]]]]}, "properties": {"id": "8J6J447X+PQXQ", "height": 3.035679817199707, "hmax": 0.0, "ratio": 0.0, "vulnClass": "none"}}, {"type": "Feature", "geometry": {"type": "MultiPolygon", "coordinates": [[[[72.14992190138027, 34.1144469576955], [72.14988535131275, 34.11444448623917], [72.14988339556275, 34.11446400246505], [72.14991994563854, 34.11446647392236], [72.14992190138027, 34.1144469576955]]]]}, "properties": {"id": "8J6J447X+QXJ9", "height": 3.21319580078125, "hmax": 0.0, "ratio": 0.0, "vulnClass": "none"}}, {"type": "Feature", "geometry": {"type": "MultiPolygon", "coordinates": [[[[72.14983060095862, 34.1143223291446], [72.14978096078681, 34.11430945731542], [72.14976286061638, 34.11435789598327], [72.14981239553944, 34.114370675230234], [72.14983060095862, 34.1143223291446]]]]}, "properties": {"id": "8J6J447X+PWMM", "height": 2.440163612365723, "hmax": 0.0, "ratio": 0.0, "vulnClass": "none"}}, {"type": "Feature", "geometry": {"type": "MultiPolygon", "coordinates": [[[[72.14977353723383, 34.114304597321706], [72.14972753023213, 34.11429649743423], [72.14968557507036, 34.11446148148306], [72.14973169045257, 34.11446958390565], [72.14977353723383, 34.114304597321706]]]]}, "properties": {"id": "8J6J447X+QV57", "height": 2.78188681602478, "hmax": 0.0, "ratio": 0.0, "vulnClass": "none"}}, {"type": "Feature", "geometry": {"type": "MultiPolygon", "coordinates": [[[[72.15009180191645, 34.114344891778444], [72.14979643345885, 34.11426825943401], [72.14978096078681, 34.11430945731542], [72.15007632936843, 34.11438608970325], [72.15009180191645, 34.114344891778444]]]]}, "properties": {"id": "8J6J447X+PXM5", "height": 2.648416757583618, "hmax": 0.0, "ratio": 0.0, "vulnClass": "none"}}, {"type": "Feature", "geometry": {"type": "MultiPolygon", "coordinates": [[[[72.15007632936843, 34.11438608970325], [72.14994406470203, 34.114351737527784], [72.1499258563149, 34.114400173708624], [72.15005812407027, 34.11443443583131], [72.15007632936843, 34.11438608970325]]]]}, "properties": {"id": "8J6J4572+Q22J", "height": 3.545567512512207, "hmax": 0.0, "ratio": 0.0, "vulnClass": "none"}}, {"type": "Feature", "geometry": {"type": "MultiPolygon", "coordinates": [[[[72.15031320693808, 34.11445523330057], [72.1502637620328, 34.11444299721835], [72.1502351729231, 34.11452301388232], [72.15028461786922, 34.11453524997809], [72.15031320693808, 34.11445523330057]]]]}, "properties": {"id": "8J6J4572+Q4RH", "height": 2.523802518844604, "hmax": 0.0, "ratio": 0.0, "vulnClass": "none"}}, {"type": "Feature", "geometry": {"type": "MultiPolygon", "coordinates": [[[[72.15014949399604, 34.114489202810084], [72.15017818789413, 34.114412523997274], [72.15007632936843, 34.11438608970325], [72.15002586061804, 34.114520587176386], [72.14994667134269, 34.11450008796437], [72.14993274565515, 34.11453717508258], [72.15005480700086, 34.114568766246606], [72.15009039909226, 34.1144738579004], [72.15014949399604, 34.114489202810084]]]]}, "properties": {"id": "8J6J4572+Q2W2", "height": 2.607335090637207, "hmax": 0.0, "ratio": 0.0, "vulnClass": "none"}}, {"type": "Feature", "geometry": {"type": "MultiPolygon", "coordinates": [[[[72.15022618341374, 34.11461646666679], [72.15001541853555, 34.11459273178869], [72.15000872707222, 34.11463386318624], [72.15021949204903, 34.11465759808078], [72.15022618341374, 34.11461646666679]]]]}, "properties": {"id": "8J6J4572+V255", "height": 2.444534540176392, "hmax": 0.0, "ratio": 0.0, "vulnClass": "none"}}, {"type": "Feature", "geometry": {"type": "MultiPolygon", "coordinates": [[[[72.15051587873118, 34.114645820011226], [72.15036842754549, 34.114576319367885], [72.15034608861491, 34.11460897432645], [72.1504935368119, 34.114678565073945], [72.15051587873118, 34.114645820011226]]]]}, "properties": {"id": "8J6J4572+V535", "height": 3.039963245391846, "hmax": 0.0, "ratio": 0.0, "vulnClass": "none"}}, {"type": "Feature", "geometry": {"type": "MultiPolygon", "coordinates": [[[[72.15028554615246, 34.11461414914787], [72.15022756269585, 34.11460766440279], [72.15021078617173, 34.11471031152785], [72.15026876667255, 34.1147168863599], [72.15028554615246, 34.11461414914787]]]]}, "properties": {"id": "8J6J4572+V39H", "height": 2.471995115280151, "hmax": 0.0, "ratio": 0.0, "vulnClass": "none"}}, {"type": "Feature", "geometry": {"type": "MultiPolygon", "coordinates": [[[[72.14970948981905, 34.11455299405604], [72.14966549252846, 34.11454313790178], [72.14964867611108, 34.114595302343204], [72.1496927817234, 34.11460516101998], [72.14970948981905, 34.11455299405604]]]]}, "properties": {"id": "8J6J447X+RVFW", "height": 3.493650197982788, "hmax": 0.0, "ratio": 0.0, "vulnClass": "none"}}, {"type": "Feature", "geometry": {"type": "MultiPolygon", "coordinates": [[[[72.15036337409836, 34.11514664492806], [72.15035377183433, 34.11514534021046], [72.15034583531326, 34.11518482009113], [72.15056342955094, 34.11521502321952], [72.15057708341811, 34.11514728012887], [72.15036909463021, 34.115118291674364], [72.15036337409836, 34.11514664492806]]]]}, "properties": {"id": "8J6J4582+358Q", "height": 2.533044815063477, "hmax": 0.0, "ratio": 0.0, "vulnClass": "none"}}, {"type": "Feature", "geometry": {"type": "MultiPolygon", "coordinates": [[[[72.15042327048614, 34.115480403438816], [72.1503459553861, 34.11547184722886], [72.15034004076121, 34.11550921055605], [72.15041724759543, 34.11551776425671], [72.15042327048614, 34.115480403438816]]]]}, "properties": {"id": "8J6J4582+55RJ", "height": 2.648366451263428, "hmax": 0.0, "ratio": 0.0, "vulnClass": "none"}}, {"type": "Feature", "geometry": {"type": "MultiPolygon", "coordinates": [[[[72.15054028145906, 34.11530084546913], [72.15040693109535, 34.115272959045186], [72.1503958272608, 34.11530993144621], [72.1504960303422, 34.11533082817003], [72.15048358408491, 34.11537227670165], [72.15051662615934, 34.11537917383031], [72.15054028145906, 34.11530084546913]]]]}, "properties": {"id": "8J6J4582+45HJ", "height": 2.512401103973389, "hmax": 0.0, "ratio": 0.0, "vulnClass": "none"}}, {"type": "Feature", "geometry": {"type": "MultiPolygon", "coordinates": [[[[72.14826629393419, 34.11676589943418], [72.14823566920474, 34.11676446660971], [72.14823391319119, 34.11679092865682], [72.14826454095596, 34.11679227140675], [72.14826629393419, 34.11676589943418]]]]}, "properties": {"id": "8J6J448X+P862", "height": 2.642933130264282, "hmax": 0.0, "ratio": 0.0, "vulnClass": "none"}}, {"type": "Feature", "geometry": {"type": "MultiPolygon", "coordinates": [[[[72.14508833839697, 34.116688854127304], [72.14503933690266, 34.116656974482645], [72.14501887812538, 34.11667876450362], [72.14506788265265, 34.11671055408141], [72.14508833839697, 34.116688854127304]]]]}, "properties": {"id": "8J6J448W+M2F8", "height": 2.811731100082397, "hmax": 0.0, "ratio": 0.0, "vulnClass": "none"}}, {"type": "Feature", "geometry": {"type": "MultiPolygon", "coordinates": [[[[72.14542333850669, 34.11659586418168], [72.14537248297805, 34.116567547368426], [72.14532621962044, 34.11662506589687], [72.14528844870364, 34.116604084783546], [72.1452667313211, 34.1166310740195], [72.14535535779602, 34.116680371982305], [72.14542333850669, 34.11659586418168]]]]}, "properties": {"id": "8J6J448W+J4XR", "height": 3.782596111297607, "hmax": 0.0, "ratio": 0.0, "vulnClass": "none"}}, {"type": "Feature", "geometry": {"type": "MultiPolygon", "coordinates": [[[[72.14539105026232, 34.11677928074008], [72.14532044235241, 34.11673563039758], [72.14527967181598, 34.11678128730275], [72.14535027973946, 34.11682493766931], [72.14539105026232, 34.11677928074008]]]]}, "properties": {"id": "8J6J448W+P488", "height": 3.335412740707397, "hmax": 0.0, "ratio": 0.0, "vulnClass": "none"}}, {"type": "Feature", "geometry": {"type": "MultiPolygon", "coordinates": [[[[72.14507282058008, 34.116757093976624], [72.14502130618973, 34.11671614129742], [72.14493286995027, 34.11679332189066], [72.14498449566858, 34.11683418705117], [72.14507282058008, 34.116757093976624]]]]}, "properties": {"id": "8J6J448W+P262", "height": 2.479041814804077, "hmax": 0.0, "ratio": 0.0, "vulnClass": "none"}}, {"type": "Feature", "geometry": {"type": "MultiPolygon", "coordinates": [[[[72.14333133237356, 34.11537429932232], [72.14334114270771, 34.11533720739214], [72.14328846997476, 34.115327507594195], [72.14327855132147, 34.115364596998134], [72.14333133237356, 34.11537429932232]]]]}, "properties": {"id": "8J6J448V+48V5", "height": 2.658202886581421, "hmax": 0.0, "ratio": 0.0, "vulnClass": "none"}}, {"type": "Feature", "geometry": {"type": "MultiPolygon", "coordinates": [[[[72.14334404246691, 34.11355996338653], [72.14327286359168, 34.11355271750126], [72.1432659780647, 34.11359952310636], [72.14331404232667, 34.1136044280398], [72.14331770662135, 34.113579272552066], [72.14334092956166, 34.113581616029606], [72.14334404246691, 34.11355996338653]]]]}, "properties": {"id": "8J6J447V+C8M4", "height": 3.263548374176025, "hmax": 0.0, "ratio": 0.0, "vulnClass": "none"}}, {"type": "Feature", "geometry": {"type": "MultiPolygon", "coordinates": [[[[72.14413727885147, 34.11362439931869], [72.14416150939196, 34.11357745640379], [72.14413741555299, 34.11356878261769], [72.14411318500234, 34.11361572552733], [72.14413727885147, 34.11362439931869]]]]}, "properties": {"id": "8J6J447V+CMJV", "height": 2.599722385406494, "hmax": 0.0, "ratio": 0.0, "vulnClass": "none"}}, {"type": "Feature", "geometry": {"type": "MultiPolygon", "coordinates": [[[[72.14377407616122, 34.11368941555447], [72.14373450369276, 34.11367371066621], [72.14369547017877, 34.11374185377492], [72.14373504570028, 34.11375746860172], [72.14377407616122, 34.11368941555447]]]]}, "properties": {"id": "8J6J447V+FFQP", "height": 4.21201229095459, "hmax": 0.0, "ratio": 0.0, "vulnClass": "none"}}, {"type": "Feature", "geometry": {"type": "MultiPolygon", "coordinates": [[[[72.14674363034088, 34.11331109838977], [72.1466882512651, 34.11331422799874], [72.14669169273071, 34.11335694695315], [72.14674706880739, 34.11335390741942], [72.14674363034088, 34.11331109838977]]]]}, "properties": {"id": "8J6J447W+8MP9", "height": 3.905218124389648, "hmax": 0.0, "ratio": 0.0, "vulnClass": "none"}}, {"type": "Feature", "geometry": {"type": "MultiPolygon", "coordinates": [[[[72.144908832285, 34.112651289534675], [72.14478104090166, 34.112638761086416], [72.14477264929211, 34.11269815216603], [72.14490044379136, 34.1127105905522], [72.144908832285, 34.112651289534675]]]]}, "properties": {"id": "8J6J447V+3W8X", "height": 3.306683540344238, "hmax": 0.0, "ratio": 0.0, "vulnClass": "none"}}, {"type": "Feature", "geometry": {"type": "MultiPolygon", "coordinates": [[[[72.14524785231859, 34.112828289390166], [72.14500020020687, 34.11280909672531], [72.14498996025985, 34.1129008972791], [72.14503211652, 34.11290422175842], [72.14503721072971, 34.11285908711866], [72.14524259541331, 34.11287504288038], [72.14524785231859, 34.112828289390166]]]]}, "properties": {"id": "8J6J447W+42QV", "height": 3.059449672698975, "hmax": 0.0, "ratio": 0.0, "vulnClass": "none"}}, {"type": "Feature", "geometry": {"type": "MultiPolygon", "coordinates": [[[[72.14482070461654, 34.11299981594729], [72.14462738748603, 34.11293762506091], [72.14459221882623, 34.11301334050475], [72.14478553912448, 34.1130754413781], [72.14482070461654, 34.11299981594729]]]]}, "properties": {"id": "8J6J447V+6V48", "height": 2.841051816940308, "hmax": 0.0, "ratio": 0.0, "vulnClass": "none"}}, {"type": "Feature", "geometry": {"type": "MultiPolygon", "coordinates": [[[[72.14399363165094, 34.11336792742888], [72.14406490517007, 34.11326925392465], [72.144015874105, 34.113244765179225], [72.1439446005536, 34.11334343865344], [72.14399363165094, 34.11336792742888]]]]}, "properties": {"id": "8J6J447V+8JC6", "height": 2.532432556152344, "hmax": 0.0, "ratio": 0.0, "vulnClass": "none"}}, {"type": "Feature", "geometry": {"type": "MultiPolygon", "coordinates": [[[[72.14395329201088, 34.11293041314388], [72.14385448786058, 34.1129163948085], [72.14384126919867, 34.11298072162279], [72.14394018171507, 34.11299474249261], [72.14395329201088, 34.11293041314388]]]]}, "properties": {"id": "8J6J447V+5HJ8", "height": 2.75941014289856, "hmax": 0.0, "ratio": 0.0, "vulnClass": "none"}}, {"type": "Feature", "geometry": {"type": "MultiPolygon", "coordinates": [[[[72.14366278552731, 34.11298341874806], [72.14367390111605, 34.11293328602542], [72.14357589448376, 34.11291811413424], [72.14356466751514, 34.112968334399824], [72.14366278552731, 34.11298341874806]]]]}, "properties": {"id": "8J6J447V+5CQ5", "height": 2.485592842102051, "hmax": 0.0, "ratio": 0.0, "vulnClass": "none"}}, {"type": "Feature", "geometry": {"type": "MultiPolygon", "coordinates": [[[[72.14432167303481, 34.11280800382082], [72.14426061834453, 34.11279621638034], [72.14422684339405, 34.11291748771543], [72.14428789816445, 34.11292927517672], [72.14432167303481, 34.11280800382082]]]]}, "properties": {"id": "8J6J447V+4PRH", "height": 2.946993827819824, "hmax": 0.0, "ratio": 0.0, "vulnClass": "none"}}, {"type": "Feature", "geometry": {"type": "MultiPolygon", "coordinates": [[[[72.14412497562772, 34.112707782173096], [72.14407725789229, 34.11270225461442], [72.14407306755446, 34.11272694716496], [72.14412078530327, 34.11273247472593], [72.14412497562772, 34.112707782173096]]]]}, "properties": {"id": "8J6J447V+3JQJ", "height": 2.575654983520508, "hmax": 0.0, "ratio": 0.0, "vulnClass": "none"}}, {"type": "Feature", "geometry": {"type": "MultiPolygon", "coordinates": [[[[72.14429678172549, 34.11267482031646], [72.14425956553218, 34.11266962733452], [72.1442435489076, 34.11274948430113], [72.14436426103038, 34.112766265728354], [72.14438027451729, 34.11268649881573], [72.14434888198151, 34.112682162532735], [72.14435497763259, 34.11265237599967], [72.14430287739397, 34.112645033786855], [72.14429678172549, 34.11267482031646]]]]}, "properties": {"id": "8J6J447V+3PPC", "height": 2.61345100402832, "hmax": 0.0, "ratio": 0.0, "vulnClass": "none"}}, {"type": "Feature", "geometry": {"type": "MultiPolygon", "coordinates": [[[[72.1440748177562, 34.112716801431304], [72.14399147492291, 34.11270710941882], [72.14397018226073, 34.11283426018824], [72.14391037182303, 34.1128273693964], [72.14390398208664, 34.11286589318871], [72.144094745079, 34.1128880010794], [72.14410124302663, 34.11284947979303], [72.14405352521439, 34.112843952221255], [72.1440748177562, 34.112716801431304]]]]}, "properties": {"id": "8J6J447V+4JC7", "height": 3.280612707138062, "hmax": 0.0, "ratio": 0.0, "vulnClass": "none"}}, {"type": "Feature", "geometry": {"type": "MultiPolygon", "coordinates": [[[[72.14362344578053, 34.11297691410674], [72.14349272801009, 34.112961161097004], [72.14348093125032, 34.11302831547553], [72.14361164912025, 34.113044068502845], [72.14362344578053, 34.11297691410674]]]]}, "properties": {"id": "8J6J447V+6C34", "height": 2.485592842102051, "hmax": 0.0, "ratio": 0.0, "vulnClass": "none"}}, {"type": "Feature", "geometry": {"type": "MultiPolygon", "coordinates": [[[[72.14165597401389, 34.11323291374077], [72.14162890026357, 34.113232283170575], [72.14162806632764, 34.11325705378918], [72.14165514008583, 34.11325768435996], [72.14165597401389, 34.11323291374077]]]]}, "properties": {"id": "8J6J447R+7MRP", "height": 3.079402446746826, "hmax": 0.0, "ratio": 0.0, "vulnClass": "none"}}, {"type": "Feature", "geometry": {"type": "MultiPolygon", "coordinates": [[[[72.15018160934568, 34.11301903873053], [72.15014145231828, 34.113020720464775], [72.15014775164397, 34.11312687827228], [72.1501879056984, 34.1131252866142], [72.15018160934568, 34.11301903873053]]]]}, "properties": {"id": "8J6J4572+63FV", "height": 2.870741844177246, "hmax": 0.0, "ratio": 0.0, "vulnClass": "none"}}, {"type": "Feature", "geometry": {"type": "MultiPolygon", "coordinates": [[[[72.1495546132607, 34.125585041176706], [72.14951510679504, 34.12558331211511], [72.14951246674329, 34.125623185330504], [72.14955208153891, 34.12562491691], [72.1495546132607, 34.125585041176706]]]]}, "properties": {"id": "8J6J44GX+6RV2", "height": 3.415858030319214, "hmax": 0.0, "ratio": 0.0, "vulnClass": "none"}}, {"type": "Feature", "geometry": {"type": "MultiPolygon", "coordinates": [[[[72.14951614108462, 34.125313710346965], [72.14942363307188, 34.12531832223706], [72.1494284882032, 34.12538676546863], [72.14939070512587, 34.12538859208806], [72.149394149804, 34.1254377113733], [72.1494319359289, 34.12543579467852], [72.14943055575026, 34.12541556997856], [72.14952306084399, 34.12541104816408], [72.14951614108462, 34.125313710346965]]]]}, "properties": {"id": "8J6J44GX+4QWX", "height": 2.972019672393799, "hmax": 0.0, "ratio": 0.0, "vulnClass": "none"}}, {"type": "Feature", "geometry": {"type": "MultiPolygon", "coordinates": [[[[72.14819797402143, 34.12660299437769], [72.14811099895415, 34.126600972905166], [72.1481060132371, 34.126749326906705], [72.14830065144119, 34.12675385061515], [72.14830322434872, 34.12667728660681], [72.1481955614603, 34.12667478438925], [72.14819797402143, 34.12660299437769]]]]}, "properties": {"id": "8J6J44GX+M7GJ", "height": 4.103495121002197, "hmax": 0.0, "ratio": 0.0, "vulnClass": "none"}}, {"type": "Feature", "geometry": {"type": "MultiPolygon", "coordinates": [[[[72.14818170927037, 34.12510646885939], [72.14808272166384, 34.1251071430282], [72.14808456828466, 34.12528765756515], [72.14818355610214, 34.125286983405566], [72.14818170927037, 34.12510646885939]]]]}, "properties": {"id": "8J6J44GX+37CV", "height": 3.351030826568604, "hmax": 0.0, "ratio": 0.0, "vulnClass": "none"}}, {"type": "Feature", "geometry": {"type": "MultiPolygon", "coordinates": [[[[72.13856963548476, 34.1274506665186], [72.13852235137477, 34.12744812149483], [72.13851897112335, 34.12749050112808], [72.13856625525668, 34.12749304615433], [72.13856963548476, 34.1274506665186]]]]}, "properties": {"id": "8J6J44GQ+XCMV", "height": 2.448277711868286, "hmax": 0.0, "ratio": 0.0, "vulnClass": "none"}}, {"type": "Feature", "geometry": {"type": "MultiPolygon", "coordinates": [[[[72.13838744202869, 34.127340677039726], [72.13834600383717, 34.12733835843303], [72.1383347269358, 34.12747989407048], [72.13851919989877, 34.127490145881886], [72.13852272491174, 34.12744668788031], [72.1383795819682, 34.127438752164544], [72.13838744202869, 34.127340677039726]]]]}, "properties": {"id": "8J6J44GQ+X9FC", "height": 2.448277711868286, "hmax": 0.0, "ratio": 0.0, "vulnClass": "none"}}]}