{"type": "FeatureCollection", "features": [{"type": "Feature", "geometry": {"type": "MultiPolygon", "coordinates": [[[[72.2442292451536, 34.12611539594566], [72.24423693538137, 34.12620238157157], [72.24441832006309, 34.126191400108695], [72.24440222467624, 34.126009389604654], [72.244344551284, 34.12601287233493], [72.24435603703162, 34.126143214432204], [72.24429206337857, 34.12614709654331], [72.24428887424429, 34.12611177689424], [72.2442292451536, 34.12611539594566]]]]}, "properties": {"id": "Pakistan_123102310_45223", "height": 2.471146106719971, "hmax": 0.0, "ratio": 0.0, "vulnClass": "none"}}, {"type": "Feature", "geometry": {"type": "MultiPolygon", "coordinates": [[[[72.24609369448297, 34.12755608643961], [72.24609244017105, 34.12765152549724], [72.24617295931222, 34.127652250769465], [72.24617421353364, 34.127556811706576], [72.24609369448297, 34.12755608643961]]]]}, "properties": {"id": "Pakistan_123102310_670467", "height": 2.483686923980713, "hmax": 0.0, "ratio": 0.0, "vulnClass": "none"}}, {"type": "Feature", "geometry": {"type": "MultiPolygon", "coordinates": [[[[72.24623240096632, 34.113865366972725], [72.24644162639746, 34.113864021321085], [72.24644191816324, 34.11389512913907], [72.24651704405004, 34.11389465105443], [72.246514485941, 34.1136259507815], [72.24662180746576, 34.1136252934471], [72.24662129769915, 34.11357416774181], [72.24622973130086, 34.11357674137057], [72.24623240096632, 34.113865366972725]]]]}, "properties": {"id": "Pakistan_123102310_92253", "height": 3.296157836914062, "hmax": 0.0, "ratio": 0.0, "vulnClass": "none"}}, {"type": "Feature", "geometry": {"type": "MultiPolygon", "coordinates": [[[[72.2462327464876, 34.11415547294308], [72.24622908409403, 34.114051178979445], [72.24625316303421, 34.11405063746572], [72.24624982593596, 34.113953021796554], [72.24611847205261, 34.11395611445235], [72.24612547126068, 34.11415802407799], [72.2462327464876, 34.11415547294308]]]]}, "properties": {"id": "Pakistan_123102310_684788", "height": 4.804272651672363, "hmax": 0.0, "ratio": 0.0, "vulnClass": "none"}}, {"type": "Feature", "geometry": {"type": "MultiPolygon", "coordinates": [[[[72.24643386476382, 34.11392956552255], [72.2464297324299, 34.11389656856614], [72.2463873442552, 34.11390021512358], [72.2463914765726, 34.1139332120806], [72.24643386476382, 34.11392956552255]]]]}, "properties": {"id": "Pakistan_123102310_551734", "height": 3.439066171646118, "hmax": 0.0, "ratio": 0.0, "vulnClass": "none"}}, {"type": "Feature", "geometry": {"type": "MultiPolygon", "coordinates": [[[[72.24646128546411, 34.114096685214605], [72.24623365371596, 34.114104108593736], [72.24623597500967, 34.11415284092494], [72.246463606889, 34.11414541754797], [72.24646128546411, 34.114096685214605]]]]}, "properties": {"id": "Pakistan_123102310_708543", "height": 2.584643840789795, "hmax": 0.0, "ratio": 0.0, "vulnClass": "none"}}, {"type": "Feature", "geometry": {"type": "MultiPolygon", "coordinates": [[[[72.24606015761928, 34.114818339376065], [72.24582045477752, 34.114820262450266], [72.24582074592443, 34.11484469925079], [72.24585391993119, 34.11484445207331], [72.2458553782593, 34.11495987498999], [72.24608760247928, 34.11495796434278], [72.24608665537393, 34.11488023500377], [72.24606096036295, 34.11488046976938], [72.24606015761928, 34.114818339376065]]]]}, "properties": {"id": "Pakistan_123102310_940575", "height": 2.915827035903931, "hmax": 0.0, "ratio": 0.0, "vulnClass": "none"}}, {"type": "Feature", "geometry": {"type": "MultiPolygon", "coordinates": [[[[72.24584117929406, 34.114976594434765], [72.24578231001604, 34.114973740810306], [72.24577988525729, 34.115008393599716], [72.24583875748134, 34.115011157143485], [72.24584117929406, 34.114976594434765]]]]}, "properties": {"id": "Pakistan_123102310_845903", "height": 3.08995246887207, "hmax": 0.0, "ratio": 0.0, "vulnClass": "none"}}, {"type": "Feature", "geometry": {"type": "MultiPolygon", "coordinates": [[[[72.24559067252642, 34.11432929495603], [72.24542727720049, 34.114334462355316], [72.24543714398077, 34.11454815564347], [72.24550679939053, 34.11454593273952], [72.24549841813248, 34.11436328390511], [72.24559215825907, 34.11436033941337], [72.24559067252642, 34.11432929495603]]]]}, "properties": {"id": "Pakistan_123102310_73227", "height": 2.590651035308838, "hmax": 0.0, "ratio": 0.0, "vulnClass": "none"}}, {"type": "Feature", "geometry": {"type": "MultiPolygon", "coordinates": [[[[72.24601496244581, 34.11412660668589], [72.24601221838259, 34.11405415578521], [72.24586599432247, 34.114057906123], [72.24586873826047, 34.11413035702081], [72.24601496244581, 34.11412660668589]]]]}, "properties": {"id": "Pakistan_123102310_718141", "height": 3.293694019317627, "hmax": 0.0, "ratio": 0.0, "vulnClass": "none"}}, {"type": "Feature", "geometry": {"type": "MultiPolygon", "coordinates": [[[[72.24571315227884, 34.11422891370027], [72.2457096370002, 34.11418024472096], [72.24562832886795, 34.11418418950214], [72.24563184117744, 34.11423294856447], [72.24571315227884, 34.11422891370027]]]]}, "properties": {"id": "Pakistan_123102310_204586", "height": 2.713373899459839, "hmax": 0.0, "ratio": 0.0, "vulnClass": "none"}}, {"type": "Feature", "geometry": {"type": "MultiPolygon", "coordinates": [[[[72.24561424693299, 34.11430755732925], [72.24561228730417, 34.11422764170221], [72.24539778054626, 34.11423139153671], [72.24539984827861, 34.1143113095881], [72.24561424693299, 34.11430755732925]]]]}, "properties": {"id": "Pakistan_123102310_888490", "height": 3.255591630935669, "hmax": 0.0, "ratio": 0.0, "vulnClass": "none"}}, {"type": "Feature", "geometry": {"type": "MultiPolygon", "coordinates": [[[[72.24540955384944, 34.1139486793785], [72.24550181832633, 34.113947775241435], [72.24550135413234, 34.11391531133188], [72.24540898138528, 34.11391621303951], [72.24540955384944, 34.1139486793785]]]]}, "properties": {"id": "Pakistan_123102310_935753", "height": 2.529684543609619, "hmax": 0.0, "ratio": 0.0, "vulnClass": "none"}}, {"type": "Feature", "geometry": {"type": "MultiPolygon", "coordinates": [[[[72.24547334241024, 34.11399698830897], [72.24547502611058, 34.113951771507146], [72.24540798788816, 34.11395017675771], [72.24540641245785, 34.113995395987715], [72.24547334241024, 34.11399698830897]]]]}, "properties": {"id": "Pakistan_123102310_841131", "height": 3.928557157516479, "hmax": 0.0, "ratio": 0.0, "vulnClass": "none"}}, {"type": "Feature", "geometry": {"type": "MultiPolygon", "coordinates": [[[[72.24548265102302, 34.114000713023], [72.24540752215877, 34.11400128055203], [72.24540788694775, 34.11403680728144], [72.24548301584349, 34.114036239753716], [72.24548265102302, 34.114000713023]]]]}, "properties": {"id": "Pakistan_123102310_646537", "height": 3.928557157516479, "hmax": 0.0, "ratio": 0.0, "vulnClass": "none"}}, {"type": "Feature", "geometry": {"type": "MultiPolygon", "coordinates": [[[[72.24592367688068, 34.11405054626916], [72.24592102931992, 34.11397512262962], [72.24587015800246, 34.11397632492925], [72.24587280259581, 34.11405183865068], [72.24592367688068, 34.11405054626916]]]]}, "properties": {"id": "Pakistan_123102310_561241", "height": 3.038169145584106, "hmax": 0.0, "ratio": 0.0, "vulnClass": "none"}}, {"type": "Feature", "geometry": {"type": "MultiPolygon", "coordinates": [[[[72.24603387301603, 34.113744079761545], [72.2457898704088, 34.11374834038628], [72.24579183314815, 34.11382816594067], [72.24603583306357, 34.11382399540636], [72.24603387301603, 34.113744079761545]]]]}, "properties": {"id": "Pakistan_123102310_760919", "height": 2.741064548492432, "hmax": 0.0, "ratio": 0.0, "vulnClass": "none"}}, {"type": "Feature", "geometry": {"type": "MultiPolygon", "coordinates": [[[[72.24498963346156, 34.11401669151231], [72.24499115451546, 34.114056661473654], [72.24509030373001, 34.114054019075766], [72.24508877970638, 34.114014139196314], [72.24498963346156, 34.11401669151231]]]]}, "properties": {"id": "Pakistan_123102310_204580", "height": 2.887187480926514, "hmax": 0.0, "ratio": 0.0, "vulnClass": "none"}}, {"type": "Feature", "geometry": {"type": "MultiPolygon", "coordinates": [[[[72.24497130764128, 34.11417061449247], [72.2448787474081, 34.114173945595134], [72.24488077763233, 34.11421158312317], [72.24497333790673, 34.114208252021], [72.24497130764128, 34.11417061449247]]]]}, "properties": {"id": "Pakistan_123102310_390824", "height": 5.382912158966064, "hmax": 0.0, "ratio": 0.0, "vulnClass": "none"}}, {"type": "Feature", "geometry": {"type": "MultiPolygon", "coordinates": [[[[72.24571497002194, 34.11591022552067], [72.24564620917634, 34.11591156710395], [72.24564750530189, 34.115955137951474], [72.24571626910532, 34.11595370628622], [72.24571497002194, 34.11591022552067]]]]}, "properties": {"id": "Pakistan_123102310_476196", "height": 2.737364053726196, "hmax": 0.0, "ratio": 0.0, "vulnClass": "none"}}, {"type": "Feature", "geometry": {"type": "MultiPolygon", "coordinates": [[[[72.24459094245822, 34.113433855436185], [72.24471961737345, 34.113436473765624], [72.24472210766874, 34.11335305209475], [72.24463903501552, 34.11335127726648], [72.2446412302715, 34.113280289477395], [72.24459563109694, 34.11327935590472], [72.24459094245822, 34.113433855436185]]]]}, "properties": {"id": "Pakistan_123102310_737135", "height": 2.829954147338867, "hmax": 0.0, "ratio": 0.0, "vulnClass": "none"}}, {"type": "Feature", "geometry": {"type": "MultiPolygon", "coordinates": [[[[72.24464059355562, 34.113176333880595], [72.244642285992, 34.11312084035581], [72.24460480973518, 34.1131200891496], [72.24460311727438, 34.113175582672646], [72.24464059355562, 34.113176333880595]]]]}, "properties": {"id": "Pakistan_123102310_883765", "height": 2.649145603179932, "hmax": 0.0, "ratio": 0.0, "vulnClass": "none"}}, {"type": "Feature", "geometry": {"type": "MultiPolygon", "coordinates": [[[[72.24473346738091, 34.11320672553554], [72.24473556229754, 34.113252387743586], [72.2448694498869, 34.113248001192495], [72.24486735489799, 34.11320233898319], [72.24473346738091, 34.11320672553554]]]]}, "properties": {"id": "Pakistan_123102310_855378", "height": 2.735238552093506, "hmax": 0.0, "ratio": 0.0, "vulnClass": "none"}}, {"type": "Feature", "geometry": {"type": "MultiPolygon", "coordinates": [[[[72.24478191467885, 34.113340331546745], [72.24481815568997, 34.11333907170291], [72.24482304820623, 34.11343212471424], [72.24486981528882, 34.113430470113464], [72.24486191684703, 34.11327974468396], [72.24477890886139, 34.11328265912997], [72.24478191467885, 34.113340331546745]]]]}, "properties": {"id": "Pakistan_123102310_52994", "height": 3.470702171325684, "hmax": 0.0, "ratio": 0.0, "vulnClass": "none"}}, {"type": "Feature", "geometry": {"type": "MultiPolygon", "coordinates": [[[[72.24541716715402, 34.11331979340314], [72.24542346108284, 34.1134431677879], [72.2454823817064, 34.113441064536694], [72.24547567750102, 34.113310288759955], [72.24555456117555, 34.11330755172641], [72.24554977907935, 34.113214411051274], [72.24549085861298, 34.11321651434272], [72.245493838615, 34.11327499751325], [72.24535733996392, 34.11327968673751], [72.24535660452786, 34.11326560705094], [72.2448868826085, 34.11328192779837], [72.24488971573567, 34.113338244109194], [72.24541716715402, 34.11331979340314]]]]}, "properties": {"id": "Pakistan_123102310_442753", "height": 3.030615329742432, "hmax": 0.0, "ratio": 0.0, "vulnClass": "none"}}, {"type": "Feature", "geometry": {"type": "MultiPolygon", "coordinates": [[[[72.24496481205568, 34.1131549449802], [72.24496030937492, 34.113076594937304], [72.24490680715317, 34.11307872942767], [72.24491130978437, 34.11315707947009], [72.24496481205568, 34.1131549449802]]]]}, "properties": {"id": "Pakistan_123102310_109994", "height": 3.176998138427734, "hmax": 0.0, "ratio": 0.0, "vulnClass": "none"}}, {"type": "Feature", "geometry": {"type": "MultiPolygon", "coordinates": [[[[72.24602915852799, 34.113020621538425], [72.24602909088122, 34.11296589981249], [72.2459928880063, 34.112965988943316], [72.24599287336703, 34.112916316729354], [72.24570857208172, 34.11291669807892], [72.24570857282441, 34.112930040089076], [72.2455971512777, 34.112930153889174], [72.24559715236516, 34.11295016690307], [72.24551943973604, 34.11295022579684], [72.2455195167117, 34.113021354768684], [72.24602915852799, 34.113020621538425]]]]}, "properties": {"id": "Pakistan_123102310_419183", "height": 2.589558601379395, "hmax": 0.0, "ratio": 0.0, "vulnClass": "none"}}, {"type": "Feature", "geometry": {"type": "MultiPolygon", "coordinates": [[[[72.2452855232866, 34.11312473208319], [72.24528205175693, 34.113068040849946], [72.24523115176757, 34.113070143740764], [72.24523473156759, 34.11312683740471], [72.2452855232866, 34.11312473208319]]]]}, "properties": {"id": "Pakistan_123102310_504430", "height": 2.750192403793335, "hmax": 0.0, "ratio": 0.0, "vulnClass": "none"}}, {"type": "Feature", "geometry": {"type": "MultiPolygon", "coordinates": [[[[72.24588750820226, 34.11271634662904], [72.24589033557943, 34.11276283661018], [72.2460455318366, 34.11275640275175], [72.24604270437409, 34.11270991276999], [72.24588750820226, 34.11271634662904]]]]}, "properties": {"id": "Pakistan_123102310_822261", "height": 2.459687471389771, "hmax": 0.0, "ratio": 0.0, "vulnClass": "none"}}, {"type": "Feature", "geometry": {"type": "MultiPolygon", "coordinates": [[[[72.25636731333161, 34.1127757250782], [72.25636519293587, 34.11281786736622], [72.25650441511203, 34.11282278249804], [72.25650653252843, 34.11278073028813], [72.25636731333161, 34.1127757250782]]]]}, "properties": {"id": "Pakistan_123102310_186647", "height": 3.261138677597046, "hmax": 0.0, "ratio": 0.0, "vulnClass": "none"}}, {"type": "Feature", "geometry": {"type": "MultiPolygon", "coordinates": [[[[72.25205546248874, 34.11313198763173], [72.25205538873401, 34.11312756869011], [72.2520098539379, 34.11312799155184], [72.25201102317797, 34.11320572597926], [72.25246422297506, 34.11320090762377], [72.2524631241802, 34.11312768220628], [72.25205546248874, 34.11313198763173]]]]}, "properties": {"id": "Pakistan_123102310_684811", "height": 3.242608070373535, "hmax": 0.0, "ratio": 0.0, "vulnClass": "none"}}, {"type": "Feature", "geometry": {"type": "MultiPolygon", "coordinates": [[[[72.25151869446577, 34.11319722587557], [72.25152791315627, 34.11337114898909], [72.2517447184575, 34.113363292975556], [72.25173550223687, 34.11318927977296], [72.25151869446577, 34.11319722587557]]]]}, "properties": {"id": "Pakistan_123102310_556488", "height": 4.128605365753174, "hmax": 0.0, "ratio": 0.0, "vulnClass": "none"}}, {"type": "Feature", "geometry": {"type": "MultiPolygon", "coordinates": [[[[72.25200635809726, 34.11294130530296], [72.25200948234729, 34.113039006385485], [72.25193714087051, 34.113040541842544], [72.25193855777404, 34.11308718048654], [72.25206187555598, 34.113084532661446], [72.25205733136023, 34.11294028301494], [72.25200635809726, 34.11294130530296]]]]}, "properties": {"id": "Pakistan_123102310_53068", "height": 4.989514350891113, "hmax": 0.0, "ratio": 0.0, "vulnClass": "none"}}, {"type": "Feature", "geometry": {"type": "MultiPolygon", "coordinates": [[[[72.25185025382815, 34.11271793715095], [72.25186142308354, 34.11275794285608], [72.2519695022534, 34.112737194589755], [72.25195833294838, 34.11269718889199], [72.25185025382815, 34.11271793715095]]]]}, "properties": {"id": "Pakistan_123102310_926303", "height": 3.934240818023682, "hmax": 0.0, "ratio": 0.0, "vulnClass": "none"}}, {"type": "Feature", "geometry": {"type": "MultiPolygon", "coordinates": [[[[72.2521020573463, 34.11284428431176], [72.25209668642479, 34.1127356249221], [72.25202985124815, 34.11273782461536], [72.25203413351318, 34.11282653674958], [72.25182114356814, 34.11283375755467], [72.25182310399956, 34.11287364721152], [72.25187279797039, 34.112871965312564], [72.25187526624727, 34.11292295464006], [72.25204398640906, 34.112917266732396], [72.25204053776318, 34.112846332574115], [72.2521020573463, 34.11284428431176]]]]}, "properties": {"id": "Pakistan_123102310_603917", "height": 4.359041213989258, "hmax": 0.0, "ratio": 0.0, "vulnClass": "none"}}, {"type": "Feature", "geometry": {"type": "MultiPolygon", "coordinates": [[[[72.25139798654678, 34.11415046008673], [72.2513079785338, 34.114151960091334], [72.25131012636152, 34.11424296828129], [72.2514002427777, 34.1142414707054], [72.25139798654678, 34.11415046008673]]]]}, "properties": {"id": "Pakistan_123102310_54589", "height": 5.819085121154785, "hmax": 0.0, "ratio": 0.0, "vulnClass": "none"}}, {"type": "Feature", "geometry": {"type": "MultiPolygon", "coordinates": [[[[72.25130960131318, 34.11408844156717], [72.25132139654939, 34.11412584701849], [72.25136265421338, 34.11411694480422], [72.25135085895965, 34.114079539356], [72.25130960131318, 34.11408844156717]]]]}, "properties": {"id": "Pakistan_123102310_419208", "height": 6.727994918823242, "hmax": 0.0, "ratio": 0.0, "vulnClass": "none"}}, {"type": "Feature", "geometry": {"type": "MultiPolygon", "coordinates": [[[[72.25155282534918, 34.11426228646608], [72.25144558732067, 34.11426033565846], [72.25144250232606, 34.1143824181269], [72.25154974050842, 34.11438436894471], [72.25155282534918, 34.11426228646608]]]]}, "properties": {"id": "Pakistan_123102310_570809", "height": 2.737091302871704, "hmax": 0.0, "ratio": 0.0, "vulnClass": "none"}}, {"type": "Feature", "geometry": {"type": "MultiPolygon", "coordinates": [[[[72.25287287004444, 34.11450945981988], [72.25277911120449, 34.114506279351914], [72.25277724297415, 34.11454391972552], [72.25287099894072, 34.11454719028046], [72.25287287004444, 34.11450945981988]]]]}, "properties": {"id": "Pakistan_123102310_129903", "height": 2.57461404800415, "hmax": 0.0, "ratio": 0.0, "vulnClass": "none"}}, {"type": "Feature", "geometry": {"type": "MultiPolygon", "coordinates": [[[[72.25332741675729, 34.114315806860446], [72.25332610499024, 34.114272596226414], [72.25301243324895, 34.114279458865916], [72.25301101578059, 34.11423282021252], [72.25303780540318, 34.11423224788703], [72.25303460668763, 34.114133463360574], [72.2527971857025, 34.114138606429776], [72.25279849382683, 34.114178571625004], [72.25284827647616, 34.11417752237666], [72.25285143999602, 34.11427738789942], [72.25279363093661, 34.1142786180795], [72.25279519494333, 34.11432742358306], [72.25332741675729, 34.114315806860446]]]]}, "properties": {"id": "Pakistan_123102310_224663", "height": 2.542524099349976, "hmax": 0.0, "ratio": 0.0, "vulnClass": "none"}}, {"type": "Feature", "geometry": {"type": "MultiPolygon", "coordinates": [[[[72.25513981331493, 34.11408176091785], [72.25506739460288, 34.114082304837375], [72.25506799263957, 34.11414091496849], [72.25519515578927, 34.11414006285748], [72.25519533385288, 34.11415467095479], [72.25525701861757, 34.114154247504324], [72.25525646413274, 34.114094286111865], [72.2552135339331, 34.11409458810279], [72.25521353504533, 34.11410125914325], [72.2551400332476, 34.114101778882926], [72.25513981331493, 34.11408176091785]]]]}, "properties": {"id": "Pakistan_123102310_737180", "height": 4.30797004699707, "hmax": 0.0, "ratio": 0.0, "vulnClass": "none"}}, {"type": "Feature", "geometry": {"type": "MultiPolygon", "coordinates": [[[[72.25552846134919, 34.11360959826859], [72.25552574046455, 34.11372060083699], [72.25558196302592, 34.11372149745286], [72.25558468383718, 34.11361049487963], [72.25552846134919, 34.11360959826859]]]]}, "properties": {"id": "Pakistan_123102310_120583", "height": 3.191877841949463, "hmax": 0.0, "ratio": 0.0, "vulnClass": "none"}}, {"type": "Feature", "geometry": {"type": "MultiPolygon", "coordinates": [[[[72.25575106861946, 34.11371734562249], [72.25569594658532, 34.11371593279903], [72.25569428929364, 34.11376385494419], [72.25552545440826, 34.11375962890196], [72.25552387506774, 34.11380178325732], [72.25574783212903, 34.11380742213357], [72.25575106861946, 34.11371734562249]]]]}, "properties": {"id": "Pakistan_123102310_357887", "height": 3.481505393981934, "hmax": 0.0, "ratio": 0.0, "vulnClass": "none"}}, {"type": "Feature", "geometry": {"type": "MultiPolygon", "coordinates": [[[[72.25261522215968, 34.11702199831353], [72.25261387493669, 34.116973197678625], [72.25245032762265, 34.116976207352785], [72.25244949217175, 34.11694508733056], [72.25228062898441, 34.116948248215465], [72.25228281432018, 34.11702807878149], [72.25261522215968, 34.11702199831353]]]]}, "properties": {"id": "Pakistan_123102310_916992", "height": 3.462829113006592, "hmax": 0.0, "ratio": 0.0, "vulnClass": "none"}}, {"type": "Feature", "geometry": {"type": "MultiPolygon", "coordinates": [[[[72.2520955446923, 34.11694356332331], [72.25211395310785, 34.117047916992796], [72.25216128960764, 34.11704212556417], [72.25214276990836, 34.116937859557304], [72.2520955446923, 34.11694356332331]]]]}, "properties": {"id": "Pakistan_123102310_694337", "height": 2.604861497879028, "hmax": 0.0, "ratio": 0.0, "vulnClass": "none"}}, {"type": "Feature", "geometry": {"type": "MultiPolygon", "coordinates": [[[[72.25238505682701, 34.11641086564174], [72.25238019761636, 34.11636676426177], [72.25220559065826, 34.1163799832905], [72.25219586659806, 34.11629196069199], [72.2520814555032, 34.11630057747241], [72.25209168642894, 34.11639302871426], [72.25215014051328, 34.11638865814032], [72.25215460384118, 34.11642824322503], [72.25238505682701, 34.11641086564174]]]]}, "properties": {"id": "Pakistan_123102310_438105", "height": 3.731020927429199, "hmax": 0.0, "ratio": 0.0, "vulnClass": "none"}}, {"type": "Feature", "geometry": {"type": "MultiPolygon", "coordinates": [[[[72.25241927129281, 34.11617084430456], [72.25223985572651, 34.11616520479928], [72.25223801967337, 34.11620518973745], [72.25241743823912, 34.116210739166036], [72.25241927129281, 34.11617084430456]]]]}, "properties": {"id": "Pakistan_123102310_367322", "height": 2.714220285415649, "hmax": 0.0, "ratio": 0.0, "vulnClass": "none"}}, {"type": "Feature", "geometry": {"type": "MultiPolygon", "coordinates": [[[[72.25198556686074, 34.116276073555014], [72.25198106133672, 34.1161339883982], [72.25188355163671, 34.116136132136475], [72.25188453310884, 34.116166083496076], [72.25182650616067, 34.116167308305776], [72.25183013828106, 34.11627944452175], [72.25198556686074, 34.116276073555014]]]]}, "properties": {"id": "Pakistan_123102310_305785", "height": 3.07790994644165, "hmax": 0.0, "ratio": 0.0, "vulnClass": "none"}}, {"type": "Feature", "geometry": {"type": "MultiPolygon", "coordinates": [[[[72.25174886496302, 34.11603782893696], [72.25175263708014, 34.11593469309848], [72.25168733278726, 34.11593305042216], [72.25168356059108, 34.11603618625476], [72.25174886496302, 34.11603782893696]]]]}, "properties": {"id": "Pakistan_123102310_860082", "height": 2.888972759246826, "hmax": 0.0, "ratio": 0.0, "vulnClass": "none"}}, {"type": "Feature", "geometry": {"type": "MultiPolygon", "coordinates": [[[[72.25186531219735, 34.116535533377466], [72.25191021035705, 34.116718909638685], [72.2519685146955, 34.11670912688043], [72.25192361641193, 34.11652575063438], [72.25186531219735, 34.116535533377466]]]]}, "properties": {"id": "Pakistan_123102310_442777", "height": 2.941017389297485, "hmax": 0.0, "ratio": 0.0, "vulnClass": "none"}}, {"type": "Feature", "geometry": {"type": "MultiPolygon", "coordinates": [[[[72.25202609902449, 34.11704640061401], [72.25199677044489, 34.11686084885157], [72.252054744538, 34.116854574460945], [72.25203224203271, 34.11671262723654], [72.25191194123406, 34.116725709551694], [72.25196388029205, 34.11705321098409], [72.25202609902449, 34.11704640061401]]]]}, "properties": {"id": "Pakistan_123102310_242432", "height": 4.231465339660645, "hmax": 0.0, "ratio": 0.0, "vulnClass": "none"}}, {"type": "Feature", "geometry": {"type": "MultiPolygon", "coordinates": [[[[72.25232783231397, 34.11835310118869], [72.25233378628926, 34.11848728565306], [72.25248915145144, 34.11848265065248], [72.25248320014518, 34.11834837610012], [72.25232783231397, 34.11835310118869]]]]}, "properties": {"id": "Pakistan_123102310_784575", "height": 2.881754875183105, "hmax": 0.0, "ratio": 0.0, "vulnClass": "none"}}, {"type": "Feature", "geometry": {"type": "MultiPolygon", "coordinates": [[[[72.25325552982359, 34.118440668212514], [72.25325454556128, 34.11839403927674], [72.25306412536351, 34.118396718685055], [72.25306321499788, 34.118354508693116], [72.25302569245113, 34.11835511119679], [72.2530263143822, 34.118386136287484], [72.2528183272867, 34.1183890531468], [72.25281843604863, 34.11839239108495], [72.25275673369877, 34.118393263574674], [72.2527557846926, 34.118345553646215], [72.25269559874403, 34.11834646005157], [72.252696912332, 34.118406348221], [72.25255583237171, 34.11840832838819], [72.25255674248328, 34.11845053837126], [72.25325552982359, 34.118440668212514]]]]}, "properties": {"id": "Pakistan_123102310_670504", "height": 3.957561016082764, "hmax": 0.0, "ratio": 0.0, "vulnClass": "none"}}, {"type": "Feature", "geometry": {"type": "MultiPolygon", "coordinates": [[[[72.25544671374048, 34.117241580269294], [72.25538878500724, 34.11723974388528], [72.25538382626814, 34.117346188903646], [72.25544175507363, 34.117348025293495], [72.25544671374048, 34.117241580269294]]]]}, "properties": {"id": "Pakistan_123102310_845939", "height": 3.194150686264038, "hmax": 0.0, "ratio": 0.0, "vulnClass": "none"}}]}