{"type": "FeatureCollection", "features": [{"type": "Feature", "geometry": {"type": "MultiPolygon", "coordinates": [[[[72.2529441, 34.1729675], [72.25293806, 34.17277456], [72.25286032, 34.17277623], [72.25286216, 34.17283492], [72.25279247, 34.17283642], [72.25279792, 34.17301057], [72.25286225, 34.1730092], [72.252861, 34.17296928], [72.2529441, 34.1729675]]]]}, "properties": {"id": "Pakistan_123102310_575674", "height": 2.530056476593018, "hmax": 0.009, "ratio": 0.004, "vulnClass": "none"}}, {"type": "Feature", "geometry": {"type": "MultiPolygon", "coordinates": [[[[72.25251697, 34.17334433], [72.25250173, 34.17309866], [72.2523653, 34.17310445], [72.25236859, 34.17315757], [72.25221878, 34.17316393], [72.25222263, 34.1732259], [72.25232161, 34.1732217], [72.25232703, 34.17330917], [72.25220817, 34.1733142], [72.25221755, 34.17346578], [72.25241668, 34.17345733], [72.25240996, 34.17334888], [72.25251697, 34.17334433]]]]}, "properties": {"id": "Pakistan_123102310_793910", "height": 4.20523738861084, "hmax": 0.009, "ratio": 0.002, "vulnClass": "none"}}, {"type": "Feature", "geometry": {"type": "MultiPolygon", "coordinates": [[[[72.25280815, 34.17301446], [72.25281183, 34.17313525], [72.25295007, 34.17313237], [72.25294519, 34.17297167], [72.25286591, 34.17297332], [72.25286712, 34.17301323], [72.25280815, 34.17301446]]]]}, "properties": {"id": "Pakistan_123102310_82711", "height": 2.530056476593018, "hmax": 0.009, "ratio": 0.004, "vulnClass": "none"}}, {"type": "Feature", "geometry": {"type": "MultiPolygon", "coordinates": [[[[72.25242233, 34.17355343], [72.25242007, 34.17346471], [72.25223776, 34.17346789], [72.25224002, 34.17355661], [72.25242233, 34.17355343]]]]}, "properties": {"id": "Pakistan_123102310_670494", "height": 2.544466018676758, "hmax": 0.006, "ratio": 0.002, "vulnClass": "none"}}, {"type": "Feature", "geometry": {"type": "MultiPolygon", "coordinates": [[[[72.25238149, 34.17398278], [72.2525864, 34.17397529], [72.25258758, 34.17399744], [72.25264112, 34.17399549], [72.25263664, 34.17391132], [72.25276634, 34.17390659], [72.25275984, 34.17378477], [72.25263282, 34.17378941], [72.25263454, 34.17382159], [72.25252866, 34.17382545], [72.25252588, 34.17377335], [72.25243486, 34.17377668], [72.25243764, 34.17382877], [72.25237339, 34.17383112], [72.25238149, 34.17398278]]]]}, "properties": {"id": "Pakistan_123102310_751440", "height": 2.985477209091187, "hmax": 0.006, "ratio": 0.002, "vulnClass": "none"}}, {"type": "Feature", "geometry": {"type": "MultiPolygon", "coordinates": [[[[72.25102578, 34.17456304], [72.25101073, 34.17446048], [72.25087737, 34.17428283], [72.25087671, 34.17427839], [72.25084112, 34.17423098], [72.25078211, 34.17423691], [72.25077712, 34.17420289], [72.25066955, 34.17405959], [72.2505267, 34.17407394], [72.2505973, 34.17403767], [72.250589, 34.17398114], [72.25049913, 34.17399017], [72.25050402, 34.17402346], [72.25048157, 34.174035], [72.25050423, 34.17418937], [72.2506061, 34.17417914], [72.2506138, 34.17423163], [72.25065731, 34.17422725], [72.2506647, 34.17427755], [72.25069665, 34.17427434], [72.25072918, 34.17431767], [72.25081946, 34.1743086], [72.25082535, 34.17434877], [72.25080957, 34.17435688], [72.2507998, 34.17434386], [72.25066304, 34.1743576], [72.25068518, 34.1745085], [72.25081206, 34.17449575], [72.2508249, 34.17458322], [72.25102578, 34.17456304]]]]}, "properties": {"id": "Pakistan_123102310_926297", "height": 2.616992473602295, "hmax": 0.008, "ratio": 0.003, "vulnClass": "none"}}, {"type": "Feature", "geometry": {"type": "MultiPolygon", "coordinates": [[[[72.25036533, 34.17433294], [72.25036107, 34.17428661], [72.2502103, 34.17429612], [72.25018804, 34.17405445], [72.2500547, 34.17406285], [72.25008123, 34.17435086], [72.25036533, 34.17433294]]]]}, "properties": {"id": "Pakistan_123102310_362561", "height": 2.462618589401245, "hmax": 0.012, "ratio": 0.005, "vulnClass": "none"}}, {"type": "Feature", "geometry": {"type": "MultiPolygon", "coordinates": [[[[72.25110121, 34.17487032], [72.25118087, 34.17484835], [72.25120502, 34.17490826], [72.25124247, 34.17489793], [72.25119016, 34.17476812], [72.25107304, 34.17480043], [72.25110121, 34.17487032]]]]}, "properties": {"id": "Pakistan_123102310_281301", "height": 3.914302349090576, "hmax": 0.003, "ratio": 0.001, "vulnClass": "none"}}, {"type": "Feature", "geometry": {"type": "MultiPolygon", "coordinates": [[[[72.25107892, 34.1747959], [72.25105753, 34.17475199], [72.250986, 34.17477584], [72.2510074, 34.17481975], [72.25107892, 34.1747959]]]]}, "properties": {"id": "Pakistan_123102310_405100", "height": 3.3856041431427, "hmax": 0.003, "ratio": 0.001, "vulnClass": "none"}}, {"type": "Feature", "geometry": {"type": "MultiPolygon", "coordinates": [[[[72.25141248, 34.17566282], [72.25177098, 34.17563313], [72.25176048, 34.17554634], [72.251556, 34.17556328], [72.25156198, 34.17561271], [72.25140796, 34.17562547], [72.25141248, 34.17566282]]]]}, "properties": {"id": "Pakistan_123102310_367318", "height": 2.643083810806274, "hmax": 0.004, "ratio": 0.002, "vulnClass": "none"}}, {"type": "Feature", "geometry": {"type": "MultiPolygon", "coordinates": [[[[72.2512423, 34.17490125], [72.25121012, 34.17491457], [72.25122945, 34.17494651], [72.25126162, 34.17493319], [72.2512423, 34.17490125]]]]}, "properties": {"id": "Pakistan_123102310_433363", "height": 2.794867992401123, "hmax": 0.003, "ratio": 0.001, "vulnClass": "none"}}, {"type": "Feature", "geometry": {"type": "MultiPolygon", "coordinates": [[[[72.25189371, 34.17505895], [72.2518921, 34.17501683], [72.25182641, 34.17501855], [72.25182047, 34.17486337], [72.25177223, 34.17486464], [72.25177979, 34.17506193], [72.25189371, 34.17505895]]]]}, "properties": {"id": "Pakistan_123102310_234071", "height": 2.459705829620361, "hmax": 0.003, "ratio": 0.001, "vulnClass": "none"}}, {"type": "Feature", "geometry": {"type": "MultiPolygon", "coordinates": [[[[72.25212788, 34.17490503], [72.25212847, 34.1749716], [72.25226525, 34.17497077], [72.25226663, 34.17512609], [72.25234441, 34.17512562], [72.25234244, 34.17490373], [72.25212788, 34.17490503]]]]}, "properties": {"id": "Pakistan_123102310_940596", "height": 5.240588188171387, "hmax": 0.006, "ratio": 0.001, "vulnClass": "none"}}, {"type": "Feature", "geometry": {"type": "MultiPolygon", "coordinates": [[[[72.25292015, 34.17537262], [72.25291707, 34.17527386], [72.25280718, 34.1752762], [72.25280614, 34.17524294], [72.25275253, 34.17524408], [72.25275136, 34.17520638], [72.25275404, 34.17520632], [72.25274734, 34.17499122], [72.25260796, 34.17499419], [72.25261148, 34.17510728], [72.25257932, 34.17510797], [72.25258284, 34.17522107], [72.25252119, 34.17522238], [72.25252612, 34.17538099], [72.25292015, 34.17537262]]]]}, "properties": {"id": "Pakistan_123102310_157594", "height": 4.444441318511963, "hmax": 0.007, "ratio": 0.002, "vulnClass": "none"}}, {"type": "Feature", "geometry": {"type": "MultiPolygon", "coordinates": [[[[72.25338209, 34.17497352], [72.25340535, 34.17538091], [72.25360339, 34.17537317], [72.25360074, 34.17532668], [72.25363018, 34.17532553], [72.25361766, 34.17510633], [72.25356681, 34.17510832], [72.25356631, 34.17509946], [72.25346461, 34.17510344], [72.25346284, 34.17507244], [72.25361401, 34.17506653], [72.25361022, 34.17500011], [72.25350722, 34.17500413], [72.2535052, 34.17496871], [72.25338209, 34.17497352]]]]}, "properties": {"id": "Pakistan_123102310_320090", "height": 2.700669288635254, "hmax": 0.009, "ratio": 0.003, "vulnClass": "none"}}, {"type": "Feature", "geometry": {"type": "MultiPolygon", "coordinates": [[[[72.25286771, 34.1749335], [72.25285578, 34.17479335], [72.25284104, 34.17479421], [72.25283436, 34.17471575], [72.25270498, 34.1747233], [72.25272358, 34.1749419], [72.25286771, 34.1749335]]]]}, "properties": {"id": "Pakistan_123102310_784578", "height": 5.226542949676514, "hmax": 0.006, "ratio": 0.001, "vulnClass": "none"}}, {"type": "Feature", "geometry": {"type": "MultiPolygon", "coordinates": [[[[72.25266615, 34.17485373], [72.2524679, 34.17485927], [72.25246975, 34.17490466], [72.25271087, 34.1748979], [72.25270544, 34.17476491], [72.25266257, 34.17476611], [72.25266615, 34.17485373]]]]}, "properties": {"id": "Pakistan_123102310_689519", "height": 4.302526950836182, "hmax": 0.006, "ratio": 0.001, "vulnClass": "none"}}, {"type": "Feature", "geometry": {"type": "MultiPolygon", "coordinates": [[[[72.25258743, 34.17443608], [72.25258856, 34.17448371], [72.2526824, 34.17448219], [72.25268127, 34.17443456], [72.25258743, 34.17443608]]]]}, "properties": {"id": "Pakistan_123102310_334233", "height": 3.203126430511475, "hmax": 0.006, "ratio": 0.002, "vulnClass": "none"}}, {"type": "Feature", "geometry": {"type": "MultiPolygon", "coordinates": [[[[72.25269839, 34.17439568], [72.25270212, 34.17446877], [72.25281993, 34.17446465], [72.2528162, 34.17439156], [72.25269839, 34.17439568]]]]}, "properties": {"id": "Pakistan_123102310_262409", "height": 2.564518451690674, "hmax": 0.006, "ratio": 0.002, "vulnClass": "none"}}, {"type": "Feature", "geometry": {"type": "MultiPolygon", "coordinates": [[[[72.25272334, 34.17426491], [72.25268854, 34.17426617], [72.25269075, 34.17430825], [72.25272555, 34.17430699], [72.25272334, 34.17426491]]]]}, "properties": {"id": "Pakistan_123102310_139569", "height": 3.027914524078369, "hmax": 0.006, "ratio": 0.002, "vulnClass": "none"}}, {"type": "Feature", "geometry": {"type": "MultiPolygon", "coordinates": [[[[72.25266819, 34.17443037], [72.2526664, 34.17438721], [72.2526196, 34.17438854], [72.25261642, 34.17431202], [72.25244497, 34.1743169], [72.25244994, 34.17443659], [72.25266819, 34.17443037]]]]}, "properties": {"id": "Pakistan_123102310_746782", "height": 2.630419254302979, "hmax": 0.006, "ratio": 0.002, "vulnClass": "none"}}, {"type": "Feature", "geometry": {"type": "MultiPolygon", "coordinates": [[[[72.25268225, 34.17424132], [72.25280972, 34.17423937], [72.25280798, 34.17416173], [72.25272878, 34.17416294], [72.25272758, 34.1741097], [72.25280266, 34.17410855], [72.2528007, 34.174021], [72.25267736, 34.17402288], [72.25268225, 34.17424132]]]]}, "properties": {"id": "Pakistan_123102310_186619", "height": 4.909320831298828, "hmax": 0.006, "ratio": 0.001, "vulnClass": "none"}}, {"type": "Feature", "geometry": {"type": "MultiPolygon", "coordinates": [[[[72.25259026, 34.17400087], [72.25259129, 34.17404079], [72.25264491, 34.17403985], [72.25264388, 34.17399993], [72.25259026, 34.17400087]]]]}, "properties": {"id": "Pakistan_123102310_233158", "height": 2.44646167755127, "hmax": 0.006, "ratio": 0.003, "vulnClass": "none"}}, {"type": "Feature", "geometry": {"type": "MultiPolygon", "coordinates": [[[[72.25598053, 34.17545846], [72.2561226, 34.17545555], [72.25611762, 34.17528922], [72.25624897, 34.17528653], [72.25624718, 34.17522665], [72.25608634, 34.17522995], [72.25608269, 34.17510797], [72.25597011, 34.17511028], [72.25598053, 34.17545846]]]]}, "properties": {"id": "Pakistan_123102310_665867", "height": 3.136578321456909, "hmax": 0.008, "ratio": 0.003, "vulnClass": "none"}}, {"type": "Feature", "geometry": {"type": "MultiPolygon", "coordinates": [[[[72.25628343, 34.17570225], [72.25598063, 34.17569441], [72.25597745, 34.17577866], [72.25628024, 34.17578649], [72.25628343, 34.17570225]]]]}, "properties": {"id": "Pakistan_123102310_261516", "height": 2.512190341949463, "hmax": 0.009, "ratio": 0.004, "vulnClass": "none"}}, {"type": "Feature", "geometry": {"type": "MultiPolygon", "coordinates": [[[[72.25676708, 34.17567777], [72.25714121, 34.17567989], [72.25714218, 34.17556451], [72.25704697, 34.17556397], [72.25704666, 34.17560169], [72.2568455, 34.17560055], [72.25684644, 34.17548738], [72.25676866, 34.17548694], [72.25676708, 34.17567777]]]]}, "properties": {"id": "Pakistan_123102310_836505", "height": 4.12006139755249, "hmax": 0.01, "ratio": 0.002, "vulnClass": "none"}}, {"type": "Feature", "geometry": {"type": "MultiPolygon", "coordinates": [[[[72.25712741, 34.1755005], [72.25705778, 34.17549819], [72.25705479, 34.17556023], [72.25712441, 34.17556253], [72.25712741, 34.1755005]]]]}, "properties": {"id": "Pakistan_123102310_926323", "height": 2.742462873458862, "hmax": 0.01, "ratio": 0.004, "vulnClass": "none"}}, {"type": "Feature", "geometry": {"type": "MultiPolygon", "coordinates": [[[[72.25621604, 34.17448971], [72.25621151, 34.17435001], [72.25615934, 34.17435116], [72.25616385, 34.17449086], [72.25621604, 34.17448971]]]]}, "properties": {"id": "Pakistan_123102310_54633", "height": 2.973026990890503, "hmax": 0.005, "ratio": 0.002, "vulnClass": "none"}}, {"type": "Feature", "geometry": {"type": "MultiPolygon", "coordinates": [[[[72.25592963, 34.17395506], [72.25593279, 34.17404597], [72.25619689, 34.17403969], [72.25619397, 34.17395543], [72.25611625, 34.17395728], [72.25611709, 34.17398167], [72.25599649, 34.17398454], [72.25599541, 34.1739535], [72.25592963, 34.17395506]]]]}, "properties": {"id": "Pakistan_123102310_110096", "height": 2.793914794921875, "hmax": 0.003, "ratio": 0.001, "vulnClass": "none"}}, {"type": "Feature", "geometry": {"type": "MultiPolygon", "coordinates": [[[[72.25735472, 34.17294406], [72.25712407, 34.1729461], [72.25712467, 34.1729919], [72.2570603, 34.17299248], [72.25706085, 34.17303464], [72.25713594, 34.17303397], [72.25713664, 34.17308801], [72.25722782, 34.17308721], [72.25722731, 34.17304727], [72.25742959, 34.17304547], [72.25742732, 34.17287159], [72.25737792, 34.17287203], [72.25737739, 34.17283068], [72.25735325, 34.1728309], [72.25735472, 34.17294406]]]]}, "properties": {"id": "Pakistan_123102310_570836", "height": 3.16276216506958, "hmax": 0.011, "ratio": 0.003, "vulnClass": "none"}}, {"type": "Feature", "geometry": {"type": "MultiPolygon", "coordinates": [[[[72.25688609, 34.17963221], [72.25692398, 34.17965305], [72.25695984, 34.17960842], [72.25692195, 34.17958758], [72.25688609, 34.17963221]]]]}, "properties": {"id": "Pakistan_123102310_931087", "height": 3.81487250328064, "hmax": 0.016, "ratio": 0.004, "vulnClass": "none"}}, {"type": "Feature", "geometry": {"type": "MultiPolygon", "coordinates": [[[[72.25762529, 34.17913136], [72.25762386, 34.17907591], [72.25755787, 34.17907707], [72.25755929, 34.17913252], [72.25762529, 34.17913136]]]]}, "properties": {"id": "Pakistan_123102310_727689", "height": 2.969352245330811, "hmax": 0.046, "ratio": 0.015, "vulnClass": "none"}}, {"type": "Feature", "geometry": {"type": "MultiPolygon", "coordinates": [[[[72.25749669, 34.1787696], [72.25750039, 34.17884937], [72.25755127, 34.17884775], [72.25754757, 34.17876799], [72.25749669, 34.1787696]]]]}, "properties": {"id": "Pakistan_123102310_409804", "height": 5.350564956665039, "hmax": 0.018, "ratio": 0.003, "vulnClass": "none"}}, {"type": "Feature", "geometry": {"type": "MultiPolygon", "coordinates": [[[[72.25717125, 34.17926193], [72.25715811, 34.17903835], [72.25707619, 34.17904164], [72.25710015, 34.17944976], [72.25721421, 34.17944518], [72.2572061, 34.17930713], [72.25730243, 34.17930325], [72.2572997, 34.17925676], [72.25717125, 34.17926193]]]]}, "properties": {"id": "Pakistan_123102310_637150", "height": 2.517796039581299, "hmax": 0.032, "ratio": 0.013, "vulnClass": "none"}}, {"type": "Feature", "geometry": {"type": "MultiPolygon", "coordinates": [[[[72.25728651, 34.17904312], [72.25728354, 34.17896998], [72.25714958, 34.17897371], [72.25715255, 34.17904685], [72.25728651, 34.17904312]]]]}, "properties": {"id": "Pakistan_123102310_157642", "height": 2.488513946533203, "hmax": 0.046, "ratio": 0.019, "vulnClass": "none"}}, {"type": "Feature", "geometry": {"type": "MultiPolygon", "coordinates": [[[[72.2575466, 34.17921315], [72.25754216, 34.17906819], [72.25749659, 34.17906915], [72.25749938, 34.17916007], [72.25740556, 34.17916204], [72.25740325, 34.17908665], [72.25726922, 34.17908946], [72.25727074, 34.17913905], [72.25730023, 34.17913843], [72.25730654, 34.17934466], [72.25748346, 34.17934095], [72.25748217, 34.17929882], [72.2574232, 34.17930006], [72.25742062, 34.17921579], [72.2575466, 34.17921315]]]]}, "properties": {"id": "Pakistan_123102310_727688", "height": 2.47601842880249, "hmax": 0.046, "ratio": 0.019, "vulnClass": "none"}}, {"type": "Feature", "geometry": {"type": "MultiPolygon", "coordinates": [[[[72.25664806, 34.1791941], [72.25681669, 34.17918773], [72.25681429, 34.17914425], [72.25689459, 34.17914121], [72.25689589, 34.17916477], [72.25705649, 34.17915871], [72.25704684, 34.17898377], [72.2565704, 34.17900176], [72.25658595, 34.1792838], [72.25665287, 34.17928127], [72.25664806, 34.1791941]]]]}, "properties": {"id": "Pakistan_123102310_499659", "height": 7.849776268005371, "hmax": 0.016, "ratio": 0.002, "vulnClass": "none"}}, {"type": "Feature", "geometry": {"type": "MultiPolygon", "coordinates": [[[[72.25628889, 34.17912449], [72.25607174, 34.17912054], [72.25607069, 34.17915961], [72.25616989, 34.17916142], [72.25616892, 34.17919775], [72.25628688, 34.1791999], [72.25628889, 34.17912449]]]]}, "properties": {"id": "Pakistan_123102310_504477", "height": 5.438868999481201, "hmax": 0.016, "ratio": 0.003, "vulnClass": "none"}}, {"type": "Feature", "geometry": {"type": "MultiPolygon", "coordinates": [[[[72.25603828, 34.17938385], [72.25604515, 34.17914075], [72.25592988, 34.17913852], [72.25592301, 34.17938162], [72.25603828, 34.17938385]]]]}, "properties": {"id": "Pakistan_123102310_599255", "height": 5.173738956451416, "hmax": 0.022, "ratio": 0.004, "vulnClass": "none"}}, {"type": "Feature", "geometry": {"type": "MultiPolygon", "coordinates": [[[[72.25554019, 34.17938465], [72.25550828, 34.17956042], [72.25574863, 34.17959027], [72.25576138, 34.17951998], [72.25562236, 34.17950271], [72.2556415, 34.17939723], [72.25554019, 34.17938465]]]]}, "properties": {"id": "Pakistan_123102310_879051", "height": 4.14459228515625, "hmax": 0.022, "ratio": 0.005, "vulnClass": "none"}}, {"type": "Feature", "geometry": {"type": "MultiPolygon", "coordinates": [[[[72.25516132, 34.17929957], [72.25514218, 34.1794227], [72.25542187, 34.17945245], [72.25544101, 34.17932934], [72.25516132, 34.17929957]]]]}, "properties": {"id": "Pakistan_123102310_186641", "height": 4.454566955566406, "hmax": 0.022, "ratio": 0.005, "vulnClass": "none"}}, {"type": "Feature", "geometry": {"type": "MultiPolygon", "coordinates": [[[[72.25514151, 34.17958122], [72.25519148, 34.17958163], [72.25519078, 34.17963932], [72.25525613, 34.17963987], [72.25525754, 34.17952449], [72.25514222, 34.17952353], [72.25514151, 34.17958122]]]]}, "properties": {"id": "Pakistan_123102310_836498", "height": 3.219961881637573, "hmax": 0.022, "ratio": 0.007, "vulnClass": "none"}}, {"type": "Feature", "geometry": {"type": "MultiPolygon", "coordinates": [[[[72.25508691, 34.17975251], [72.25491481, 34.17961503], [72.2548765, 34.17964785], [72.25504859, 34.17978534], [72.25508691, 34.17975251]]]]}, "properties": {"id": "Pakistan_123102310_718175", "height": 5.896666049957275, "hmax": 0.02, "ratio": 0.003, "vulnClass": "none"}}, {"type": "Feature", "geometry": {"type": "MultiPolygon", "coordinates": [[[[72.25407633, 34.1795291], [72.25400564, 34.17954763], [72.2540265, 34.17960208], [72.25409718, 34.17958355], [72.25407633, 34.1795291]]]]}, "properties": {"id": "Pakistan_123102310_490284", "height": 5.264872550964355, "hmax": 0.017, "ratio": 0.003, "vulnClass": "none"}}, {"type": "Feature", "geometry": {"type": "MultiPolygon", "coordinates": [[[[72.25499548, 34.17921958], [72.25501628, 34.17907518], [72.2549528, 34.17906892], [72.25494461, 34.17912581], [72.25483618, 34.17911512], [72.25482358, 34.17920264], [72.25499548, 34.17921958]]]]}, "properties": {"id": "Pakistan_123102310_185920", "height": 5.368284225463867, "hmax": 0.018, "ratio": 0.003, "vulnClass": "none"}}, {"type": "Feature", "geometry": {"type": "MultiPolygon", "coordinates": [[[[72.25407601, 34.17909367], [72.25417018, 34.1793248], [72.25427525, 34.1792955], [72.25414985, 34.1789878], [72.25395328, 34.17904261], [72.25398449, 34.1791192], [72.25407601, 34.17909367]]]]}, "properties": {"id": "Pakistan_123102310_73297", "height": 4.668398857116699, "hmax": 0.017, "ratio": 0.004, "vulnClass": "none"}}, {"type": "Feature", "geometry": {"type": "MultiPolygon", "coordinates": [[[[72.25457511, 34.17883736], [72.25455318, 34.17880903], [72.25461481, 34.17877638], [72.25457775, 34.17872851], [72.25430687, 34.17887199], [72.25436586, 34.1789482], [72.25457511, 34.17883736]]]]}, "properties": {"id": "Pakistan_123102310_737175", "height": 2.93917179107666, "hmax": 0.04, "ratio": 0.014, "vulnClass": "none"}}, {"type": "Feature", "geometry": {"type": "MultiPolygon", "coordinates": [[[[72.25503076, 34.17886919], [72.25500699, 34.17907366], [72.25519302, 34.17908846], [72.25519762, 34.17904889], [72.25547667, 34.17907109], [72.25548715, 34.17898094], [72.25523202, 34.17896065], [72.25524071, 34.17888589], [72.25503076, 34.17886919]]]]}, "properties": {"id": "Pakistan_123102310_746791", "height": 4.713497638702393, "hmax": 0.023, "ratio": 0.005, "vulnClass": "none"}}, {"type": "Feature", "geometry": {"type": "MultiPolygon", "coordinates": [[[[72.25525833, 34.179189], [72.2552106, 34.17918478], [72.25520041, 34.17926376], [72.25524814, 34.17926798], [72.25525833, 34.179189]]]]}, "properties": {"id": "Pakistan_123102310_204656", "height": 3.073577165603638, "hmax": 0.022, "ratio": 0.007, "vulnClass": "none"}}, {"type": "Feature", "geometry": {"type": "MultiPolygon", "coordinates": [[[[72.25545322, 34.17933142], [72.25579982, 34.17935366], [72.25580975, 34.17924778], [72.25566311, 34.17923838], [72.25567833, 34.17907602], [72.25547836, 34.17906321], [72.25545322, 34.17933142]]]]}, "properties": {"id": "Pakistan_123102310_661018", "height": 3.533704519271851, "hmax": 0.022, "ratio": 0.006, "vulnClass": "none"}}, {"type": "Feature", "geometry": {"type": "MultiPolygon", "coordinates": [[[[72.25578573, 34.17914529], [72.25578406, 34.17919629], [72.25593147, 34.1791996], [72.25593314, 34.1791486], [72.25578573, 34.17914529]]]]}, "properties": {"id": "Pakistan_123102310_641820", "height": 5.085806369781494, "hmax": 0.022, "ratio": 0.004, "vulnClass": "none"}}, {"type": "Feature", "geometry": {"type": "MultiPolygon", "coordinates": [[[[72.25579758, 34.1783117], [72.25580113, 34.17839506], [72.255919, 34.17839163], [72.25591545, 34.17830827], [72.25579758, 34.1783117]]]]}, "properties": {"id": "Pakistan_123102310_641821", "height": 4.511875152587891, "hmax": 0.03, "ratio": 0.007, "vulnClass": "none"}}, {"type": "Feature", "geometry": {"type": "MultiPolygon", "coordinates": [[[[72.25526872, 34.17858776], [72.25527929, 34.17837955], [72.25516148, 34.17837545], [72.25516103, 34.17838432], [72.25511552, 34.17838273], [72.2551054, 34.17858209], [72.25526872, 34.17858776]]]]}, "properties": {"id": "Pakistan_123102310_775098", "height": 3.352911949157715, "hmax": 0.03, "ratio": 0.009, "vulnClass": "none"}}, {"type": "Feature", "geometry": {"type": "MultiPolygon", "coordinates": [[[[72.25501506, 34.17873017], [72.25509002, 34.17873287], [72.25509621, 34.17861549], [72.25502125, 34.17861279], [72.25501506, 34.17873017]]]]}, "properties": {"id": "Pakistan_123102310_751445", "height": 3.829633712768555, "hmax": 0.03, "ratio": 0.008, "vulnClass": "none"}}, {"type": "Feature", "geometry": {"type": "MultiPolygon", "coordinates": [[[[72.25490123, 34.17860157], [72.25489804, 34.17870043], [72.25501223, 34.17870295], [72.25501541, 34.17860408], [72.25490123, 34.17860157]]]]}, "properties": {"id": "Pakistan_123102310_223686", "height": 3.829633712768555, "hmax": 0.04, "ratio": 0.01, "vulnClass": "none"}}, {"type": "Feature", "geometry": {"type": "MultiPolygon", "coordinates": [[[[72.2567942, 34.17823628], [72.25679221, 34.17818974], [72.25670917, 34.17819218], [72.25671116, 34.17823872], [72.2567942, 34.17823628]]]]}, "properties": {"id": "Pakistan_123102310_305805", "height": 8.828117370605469, "hmax": 0.013, "ratio": 0.002, "vulnClass": "none"}}, {"type": "Feature", "geometry": {"type": "MultiPolygon", "coordinates": [[[[72.25617483, 34.17862887], [72.25618134, 34.17875735], [72.25629809, 34.17875329], [72.25629715, 34.17873474], [72.25626502, 34.17873585], [72.25625944, 34.17862594], [72.25617483, 34.17862887]]]]}, "properties": {"id": "Pakistan_123102310_62394", "height": 4.79052209854126, "hmax": 0.013, "ratio": 0.003, "vulnClass": "none"}}, {"type": "Feature", "geometry": {"type": "MultiPolygon", "coordinates": [[[[72.25618278, 34.17859532], [72.25646957, 34.17858903], [72.25646709, 34.17851142], [72.2561803, 34.17851771], [72.25618278, 34.17859532]]]]}, "properties": {"id": "Pakistan_123102310_81354", "height": 5.295354843139648, "hmax": 0.013, "ratio": 0.003, "vulnClass": "none"}}, {"type": "Feature", "geometry": {"type": "MultiPolygon", "coordinates": [[[[72.25671882, 34.17835635], [72.25678419, 34.17835847], [72.25678926, 34.17825131], [72.25672389, 34.17824919], [72.25671882, 34.17835635]]]]}, "properties": {"id": "Pakistan_123102310_149129", "height": 8.882406234741211, "hmax": 0.013, "ratio": 0.002, "vulnClass": "none"}}, {"type": "Feature", "geometry": {"type": "MultiPolygon", "coordinates": [[[[72.25727567, 34.17832322], [72.25707997, 34.17832691], [72.25708295, 34.17843558], [72.25727865, 34.1784319], [72.25727567, 34.17832322]]]]}, "properties": {"id": "Pakistan_123102310_864834", "height": 4.962514400482178, "hmax": 0.016, "ratio": 0.003, "vulnClass": "none"}}, {"type": "Feature", "geometry": {"type": "MultiPolygon", "coordinates": [[[[72.25733952, 34.17838386], [72.25734836, 34.17841223], [72.25741626, 34.17839774], [72.25740742, 34.17836937], [72.25733952, 34.17838386]]]]}, "properties": {"id": "Pakistan_123102310_15626", "height": 4.004086494445801, "hmax": 0.018, "ratio": 0.005, "vulnClass": "none"}}, {"type": "Feature", "geometry": {"type": "MultiPolygon", "coordinates": [[[[72.25745769, 34.17827657], [72.25735043, 34.17827806], [72.25735164, 34.17833795], [72.2574589, 34.17833647], [72.25745769, 34.17827657]]]]}, "properties": {"id": "Pakistan_123102310_912264", "height": 7.18818187713623, "hmax": 0.018, "ratio": 0.003, "vulnClass": "none"}}, {"type": "Feature", "geometry": {"type": "MultiPolygon", "coordinates": [[[[72.25760156, 34.17790464], [72.25759921, 34.17784702], [72.25744763, 34.17785126], [72.25744999, 34.17790889], [72.25760156, 34.17790464]]]]}, "properties": {"id": "Pakistan_123102310_812857", "height": 3.78976583480835, "hmax": 0.003, "ratio": 0.001, "vulnClass": "none"}}, {"type": "Feature", "geometry": {"type": "MultiPolygon", "coordinates": [[[[72.25748059, 34.17755503], [72.25748519, 34.17773691], [72.25768091, 34.17773352], [72.25767603, 34.17754055], [72.25761168, 34.17754166], [72.25761269, 34.17758159], [72.25752958, 34.17758303], [72.25752885, 34.17755419], [72.25748059, 34.17755503]]]]}, "properties": {"id": "Pakistan_123102310_784592", "height": 3.653372764587402, "hmax": 0.003, "ratio": 0.001, "vulnClass": "none"}}, {"type": "Feature", "geometry": {"type": "MultiPolygon", "coordinates": [[[[72.25685661, 34.1775841], [72.25718062, 34.17757316], [72.25717625, 34.17748455], [72.25685224, 34.17749549], [72.25685661, 34.1775841]]]]}, "properties": {"id": "Pakistan_123102310_92329", "height": 3.995447158813477, "hmax": 0.016, "ratio": 0.004, "vulnClass": "none"}}, {"type": "Feature", "geometry": {"type": "MultiPolygon", "coordinates": [[[[72.25594608, 34.17749315], [72.25594859, 34.17757742], [72.25617108, 34.17757287], [72.25616856, 34.1774886], [72.25594608, 34.17749315]]]]}, "properties": {"id": "Pakistan_123102310_251946", "height": 3.088228225708008, "hmax": 0.015, "ratio": 0.005, "vulnClass": "none"}}, {"type": "Feature", "geometry": {"type": "MultiPolygon", "coordinates": [[[[72.25697021, 34.17749182], [72.25696847, 34.17738613], [72.25698456, 34.17738595], [72.25698312, 34.17729862], [72.25700576, 34.17729837], [72.25700514, 34.17726065], [72.25682814, 34.17726264], [72.25683193, 34.17749337], [72.25697021, 34.17749182]]]]}, "properties": {"id": "Pakistan_123102310_414490", "height": 3.67859959602356, "hmax": 0.016, "ratio": 0.004, "vulnClass": "none"}}, {"type": "Feature", "geometry": {"type": "MultiPolygon", "coordinates": [[[[72.25714159, 34.17701798], [72.25713746, 34.17696717], [72.25699715, 34.17697498], [72.25698602, 34.17683802], [72.25694475, 34.17684032], [72.25695086, 34.17691542], [72.25682002, 34.1769227], [72.25681086, 34.17681004], [72.25670673, 34.17681584], [72.25672505, 34.17704116], [72.25714159, 34.17701798]]]]}, "properties": {"id": "Pakistan_123102310_281343", "height": 3.589327335357666, "hmax": 0.011, "ratio": 0.003, "vulnClass": "none"}}, {"type": "Feature", "geometry": {"type": "MultiPolygon", "coordinates": [[[[72.25766625, 34.17704178], [72.2575376, 34.17704469], [72.25754185, 34.17717329], [72.2576705, 34.17717039], [72.25766625, 34.17704178]]]]}, "properties": {"id": "Pakistan_123102310_542344", "height": 3.12688684463501, "hmax": 0.013, "ratio": 0.004, "vulnClass": "none"}}, {"type": "Feature", "geometry": {"type": "MultiPolygon", "coordinates": [[[[72.25768982, 34.17731334], [72.25768157, 34.17718278], [72.25751186, 34.17719013], [72.25752012, 34.17732069], [72.25768982, 34.17731334]]]]}, "properties": {"id": "Pakistan_123102310_148160", "height": 2.463558673858643, "hmax": 0.003, "ratio": 0.001, "vulnClass": "none"}}, {"type": "Feature", "geometry": {"type": "MultiPolygon", "coordinates": [[[[72.2574289, 34.17670094], [72.25743743, 34.17690929], [72.25768513, 34.17690236], [72.25767661, 34.17669401], [72.2574289, 34.17670094]]]]}, "properties": {"id": "Pakistan_123102310_157644", "height": 3.069063663482666, "hmax": 0.013, "ratio": 0.004, "vulnClass": "none"}}, {"type": "Feature", "geometry": {"type": "MultiPolygon", "coordinates": [[[[72.25598145, 34.17587355], [72.25598025, 34.17594591], [72.25613977, 34.17594773], [72.25614097, 34.17587536], [72.25598145, 34.17587355]]]]}, "properties": {"id": "Pakistan_123102310_62390", "height": 2.632213115692139, "hmax": 0.009, "ratio": 0.003, "vulnClass": "none"}}, {"type": "Feature", "geometry": {"type": "MultiPolygon", "coordinates": [[[[72.25628093, 34.17606798], [72.25622065, 34.1760688], [72.25622092, 34.17608211], [72.2559769, 34.17608545], [72.25597835, 34.1761578], [72.25628264, 34.17615366], [72.25628093, 34.17606798]]]]}, "properties": {"id": "Pakistan_123102310_808216", "height": 2.797503232955933, "hmax": 0.009, "ratio": 0.003, "vulnClass": "none"}}, {"type": "Feature", "geometry": {"type": "MultiPolygon", "coordinates": [[[[72.25251731, 34.17711729], [72.25251565, 34.17716279], [72.25265232, 34.17716621], [72.25265398, 34.1771207], [72.25251731, 34.17711729]]]]}, "properties": {"id": "Pakistan_123102310_883800", "height": 2.515583276748657, "hmax": 0.006, "ratio": 0.002, "vulnClass": "none"}}, {"type": "Feature", "geometry": {"type": "MultiPolygon", "coordinates": [[[[72.25272224, 34.17719467], [72.25266421, 34.17720093], [72.25267436, 34.17726536], [72.25251728, 34.17728229], [72.25253016, 34.17736406], [72.25274527, 34.17734086], [72.25272224, 34.17719467]]]]}, "properties": {"id": "Pakistan_123102310_575673", "height": 3.24592399597168, "hmax": 0.006, "ratio": 0.002, "vulnClass": "none"}}, {"type": "Feature", "geometry": {"type": "MultiPolygon", "coordinates": [[[[72.25241069, 34.177248], [72.25240684, 34.1771638], [72.2522997, 34.17716716], [72.25230356, 34.17725136], [72.25241069, 34.177248]]]]}, "properties": {"id": "Pakistan_123102310_945187", "height": 2.579897165298462, "hmax": 0.006, "ratio": 0.002, "vulnClass": "none"}}, {"type": "Feature", "geometry": {"type": "MultiPolygon", "coordinates": [[[[72.25388211, 34.17666582], [72.25388415, 34.17675579], [72.2541201, 34.17675216], [72.25411571, 34.17655791], [72.25405672, 34.17655883], [72.25405908, 34.17666308], [72.25388211, 34.17666582]]]]}, "properties": {"id": "Pakistan_123102310_556494", "height": 2.790515422821045, "hmax": 0.01, "ratio": 0.004, "vulnClass": "none"}}, {"type": "Feature", "geometry": {"type": "MultiPolygon", "coordinates": [[[[72.25342142, 34.1758134], [72.25342521, 34.17589883], [72.25353771, 34.17589541], [72.25353392, 34.17580998], [72.25342142, 34.1758134]]]]}, "properties": {"id": "Pakistan_123102310_405111", "height": 2.581106662750244, "hmax": 0.008, "ratio": 0.003, "vulnClass": "none"}}, {"type": "Feature", "geometry": {"type": "MultiPolygon", "coordinates": [[[[72.25309834, 34.1760237], [72.2530179, 34.17602487], [72.25301729, 34.17599603], [72.25293416, 34.17599723], [72.25294514, 34.17651633], [72.25302826, 34.17651512], [72.25303202, 34.17669259], [72.25311246, 34.17669142], [72.25309834, 34.1760237]]]]}, "properties": {"id": "Pakistan_123102310_270710", "height": 3.124323844909668, "hmax": 0.007, "ratio": 0.002, "vulnClass": "none"}}, {"type": "Feature", "geometry": {"type": "MultiPolygon", "coordinates": [[[[72.25108051, 34.17586413], [72.25108256, 34.17604938], [72.25192739, 34.17604302], [72.25192696, 34.17600417], [72.25159707, 34.17600667], [72.25159633, 34.17594011], [72.25168346, 34.17593945], [72.25168286, 34.17588509], [72.25123765, 34.17588844], [72.25123737, 34.17586294], [72.25108051, 34.17586413]]]]}, "properties": {"id": "Pakistan_123102310_242424", "height": 2.788797855377197, "hmax": 0.004, "ratio": 0.001, "vulnClass": "none"}}, {"type": "Feature", "geometry": {"type": "MultiPolygon", "coordinates": [[[[72.25296518, 34.17921364], [72.25295345, 34.17917384], [72.2528294, 34.17919887], [72.25284113, 34.17923866], [72.25296518, 34.17921364]]]]}, "properties": {"id": "Pakistan_123102310_62370", "height": 3.45116400718689, "hmax": 0.008, "ratio": 0.002, "vulnClass": "none"}}, {"type": "Feature", "geometry": {"type": "MultiPolygon", "coordinates": [[[[72.2538701, 34.17902653], [72.25358419, 34.17911645], [72.2536029, 34.17915717], [72.25388881, 34.17906724], [72.2538701, 34.17902653]]]]}, "properties": {"id": "Pakistan_123102310_461904", "height": 2.76566481590271, "hmax": 0.008, "ratio": 0.003, "vulnClass": "none"}}, {"type": "Feature", "geometry": {"type": "MultiPolygon", "coordinates": [[[[72.25333075, 34.17911915], [72.2534185, 34.17945169], [72.25352603, 34.17943228], [72.25345002, 34.17914422], [72.25356523, 34.17912342], [72.25355349, 34.17907894], [72.25333075, 34.17911915]]]]}, "properties": {"id": "Pakistan_123102310_242446", "height": 4.166840076446533, "hmax": 0.008, "ratio": 0.002, "vulnClass": "none"}}, {"type": "Feature", "geometry": {"type": "MultiPolygon", "coordinates": [[[[72.25340706, 34.17934749], [72.25335522, 34.17935548], [72.2533359, 34.1792697], [72.25314408, 34.17929928], [72.2532064, 34.17957591], [72.25345006, 34.17953834], [72.25340706, 34.17934749]]]]}, "properties": {"id": "Pakistan_123102310_775091", "height": 4.040280342102051, "hmax": 0.008, "ratio": 0.002, "vulnClass": "none"}}, {"type": "Feature", "geometry": {"type": "MultiPolygon", "coordinates": [[[[72.25399908, 34.1792141], [72.25391738, 34.17923714], [72.25394979, 34.17931578], [72.25369747, 34.17938693], [72.25372733, 34.17945938], [72.25406134, 34.17936518], [72.25399908, 34.1792141]]]]}, "properties": {"id": "Pakistan_123102310_765700", "height": 6.35478687286377, "hmax": 0.013, "ratio": 0.002, "vulnClass": "none"}}, {"type": "Feature", "geometry": {"type": "MultiPolygon", "coordinates": [[[[72.2540634, 34.17984004], [72.25403723, 34.17959021], [72.25395036, 34.17959643], [72.2539689, 34.17977359], [72.25377189, 34.17978771], [72.25376995, 34.17976912], [72.25371573, 34.179773], [72.25372529, 34.17986428], [72.2540634, 34.17984004]]]]}, "properties": {"id": "Pakistan_123102310_286595", "height": 4.888537406921387, "hmax": 0.015, "ratio": 0.003, "vulnClass": "none"}}, {"type": "Feature", "geometry": {"type": "MultiPolygon", "coordinates": [[[[72.25301851, 34.1793954], [72.25298719, 34.17927448], [72.25283748, 34.17930102], [72.25286882, 34.17942194], [72.25301851, 34.1793954]]]]}, "properties": {"id": "Pakistan_123102310_490278", "height": 4.134366035461426, "hmax": 0.008, "ratio": 0.002, "vulnClass": "none"}}, {"type": "Feature", "geometry": {"type": "MultiPolygon", "coordinates": [[[[72.25155066, 34.1797552], [72.25151742, 34.17959117], [72.25145742, 34.17959949], [72.25147272, 34.17967503], [72.25121966, 34.17971013], [72.25123759, 34.17979862], [72.25155066, 34.1797552]]]]}, "properties": {"id": "Pakistan_123102310_551754", "height": 3.816541910171509, "hmax": 0.013, "ratio": 0.003, "vulnClass": "none"}}, {"type": "Feature", "geometry": {"type": "MultiPolygon", "coordinates": [[[[72.25333281, 34.18162294], [72.25326582, 34.18162123], [72.25326376, 34.18167665], [72.25333076, 34.18167836], [72.25333281, 34.18162294]]]]}, "properties": {"id": "Pakistan_123102310_713449", "height": 2.630159616470337, "hmax": 0.007, "ratio": 0.003, "vulnClass": "none"}}, {"type": "Feature", "geometry": {"type": "MultiPolygon", "coordinates": [[[[72.25753743, 34.18014937], [72.2576734, 34.1801581], [72.25768085, 34.18007869], [72.25755554, 34.18007065], [72.25756058, 34.1800169], [72.2572193, 34.17999503], [72.25721489, 34.18004214], [72.2574895, 34.18005976], [72.25748144, 34.18014578], [72.25731347, 34.18013501], [72.25731037, 34.18016809], [72.2572997, 34.18016741], [72.25728937, 34.18027769], [72.25735335, 34.18028179], [72.25735914, 34.18022004], [72.25746846, 34.18022705], [72.25744964, 34.18042776], [72.25757229, 34.18043563], [72.2575758, 34.18039814], [72.25751448, 34.1803942], [72.25753743, 34.18014937]]]]}, "properties": {"id": "Pakistan_123102310_26183", "height": 3.162875175476074, "hmax": 0.127, "ratio": 0.04, "vulnClass": "none"}}, {"type": "Feature", "geometry": {"type": "MultiPolygon", "coordinates": [[[[72.2572567, 34.18047338], [72.2573637, 34.18047798], [72.25736092, 34.18052224], [72.25743047, 34.18052523], [72.25743806, 34.18040433], [72.25726152, 34.18039673], [72.2572567, 34.18047338]]]]}, "properties": {"id": "Pakistan_123102310_243467", "height": 3.173884391784668, "hmax": 0.127, "ratio": 0.04, "vulnClass": "none"}}, {"type": "Feature", "geometry": {"type": "MultiPolygon", "coordinates": [[[[72.25723833, 34.18059226], [72.25723833, 34.18062776], [72.25730807, 34.18062776], [72.25730807, 34.18059226], [72.25723833, 34.18059226]]]]}, "properties": {"id": "Pakistan_123102310_233186", "height": 3.431926012039185, "hmax": 0.127, "ratio": 0.037, "vulnClass": "none"}}, {"type": "Feature", "geometry": {"type": "MultiPolygon", "coordinates": [[[[72.25732708, 34.18079597], [72.25741737, 34.18080688], [72.25740932, 34.1808525], [72.25746185, 34.18085885], [72.25748192, 34.18074508], [72.25742577, 34.1807383], [72.25742999, 34.1807144], [72.25751766, 34.18072499], [72.25752442, 34.18068668], [72.25759007, 34.18069461], [72.25761859, 34.18053304], [72.25756606, 34.18052669], [72.25754651, 34.1806375], [72.25732754, 34.18061105], [72.25732242, 34.18064008], [72.25735393, 34.18064389], [72.25732708, 34.18079597]]]]}, "properties": {"id": "Pakistan_123102310_665871", "height": 3.267642021179199, "hmax": 0.127, "ratio": 0.039, "vulnClass": "none"}}, {"type": "Feature", "geometry": {"type": "MultiPolygon", "coordinates": [[[[72.2570832, 34.18060842], [72.25707459, 34.1806599], [72.25702722, 34.18065448], [72.2570163, 34.1807198], [72.25718737, 34.18073937], [72.25720689, 34.18062258], [72.2570832, 34.18060842]]]]}, "properties": {"id": "Pakistan_123102310_893232", "height": 2.464364051818848, "hmax": 0.098, "ratio": 0.04, "vulnClass": "none"}}, {"type": "Feature", "geometry": {"type": "MultiPolygon", "coordinates": [[[[72.25739103, 34.18096516], [72.25752233, 34.18096856], [72.25752476, 34.18090427], [72.25739346, 34.18090087], [72.25739103, 34.18096516]]]]}, "properties": {"id": "Pakistan_123102310_251952", "height": 2.450894832611084, "hmax": 0.128, "ratio": 0.052, "vulnClass": "low"}}, {"type": "Feature", "geometry": {"type": "MultiPolygon", "coordinates": [[[[72.25514824, 34.18160147], [72.25543773, 34.18160757], [72.25544163, 34.18148118], [72.25529688, 34.18147813], [72.25529549, 34.18152337], [72.25521775, 34.18152174], [72.25521953, 34.18146408], [72.25515252, 34.18146267], [72.25514824, 34.18160147]]]]}, "properties": {"id": "Pakistan_123102310_419220", "height": 2.730174541473389, "hmax": 0.006, "ratio": 0.002, "vulnClass": "none"}}, {"type": "Feature", "geometry": {"type": "MultiPolygon", "coordinates": [[[[72.2549453, 34.18091282], [72.25508458, 34.18128793], [72.25524047, 34.18124832], [72.25519682, 34.18113072], [72.25509387, 34.18115687], [72.25505699, 34.18105752], [72.25513787, 34.18103697], [72.25507916, 34.18087881], [72.2549453, 34.18091282]]]]}, "properties": {"id": "Pakistan_123102310_447615", "height": 2.595280170440674, "hmax": 0.006, "ratio": 0.002, "vulnClass": "none"}}, {"type": "Feature", "geometry": {"type": "MultiPolygon", "coordinates": [[[[72.25464364, 34.18215028], [72.25503994, 34.1821637], [72.25504203, 34.18212161], [72.25474212, 34.18211145], [72.25474447, 34.18206401], [72.25478731, 34.18206546], [72.25478968, 34.18201765], [72.25465044, 34.18201294], [72.25464364, 34.18215028]]]]}, "properties": {"id": "Pakistan_123102310_727681", "height": 2.439054727554321, "hmax": 0.012, "ratio": 0.005, "vulnClass": "none"}}, {"type": "Feature", "geometry": {"type": "MultiPolygon", "coordinates": [[[[72.25462221, 34.18238841], [72.25462609, 34.1824169], [72.25466052, 34.18241369], [72.25465664, 34.18238521], [72.25462221, 34.18238841]]]]}, "properties": {"id": "Pakistan_123102310_101897", "height": 2.644673109054565, "hmax": 0.011, "ratio": 0.004, "vulnClass": "none"}}, {"type": "Feature", "geometry": {"type": "MultiPolygon", "coordinates": [[[[72.25504842, 34.18235445], [72.25504769, 34.18231583], [72.25487723, 34.18231804], [72.25487796, 34.18235667], [72.25504842, 34.18235445]]]]}, "properties": {"id": "Pakistan_123102310_509343", "height": 2.443249940872192, "hmax": 0.016, "ratio": 0.007, "vulnClass": "none"}}, {"type": "Feature", "geometry": {"type": "MultiPolygon", "coordinates": [[[[72.25476661, 34.18237201], [72.25487553, 34.18236317], [72.25487031, 34.18231921], [72.25477999, 34.18232655], [72.25475964, 34.18215513], [72.25469854, 34.18216009], [72.25470219, 34.18219086], [72.25464374, 34.18219561], [72.25468079, 34.18250768], [72.25459843, 34.18251437], [72.25460339, 34.18255613], [72.25468043, 34.18254987], [72.25470871, 34.18278814], [72.25481497, 34.1827795], [72.25476661, 34.18237201]]]]}, "properties": {"id": "Pakistan_123102310_281317", "height": 4.232855796813965, "hmax": 0.013, "ratio": 0.003, "vulnClass": "none"}}, {"type": "Feature", "geometry": {"type": "MultiPolygon", "coordinates": [[[[72.25534426, 34.18257844], [72.25526114, 34.18257974], [72.25526452, 34.18272835], [72.25534764, 34.18272705], [72.25534426, 34.18257844]]]]}, "properties": {"id": "Pakistan_123102310_334240", "height": 2.860364198684692, "hmax": 0.031, "ratio": 0.011, "vulnClass": "none"}}, {"type": "Feature", "geometry": {"type": "MultiPolygon", "coordinates": [[[[72.25541153, 34.18193604], [72.25540799, 34.18198022], [72.25546674, 34.18198345], [72.25547028, 34.18193927], [72.25541153, 34.18193604]]]]}, "properties": {"id": "Pakistan_123102310_90930", "height": 3.053069829940796, "hmax": 0.016, "ratio": 0.005, "vulnClass": "none"}}, {"type": "Feature", "geometry": {"type": "MultiPolygon", "coordinates": [[[[72.25514968, 34.18208983], [72.25515454, 34.18235604], [72.2552484, 34.18235486], [72.25524641, 34.18224616], [72.25525177, 34.1822461], [72.25524999, 34.18214849], [72.2552044, 34.18214906], [72.25520331, 34.18208916], [72.25514968, 34.18208983]]]]}, "properties": {"id": "Pakistan_123102310_185922", "height": 2.752612590789795, "hmax": 0.016, "ratio": 0.006, "vulnClass": "none"}}, {"type": "Feature", "geometry": {"type": "MultiPolygon", "coordinates": [[[[72.25539883, 34.18180573], [72.25539382, 34.18176981], [72.25531021, 34.1817778], [72.25531522, 34.18181371], [72.25539883, 34.18180573]]]]}, "properties": {"id": "Pakistan_123102310_670513", "height": 3.080371379852295, "hmax": 0.016, "ratio": 0.005, "vulnClass": "none"}}, {"type": "Feature", "geometry": {"type": "MultiPolygon", "coordinates": [[[[72.25634564, 34.18230018], [72.25623467, 34.18231838], [72.25624695, 34.18236962], [72.25630631, 34.18235988], [72.25632217, 34.18242607], [72.25619314, 34.18244723], [72.25620286, 34.1824878], [72.25613834, 34.18249838], [72.25615164, 34.18255389], [72.25621874, 34.18254288], [72.25622847, 34.18258344], [72.25636524, 34.18256101], [72.25635706, 34.18252685], [72.25628222, 34.18253913], [72.25627096, 34.18249216], [72.25629935, 34.1824875], [72.25630344, 34.18250458], [72.25634989, 34.18249696], [72.25633659, 34.18244145], [72.25637788, 34.18243468], [72.25634564, 34.18230018]]]]}, "properties": {"id": "Pakistan_123102310_940607", "height": 2.658470153808594, "hmax": 0.039, "ratio": 0.015, "vulnClass": "none"}}, {"type": "Feature", "geometry": {"type": "MultiPolygon", "coordinates": [[[[72.25498966, 34.18277548], [72.25499165, 34.18272894], [72.25493153, 34.18272718], [72.25492954, 34.18277372], [72.25498966, 34.18277548]]]]}, "properties": {"id": "Pakistan_123102310_622851", "height": 3.047050476074219, "hmax": 0.031, "ratio": 0.01, "vulnClass": "none"}}, {"type": "Feature", "geometry": {"type": "MultiPolygon", "coordinates": [[[[72.25508816, 34.18274805], [72.25508642, 34.18280662], [72.25533155, 34.18281158], [72.25533329, 34.18275304], [72.25508816, 34.18274805]]]]}, "properties": {"id": "Pakistan_123102310_348477", "height": 5.444089889526367, "hmax": 0.031, "ratio": 0.006, "vulnClass": "none"}}, {"type": "Feature", "geometry": {"type": "MultiPolygon", "coordinates": [[[[72.25489706, 34.18277148], [72.25489101, 34.18273444], [72.25481989, 34.18274239], [72.25482594, 34.18277944], [72.25489706, 34.18277148]]]]}, "properties": {"id": "Pakistan_123102310_442791", "height": 2.582701683044434, "hmax": 0.024, "ratio": 0.009, "vulnClass": "none"}}, {"type": "Feature", "geometry": {"type": "MultiPolygon", "coordinates": [[[[72.2546044, 34.18276677], [72.25456953, 34.18276677], [72.25456953, 34.1828067], [72.2546044, 34.1828067], [72.2546044, 34.18276677]]]]}, "properties": {"id": "Pakistan_123102310_461907", "height": 3.119952201843262, "hmax": 0.016, "ratio": 0.005, "vulnClass": "none"}}, {"type": "Feature", "geometry": {"type": "MultiPolygon", "coordinates": [[[[72.25334027, 34.18182921], [72.25327324, 34.18183031], [72.25327658, 34.18196903], [72.25334361, 34.18196793], [72.25334027, 34.18182921]]]]}, "properties": {"id": "Pakistan_123102310_831801", "height": 4.036237239837646, "hmax": 0.007, "ratio": 0.002, "vulnClass": "none"}}, {"type": "Feature", "geometry": {"type": "MultiPolygon", "coordinates": [[[[72.25296852, 34.18229028], [72.252936, 34.18223161], [72.25284387, 34.18226657], [72.2528764, 34.18232523], [72.25296852, 34.18229028]]]]}, "properties": {"id": "Pakistan_123102310_694340", "height": 3.336354494094849, "hmax": 0.007, "ratio": 0.002, "vulnClass": "none"}}, {"type": "Feature", "geometry": {"type": "MultiPolygon", "coordinates": [[[[72.25295793, 34.18237663], [72.25294168, 34.1823129], [72.25288776, 34.18232231], [72.25290401, 34.18238604], [72.25295793, 34.18237663]]]]}, "properties": {"id": "Pakistan_123102310_400437", "height": 3.850523471832275, "hmax": 0.007, "ratio": 0.002, "vulnClass": "none"}}, {"type": "Feature", "geometry": {"type": "MultiPolygon", "coordinates": [[[[72.25249764, 34.1825555], [72.25245478, 34.18255683], [72.25245674, 34.18260008], [72.25260405, 34.18259553], [72.25259599, 34.1824171], [72.25249153, 34.18242034], [72.25249764, 34.1825555]]]]}, "properties": {"id": "Pakistan_123102310_158593", "height": 2.826950550079346, "hmax": 0.017, "ratio": 0.006, "vulnClass": "none"}}, {"type": "Feature", "geometry": {"type": "MultiPolygon", "coordinates": [[[[72.25306466, 34.18251867], [72.25306195, 34.1824433], [72.25291456, 34.18244691], [72.25291726, 34.18252228], [72.25306466, 34.18251867]]]]}, "properties": {"id": "Pakistan_123102310_15590", "height": 3.897301912307739, "hmax": 0.012, "ratio": 0.003, "vulnClass": "none"}}, {"type": "Feature", "geometry": {"type": "MultiPolygon", "coordinates": [[[[72.25043479, 34.18388938], [72.2504479, 34.18392367], [72.25048691, 34.18391345], [72.25045796, 34.18383776], [72.2502397, 34.18389489], [72.25025554, 34.18393631], [72.25043479, 34.18388938]]]]}, "properties": {"id": "Pakistan_123102310_177349", "height": 2.441209316253662, "hmax": 0.04, "ratio": 0.016, "vulnClass": "none"}}, {"type": "Feature", "geometry": {"type": "MultiPolygon", "coordinates": [[[[72.25021429, 34.18391965], [72.25019616, 34.18387971], [72.25009629, 34.18391071], [72.25011441, 34.18395066], [72.25021429, 34.18391965]]]]}, "properties": {"id": "Pakistan_123102310_689503", "height": 2.451697111129761, "hmax": 0.04, "ratio": 0.016, "vulnClass": "none"}}, {"type": "Feature", "geometry": {"type": "MultiPolygon", "coordinates": [[[[72.25020835, 34.18408461], [72.25020093, 34.18404564], [72.25015644, 34.18405144], [72.25016386, 34.18409041], [72.25020835, 34.18408461]]]]}, "properties": {"id": "Pakistan_123102310_129867", "height": 2.946391582489014, "hmax": 0.04, "ratio": 0.014, "vulnClass": "none"}}, {"type": "Feature", "geometry": {"type": "MultiPolygon", "coordinates": [[[[72.25000603, 34.1841208], [72.24994804, 34.18414239], [72.24997414, 34.18419036], [72.25003213, 34.18416877], [72.25000603, 34.1841208]]]]}, "properties": {"id": "Pakistan_123102310_343686", "height": 2.880830526351929, "hmax": 0.04, "ratio": 0.014, "vulnClass": "none"}}, {"type": "Feature", "geometry": {"type": "MultiPolygon", "coordinates": [[[[72.25012528, 34.18421785], [72.25002114, 34.18402851], [72.24997777, 34.18404484], [72.25008193, 34.18423417], [72.25012528, 34.18421785]]]]}, "properties": {"id": "Pakistan_123102310_831791", "height": 3.837449073791504, "hmax": 0.04, "ratio": 0.01, "vulnClass": "none"}}, {"type": "Feature", "geometry": {"type": "MultiPolygon", "coordinates": [[[[72.24490019, 34.18610661], [72.24500927, 34.18631628], [72.24520038, 34.18624826], [72.24518091, 34.18621082], [72.24505191, 34.18625673], [72.24498509, 34.18612828], [72.24514577, 34.18607107], [72.245123, 34.1860273], [72.24490019, 34.18610661]]]]}, "properties": {"id": "Pakistan_123102310_310517", "height": 3.474525451660156, "hmax": 0.07, "ratio": 0.02, "vulnClass": "none"}}, {"type": "Feature", "geometry": {"type": "MultiPolygon", "coordinates": [[[[72.2451032, 34.18599582], [72.24511075, 34.18602324], [72.2451541, 34.18601507], [72.24514655, 34.18598765], [72.2451032, 34.18599582]]]]}, "properties": {"id": "Pakistan_123102310_167963", "height": 3.233495235443115, "hmax": 0.081, "ratio": 0.025, "vulnClass": "none"}}, {"type": "Feature", "geometry": {"type": "MultiPolygon", "coordinates": [[[[72.24267172, 34.18039959], [72.24271367, 34.18062047], [72.24286549, 34.18060074], [72.2428367, 34.18044915], [72.24278435, 34.18045596], [72.24278065, 34.18043647], [72.24286441, 34.18042558], [72.24285495, 34.18037578], [72.24267172, 34.18039959]]]]}, "properties": {"id": "Pakistan_123102310_233036", "height": 2.558437824249268, "hmax": 0.016, "ratio": 0.006, "vulnClass": "none"}}, {"type": "Feature", "geometry": {"type": "MultiPolygon", "coordinates": [[[[72.24649701, 34.18278073], [72.24689068, 34.18271607], [72.24687121, 34.18263495], [72.24647754, 34.18269961], [72.24649701, 34.18278073]]]]}, "properties": {"id": "Pakistan_123102310_751419", "height": 2.642649412155151, "hmax": 0.006, "ratio": 0.002, "vulnClass": "none"}}, {"type": "Feature", "geometry": {"type": "MultiPolygon", "coordinates": [[[[72.24766471, 34.18363876], [72.24765677, 34.18359084], [72.24745405, 34.18361384], [72.24743672, 34.1835093], [72.24737617, 34.18351617], [72.24740144, 34.18366862], [72.24766471, 34.18363876]]]]}, "properties": {"id": "Pakistan_123102310_627633", "height": 3.098777532577515, "hmax": 0.011, "ratio": 0.003, "vulnClass": "none"}}, {"type": "Feature", "geometry": {"type": "MultiPolygon", "coordinates": [[[[72.2467969, 34.18087654], [72.24680154, 34.18095846], [72.247112, 34.18094643], [72.24710736, 34.18086451], [72.2467969, 34.18087654]]]]}, "properties": {"id": "Pakistan_123102310_92261", "height": 2.733464241027832, "hmax": 0.009, "ratio": 0.003, "vulnClass": "none"}}, {"type": "Feature", "geometry": {"type": "MultiPolygon", "coordinates": [[[[72.24810122, 34.17581092], [72.24810294, 34.17585303], [72.24816051, 34.17585143], [72.24815879, 34.17580931], [72.24810122, 34.17581092]]]]}, "properties": {"id": "Pakistan_123102310_499630", "height": 2.474056482315063, "hmax": 0.006, "ratio": 0.002, "vulnClass": "none"}}, {"type": "Feature", "geometry": {"type": "MultiPolygon", "coordinates": [[[[72.24819102, 34.17522103], [72.248194, 34.17529287], [72.24832392, 34.17528919], [72.24832094, 34.17521734], [72.24819102, 34.17522103]]]]}, "properties": {"id": "Pakistan_123102310_362553", "height": 2.957115650177002, "hmax": 0.006, "ratio": 0.002, "vulnClass": "none"}}, {"type": "Feature", "geometry": {"type": "MultiPolygon", "coordinates": [[[[72.24825901, 34.17540348], [72.2482548, 34.17529708], [72.24819988, 34.17529857], [72.24820409, 34.17540497], [72.24825901, 34.17540348]]]]}, "properties": {"id": "Pakistan_123102310_641791", "height": 2.957115650177002, "hmax": 0.006, "ratio": 0.002, "vulnClass": "none"}}, {"type": "Feature", "geometry": {"type": "MultiPolygon", "coordinates": [[[[72.24773296, 34.17610656], [72.24790849, 34.17610155], [72.24790669, 34.17605855], [72.24784636, 34.17606027], [72.2478345, 34.17577524], [72.2477193, 34.17577853], [72.24773296, 34.17610656]]]]}, "properties": {"id": "Pakistan_123102310_6158", "height": 2.502160787582397, "hmax": 0.006, "ratio": 0.002, "vulnClass": "none"}}, {"type": "Feature", "geometry": {"type": "MultiPolygon", "coordinates": [[[[72.24689059, 34.17576427], [72.24690328, 34.17602792], [72.24716037, 34.17601945], [72.24715461, 34.17589981], [72.24707427, 34.17590246], [72.24707619, 34.17594233], [72.24694765, 34.17594657], [72.2469388, 34.17576268], [72.24689059, 34.17576427]]]]}, "properties": {"id": "Pakistan_123102310_452334", "height": 2.537238836288452, "hmax": 0.008, "ratio": 0.003, "vulnClass": "none"}}, {"type": "Feature", "geometry": {"type": "MultiPolygon", "coordinates": [[[[72.24675876, 34.17577358], [72.2466651, 34.1757773], [72.24668399, 34.17610275], [72.24678568, 34.17609871], [72.24678144, 34.17602565], [72.24674397, 34.17602714], [72.24673716, 34.1759098], [72.2467666, 34.17590863], [72.24675876, 34.17577358]]]]}, "properties": {"id": "Pakistan_123102310_6963", "height": 3.817816257476807, "hmax": 0.008, "ratio": 0.002, "vulnClass": "none"}}, {"type": "Feature", "geometry": {"type": "MultiPolygon", "coordinates": [[[[72.24770651, 34.17443634], [72.24781471, 34.17443131], [72.24781192, 34.17439017], [72.24769962, 34.17439538], [72.24770187, 34.17442856], [72.24765375, 34.1744308], [72.2476563, 34.1744684], [72.24752796, 34.17447436], [72.24753256, 34.17454207], [72.24765288, 34.17453647], [72.24765724, 34.17460062], [72.24781499, 34.17459329], [72.24781063, 34.17452914], [72.24771312, 34.17453367], [72.24770651, 34.17443634]]]]}, "properties": {"id": "Pakistan_123102310_262369", "height": 2.691526174545288, "hmax": 0.015, "ratio": 0.006, "vulnClass": "none"}}, {"type": "Feature", "geometry": {"type": "MultiPolygon", "coordinates": [[[[72.24675771, 34.17458948], [72.24676627, 34.17482005], [72.24682255, 34.17481862], [72.24681398, 34.17458805], [72.24675771, 34.17458948]]]]}, "properties": {"id": "Pakistan_123102310_699008", "height": 3.561959266662598, "hmax": 0.009, "ratio": 0.003, "vulnClass": "none"}}, {"type": "Feature", "geometry": {"type": "MultiPolygon", "coordinates": [[[[72.24613916, 34.17432082], [72.24617236, 34.17483863], [72.246496, 34.17482442], [72.24648039, 34.17458101], [72.24620758, 34.17459299], [72.24618998, 34.17431859], [72.24613916, 34.17432082]]]]}, "properties": {"id": "Pakistan_123102310_395656", "height": 5.80774450302124, "hmax": 0.012, "ratio": 0.002, "vulnClass": "none"}}, {"type": "Feature", "geometry": {"type": "MultiPolygon", "coordinates": [[[[72.2465501, 34.17397648], [72.24654895, 34.17393878], [72.24652214, 34.17393934], [72.2465233, 34.17397704], [72.2465501, 34.17397648]]]]}, "properties": {"id": "Pakistan_123102310_362546", "height": 2.743369579315186, "hmax": 0.012, "ratio": 0.004, "vulnClass": "none"}}, {"type": "Feature", "geometry": {"type": "MultiPolygon", "coordinates": [[[[72.2484794, 34.17407463], [72.24847629, 34.17420329], [72.24863715, 34.17420595], [72.24863576, 34.17426363], [72.24867329, 34.17426425], [72.24867845, 34.1740513], [72.2486275, 34.17405046], [72.24862686, 34.17407708], [72.2484794, 34.17407463]]]]}, "properties": {"id": "Pakistan_123102310_675306", "height": 2.583380699157715, "hmax": 0.019, "ratio": 0.007, "vulnClass": "none"}}, {"type": "Feature", "geometry": {"type": "MultiPolygon", "coordinates": [[[[72.24910403, 34.17479069], [72.2491313, 34.17526546], [72.24933318, 34.17525754], [72.24950402, 34.17519305], [72.24950041, 34.17513015], [72.24954323, 34.17512847], [72.24954564, 34.17517054], [72.24972227, 34.17516359], [72.2497062, 34.17488341], [72.24968875, 34.17488409], [72.24967611, 34.1746639], [72.24996118, 34.17465269], [72.24995896, 34.17461385], [72.25011812, 34.1746076], [72.25011513, 34.17455566], [72.24990639, 34.17456386], [72.24990194, 34.17448637], [72.24978829, 34.17449084], [72.24979266, 34.17456705], [72.24962186, 34.17463152], [72.24945876, 34.17463793], [72.24945731, 34.17461259], [72.24934224, 34.17461711], [72.2493447, 34.17466016], [72.24935541, 34.17465974], [72.2493596, 34.1747328], [72.249191, 34.17473942], [72.24919374, 34.17478716], [72.24910403, 34.17479069]]]]}, "properties": {"id": "Pakistan_123102310_898024", "height": 3.019089221954346, "hmax": 0.013, "ratio": 0.004, "vulnClass": "none"}}, {"type": "Feature", "geometry": {"type": "MultiPolygon", "coordinates": [[[[72.24992384, 34.17481103], [72.24994461, 34.17495094], [72.24987062, 34.17495846], [72.24987906, 34.1750153], [72.24983279, 34.17502], [72.24982304, 34.17495442], [72.24971207, 34.1749657], [72.2497301, 34.17508713], [72.2499402, 34.17506577], [72.24993988, 34.17506358], [72.24999541, 34.17505794], [72.25018012, 34.17497477], [72.2501772, 34.17495513], [72.25024073, 34.17494867], [72.2504232, 34.1748665], [72.25039782, 34.17482793], [72.25023435, 34.17490153], [72.25021607, 34.17487375], [72.2502032, 34.17478708], [72.25024157, 34.17478319], [72.25023475, 34.17473728], [72.2501614, 34.17474473], [72.25011049, 34.17476766], [72.25008938, 34.1747698], [72.25009295, 34.17479385], [72.24992384, 34.17481103]]]]}, "properties": {"id": "Pakistan_123102310_62336", "height": 2.538252353668213, "hmax": 0.011, "ratio": 0.004, "vulnClass": "none"}}, {"type": "Feature", "geometry": {"type": "MultiPolygon", "coordinates": [[[[72.25003944, 34.17416555], [72.25003648, 34.17411463], [72.24996423, 34.17411751], [72.24996719, 34.17416843], [72.25003944, 34.17416555]]]]}, "properties": {"id": "Pakistan_123102310_627644", "height": 2.525711536407471, "hmax": 0.012, "ratio": 0.005, "vulnClass": "none"}}, {"type": "Feature", "geometry": {"type": "MultiPolygon", "coordinates": [[[[72.24963094, 34.17438444], [72.24962617, 34.17429708], [72.2494388, 34.17430409], [72.24943409, 34.17421772], [72.24961611, 34.17421091], [72.24961333, 34.17415998], [72.24953961, 34.17416273], [72.24953785, 34.1741305], [72.24948844, 34.17413235], [72.24948814, 34.17412693], [72.24940249, 34.17413014], [72.24939935, 34.17407256], [72.2493244, 34.17407536], [72.24933134, 34.17420257], [72.24930457, 34.17420357], [72.24931508, 34.17439624], [72.24963094, 34.17438444]]]]}, "properties": {"id": "Pakistan_123102310_879032", "height": 3.083955764770508, "hmax": 0.015, "ratio": 0.005, "vulnClass": "none"}}, {"type": "Feature", "geometry": {"type": "MultiPolygon", "coordinates": [[[[72.24822531, 34.17380866], [72.24822878, 34.17385509], [72.24828489, 34.17385222], [72.24828142, 34.1738058], [72.24822531, 34.17380866]]]]}, "properties": {"id": "Pakistan_123102310_381457", "height": 2.680778980255127, "hmax": 0.02, "ratio": 0.007, "vulnClass": "none"}}, {"type": "Feature", "geometry": {"type": "MultiPolygon", "coordinates": [[[[72.2488149, 34.17310601], [72.2488177, 34.17320043], [72.24891305, 34.17319849], [72.24891026, 34.17310408], [72.2488149, 34.17310601]]]]}, "properties": {"id": "Pakistan_123102310_320077", "height": 2.752573013305664, "hmax": 0.024, "ratio": 0.009, "vulnClass": "none"}}, {"type": "Feature", "geometry": {"type": "MultiPolygon", "coordinates": [[[[72.24880878, 34.17294838], [72.24881334, 34.17304905], [72.24890595, 34.17304619], [72.2489014, 34.17294551], [72.24880878, 34.17294838]]]]}, "properties": {"id": "Pakistan_123102310_119826", "height": 4.329946041107178, "hmax": 0.024, "ratio": 0.006, "vulnClass": "none"}}, {"type": "Feature", "geometry": {"type": "MultiPolygon", "coordinates": [[[[72.24887137, 34.172947], [72.24887103, 34.17290484], [72.24880398, 34.17290521], [72.24880431, 34.17294737], [72.24887137, 34.172947]]]]}, "properties": {"id": "Pakistan_123102310_34414", "height": 4.553193092346191, "hmax": 0.024, "ratio": 0.005, "vulnClass": "none"}}, {"type": "Feature", "geometry": {"type": "MultiPolygon", "coordinates": [[[[72.2483624, 34.17253264], [72.24837017, 34.17293198], [72.24848929, 34.17293038], [72.24848148, 34.17253104], [72.2483624, 34.17253264]]]]}, "properties": {"id": "Pakistan_123102310_779765", "height": 3.77394437789917, "hmax": 0.016, "ratio": 0.004, "vulnClass": "none"}}, {"type": "Feature", "geometry": {"type": "MultiPolygon", "coordinates": [[[[72.24851305, 34.17282184], [72.24851112, 34.17289947], [72.24857278, 34.17290053], [72.24857472, 34.17282289], [72.24851305, 34.17282184]]]]}, "properties": {"id": "Pakistan_123102310_898021", "height": 2.973706722259521, "hmax": 0.016, "ratio": 0.005, "vulnClass": "none"}}, {"type": "Feature", "geometry": {"type": "MultiPolygon", "coordinates": [[[[72.24676942, 34.17293197], [72.24703152, 34.17297738], [72.24705378, 34.1728894], [72.24681224, 34.17284757], [72.24680397, 34.17288026], [72.24678341, 34.1728767], [72.24676942, 34.17293197]]]]}, "properties": {"id": "Pakistan_123102310_270648", "height": 2.93481707572937, "hmax": 0.011, "ratio": 0.004, "vulnClass": "none"}}, {"type": "Feature", "geometry": {"type": "MultiPolygon", "coordinates": [[[[72.24737847, 34.17350099], [72.24742471, 34.17386086], [72.24685568, 34.17391091], [72.24685003, 34.17386702], [72.24679343, 34.173872], [72.24689545, 34.17372545], [72.2472398, 34.17369516], [72.24717974, 34.17322777], [72.24702061, 34.17324177], [72.24705614, 34.17351825], [72.24693944, 34.17352851], [72.24694564, 34.17357679], [72.24648415, 34.17361738], [72.24652588, 34.17394214], [72.24671539, 34.17392547], [72.24673137, 34.17404972], [72.24653511, 34.174067], [72.2465478, 34.17416574], [72.24769765, 34.17406453], [72.24768225, 34.17394472], [72.24751106, 34.17395978], [72.24748256, 34.17373816], [72.24757008, 34.17373046], [72.24756105, 34.17366024], [72.24765801, 34.17365172], [72.24764916, 34.17358282], [72.24747263, 34.17359836], [72.24746399, 34.1735312], [72.24763904, 34.1735158], [72.24763424, 34.1734785], [72.24737847, 34.17350099]]]]}, "properties": {"id": "Pakistan_123102310_215185", "height": 3.775274038314819, "hmax": 0.012, "ratio": 0.003, "vulnClass": "none"}}, {"type": "Feature", "geometry": {"type": "MultiPolygon", "coordinates": [[[[72.24669761, 34.17343982], [72.24670314, 34.17311145], [72.24652461, 34.17310941], [72.24651911, 34.17343777], [72.24669761, 34.17343982]]]]}, "properties": {"id": "Pakistan_123102310_242380", "height": 4.38807201385498, "hmax": 0.012, "ratio": 0.003, "vulnClass": "none"}}, {"type": "Feature", "geometry": {"type": "MultiPolygon", "coordinates": [[[[72.24672233, 34.17323007], [72.24698265, 34.17327024], [72.24700247, 34.17318231], [72.24674215, 34.17314214], [72.24672233, 34.17323007]]]]}, "properties": {"id": "Pakistan_123102310_599231", "height": 4.409467697143555, "hmax": 0.011, "ratio": 0.003, "vulnClass": "none"}}, {"type": "Feature", "geometry": {"type": "MultiPolygon", "coordinates": [[[[72.24773409, 34.17307387], [72.24773774, 34.17293635], [72.24766804, 34.17293508], [72.24766438, 34.1730726], [72.24773409, 34.17307387]]]]}, "properties": {"id": "Pakistan_123102310_296206", "height": 2.938220977783203, "hmax": 0.016, "ratio": 0.005, "vulnClass": "none"}}, {"type": "Feature", "geometry": {"type": "MultiPolygon", "coordinates": [[[[72.24822225, 34.17401268], [72.24821618, 34.17390196], [72.24811567, 34.17390573], [72.24810679, 34.17374407], [72.2482207, 34.17373979], [72.24821657, 34.1736645], [72.24810415, 34.17366872], [72.24810694, 34.17371965], [72.24800125, 34.17372362], [72.24808943, 34.17369381], [72.24807122, 34.1733615], [72.24812323, 34.17335955], [72.2481208, 34.17331526], [72.24791086, 34.17332313], [72.24791268, 34.17335635], [72.24796364, 34.17335444], [72.24797875, 34.17338504], [72.24793777, 34.17339889], [72.24779446, 34.17340428], [72.24777881, 34.17340957], [72.24778292, 34.1734846], [72.24798635, 34.17347696], [72.24799297, 34.17359771], [72.24793286, 34.17361803], [72.24794334, 34.17363925], [72.24798443, 34.1736377], [72.24799636, 34.17385527], [72.24799938, 34.17386138], [72.24800808, 34.17402025], [72.24800831, 34.17402071], [72.24822225, 34.17401268]]]]}, "properties": {"id": "Pakistan_123102310_935769", "height": 4.905346393585205, "hmax": 0.02, "ratio": 0.004, "vulnClass": "none"}}, {"type": "Feature", "geometry": {"type": "MultiPolygon", "coordinates": [[[[72.24669742, 34.17344186], [72.24662354, 34.17344358], [72.24662457, 34.1734738], [72.24669844, 34.17347208], [72.24669742, 34.17344186]]]]}, "properties": {"id": "Pakistan_123102310_442754", "height": 3.321406126022339, "hmax": 0.012, "ratio": 0.004, "vulnClass": "none"}}, {"type": "Feature", "geometry": {"type": "MultiPolygon", "coordinates": [[[[72.24479045, 34.17389855], [72.24478384, 34.17374476], [72.24460852, 34.17374991], [72.24461511, 34.17390371], [72.24479045, 34.17389855]]]]}, "properties": {"id": "Pakistan_123102310_471379", "height": 3.469264507293701, "hmax": 0.017, "ratio": 0.005, "vulnClass": "none"}}, {"type": "Feature", "geometry": {"type": "MultiPolygon", "coordinates": [[[[72.2441613, 34.17322664], [72.24416244, 34.17326878], [72.2443861, 34.17326463], [72.24438496, 34.17322248], [72.2441613, 34.17322664]]]]}, "properties": {"id": "Pakistan_123102310_234011", "height": 4.00734806060791, "hmax": 0.012, "ratio": 0.003, "vulnClass": "none"}}, {"type": "Feature", "geometry": {"type": "MultiPolygon", "coordinates": [[[[72.24587934, 34.17318005], [72.24587773, 34.17326214], [72.24608957, 34.17326496], [72.24609278, 34.17310079], [72.24604565, 34.17310016], [72.24604483, 34.17314231], [72.24604369, 34.1731423], [72.24604291, 34.17318223], [72.24587934, 34.17318005]]]]}, "properties": {"id": "Pakistan_123102310_860053", "height": 2.669387102127075, "hmax": 0.006, "ratio": 0.002, "vulnClass": "none"}}, {"type": "Feature", "geometry": {"type": "MultiPolygon", "coordinates": [[[[72.24609362, 34.17290724], [72.24588199, 34.17290098], [72.24587593, 34.17304141], [72.24591766, 34.17304264], [72.24591661, 34.17306702], [72.24608651, 34.17307204], [72.24609362, 34.17290724]]]]}, "properties": {"id": "Pakistan_123102310_850593", "height": 2.680618762969971, "hmax": 0.006, "ratio": 0.002, "vulnClass": "none"}}, {"type": "Feature", "geometry": {"type": "MultiPolygon", "coordinates": [[[[72.24388183, 34.17304054], [72.24388496, 34.17318029], [72.24403626, 34.17317797], [72.24403132, 34.17295836], [72.24389726, 34.17296041], [72.24389905, 34.17304027], [72.24388183, 34.17304054]]]]}, "properties": {"id": "Pakistan_123102310_471374", "height": 3.016254425048828, "hmax": 0.011, "ratio": 0.004, "vulnClass": "none"}}, {"type": "Feature", "geometry": {"type": "MultiPolygon", "coordinates": [[[[72.24371416, 34.17360495], [72.24371627, 34.17365019], [72.24378858, 34.17364788], [72.24378647, 34.17360264], [72.24371416, 34.17360495]]]]}, "properties": {"id": "Pakistan_123102310_826966", "height": 4.239736557006836, "hmax": 0.011, "ratio": 0.003, "vulnClass": "none"}}, {"type": "Feature", "geometry": {"type": "MultiPolygon", "coordinates": [[[[72.24357594, 34.17358573], [72.24357627, 34.17390656], [72.24373452, 34.17390645], [72.24373447, 34.17385541], [72.24367398, 34.17385545], [72.24367395, 34.17382532], [72.24374516, 34.17382526], [72.24374512, 34.17377773], [72.24384704, 34.17377766], [72.24384697, 34.17370887], [72.24366846, 34.17370899], [72.24366832, 34.17358566], [72.24357594, 34.17358573]]]]}, "properties": {"id": "Pakistan_123102310_826964", "height": 5.383034706115723, "hmax": 0.011, "ratio": 0.002, "vulnClass": "none"}}, {"type": "Feature", "geometry": {"type": "MultiPolygon", "coordinates": [[[[72.24309049, 34.17455133], [72.24308945, 34.17450253], [72.2429661, 34.17450433], [72.24296532, 34.17446759], [72.24290365, 34.17446849], [72.24290548, 34.17455403], [72.24309049, 34.17455133]]]]}, "properties": {"id": "Pakistan_123102310_561224", "height": 3.406279563903809, "hmax": 0.011, "ratio": 0.003, "vulnClass": "none"}}, {"type": "Feature", "geometry": {"type": "MultiPolygon", "coordinates": [[[[72.24330363, 34.17442658], [72.24316966, 34.17443011], [72.24317512, 34.17457198], [72.24326213, 34.17456969], [72.24325819, 34.17446772], [72.24330517, 34.17446648], [72.24330363, 34.17442658]]]]}, "properties": {"id": "Pakistan_123102310_419165", "height": 6.737771511077881, "hmax": 0.01, "ratio": 0.002, "vulnClass": "none"}}, {"type": "Feature", "geometry": {"type": "MultiPolygon", "coordinates": [[[[72.24416956, 34.17471527], [72.24416515, 34.17461332], [72.24405137, 34.17461668], [72.24406049, 34.17482814], [72.24430823, 34.17482081], [72.24430647, 34.17478002], [72.24423414, 34.17478216], [72.24423117, 34.17471345], [72.24416956, 34.17471527]]]]}, "properties": {"id": "Pakistan_123102310_45221", "height": 3.18193531036377, "hmax": 0.01, "ratio": 0.003, "vulnClass": "none"}}, {"type": "Feature", "geometry": {"type": "MultiPolygon", "coordinates": [[[[72.24355751, 34.17425625], [72.2434625, 34.17425357], [72.24346067, 34.1742979], [72.24355568, 34.17430058], [72.24355751, 34.17425625]]]]}, "properties": {"id": "Pakistan_123102310_26063", "height": 5.164469242095947, "hmax": 0.01, "ratio": 0.002, "vulnClass": "none"}}, {"type": "Feature", "geometry": {"type": "MultiPolygon", "coordinates": [[[[72.24336994, 34.17422294], [72.24354781, 34.17423793], [72.24356199, 34.17412279], [72.24345436, 34.17411372], [72.24345679, 34.17409395], [72.24338656, 34.17408803], [72.24336994, 34.17422294]]]]}, "properties": {"id": "Pakistan_123102310_803328", "height": 6.570370674133301, "hmax": 0.01, "ratio": 0.002, "vulnClass": "none"}}, {"type": "Feature", "geometry": {"type": "MultiPolygon", "coordinates": [[[[72.24352384, 34.17396787], [72.24338172, 34.17396596], [72.24337954, 34.17407688], [72.24352166, 34.17407879], [72.24352384, 34.17396787]]]]}, "properties": {"id": "Pakistan_123102310_15506", "height": 6.538244724273682, "hmax": 0.011, "ratio": 0.002, "vulnClass": "none"}}, {"type": "Feature", "geometry": {"type": "MultiPolygon", "coordinates": [[[[72.24413475, 34.17405681], [72.24413478, 34.1739281], [72.24393751, 34.17392807], [72.2439375, 34.17399464], [72.24375389, 34.17399461], [72.24375389, 34.17401236], [72.24359296, 34.17401233], [72.24359294, 34.17405671], [72.24413475, 34.17405681]]]]}, "properties": {"id": "Pakistan_123102310_509300", "height": 5.391989707946777, "hmax": 0.011, "ratio": 0.002, "vulnClass": "none"}}, {"type": "Feature", "geometry": {"type": "MultiPolygon", "coordinates": [[[[72.24452015, 34.17391371], [72.24452584, 34.17394768], [72.24462177, 34.17393667], [72.24461607, 34.1739027], [72.24452015, 34.17391371]]]]}, "properties": {"id": "Pakistan_123102310_372032", "height": 4.145904064178467, "hmax": 0.017, "ratio": 0.004, "vulnClass": "none"}}, {"type": "Feature", "geometry": {"type": "MultiPolygon", "coordinates": [[[[72.24453497, 34.17437926], [72.24451866, 34.17391809], [72.24445434, 34.17391965], [72.24446869, 34.17432539], [72.24441777, 34.17432662], [72.24441973, 34.17438205], [72.24453497, 34.17437926]]]]}, "properties": {"id": "Pakistan_123102310_888481", "height": 4.521309852600098, "hmax": 0.015, "ratio": 0.003, "vulnClass": "none"}}, {"type": "Feature", "geometry": {"type": "MultiPolygon", "coordinates": [[[[72.24434715, 34.17399459], [72.24434783, 34.17401899], [72.24440681, 34.17401786], [72.24440613, 34.17399346], [72.24434715, 34.17399459]]]]}, "properties": {"id": "Pakistan_123102310_646529", "height": 2.444994688034058, "hmax": 0.017, "ratio": 0.007, "vulnClass": "none"}}, {"type": "Feature", "geometry": {"type": "MultiPolygon", "coordinates": [[[[72.24499833, 34.17434009], [72.24499599, 34.17429135], [72.24488351, 34.17429504], [72.24487055, 34.17402474], [72.24481431, 34.17402659], [72.24482961, 34.17434563], [72.24499833, 34.17434009]]]]}, "properties": {"id": "Pakistan_123102310_329471", "height": 2.943692207336426, "hmax": 0.015, "ratio": 0.005, "vulnClass": "none"}}, {"type": "Feature", "geometry": {"type": "MultiPolygon", "coordinates": [[[[72.24515738, 34.17386764], [72.24481609, 34.17388151], [72.24481912, 34.17393243], [72.24503732, 34.17392356], [72.24504429, 34.17404089], [72.24508564, 34.1740392], [72.24509644, 34.17422073], [72.24502831, 34.1742235], [72.2450341, 34.1743209], [72.24518394, 34.17431481], [72.24515738, 34.17386764]]]]}, "properties": {"id": "Pakistan_123102310_528140", "height": 2.657481670379639, "hmax": 0.016, "ratio": 0.006, "vulnClass": "none"}}, {"type": "Feature", "geometry": {"type": "MultiPolygon", "coordinates": [[[[72.24596032, 34.1740224], [72.24595829, 34.17409337], [72.24600922, 34.17409437], [72.24600761, 34.17415061], [72.24608535, 34.17415213], [72.24608899, 34.17402492], [72.24596032, 34.1740224]]]]}, "properties": {"id": "Pakistan_123102310_372039", "height": 2.514361381530762, "hmax": 0.009, "ratio": 0.004, "vulnClass": "none"}}, {"type": "Feature", "geometry": {"type": "MultiPolygon", "coordinates": [[[[72.24504778, 34.17508728], [72.24504518, 34.17484542], [72.24509614, 34.17484504], [72.24509631, 34.17486057], [72.24516068, 34.1748601], [72.24515978, 34.17477715], [72.24495724, 34.17477864], [72.24496059, 34.17508792], [72.24504778, 34.17508728]]]]}, "properties": {"id": "Pakistan_123102310_442750", "height": 3.876867294311523, "hmax": 0.014, "ratio": 0.004, "vulnClass": "none"}}, {"type": "Feature", "geometry": {"type": "MultiPolygon", "coordinates": [[[[72.24494397, 34.17467373], [72.2449411, 34.17460502], [72.24478839, 34.17460941], [72.24479127, 34.17467812], [72.24494397, 34.17467373]]]]}, "properties": {"id": "Pakistan_123102310_452323", "height": 3.748156070709229, "hmax": 0.014, "ratio": 0.004, "vulnClass": "none"}}, {"type": "Feature", "geometry": {"type": "MultiPolygon", "coordinates": [[[[72.24504836, 34.17467729], [72.24504404, 34.17458645], [72.24495172, 34.17458945], [72.24495603, 34.17468029], [72.24504836, 34.17467729]]]]}, "properties": {"id": "Pakistan_123102310_518838", "height": 3.12775993347168, "hmax": 0.014, "ratio": 0.005, "vulnClass": "none"}}, {"type": "Feature", "geometry": {"type": "MultiPolygon", "coordinates": [[[[72.24515365, 34.17476808], [72.24514981, 34.17471501], [72.24513912, 34.17471554], [72.2451364, 34.17467795], [72.24494931, 34.17468722], [72.24495588, 34.17477788], [72.24515365, 34.17476808]]]]}, "properties": {"id": "Pakistan_123102310_817599", "height": 3.45993709564209, "hmax": 0.014, "ratio": 0.004, "vulnClass": "none"}}, {"type": "Feature", "geometry": {"type": "MultiPolygon", "coordinates": [[[[72.24515493, 34.17456052], [72.24515178, 34.17442077], [72.24510351, 34.17442152], [72.24510396, 34.17444148], [72.24494041, 34.17444401], [72.24494311, 34.1745638], [72.24515493, 34.17456052]]]]}, "properties": {"id": "Pakistan_123102310_262347", "height": 4.07504940032959, "hmax": 0.014, "ratio": 0.003, "vulnClass": "none"}}, {"type": "Feature", "geometry": {"type": "MultiPolygon", "coordinates": [[[[72.24430605, 34.17449355], [72.24430872, 34.17454137], [72.24445199, 34.1745359], [72.24444932, 34.17448807], [72.24430605, 34.17449355]]]]}, "properties": {"id": "Pakistan_123102310_907411", "height": 3.413878202438354, "hmax": 0.014, "ratio": 0.004, "vulnClass": "none"}}, {"type": "Feature", "geometry": {"type": "MultiPolygon", "coordinates": [[[[72.24431481, 34.17454312], [72.24432086, 34.17468719], [72.24438643, 34.17468531], [72.24438186, 34.1745767], [72.24452526, 34.17457259], [72.24452377, 34.17453712], [72.24431481, 34.17454312]]]]}, "properties": {"id": "Pakistan_123102310_727641", "height": 5.41261100769043, "hmax": 0.014, "ratio": 0.003, "vulnClass": "none"}}, {"type": "Feature", "geometry": {"type": "MultiPolygon", "coordinates": [[[[72.24453772, 34.17463971], [72.24453674, 34.17458202], [72.24445093, 34.17458302], [72.2444519, 34.1746407], [72.24453772, 34.17463971]]]]}, "properties": {"id": "Pakistan_123102310_204572", "height": 4.066493034362793, "hmax": 0.014, "ratio": 0.003, "vulnClass": "none"}}, {"type": "Feature", "geometry": {"type": "MultiPolygon", "coordinates": [[[[72.24437511, 34.17472356], [72.24432687, 34.17472474], [72.24433307, 34.17489768], [72.24438667, 34.17489636], [72.24438055, 34.17472564], [72.24442343, 34.17472459], [72.24442252, 34.17469932], [72.24437428, 34.1747005], [72.24437511, 34.17472356]]]]}, "properties": {"id": "Pakistan_123102310_632325", "height": 4.85463809967041, "hmax": 0.014, "ratio": 0.003, "vulnClass": "none"}}, {"type": "Feature", "geometry": {"type": "MultiPolygon", "coordinates": [[[[72.24442916, 34.17488981], [72.2443656, 34.17489573], [72.24437216, 34.17494394], [72.24443573, 34.17493802], [72.24442916, 34.17488981]]]]}, "properties": {"id": "Pakistan_123102310_26069", "height": 2.98885178565979, "hmax": 0.014, "ratio": 0.005, "vulnClass": "none"}}, {"type": "Feature", "geometry": {"type": "MultiPolygon", "coordinates": [[[[72.24478764, 34.1749919], [72.24478572, 34.17494449], [72.24462627, 34.1749489], [72.24462361, 34.17488328], [72.24456735, 34.17488484], [72.24457405, 34.17505021], [72.24462495, 34.1750488], [72.24462283, 34.17499647], [72.24478764, 34.1749919]]]]}, "properties": {"id": "Pakistan_123102310_803334", "height": 3.0762619972229, "hmax": 0.014, "ratio": 0.005, "vulnClass": "none"}}, {"type": "Feature", "geometry": {"type": "MultiPolygon", "coordinates": [[[[72.24437898, 34.17506059], [72.24443922, 34.17505881], [72.24443745, 34.17501803], [72.244329, 34.17502123], [72.24433225, 34.17509658], [72.24438047, 34.17509516], [72.24437898, 34.17506059]]]]}, "properties": {"id": "Pakistan_123102310_343657", "height": 3.471270084381104, "hmax": 0.013, "ratio": 0.004, "vulnClass": "none"}}, {"type": "Feature", "geometry": {"type": "MultiPolygon", "coordinates": [[[[72.24556573, 34.17536403], [72.24555891, 34.17524224], [72.24543447, 34.175247], [72.24543732, 34.17529793], [72.24525665, 34.17530485], [72.24525379, 34.17525392], [72.24514274, 34.17525817], [72.24514699, 34.1753343], [72.24487935, 34.17534456], [72.24487583, 34.1752817], [72.2448223, 34.17528375], [72.24482965, 34.17541526], [72.24514815, 34.17540305], [72.24514687, 34.17538006], [72.24556573, 34.17536403]]]]}, "properties": {"id": "Pakistan_123102310_6947", "height": 2.703218936920166, "hmax": 0.009, "ratio": 0.003, "vulnClass": "none"}}, {"type": "Feature", "geometry": {"type": "MultiPolygon", "coordinates": [[[[72.24465215, 34.17502805], [72.24465391, 34.1750746], [72.24479194, 34.17507105], [72.24479019, 34.17502449], [72.24465215, 34.17502805]]]]}, "properties": {"id": "Pakistan_123102310_916962", "height": 2.781838655471802, "hmax": 0.014, "ratio": 0.005, "vulnClass": "none"}}, {"type": "Feature", "geometry": {"type": "MultiPolygon", "coordinates": [[[[72.24507372, 34.17486344], [72.24507088, 34.1749313], [72.24515799, 34.1749338], [72.24516084, 34.17486594], [72.24507372, 34.17486344]]]]}, "properties": {"id": "Pakistan_123102310_793882", "height": 3.125778436660767, "hmax": 0.014, "ratio": 0.005, "vulnClass": "none"}}, {"type": "Feature", "geometry": {"type": "MultiPolygon", "coordinates": [[[[72.24514693, 34.17505589], [72.24514693, 34.17511358], [72.24520057, 34.17511358], [72.24520057, 34.17505589], [72.24514693, 34.17505589]]]]}, "properties": {"id": "Pakistan_123102310_718129", "height": 3.039269685745239, "hmax": 0.012, "ratio": 0.004, "vulnClass": "none"}}, {"type": "Feature", "geometry": {"type": "MultiPolygon", "coordinates": [[[[72.24482264, 34.17567391], [72.24478243, 34.17567311], [72.24478032, 34.17574543], [72.24482053, 34.17574623], [72.24482264, 34.17567391]]]]}, "properties": {"id": "Pakistan_123102310_224587", "height": 2.489794254302979, "hmax": 0.009, "ratio": 0.004, "vulnClass": "none"}}, {"type": "Feature", "geometry": {"type": "MultiPolygon", "coordinates": [[[[72.24468435, 34.17569683], [72.24467973, 34.17553136], [72.2445725, 34.17553341], [72.24457291, 34.17554806], [72.24445227, 34.17555037], [72.24445413, 34.1756169], [72.24458281, 34.17561444], [72.24458516, 34.17569872], [72.24468435, 34.17569683]]]]}, "properties": {"id": "Pakistan_123102310_940568", "height": 3.364891052246094, "hmax": 0.009, "ratio": 0.003, "vulnClass": "none"}}, {"type": "Feature", "geometry": {"type": "MultiPolygon", "coordinates": [[[[72.24409236, 34.17580352], [72.24410805, 34.17597695], [72.24439345, 34.17595927], [72.24438746, 34.17589307], [72.24443951, 34.17588984], [72.24443439, 34.17583335], [72.24447836, 34.17583062], [72.2444687, 34.17572382], [72.24437534, 34.17572961], [72.24438042, 34.17578566], [72.24409236, 34.17580352]]]]}, "properties": {"id": "Pakistan_123102310_476190", "height": 3.098635911941528, "hmax": 0.011, "ratio": 0.003, "vulnClass": "none"}}, {"type": "Feature", "geometry": {"type": "MultiPolygon", "coordinates": [[[[72.2448198, 34.17514015], [72.24433722, 34.17514853], [72.24433756, 34.17516184], [72.24409627, 34.17516603], [72.24409733, 34.17520817], [72.24469789, 34.17519774], [72.24470115, 34.17532639], [72.24482448, 34.17532425], [72.2448198, 34.17514015]]]]}, "properties": {"id": "Pakistan_123102310_251862", "height": 2.535624265670776, "hmax": 0.01, "ratio": 0.004, "vulnClass": "none"}}, {"type": "Feature", "geometry": {"type": "MultiPolygon", "coordinates": [[[[72.24369921, 34.17487261], [72.24370184, 34.17491911], [72.24407386, 34.1749047], [72.24406884, 34.17481613], [72.24388557, 34.17482323], [72.24388794, 34.1748653], [72.24369921, 34.17487261]]]]}, "properties": {"id": "Pakistan_123102310_111083", "height": 5.625146865844727, "hmax": 0.01, "ratio": 0.002, "vulnClass": "none"}}, {"type": "Feature", "geometry": {"type": "MultiPolygon", "coordinates": [[[[72.24396147, 34.17518382], [72.24395978, 34.1750973], [72.24374794, 34.17510015], [72.24374487, 34.17494393], [72.24349687, 34.17494725], [72.24349936, 34.17507464], [72.24363207, 34.17507286], [72.24363433, 34.17518822], [72.24396147, 34.17518382]]]]}, "properties": {"id": "Pakistan_123102310_92211", "height": 5.219858169555664, "hmax": 0.013, "ratio": 0.003, "vulnClass": "none"}}, {"type": "Feature", "geometry": {"type": "MultiPolygon", "coordinates": [[[[72.24362757, 34.1750853], [72.24359134, 34.17508575], [72.24359139, 34.1750889], [72.24334737, 34.17509191], [72.24334928, 34.1751984], [72.24362953, 34.17519494], [72.24362757, 34.1750853]]]]}, "properties": {"id": "Pakistan_123102310_921588", "height": 3.178725719451904, "hmax": 0.015, "ratio": 0.005, "vulnClass": "none"}}]}