{"type": "FeatureCollection", "features": [{"type": "Feature", "geometry": {"type": "MultiPolygon", "coordinates": [[[[72.11023882, 34.39797738], [72.11009286, 34.39793102], [72.11007761, 34.39796401], [72.11022357, 34.39801036], [72.11023882, 34.39797738]]]]}, "properties": {"id": "8J6J94X6+53MR", "height": 4.639471054077148, "hmax": 0.039, "ratio": 0.008, "vulnClass": "none"}}, {"type": "Feature", "geometry": {"type": "MultiPolygon", "coordinates": [[[[72.10999159, 34.3980667], [72.11008694, 34.39796487], [72.11001081, 34.39791589], [72.10991546, 34.39801772], [72.10999159, 34.3980667]]]]}, "properties": {"id": "8J6J94X6+52RJ", "height": 2.489030122756958, "hmax": 0.039, "ratio": 0.016, "vulnClass": "none"}}, {"type": "Feature", "geometry": {"type": "MultiPolygon", "coordinates": [[[[72.11019612, 34.39777377], [72.11009488, 34.39775687], [72.1100603, 34.39789922], [72.11016154, 34.39791612], [72.11019612, 34.39777377]]]]}, "properties": {"id": "8J6J94X6+43JC", "height": 4.271438598632812, "hmax": 0.039, "ratio": 0.009, "vulnClass": "none"}}, {"type": "Feature", "geometry": {"type": "MultiPolygon", "coordinates": [[[[72.11025097, 34.39778292], [72.11019612, 34.39777377], [72.11016154, 34.39791612], [72.11021639, 34.39792527], [72.11025097, 34.39778292]]]]}, "properties": {"id": "8J6J94X6+43PW", "height": 4.487009048461914, "hmax": 0.039, "ratio": 0.009, "vulnClass": "none"}}, {"type": "Feature", "geometry": {"type": "MultiPolygon", "coordinates": [[[[72.11031627, 34.39794194], [72.11035085, 34.3977996], [72.11029197, 34.39778977], [72.11025739, 34.39793211], [72.11031627, 34.39794194]]]]}, "properties": {"id": "8J6J94X6+44VP", "height": 3.317808389663696, "hmax": 0.039, "ratio": 0.012, "vulnClass": "none"}}, {"type": "Feature", "geometry": {"type": "MultiPolygon", "coordinates": [[[[72.12227037, 34.39915355], [72.12206539, 34.39907957], [72.12199675, 34.39921026], [72.12206831, 34.39923609], [72.12205407, 34.39926318], [72.12211236, 34.39928422], [72.12212659, 34.39925712], [72.12220172, 34.39928424], [72.12227037, 34.39915355]]]]}, "properties": {"id": "8J6J94XC+MVCC", "height": 4.345396995544434, "hmax": 0.068, "ratio": 0.016, "vulnClass": "none"}}, {"type": "Feature", "geometry": {"type": "MultiPolygon", "coordinates": [[[[72.12260603, 34.40222231], [72.12263382, 34.40216446], [72.12259369, 34.40215122], [72.12256589, 34.40220906], [72.12260603, 34.40222231]]]]}, "properties": {"id": "8J6JC42F+V2HC", "height": 3.63621973991394, "hmax": 0.003, "ratio": 0.001, "vulnClass": "none"}}, {"type": "Feature", "geometry": {"type": "MultiPolygon", "coordinates": [[[[72.12252656, 34.40229063], [72.12248367, 34.40227425], [72.12246455, 34.40230868], [72.12250743, 34.40232505], [72.12252656, 34.40229063]]]]}, "properties": {"id": "8J6JC42C+WX9X", "height": 4.085210800170898, "hmax": 0.003, "ratio": 0.001, "vulnClass": "none"}}, {"type": "Feature", "geometry": {"type": "MultiPolygon", "coordinates": [[[[72.12247251, 34.40228111], [72.12243105, 34.40227083], [72.12241835, 34.40230602], [72.12245981, 34.40231631], [72.12247251, 34.40228111]]]]}, "properties": {"id": "8J6JC42C+WX8M", "height": 4.389352798461914, "hmax": 0.003, "ratio": 0.001, "vulnClass": "none"}}, {"type": "Feature", "geometry": {"type": "MultiPolygon", "coordinates": [[[[72.12253559, 34.4023656], [72.12240164, 34.40230677], [72.12235519, 34.40237945], [72.12248914, 34.40243827], [72.12253559, 34.4023656]]]]}, "properties": {"id": "8J6JC42C+WXWV", "height": 5.083463668823242, "hmax": 0.003, "ratio": 0.001, "vulnClass": "none"}}, {"type": "Feature", "geometry": {"type": "MultiPolygon", "coordinates": [[[[72.12237975, 34.40229612], [72.1224238, 34.40223042], [72.12238651, 34.40221324], [72.12234245, 34.40227893], [72.12237975, 34.40229612]]]]}, "properties": {"id": "8J6JC42C+WX23", "height": 4.216717720031738, "hmax": 0.003, "ratio": 0.001, "vulnClass": "none"}}, {"type": "Feature", "geometry": {"type": "MultiPolygon", "coordinates": [[[[72.12251685, 34.40224029], [72.12255137, 34.40219827], [72.12252392, 34.40218278], [72.12248941, 34.4022248], [72.12251685, 34.40224029]]]]}, "properties": {"id": "8J6JC42F+V2JG", "height": 3.004653453826904, "hmax": 0.003, "ratio": 0.001, "vulnClass": "none"}}, {"type": "Feature", "geometry": {"type": "MultiPolygon", "coordinates": [[[[72.12250075, 34.40216063], [72.12255814, 34.40206266], [72.12249068, 34.40203551], [72.1224471, 34.4021099], [72.12248396, 34.40212473], [72.12247015, 34.40214831], [72.12250075, 34.40216063]]]]}, "properties": {"id": "8J6JC42F+R2JJ", "height": 2.458651781082153, "hmax": 0.011, "ratio": 0.005, "vulnClass": "none"}}, {"type": "Feature", "geometry": {"type": "MultiPolygon", "coordinates": [[[[72.12247966, 34.40203908], [72.12239961, 34.40200814], [72.12233067, 34.40213069], [72.12241073, 34.40216163], [72.12247966, 34.40203908]]]]}, "properties": {"id": "8J6JC42C+RXJ9", "height": 2.613670349121094, "hmax": 0.011, "ratio": 0.004, "vulnClass": "none"}}, {"type": "Feature", "geometry": {"type": "MultiPolygon", "coordinates": [[[[72.12238133, 34.40189328], [72.12233505, 34.40187628], [72.12232229, 34.40190016], [72.12236858, 34.40191715], [72.12238133, 34.40189328]]]]}, "properties": {"id": "8J6JC42C+QW5V", "height": 3.363386869430542, "hmax": 0.012, "ratio": 0.004, "vulnClass": "none"}}, {"type": "Feature", "geometry": {"type": "MultiPolygon", "coordinates": [[[[72.122646, 34.40199213], [72.12259447, 34.40197122], [72.12255303, 34.40204139], [72.12260455, 34.4020623], [72.122646, 34.40199213]]]]}, "properties": {"id": "8J6JC42F+R25J", "height": 2.711498737335205, "hmax": 0.012, "ratio": 0.004, "vulnClass": "none"}}, {"type": "Feature", "geometry": {"type": "MultiPolygon", "coordinates": [[[[72.12263534, 34.40190204], [72.12259166, 34.40188432], [72.12250935, 34.40202366], [72.12255303, 34.40204139], [72.12263534, 34.40190204]]]]}, "properties": {"id": "8J6JC42F+Q2PF", "height": 3.568556308746338, "hmax": 0.012, "ratio": 0.003, "vulnClass": "none"}}, {"type": "Feature", "geometry": {"type": "MultiPolygon", "coordinates": [[[[72.119461, 34.4006906], [72.1194197, 34.400622], [72.119072, 34.400766], [72.1191133, 34.4008346], [72.119461, 34.4006906]]]]}, "properties": {"id": "8J6JC429+7PR4", "height": 3.318240404129028, "hmax": 0.352, "ratio": 0.106, "vulnClass": "low"}}, {"type": "Feature", "geometry": {"type": "MultiPolygon", "coordinates": [[[[72.12221437, 34.40242154], [72.12209274, 34.40236428], [72.12204635, 34.40243196], [72.12216798, 34.40248923], [72.12221437, 34.40242154]]]]}, "properties": {"id": "8J6JC42C+XVC2", "height": 3.971472024917603, "hmax": 0.003, "ratio": 0.001, "vulnClass": "none"}}, {"type": "Feature", "geometry": {"type": "MultiPolygon", "coordinates": [[[[72.12243066, 34.40270758], [72.12226025, 34.40262719], [72.12221213, 34.40269728], [72.12238253, 34.40277767], [72.12243066, 34.40270758]]]]}, "properties": {"id": "8J6JC43C+3WP3", "height": 5.763128280639648, "hmax": 0.003, "ratio": 0.001, "vulnClass": "none"}}, {"type": "Feature", "geometry": {"type": "MultiPolygon", "coordinates": [[[[72.12247602, 34.40263734], [72.12242525, 34.40260852], [72.12239955, 34.40263961], [72.12245032, 34.40266844], [72.12247602, 34.40263734]]]]}, "properties": {"id": "8J6JC43C+3X4C", "height": 5.336461544036865, "hmax": 0.003, "ratio": 0.001, "vulnClass": "none"}}, {"type": "Feature", "geometry": {"type": "MultiPolygon", "coordinates": [[[[72.1224111, 34.40249751], [72.12236741, 34.40247562], [72.12233096, 34.40252561], [72.12237465, 34.4025475], [72.1224111, 34.40249751]]]]}, "properties": {"id": "8J6JC43C+2W5H", "height": 5.257927894592285, "hmax": 0.003, "ratio": 0.001, "vulnClass": "none"}}, {"type": "Feature", "geometry": {"type": "MultiPolygon", "coordinates": [[[[72.12235635, 34.40248839], [72.12229799, 34.40246092], [72.12220205, 34.40260093], [72.1224292, 34.40270788], [72.12245514, 34.40267003], [72.12239648, 34.40264241], [72.1224201, 34.40260794], [72.12237623, 34.40258728], [72.12239065, 34.40256624], [72.12232438, 34.40253504], [72.12235635, 34.40248839]]]]}, "properties": {"id": "8J6JC43C+2WPM", "height": 6.332018852233887, "hmax": 0.003, "ratio": 0.001, "vulnClass": "none"}}, {"type": "Feature", "geometry": {"type": "MultiPolygon", "coordinates": [[[[72.12232995, 34.40241429], [72.12224632, 34.40237491], [72.1221824, 34.40246819], [72.12226603, 34.40250757], [72.12232995, 34.40241429]]]]}, "properties": {"id": "8J6JC42C+XWCJ", "height": 5.583159923553467, "hmax": 0.003, "ratio": 0.001, "vulnClass": "none"}}, {"type": "Feature", "geometry": {"type": "MultiPolygon", "coordinates": [[[[72.12246024, 34.40242521], [72.12239227, 34.40239974], [72.12236215, 34.40245495], [72.12243011, 34.40248042], [72.12246024, 34.40242521]]]]}, "properties": {"id": "8J6JC42C+XXFJ", "height": 5.286741256713867, "hmax": 0.003, "ratio": 0.001, "vulnClass": "none"}}, {"type": "Feature", "geometry": {"type": "MultiPolygon", "coordinates": [[[[72.12255721, 34.40242101], [72.12251502, 34.40240671], [72.12248109, 34.40247549], [72.12258854, 34.40251191], [72.12260646, 34.40247559], [72.1225412, 34.40245347], [72.12255721, 34.40242101]]]]}, "properties": {"id": "8J6JC42F+X2MF", "height": 5.289405345916748, "hmax": 0.003, "ratio": 0.001, "vulnClass": "none"}}, {"type": "Feature", "geometry": {"type": "MultiPolygon", "coordinates": [[[[72.12220841, 34.40411957], [72.12193926, 34.40409143], [72.12193242, 34.40413637], [72.12209845, 34.40415373], [72.1220705, 34.40433737], [72.12220255, 34.40435117], [72.12221152, 34.40429229], [72.12218258, 34.40428926], [72.12220841, 34.40411957]]]]}, "properties": {"id": "8J6JC43C+MRQ8", "height": 2.460984945297241, "hmax": 0.011, "ratio": 0.005, "vulnClass": "none"}}, {"type": "Feature", "geometry": {"type": "MultiPolygon", "coordinates": [[[[72.11605331, 34.40372407], [72.11607421, 34.40364068], [72.11597191, 34.40362306], [72.11594187, 34.40374291], [72.11584525, 34.40372627], [72.115831, 34.40378312], [72.11588562, 34.40379253], [72.11589088, 34.40377157], [72.11599157, 34.40378891], [72.1160097, 34.40371656], [72.11605331, 34.40372407]]]]}, "properties": {"id": "8J6JC438+F9PH", "height": 4.240897655487061, "hmax": 0.002, "ratio": 0.001, "vulnClass": "none"}}, {"type": "Feature", "geometry": {"type": "MultiPolygon", "coordinates": [[[[72.11597685, 34.40360335], [72.11583669, 34.40357921], [72.11580171, 34.40371877], [72.11594187, 34.40374291], [72.11597685, 34.40360335]]]]}, "properties": {"id": "8J6JC438+F96F", "height": 5.028134822845459, "hmax": 0.002, "ratio": 0.0, "vulnClass": "none"}}, {"type": "Feature", "geometry": {"type": "MultiPolygon", "coordinates": [[[[72.11343667, 34.40368319], [72.11336116, 34.40369188], [72.11338329, 34.40382398], [72.11341161, 34.40382072], [72.11340309, 34.40376984], [72.11345028, 34.40376441], [72.11343667, 34.40368319]]]]}, "properties": {"id": "8J6JC437+F9RQ", "height": 3.500366449356079, "hmax": 0.034, "ratio": 0.01, "vulnClass": "none"}}, {"type": "Feature", "geometry": {"type": "MultiPolygon", "coordinates": [[[[72.11378745, 34.40364241], [72.11376809, 34.4035662], [72.11359395, 34.40359658], [72.11365194, 34.40382489], [72.11371117, 34.40381456], [72.11367254, 34.40366246], [72.11378745, 34.40364241]]]]}, "properties": {"id": "8J6JC437+FF7P", "height": 2.648010015487671, "hmax": 0.036, "ratio": 0.014, "vulnClass": "none"}}, {"type": "Feature", "geometry": {"type": "MultiPolygon", "coordinates": [[[[72.11524698, 34.40369304], [72.11520911, 34.40370379], [72.11534112, 34.40402323], [72.11542692, 34.40399887], [72.11531234, 34.4037216], [72.11530011, 34.40372507], [72.11529234, 34.40370625], [72.11525663, 34.40371639], [72.11524698, 34.40369304]]]]}, "properties": {"id": "8J6JC438+G4W6", "height": 2.864248037338257, "hmax": 0.006, "ratio": 0.002, "vulnClass": "none"}}, {"type": "Feature", "geometry": {"type": "MultiPolygon", "coordinates": [[[[72.11481631, 34.40387505], [72.11476442, 34.40388386], [72.11479463, 34.40400618], [72.11493286, 34.40398273], [72.11491012, 34.40389066], [72.11482378, 34.40390531], [72.11481631, 34.40387505]]]]}, "properties": {"id": "8J6JC437+HWHJ", "height": 2.626232624053955, "hmax": 0.003, "ratio": 0.001, "vulnClass": "none"}}, {"type": "Feature", "geometry": {"type": "MultiPolygon", "coordinates": [[[[72.11499184, 34.4041492], [72.11491967, 34.40397455], [72.11476672, 34.40401797], [72.11483889, 34.40419262], [72.11499184, 34.4041492]]]]}, "properties": {"id": "8J6JC437+JXJ6", "height": 3.753798246383667, "hmax": 0.003, "ratio": 0.001, "vulnClass": "none"}}, {"type": "Feature", "geometry": {"type": "MultiPolygon", "coordinates": [[[[72.11367254, 34.40390599], [72.11365194, 34.40382489], [72.11336861, 34.40387433], [72.1133892, 34.40395543], [72.11367254, 34.40390599]]]]}, "properties": {"id": "8J6JC437+HC2P", "height": 2.472843408584595, "hmax": 0.031, "ratio": 0.013, "vulnClass": "none"}}, {"type": "Feature", "geometry": {"type": "MultiPolygon", "coordinates": [[[[72.11282702, 34.40373039], [72.11281818, 34.40369562], [72.112652, 34.40372461], [72.11271881, 34.4039877], [72.11294252, 34.40394867], [72.11293243, 34.40390892], [72.11280476, 34.4039312], [72.11275688, 34.40374263], [72.11282702, 34.40373039]]]]}, "properties": {"id": "8J6JC437+G4R3", "height": 3.02909255027771, "hmax": 0.026, "ratio": 0.009, "vulnClass": "none"}}, {"type": "Feature", "geometry": {"type": "MultiPolygon", "coordinates": [[[[72.1101846, 34.4044201], [72.1101298, 34.4044228], [72.1101438, 34.4046193], [72.1103067, 34.4046113], [72.1103047, 34.4045829], [72.1103453, 34.4045809], [72.1103383, 34.4044826], [72.1101895, 34.4044899], [72.1101846, 34.4044201]]]]}, "properties": {"id": "8J6JC436+R39F", "height": 2.5291588306427, "hmax": 0.005, "ratio": 0.002, "vulnClass": "none"}}, {"type": "Feature", "geometry": {"type": "MultiPolygon", "coordinates": [[[[72.10877951, 34.40496369], [72.10875351, 34.40489703], [72.10862734, 34.40493083], [72.10865333, 34.40499749], [72.10877951, 34.40496369]]]]}, "properties": {"id": "8J6JC435+XFGW", "height": 3.010172843933105, "hmax": 0.004, "ratio": 0.001, "vulnClass": "none"}}, {"type": "Feature", "geometry": {"type": "MultiPolygon", "coordinates": [[[[72.10861219, 34.40489199], [72.10855485, 34.40490735], [72.108596, 34.40501285], [72.10865333, 34.40499749], [72.10861219, 34.40489199]]]]}, "properties": {"id": "8J6JC435+XCQ3", "height": 3.010172843933105, "hmax": 0.004, "ratio": 0.001, "vulnClass": "none"}}, {"type": "Feature", "geometry": {"type": "MultiPolygon", "coordinates": [[[[72.10860199, 34.40480105], [72.10855986, 34.40481313], [72.10859216, 34.40489051], [72.10863429, 34.40487843], [72.10860199, 34.40480105]]]]}, "properties": {"id": "8J6JC435+WCQR", "height": 2.694247245788574, "hmax": 0.004, "ratio": 0.002, "vulnClass": "none"}}, {"type": "Feature", "geometry": {"type": "MultiPolygon", "coordinates": [[[[72.10875213, 34.4048893], [72.10873357, 34.4048429], [72.10859663, 34.40488053], [72.10861519, 34.40492693], [72.10875213, 34.4048893]]]]}, "properties": {"id": "8J6JC435+XF38", "height": 3.010172843933105, "hmax": 0.004, "ratio": 0.001, "vulnClass": "none"}}, {"type": "Feature", "geometry": {"type": "MultiPolygon", "coordinates": [[[[72.10923633, 34.4047075], [72.10921922, 34.40467031], [72.10912765, 34.40469924], [72.10914475, 34.40473643], [72.10923633, 34.4047075]]]]}, "properties": {"id": "8J6JC435+VMM5", "height": 2.484753847122192, "hmax": 0.004, "ratio": 0.002, "vulnClass": "none"}}, {"type": "Feature", "geometry": {"type": "MultiPolygon", "coordinates": [[[[72.10948303, 34.40450919], [72.1094263, 34.40434748], [72.10918243, 34.40440625], [72.10921028, 34.40448566], [72.10938979, 34.4044424], [72.10941866, 34.4045247], [72.10948303, 34.40450919]]]]}, "properties": {"id": "8J6JC435+QPG5", "height": 2.513572931289673, "hmax": 0.006, "ratio": 0.002, "vulnClass": "none"}}, {"type": "Feature", "geometry": {"type": "MultiPolygon", "coordinates": [[[[72.10865318, 34.4046419], [72.10858798, 34.40447889], [72.10840952, 34.40452793], [72.10843726, 34.40459727], [72.10851676, 34.40457543], [72.10855423, 34.40466909], [72.10865318, 34.4046419]]]]}, "properties": {"id": "8J6JC435+RCFM", "height": 3.508737564086914, "hmax": 0.004, "ratio": 0.001, "vulnClass": "none"}}, {"type": "Feature", "geometry": {"type": "MultiPolygon", "coordinates": [[[[72.10870677, 34.40477588], [72.10865318, 34.4046419], [72.10855423, 34.40466909], [72.10857787, 34.4047282], [72.10849836, 34.40475005], [72.10855512, 34.40489194], [72.10859663, 34.40488053], [72.10856983, 34.4048135], [72.10870677, 34.40477588]]]]}, "properties": {"id": "8J6JC435+WC52", "height": 2.694247245788574, "hmax": 0.004, "ratio": 0.002, "vulnClass": "none"}}, {"type": "Feature", "geometry": {"type": "MultiPolygon", "coordinates": [[[[72.10894827, 34.40456058], [72.10885668, 34.40458582], [72.10890557, 34.40470773], [72.10895128, 34.40469514], [72.10895676, 34.4047088], [72.10922663, 34.40463445], [72.10921132, 34.40459627], [72.10898733, 34.40465798], [72.10894827, 34.40456058]]]]}, "properties": {"id": "8J6JC435+VJ2J", "height": 2.786343097686768, "hmax": 0.004, "ratio": 0.001, "vulnClass": "none"}}, {"type": "Feature", "geometry": {"type": "MultiPolygon", "coordinates": [[[[72.10850614, 34.40479088], [72.10849066, 34.40475217], [72.10842318, 34.40477071], [72.10843866, 34.40480942], [72.10850614, 34.40479088]]]]}, "properties": {"id": "8J6JC435+W989", "height": 2.482704639434814, "hmax": 0.004, "ratio": 0.002, "vulnClass": "none"}}, {"type": "Feature", "geometry": {"type": "MultiPolygon", "coordinates": [[[[72.10842318, 34.40477071], [72.10831807, 34.40479959], [72.10834801, 34.40487446], [72.10847848, 34.40483861], [72.10849996, 34.40489231], [72.10854208, 34.40488073], [72.10850614, 34.40479088], [72.10843866, 34.40480942], [72.10842318, 34.40477071]]]]}, "properties": {"id": "8J6JC435+W9M4", "height": 2.707633972167969, "hmax": 0.004, "ratio": 0.002, "vulnClass": "none"}}, {"type": "Feature", "geometry": {"type": "MultiPolygon", "coordinates": [[[[72.10776192, 34.40451983], [72.107708, 34.40441306], [72.10766476, 34.40442806], [72.10770166, 34.40450112], [72.10747744, 34.40457891], [72.10749446, 34.40461262], [72.10776192, 34.40451983]]]]}, "properties": {"id": "8J6JC435+R364", "height": 2.616093873977661, "hmax": 0.004, "ratio": 0.002, "vulnClass": "none"}}, {"type": "Feature", "geometry": {"type": "MultiPolygon", "coordinates": [[[[72.10762098, 34.40495366], [72.10786657, 34.40484991], [72.10782561, 34.40478329], [72.10761326, 34.40487299], [72.10755859, 34.40478406], [72.10752534, 34.40479811], [72.10762098, 34.40495366]]]]}, "properties": {"id": "8J6JC435+W3WF", "height": 3.841123104095459, "hmax": 0.004, "ratio": 0.001, "vulnClass": "none"}}, {"type": "Feature", "geometry": {"type": "MultiPolygon", "coordinates": [[[[72.1079656, 34.4050109], [72.1078666, 34.4048499], [72.107621, 34.4049537], [72.1076948, 34.4050737], [72.1077607, 34.4050458], [72.1077859, 34.4050868], [72.1079656, 34.4050109]], [[72.1077607, 34.4050458], [72.1077099, 34.4049631], [72.1078022, 34.4049241], [72.1078531, 34.4050068], [72.1077607, 34.4050458]]]]}, "properties": {"id": "8J6JC435+X4MW", "height": 4.254972457885742, "hmax": 0.004, "ratio": 0.001, "vulnClass": "none"}}, {"type": "Feature", "geometry": {"type": "MultiPolygon", "coordinates": [[[[72.10862551, 34.40506791], [72.10857736, 34.40494754], [72.1084406, 34.40498511], [72.10843693, 34.40497591], [72.10839338, 34.40498788], [72.10842139, 34.40505791], [72.1085265, 34.40502902], [72.10855032, 34.40508857], [72.10862551, 34.40506791]]]]}, "properties": {"id": "8J6JC445+2C2P", "height": 2.840397834777832, "hmax": 0.004, "ratio": 0.001, "vulnClass": "none"}}, {"type": "Feature", "geometry": {"type": "MultiPolygon", "coordinates": [[[[72.10779436, 34.40508276], [72.10777191, 34.40504649], [72.1077108, 34.40507247], [72.10773326, 34.40510875], [72.10779436, 34.40508276]]]]}, "properties": {"id": "8J6JC445+24J2", "height": 3.683768510818481, "hmax": 0.004, "ratio": 0.001, "vulnClass": "none"}}, {"type": "Feature", "geometry": {"type": "MultiPolygon", "coordinates": [[[[72.10939719, 34.4125231], [72.10937363, 34.41249116], [72.10933352, 34.41251147], [72.10935707, 34.41254342], [72.10939719, 34.4125231]]]]}, "properties": {"id": "8J6JC475+2P5P", "height": 3.118370532989502, "hmax": 0.006, "ratio": 0.002, "vulnClass": "none"}}, {"type": "Feature", "geometry": {"type": "MultiPolygon", "coordinates": [[[[72.10927277, 34.41239852], [72.10923729, 34.41242406], [72.10933002, 34.41251255], [72.1093655, 34.412487], [72.10927277, 34.41239852]]]]}, "properties": {"id": "8J6JC465+XPM8", "height": 3.118370532989502, "hmax": 0.006, "ratio": 0.002, "vulnClass": "none"}}, {"type": "Feature", "geometry": {"type": "MultiPolygon", "coordinates": [[[[72.10923554, 34.41167388], [72.10916231, 34.41162395], [72.10909948, 34.41168725], [72.1091727, 34.41173718], [72.10923554, 34.41167388]]]]}, "properties": {"id": "8J6JC465+MMF7", "height": 2.851576566696167, "hmax": 0.01, "ratio": 0.003, "vulnClass": "none"}}, {"type": "Feature", "geometry": {"type": "MultiPolygon", "coordinates": [[[[72.10895655, 34.41172993], [72.10881282, 34.41157748], [72.10872468, 34.41163456], [72.10891903, 34.4118407], [72.10889985, 34.41185312], [72.10896636, 34.41192366], [72.10909586, 34.4118398], [72.10902935, 34.41176926], [72.10907624, 34.41173889], [72.10902561, 34.4116852], [72.10895655, 34.41172993]]]]}, "properties": {"id": "8J6JC465+PH34", "height": 3.076209545135498, "hmax": 0.012, "ratio": 0.004, "vulnClass": "none"}}, {"type": "Feature", "geometry": {"type": "MultiPolygon", "coordinates": [[[[72.10804159, 34.41161248], [72.1078518, 34.41159368], [72.10783482, 34.41171141], [72.10802462, 34.41173021], [72.10804159, 34.41161248]]]]}, "properties": {"id": "8J6JC465+M58C", "height": 2.534272193908691, "hmax": 0.005, "ratio": 0.002, "vulnClass": "none"}}, {"type": "Feature", "geometry": {"type": "MultiPolygon", "coordinates": [[[[72.10806385, 34.4118513], [72.10783385, 34.411831], [72.10782206, 34.41192275], [72.10805206, 34.41194305], [72.10806385, 34.4118513]]]]}, "properties": {"id": "8J6JC465+Q54C", "height": 2.908048868179321, "hmax": 0.005, "ratio": 0.002, "vulnClass": "none"}}, {"type": "Feature", "geometry": {"type": "MultiPolygon", "coordinates": [[[[72.10778491, 34.41210719], [72.1077262, 34.41210303], [72.10772155, 34.41214809], [72.10778026, 34.41215225], [72.10778491, 34.41210719]]]]}, "properties": {"id": "8J6JC465+V422", "height": 2.673943042755127, "hmax": 0.005, "ratio": 0.002, "vulnClass": "none"}}, {"type": "Feature", "geometry": {"type": "MultiPolygon", "coordinates": [[[[72.10802898, 34.41203014], [72.10779199, 34.4120172], [72.10778114, 34.41215375], [72.10801813, 34.41216669], [72.10802898, 34.41203014]]]]}, "properties": {"id": "8J6JC465+R5JQ", "height": 4.360019207000732, "hmax": 0.005, "ratio": 0.001, "vulnClass": "none"}}, {"type": "Feature", "geometry": {"type": "MultiPolygon", "coordinates": [[[[72.1077916, 34.4104059], [72.1077345, 34.4103129], [72.1076705, 34.41034], [72.1076654, 34.4103317], [72.1076153, 34.4103529], [72.1076774, 34.4104541], [72.1077916, 34.4104059]]]]}, "properties": {"id": "8J6JC465+5348", "height": 5.970658302307129, "hmax": 0.009, "ratio": 0.002, "vulnClass": "none"}}, {"type": "Feature", "geometry": {"type": "MultiPolygon", "coordinates": [[[[72.10791277, 34.41035475], [72.10788974, 34.41031726], [72.10786165, 34.41032911], [72.10784592, 34.4103035], [72.10775287, 34.41034276], [72.10779163, 34.41040586], [72.10791277, 34.41035475]]]]}, "properties": {"id": "8J6JC465+44W4", "height": 5.165088653564453, "hmax": 0.009, "ratio": 0.002, "vulnClass": "none"}}, {"type": "Feature", "geometry": {"type": "MultiPolygon", "coordinates": [[[[72.1078517, 34.411127], [72.1076231, 34.4111658], [72.1076446, 34.4112525], [72.1077621, 34.4112325], [72.1078179, 34.4114579], [72.1077925, 34.4114623], [72.1078114, 34.4115386], [72.1079478, 34.4115154], [72.1078517, 34.411127]]]]}, "properties": {"id": "8J6JC465+G4GC", "height": 2.642839670181274, "hmax": 0.005, "ratio": 0.002, "vulnClass": "none"}}, {"type": "Feature", "geometry": {"type": "MultiPolygon", "coordinates": [[[[72.1088908, 34.41113512], [72.10883491, 34.41108228], [72.10870562, 34.4111762], [72.10880882, 34.41127377], [72.1088841, 34.41121908], [72.1088368, 34.41117435], [72.1088908, 34.41113512]]]]}, "properties": {"id": "8J6JC465+FGF5", "height": 2.810421466827393, "hmax": 0.01, "ratio": 0.004, "vulnClass": "none"}}, {"type": "Feature", "geometry": {"type": "MultiPolygon", "coordinates": [[[[72.10844924, 34.40987643], [72.10866879, 34.40976027], [72.10864275, 34.40972647], [72.10842321, 34.40984262], [72.10844924, 34.40987643]]]]}, "properties": {"id": "8J6JC455+WCF3", "height": 3.795865058898926, "hmax": 0.007, "ratio": 0.002, "vulnClass": "none"}}, {"type": "Feature", "geometry": {"type": "MultiPolygon", "coordinates": [[[[72.1084624, 34.40990956], [72.10862809, 34.4098219], [72.10860615, 34.40979341], [72.10844046, 34.40988107], [72.1084624, 34.40990956]]]]}, "properties": {"id": "8J6JC455+WCV2", "height": 4.03962516784668, "hmax": 0.007, "ratio": 0.002, "vulnClass": "none"}}, {"type": "Feature", "geometry": {"type": "MultiPolygon", "coordinates": [[[[72.107837, 34.41014913], [72.10779687, 34.41016607], [72.10787401, 34.41029165], [72.10791414, 34.41027472], [72.107837, 34.41014913]]]]}, "properties": {"id": "8J6JC465+34QV", "height": 2.595335960388184, "hmax": 0.009, "ratio": 0.003, "vulnClass": "none"}}, {"type": "Feature", "geometry": {"type": "MultiPolygon", "coordinates": [[[[72.10787624, 34.41009238], [72.10777726, 34.41013414], [72.10779687, 34.41016607], [72.107837, 34.41014913], [72.10791414, 34.41027472], [72.10803025, 34.41022573], [72.10806901, 34.41028883], [72.10819095, 34.41023737], [72.10813386, 34.41014443], [72.10795466, 34.41022005], [72.10787624, 34.41009238]]]]}, "properties": {"id": "8J6JC465+35Q5", "height": 2.517599105834961, "hmax": 0.009, "ratio": 0.004, "vulnClass": "none"}}, {"type": "Feature", "geometry": {"type": "MultiPolygon", "coordinates": [[[[72.10837991, 34.40984071], [72.10822659, 34.40992377], [72.10824474, 34.40994679], [72.10835266, 34.40988832], [72.10850747, 34.41008461], [72.10855287, 34.41006001], [72.10837991, 34.40984071]]]]}, "properties": {"id": "8J6JC455+X9M2", "height": 4.274486064910889, "hmax": 0.007, "ratio": 0.002, "vulnClass": "none"}}, {"type": "Feature", "geometry": {"type": "MultiPolygon", "coordinates": [[[[72.10764898, 34.40900969], [72.10793482, 34.40885779], [72.10783372, 34.40872711], [72.1077352, 34.40877947], [72.10777654, 34.4088329], [72.10758922, 34.40893245], [72.10764898, 34.40900969]]]]}, "properties": {"id": "8J6JC455+G4RW", "height": 4.580916404724121, "hmax": 0.003, "ratio": 0.001, "vulnClass": "none"}}, {"type": "Feature", "geometry": {"type": "MultiPolygon", "coordinates": [[[[72.11670152, 34.40907709], [72.11662469, 34.40902363], [72.11643753, 34.4092084], [72.11651436, 34.40926186], [72.11670152, 34.40907709]]]]}, "properties": {"id": "8J6JC458+MJ4J", "height": 2.541466474533081, "hmax": 0.006, "ratio": 0.002, "vulnClass": "none"}}, {"type": "Feature", "geometry": {"type": "MultiPolygon", "coordinates": [[[[72.11681256, 34.40915333], [72.11670181, 34.40907536], [72.11664934, 34.40912655], [72.11671553, 34.40917315], [72.116741, 34.4091483], [72.11678556, 34.40917968], [72.11681256, 34.40915333]]]]}, "properties": {"id": "8J6JC458+MM56", "height": 2.541466474533081, "hmax": 0.007, "ratio": 0.003, "vulnClass": "none"}}, {"type": "Feature", "geometry": {"type": "MultiPolygon", "coordinates": [[[[72.11823032, 34.40896847], [72.1181857, 34.40896031], [72.11817049, 34.40901743], [72.11821512, 34.40902559], [72.11823032, 34.40896847]]]]}, "properties": {"id": "8J6JC459+H7WM", "height": 4.130518913269043, "hmax": 0.002, "ratio": 0.001, "vulnClass": "none"}}, {"type": "Feature", "geometry": {"type": "MultiPolygon", "coordinates": [[[[72.11862062, 34.41209631], [72.11860394, 34.4122429], [72.11902055, 34.41227546], [72.11902989, 34.41219332], [72.11898421, 34.41218975], [72.11898086, 34.41221914], [72.11895323, 34.41221698], [72.11895658, 34.41218759], [72.11889497, 34.41218277], [72.11889162, 34.41221217], [72.11883089, 34.41220742], [72.11884464, 34.41208658], [72.11879203, 34.41208247], [72.11877828, 34.41220331], [72.11868993, 34.4121964], [72.11870061, 34.41210257], [72.11862062, 34.41209631]]]]}, "properties": {"id": "8J6JC469+VGFV", "height": 2.675735950469971, "hmax": 0.005, "ratio": 0.002, "vulnClass": "none"}}, {"type": "Feature", "geometry": {"type": "MultiPolygon", "coordinates": [[[[72.11860995, 34.41219015], [72.1185323, 34.41218408], [72.1185263, 34.41223683], [72.11860394, 34.4122429], [72.11860995, 34.41219015]]]]}, "properties": {"id": "8J6JC469+VCPC", "height": 4.566962718963623, "hmax": 0.005, "ratio": 0.001, "vulnClass": "none"}}, {"type": "Feature", "geometry": {"type": "MultiPolygon", "coordinates": [[[[72.1177915, 34.4126054], [72.1179295, 34.4123356], [72.1178402, 34.4123042], [72.1177022, 34.412574], [72.1177915, 34.4126054]]]]}, "properties": {"id": "8J6JC469+X4P2", "height": 2.922734975814819, "hmax": 0.006, "ratio": 0.002, "vulnClass": "none"}}, {"type": "Feature", "geometry": {"type": "MultiPolygon", "coordinates": [[[[72.11459817, 34.41094882], [72.11450206, 34.41089199], [72.11444469, 34.41095863], [72.11462302, 34.41106409], [72.11465758, 34.41102395], [72.11457535, 34.41097533], [72.11459817, 34.41094882]]]]}, "properties": {"id": "8J6JC467+9RV4", "height": 2.455257654190063, "hmax": 0.011, "ratio": 0.005, "vulnClass": "none"}}, {"type": "Feature", "geometry": {"type": "MultiPolygon", "coordinates": [[[[72.11414795, 34.41104524], [72.11409486, 34.41111138], [72.11435292, 34.41125367], [72.11440601, 34.41118753], [72.11414795, 34.41104524]]]]}, "properties": {"id": "8J6JC467+FP2R", "height": 3.177345991134644, "hmax": 0.013, "ratio": 0.004, "vulnClass": "none"}}, {"type": "Feature", "geometry": {"type": "MultiPolygon", "coordinates": [[[[72.11423564, 34.41150343], [72.11346875, 34.41105383], [72.1134066, 34.41112666], [72.11385955, 34.41139221], [72.11378492, 34.41147965], [72.1138236, 34.41150233], [72.11389823, 34.41141489], [72.11417348, 34.41157626], [72.11423564, 34.41150343]]]]}, "properties": {"id": "8J6JC467+GGGV", "height": 3.944458484649658, "hmax": 0.016, "ratio": 0.004, "vulnClass": "none"}}, {"type": "Feature", "geometry": {"type": "MultiPolygon", "coordinates": [[[[72.1133518, 34.41125857], [72.11343798, 34.4111576], [72.11339946, 34.41113502], [72.11331328, 34.41123599], [72.1133518, 34.41125857]]]]}, "properties": {"id": "8J6JC467+F9CR", "height": 2.64375376701355, "hmax": 0.028, "ratio": 0.011, "vulnClass": "none"}}, {"type": "Feature", "geometry": {"type": "MultiPolygon", "coordinates": [[[[72.11385096, 34.41157141], [72.11378242, 34.41154836], [72.11376505, 34.41158385], [72.11383359, 34.41160689], [72.11385096, 34.41157141]]]]}, "properties": {"id": "8J6JC467+JGM5", "height": 2.486678123474121, "hmax": 0.013, "ratio": 0.005, "vulnClass": "none"}}, {"type": "Feature", "geometry": {"type": "MultiPolygon", "coordinates": [[[[72.11405794, 34.4117468], [72.11419349, 34.41158799], [72.11413731, 34.41155505], [72.1140625, 34.4116427], [72.11392615, 34.41156277], [72.11386541, 34.41163393], [72.11405794, 34.4117468]]]]}, "properties": {"id": "8J6JC467+MJ2Q", "height": 4.693592071533203, "hmax": 0.013, "ratio": 0.003, "vulnClass": "none"}}, {"type": "Feature", "geometry": {"type": "MultiPolygon", "coordinates": [[[[72.11449099, 34.41116667], [72.11444369, 34.41114059], [72.11435292, 34.41125367], [72.11440022, 34.41127975], [72.11449099, 34.41116667]]]]}, "properties": {"id": "8J6JC467+FQMG", "height": 3.177345991134644, "hmax": 0.013, "ratio": 0.004, "vulnClass": "none"}}, {"type": "Feature", "geometry": {"type": "MultiPolygon", "coordinates": [[[[72.11162108, 34.41191031], [72.11157571, 34.41188053], [72.11149419, 34.41196585], [72.11153956, 34.41199563], [72.11162108, 34.41191031]]]]}, "properties": {"id": "8J6JC466+QJFH", "height": 2.790938377380371, "hmax": 0.034, "ratio": 0.012, "vulnClass": "none"}}, {"type": "Feature", "geometry": {"type": "MultiPolygon", "coordinates": [[[[72.11176484, 34.41182456], [72.11168148, 34.41176985], [72.11161458, 34.41183986], [72.11169795, 34.41189457], [72.11176484, 34.41182456]]]]}, "properties": {"id": "8J6JC466+PMP6", "height": 4.023200035095215, "hmax": 0.033, "ratio": 0.008, "vulnClass": "none"}}, {"type": "Feature", "geometry": {"type": "MultiPolygon", "coordinates": [[[[72.11160133, 34.41199569], [72.11169795, 34.41189457], [72.11161458, 34.41183986], [72.11157571, 34.41188053], [72.11162108, 34.41191031], [72.11156334, 34.41197075], [72.11160133, 34.41199569]]]]}, "properties": {"id": "8J6JC466+QM6C", "height": 2.882410049438477, "hmax": 0.034, "ratio": 0.012, "vulnClass": "none"}}, {"type": "Feature", "geometry": {"type": "MultiPolygon", "coordinates": [[[[72.11146724, 34.41180176], [72.11142904, 34.41178094], [72.11133523, 34.41189917], [72.11140692, 34.41193825], [72.11148687, 34.4118375], [72.11145337, 34.41181924], [72.11146724, 34.41180176]]]]}, "properties": {"id": "8J6JC466+PHVC", "height": 3.193595409393311, "hmax": 0.02, "ratio": 0.006, "vulnClass": "none"}}, {"type": "Feature", "geometry": {"type": "MultiPolygon", "coordinates": [[[[72.1116132, 34.41172503], [72.11152835, 34.41166934], [72.11142259, 34.41178003], [72.11157571, 34.41188053], [72.11166458, 34.41178753], [72.1115963, 34.41174272], [72.1116132, 34.41172503]]]]}, "properties": {"id": "8J6JC466+PJ73", "height": 4.023200035095215, "hmax": 0.028, "ratio": 0.007, "vulnClass": "none"}}, {"type": "Feature", "geometry": {"type": "MultiPolygon", "coordinates": [[[[72.11138053, 34.41165303], [72.11133102, 34.41166518], [72.11136334, 34.41175565], [72.11141285, 34.4117435], [72.11138053, 34.41165303]]]]}, "properties": {"id": "8J6JC466+MGQ5", "height": 4.059202194213867, "hmax": 0.01, "ratio": 0.003, "vulnClass": "none"}}, {"type": "Feature", "geometry": {"type": "MultiPolygon", "coordinates": [[[[72.11179165, 34.411809], [72.11184314, 34.4117642], [72.11180795, 34.41173642], [72.11175646, 34.41178121], [72.11179165, 34.411809]]]]}, "properties": {"id": "8J6JC466+PP3W", "height": 2.494974136352539, "hmax": 0.025, "ratio": 0.01, "vulnClass": "none"}}, {"type": "Feature", "geometry": {"type": "MultiPolygon", "coordinates": [[[[72.11159878, 34.41154977], [72.11155822, 34.41152152], [72.11141157, 34.41166615], [72.11145214, 34.4116944], [72.11159878, 34.41154977]]]]}, "properties": {"id": "8J6JC466+JJR6", "height": 2.542505741119385, "hmax": 0.024, "ratio": 0.009, "vulnClass": "none"}}, {"type": "Feature", "geometry": {"type": "MultiPolygon", "coordinates": [[[[72.11173948, 34.41159287], [72.11165463, 34.41153718], [72.11152835, 34.41166934], [72.1116132, 34.41172503], [72.11173948, 34.41159287]]]]}, "properties": {"id": "8J6JC466+MM27", "height": 3.562532186508179, "hmax": 0.024, "ratio": 0.007, "vulnClass": "none"}}, {"type": "Feature", "geometry": {"type": "MultiPolygon", "coordinates": [[[[72.11309011, 34.41129831], [72.11306106, 34.4112692], [72.11301108, 34.41130346], [72.11304013, 34.41133257], [72.11309011, 34.41129831]]]]}, "properties": {"id": "8J6JC467+G6F4", "height": 2.471622467041016, "hmax": 0.028, "ratio": 0.011, "vulnClass": "none"}}, {"type": "Feature", "geometry": {"type": "MultiPolygon", "coordinates": [[[[72.1114103, 34.4111291], [72.1112073, 34.4112907], [72.1111848, 34.4112712], [72.1111485, 34.4113001], [72.1112155, 34.4113579], [72.1113699, 34.411235], [72.1116341, 34.4114629], [72.1117189, 34.4113954], [72.1114103, 34.4111291]]]]}, "properties": {"id": "8J6JC466+GH8Q", "height": 3.247863292694092, "hmax": 0.018, "ratio": 0.006, "vulnClass": "none"}}, {"type": "Feature", "geometry": {"type": "MultiPolygon", "coordinates": [[[[72.11071394, 34.41099159], [72.11064329, 34.41092569], [72.11059181, 34.4109636], [72.11066245, 34.4110295], [72.11071394, 34.41099159]]]]}, "properties": {"id": "8J6JC466+97R5", "height": 3.108801364898682, "hmax": 0.01, "ratio": 0.003, "vulnClass": "none"}}, {"type": "Feature", "geometry": {"type": "MultiPolygon", "coordinates": [[[[72.1107154, 34.4107731], [72.1106668, 34.4107278], [72.1106204, 34.410762], [72.110559, 34.4107048], [72.1103742, 34.4108411], [72.1104102, 34.4108746], [72.1103695, 34.4109046], [72.1104436, 34.4109736], [72.1107154, 34.4107731]]]]}, "properties": {"id": "8J6JC466+86J8", "height": 2.541115522384644, "hmax": 0.012, "ratio": 0.005, "vulnClass": "none"}}, {"type": "Feature", "geometry": {"type": "MultiPolygon", "coordinates": [[[[72.11017069, 34.4106975], [72.11009499, 34.41064496], [72.10994799, 34.41079046], [72.11010234, 34.41089757], [72.11016884, 34.41083174], [72.1100902, 34.41077717], [72.11017069, 34.4106975]]]]}, "properties": {"id": "8J6JC466+824V", "height": 4.089904308319092, "hmax": 0.007, "ratio": 0.002, "vulnClass": "none"}}, {"type": "Feature", "geometry": {"type": "MultiPolygon", "coordinates": [[[[72.11029797, 34.41076875], [72.11025849, 34.41074759], [72.11022726, 34.41078762], [72.11026674, 34.41080878], [72.11029797, 34.41076875]]]]}, "properties": {"id": "8J6JC466+8463", "height": 3.152398824691772, "hmax": 0.007, "ratio": 0.002, "vulnClass": "none"}}, {"type": "Feature", "geometry": {"type": "MultiPolygon", "coordinates": [[[[72.11032992, 34.41083686], [72.11029129, 34.41081185], [72.11018489, 34.41092475], [72.110276, 34.41098373], [72.11030958, 34.41094811], [72.11025709, 34.41091413], [72.11032992, 34.41083686]]]]}, "properties": {"id": "8J6JC466+9463", "height": 3.119487285614014, "hmax": 0.008, "ratio": 0.003, "vulnClass": "none"}}, {"type": "Feature", "geometry": {"type": "MultiPolygon", "coordinates": [[[[72.11036041, 34.41095951], [72.11029578, 34.4109528], [72.1102921, 34.41097713], [72.1103316, 34.41100966], [72.11035249, 34.41101183], [72.11036041, 34.41095951]]]]}, "properties": {"id": "8J6JC466+94W4", "height": 2.465800285339355, "hmax": 0.009, "ratio": 0.004, "vulnClass": "none"}}, {"type": "Feature", "geometry": {"type": "MultiPolygon", "coordinates": [[[[72.1104679, 34.4111748], [72.1106656, 34.4110289], [72.1105931, 34.4109614], [72.1104906, 34.4110371], [72.1104386, 34.4109887], [72.1103435, 34.4110589], [72.1104679, 34.4111748]]]]}, "properties": {"id": "8J6JC466+C6CC", "height": 3.958654880523682, "hmax": 0.01, "ratio": 0.003, "vulnClass": "none"}}, {"type": "Feature", "geometry": {"type": "MultiPolygon", "coordinates": [[[[72.10990884, 34.41158096], [72.10961859, 34.41121062], [72.10953143, 34.41125753], [72.10982168, 34.41162788], [72.10990884, 34.41158096]]]]}, "properties": {"id": "8J6JC465+HV9J", "height": 3.235172748565674, "hmax": 0.009, "ratio": 0.003, "vulnClass": "none"}}, {"type": "Feature", "geometry": {"type": "MultiPolygon", "coordinates": [[[[72.1100584, 34.41154828], [72.10994762, 34.41145456], [72.10989883, 34.41149418], [72.11000961, 34.41158789], [72.1100584, 34.41154828]]]]}, "properties": {"id": "8J6JC465+JX5V", "height": 3.799670219421387, "hmax": 0.009, "ratio": 0.002, "vulnClass": "none"}}, {"type": "Feature", "geometry": {"type": "MultiPolygon", "coordinates": [[[[72.11013781, 34.41162797], [72.11004221, 34.41161689], [72.11001831, 34.41175853], [72.1101138, 34.41176894], [72.11013781, 34.41162797]]]]}, "properties": {"id": "8J6JC466+M2GM", "height": 2.912211656570435, "hmax": 0.008, "ratio": 0.003, "vulnClass": "none"}}, {"type": "Feature", "geometry": {"type": "MultiPolygon", "coordinates": [[[[72.11020658, 34.41156001], [72.11009074, 34.41153978], [72.11007196, 34.41161364], [72.1101878, 34.41163387], [72.11020658, 34.41156001]]]]}, "properties": {"id": "8J6JC466+J3JF", "height": 2.912211656570435, "hmax": 0.009, "ratio": 0.003, "vulnClass": "none"}}, {"type": "Feature", "geometry": {"type": "MultiPolygon", "coordinates": [[[[72.11043199, 34.41154574], [72.11044493, 34.411514], [72.11043504, 34.41151123], [72.11033735, 34.41175066], [72.11043487, 34.411778], [72.11049738, 34.41162478], [72.11056749, 34.41164443], [72.11058972, 34.41158994], [72.11043199, 34.41154574]]]]}, "properties": {"id": "8J6JC466+M583", "height": 2.670934915542603, "hmax": 0.01, "ratio": 0.004, "vulnClass": "none"}}, {"type": "Feature", "geometry": {"type": "MultiPolygon", "coordinates": [[[[72.11026364, 34.41147503], [72.11018463, 34.41142386], [72.11011929, 34.41149315], [72.11019829, 34.41154433], [72.11026364, 34.41147503]]]]}, "properties": {"id": "8J6JC466+H3W6", "height": 2.521401643753052, "hmax": 0.009, "ratio": 0.004, "vulnClass": "none"}}, {"type": "Feature", "geometry": {"type": "MultiPolygon", "coordinates": [[[[72.11034908, 34.41142596], [72.11032472, 34.41141026], [72.11029548, 34.41144126], [72.11031994, 34.41145703], [72.11034908, 34.41142596]]]]}, "properties": {"id": "8J6JC466+H4G7", "height": 2.44863224029541, "hmax": 0.009, "ratio": 0.004, "vulnClass": "none"}}, {"type": "Feature", "geometry": {"type": "MultiPolygon", "coordinates": [[[[72.11041888, 34.41148643], [72.11035331, 34.41143204], [72.11032338, 34.41145683], [72.11038894, 34.41151122], [72.11041888, 34.41148643]]]]}, "properties": {"id": "8J6JC466+H4QX", "height": 2.966319561004639, "hmax": 0.01, "ratio": 0.003, "vulnClass": "none"}}, {"type": "Feature", "geometry": {"type": "MultiPolygon", "coordinates": [[[[72.11030871, 34.41132843], [72.11027955, 34.41135258], [72.11039442, 34.41144786], [72.11042358, 34.41142371], [72.11030871, 34.41132843]]]]}, "properties": {"id": "8J6JC466+H45F", "height": 3.105446577072144, "hmax": 0.009, "ratio": 0.003, "vulnClass": "none"}}, {"type": "Feature", "geometry": {"type": "MultiPolygon", "coordinates": [[[[72.11011924, 34.41133343], [72.11007939, 34.41130524], [72.11000003, 34.41138229], [72.11003988, 34.41141048], [72.11011924, 34.41133343]]]]}, "properties": {"id": "8J6JC466+G2V9", "height": 3.010915994644165, "hmax": 0.009, "ratio": 0.003, "vulnClass": "none"}}, {"type": "Feature", "geometry": {"type": "MultiPolygon", "coordinates": [[[[72.11044882, 34.41151126], [72.11062789, 34.41136297], [72.11056246, 34.4113087], [72.11038339, 34.41145699], [72.11044882, 34.41151126]]]]}, "properties": {"id": "8J6JC466+H666", "height": 3.454507827758789, "hmax": 0.01, "ratio": 0.003, "vulnClass": "none"}}, {"type": "Feature", "geometry": {"type": "MultiPolygon", "coordinates": [[[[72.11112486, 34.41129738], [72.11111203, 34.41126106], [72.11103894, 34.4112788], [72.11113808, 34.41155937], [72.11109017, 34.411571], [72.11111187, 34.41163241], [72.11092583, 34.41167756], [72.11095397, 34.41175719], [72.11138041, 34.41165369], [72.11135227, 34.41157406], [72.11130285, 34.41158605], [72.11131586, 34.41162289], [72.1112729, 34.41163331], [72.11115188, 34.41129082], [72.11112486, 34.41129738]]]]}, "properties": {"id": "8J6JC466+JFC8", "height": 5.362987041473389, "hmax": 0.01, "ratio": 0.002, "vulnClass": "none"}}, {"type": "Feature", "geometry": {"type": "MultiPolygon", "coordinates": [[[[72.11142381, 34.41138471], [72.11124119, 34.41143886], [72.11127215, 34.41151056], [72.11148092, 34.41144865], [72.11151812, 34.41153482], [72.11157158, 34.41151896], [72.11156085, 34.41149411], [72.11153483, 34.41150183], [72.11148902, 34.41139573], [72.11143543, 34.41141163], [72.11142381, 34.41138471]]]]}, "properties": {"id": "8J6JC466+HHJ4", "height": 3.692331790924072, "hmax": 0.014, "ratio": 0.004, "vulnClass": "none"}}, {"type": "Feature", "geometry": {"type": "MultiPolygon", "coordinates": [[[[72.11063479, 34.41166552], [72.11076769, 34.41155547], [72.11073098, 34.41152502], [72.11059809, 34.41163507], [72.11063479, 34.41166552]]]]}, "properties": {"id": "8J6JC466+J7MX", "height": 2.533614158630371, "hmax": 0.01, "ratio": 0.004, "vulnClass": "none"}}, {"type": "Feature", "geometry": {"type": "MultiPolygon", "coordinates": [[[[72.11056246, 34.41153891], [72.11048901, 34.41147798], [72.11044882, 34.41151126], [72.11052227, 34.41157219], [72.11056246, 34.41153891]]]]}, "properties": {"id": "8J6JC466+J662", "height": 3.133102416992188, "hmax": 0.01, "ratio": 0.003, "vulnClass": "none"}}, {"type": "Feature", "geometry": {"type": "MultiPolygon", "coordinates": [[[[72.11066044, 34.41159034], [72.11058918, 34.41152847], [72.1105477, 34.41156129], [72.11061896, 34.41162316], [72.11066044, 34.41159034]]]]}, "properties": {"id": "8J6JC466+J6Q3", "height": 2.560687065124512, "hmax": 0.01, "ratio": 0.004, "vulnClass": "none"}}, {"type": "Feature", "geometry": {"type": "MultiPolygon", "coordinates": [[[[72.11093977, 34.41174699], [72.11084228, 34.411735], [72.11081931, 34.41186334], [72.1109168, 34.41187533], [72.11093977, 34.41174699]]]]}, "properties": {"id": "8J6JC466+P9C6", "height": 3.924703121185303, "hmax": 0.012, "ratio": 0.003, "vulnClass": "none"}}, {"type": "Feature", "geometry": {"type": "MultiPolygon", "coordinates": [[[[72.11117977, 34.4117188], [72.11107431, 34.41172184], [72.11108362, 34.41194337], [72.11126354, 34.41193818], [72.11126048, 34.41186536], [72.11118602, 34.41186751], [72.11117977, 34.4117188]]]]}, "properties": {"id": "8J6JC466+PFJQ", "height": 4.977228164672852, "hmax": 0.012, "ratio": 0.002, "vulnClass": "none"}}, {"type": "Feature", "geometry": {"type": "MultiPolygon", "coordinates": [[[[72.11135104, 34.41172124], [72.11133102, 34.41166518], [72.1112622, 34.41168207], [72.11128223, 34.41173813], [72.11135104, 34.41172124]]]]}, "properties": {"id": "8J6JC466+MGM5", "height": 4.413159847259521, "hmax": 0.01, "ratio": 0.002, "vulnClass": "none"}}, {"type": "Feature", "geometry": {"type": "MultiPolygon", "coordinates": [[[[72.11127933, 34.4117345], [72.11126101, 34.41168267], [72.11118793, 34.41170041], [72.11120624, 34.41175224], [72.11127933, 34.4117345]]]]}, "properties": {"id": "8J6JC466+MFQM", "height": 4.358204364776611, "hmax": 0.01, "ratio": 0.002, "vulnClass": "none"}}, {"type": "Feature", "geometry": {"type": "MultiPolygon", "coordinates": [[[[72.11100092, 34.4117627], [72.11093757, 34.41175279], [72.11090835, 34.41188112], [72.11103168, 34.41190042], [72.11103872, 34.41186819], [72.11097902, 34.41185885], [72.11100092, 34.4117627]]]]}, "properties": {"id": "8J6JC466+P9P9", "height": 3.924703121185303, "hmax": 0.012, "ratio": 0.003, "vulnClass": "none"}}, {"type": "Feature", "geometry": {"type": "MultiPolygon", "coordinates": [[[[72.11131829, 34.41200224], [72.11136517, 34.41192606], [72.11132423, 34.41190875], [72.11127734, 34.41198493], [72.11131829, 34.41200224]]]]}, "properties": {"id": "8J6JC466+QGP7", "height": 2.52985954284668, "hmax": 0.012, "ratio": 0.005, "vulnClass": "none"}}, {"type": "Feature", "geometry": {"type": "MultiPolygon", "coordinates": [[[[72.11105629, 34.41220037], [72.11118371, 34.41205905], [72.1111066, 34.4120113], [72.11104503, 34.4120796], [72.11094676, 34.41201874], [72.11088092, 34.41209176], [72.11105629, 34.41220037]]]]}, "properties": {"id": "8J6JC466+RCMR", "height": 2.508406162261963, "hmax": 0.012, "ratio": 0.005, "vulnClass": "none"}}, {"type": "Feature", "geometry": {"type": "MultiPolygon", "coordinates": [[[[72.11095861, 34.41195632], [72.11087682, 34.41190863], [72.11079606, 34.41200374], [72.11087785, 34.41205144], [72.11095861, 34.41195632]]]]}, "properties": {"id": "8J6JC466+Q9R6", "height": 2.656919479370117, "hmax": 0.012, "ratio": 0.005, "vulnClass": "none"}}, {"type": "Feature", "geometry": {"type": "MultiPolygon", "coordinates": [[[[72.11049589, 34.41221219], [72.11066388, 34.41200903], [72.11057657, 34.41195943], [72.11040857, 34.41216259], [72.11049589, 34.41221219]]]]}, "properties": {"id": "8J6JC466+R6MC", "height": 4.146090030670166, "hmax": 0.012, "ratio": 0.003, "vulnClass": "none"}}, {"type": "Feature", "geometry": {"type": "MultiPolygon", "coordinates": [[[[72.1104435, 34.41210633], [72.11040169, 34.41206388], [72.11035462, 34.41209572], [72.11039642, 34.41213817], [72.1104435, 34.41210633]]]]}, "properties": {"id": "8J6JC466+R5R5", "height": 4.146090030670166, "hmax": 0.012, "ratio": 0.003, "vulnClass": "none"}}, {"type": "Feature", "geometry": {"type": "MultiPolygon", "coordinates": [[[[72.11038134, 34.41208494], [72.11040009, 34.41204315], [72.11036967, 34.41203378], [72.11035092, 34.41207557], [72.11038134, 34.41208494]]]]}, "properties": {"id": "8J6JC466+R5C6", "height": 3.096874237060547, "hmax": 0.012, "ratio": 0.004, "vulnClass": "none"}}, {"type": "Feature", "geometry": {"type": "MultiPolygon", "coordinates": [[[[72.11030452, 34.41203603], [72.11037536, 34.41192317], [72.11033295, 34.41190488], [72.1102621, 34.41201775], [72.11030452, 34.41203603]]]]}, "properties": {"id": "8J6JC466+Q4PR", "height": 3.481157779693604, "hmax": 0.007, "ratio": 0.002, "vulnClass": "none"}}, {"type": "Feature", "geometry": {"type": "MultiPolygon", "coordinates": [[[[72.11052462, 34.41179057], [72.11032703, 34.41176157], [72.11031854, 34.41180129], [72.11051613, 34.41183029], [72.11052462, 34.41179057]]]]}, "properties": {"id": "8J6JC466+P57V", "height": 2.51222562789917, "hmax": 0.012, "ratio": 0.005, "vulnClass": "none"}}, {"type": "Feature", "geometry": {"type": "MultiPolygon", "coordinates": [[[[72.11018127, 34.41163301], [72.11013781, 34.41162797], [72.11012902, 34.41167956], [72.11017248, 34.41168464], [72.11018127, 34.41163301]]]]}, "properties": {"id": "8J6JC466+M369", "height": 2.912211656570435, "hmax": 0.009, "ratio": 0.003, "vulnClass": "none"}}, {"type": "Feature", "geometry": {"type": "MultiPolygon", "coordinates": [[[[72.11033273, 34.41172575], [72.11013822, 34.41169438], [72.1101199, 34.41177241], [72.11031441, 34.41180378], [72.11033273, 34.41172575]]]]}, "properties": {"id": "8J6JC466+M3XR", "height": 2.826499938964844, "hmax": 0.008, "ratio": 0.003, "vulnClass": "none"}}, {"type": "Feature", "geometry": {"type": "MultiPolygon", "coordinates": [[[[72.11014321, 34.41180815], [72.11009473, 34.41183952], [72.1102363, 34.41198976], [72.11028477, 34.41195838], [72.11014321, 34.41180815]]]]}, "properties": {"id": "8J6JC466+Q34R", "height": 4.011395454406738, "hmax": 0.006, "ratio": 0.002, "vulnClass": "none"}}, {"type": "Feature", "geometry": {"type": "MultiPolygon", "coordinates": [[[[72.11149071, 34.41250522], [72.11128862, 34.41238741], [72.11122901, 34.41245765], [72.11143109, 34.41257546], [72.11149071, 34.41250522]]]]}, "properties": {"id": "8J6JC466+XGX8", "height": 2.821758985519409, "hmax": 0.018, "ratio": 0.006, "vulnClass": "none"}}, {"type": "Feature", "geometry": {"type": "MultiPolygon", "coordinates": [[[[72.11080304, 34.41255396], [72.11076571, 34.41253124], [72.11071428, 34.41258926], [72.11075162, 34.41261199], [72.11080304, 34.41255396]]]]}, "properties": {"id": "8J6JC476+28CV", "height": 4.405418395996094, "hmax": 0.012, "ratio": 0.003, "vulnClass": "none"}}, {"type": "Feature", "geometry": {"type": "MultiPolygon", "coordinates": [[[[72.11180218, 34.41239605], [72.11164098, 34.41231685], [72.11154761, 34.41244738], [72.11170881, 34.41252658], [72.11180218, 34.41239605]]]]}, "properties": {"id": "8J6JC466+XM7W", "height": 2.549544811248779, "hmax": 0.034, "ratio": 0.013, "vulnClass": "none"}}, {"type": "Feature", "geometry": {"type": "MultiPolygon", "coordinates": [[[[72.11200656, 34.41252956], [72.11183671, 34.41242899], [72.11175449, 34.41252437], [72.11192434, 34.41262494], [72.11200656, 34.41252956]]]]}, "properties": {"id": "8J6JC476+2Q62", "height": 2.751855850219727, "hmax": 0.034, "ratio": 0.012, "vulnClass": "none"}}, {"type": "Feature", "geometry": {"type": "MultiPolygon", "coordinates": [[[[72.11243821, 34.41259302], [72.11229019, 34.4125233], [72.11221643, 34.41263085], [72.11241209, 34.41272302], [72.11245581, 34.41265927], [72.11240816, 34.41263683], [72.11243821, 34.41259302]]]]}, "properties": {"id": "8J6JC476+2WWX", "height": 2.837107419967651, "hmax": 0.034, "ratio": 0.012, "vulnClass": "none"}}, {"type": "Feature", "geometry": {"type": "MultiPolygon", "coordinates": [[[[72.11267251, 34.41231447], [72.11246831, 34.4122418], [72.1124173, 34.41234026], [72.11253696, 34.41238285], [72.11248117, 34.41249053], [72.11256571, 34.41252061], [72.11267251, 34.41231447]]]]}, "properties": {"id": "8J6JC467+W2VP", "height": 2.772927284240723, "hmax": 0.024, "ratio": 0.009, "vulnClass": "none"}}]}