{"type": "FeatureCollection", "features": [{"type": "Feature", "geometry": {"type": "MultiPolygon", "coordinates": [[[[71.94213725, 34.47247044], [71.94204309, 34.47231745], [71.94198336, 34.47234244], [71.94200393, 34.47237585], [71.94193567, 34.4724044], [71.94200927, 34.47252398], [71.94213725, 34.47247044]]]]}, "properties": {"id": "Pakistan_123102132_333614", "height": 3.322755336761475, "hmax": 0.046, "ratio": 0.014, "vulnClass": "none"}}, {"type": "Feature", "geometry": {"type": "MultiPolygon", "coordinates": [[[[71.9425464, 34.47230814], [71.94248973, 34.47223343], [71.94251094, 34.47222249], [71.94244824, 34.47213983], [71.94224496, 34.4722446], [71.94236432, 34.47240199], [71.9425464, 34.47230814]]]]}, "properties": {"id": "Pakistan_123102132_423068", "height": 2.959243297576904, "hmax": 0.046, "ratio": 0.015, "vulnClass": "none"}}, {"type": "Feature", "geometry": {"type": "MultiPolygon", "coordinates": [[[[71.94184527, 34.47049299], [71.94185469, 34.47054162], [71.94201067, 34.47052109], [71.94200126, 34.47047247], [71.94184527, 34.47049299]]]]}, "properties": {"id": "Pakistan_123102132_389064", "height": 2.476405382156372, "hmax": 0.044, "ratio": 0.018, "vulnClass": "none"}}, {"type": "Feature", "geometry": {"type": "MultiPolygon", "coordinates": [[[[71.94206492, 34.47066786], [71.94206291, 34.47057722], [71.94181623, 34.47058094], [71.94181501, 34.47052568], [71.94165145, 34.47052814], [71.94165525, 34.47069959], [71.94181443, 34.47069718], [71.94181386, 34.47067164], [71.94206492, 34.47066786]]]]}, "properties": {"id": "Pakistan_123102132_231993", "height": 4.089902400970459, "hmax": 0.055, "ratio": 0.013, "vulnClass": "none"}}, {"type": "Feature", "geometry": {"type": "MultiPolygon", "coordinates": [[[[71.94062621, 34.4704049], [71.94073723, 34.47056615], [71.94101646, 34.4704355], [71.94094941, 34.4703381], [71.94088446, 34.47033726], [71.94086712, 34.47031207], [71.9408106, 34.47033852], [71.94064236, 34.47033634], [71.94058633, 34.47036255], [71.9406181, 34.47040869], [71.94062621, 34.4704049]]]]}, "properties": {"id": "Pakistan_123102132_530622", "height": 3.368617534637451, "hmax": 0.061, "ratio": 0.018, "vulnClass": "none"}}, {"type": "Feature", "geometry": {"type": "MultiPolygon", "coordinates": [[[[71.94051286, 34.47024778], [71.94050671, 34.47037231], [71.94057097, 34.47037447], [71.94057713, 34.47024994], [71.94051286, 34.47024778]]]]}, "properties": {"id": "Pakistan_123102132_154811", "height": 3.882990121841431, "hmax": 0.042, "ratio": 0.011, "vulnClass": "none"}}, {"type": "Feature", "geometry": {"type": "MultiPolygon", "coordinates": [[[[71.94080924, 34.47061674], [71.9406015, 34.47067995], [71.94063809, 34.47076169], [71.94069562, 34.47074419], [71.9407092, 34.47077452], [71.94077766, 34.47075368], [71.94091047, 34.47105031], [71.9409922, 34.47102544], [71.94080924, 34.47061674]]]]}, "properties": {"id": "Pakistan_123102132_47063", "height": 4.638204574584961, "hmax": 0.058, "ratio": 0.013, "vulnClass": "none"}}, {"type": "Feature", "geometry": {"type": "MultiPolygon", "coordinates": [[[[71.93959533, 34.47060927], [71.93980723, 34.47058629], [71.93980203, 34.47055369], [71.93965965, 34.47056912], [71.9396541, 34.47053435], [71.93961455, 34.47053863], [71.93959825, 34.47043647], [71.9395007, 34.47044705], [71.93955826, 34.47080788], [71.93962583, 34.47080055], [71.93959533, 34.47060927]]]]}, "properties": {"id": "Pakistan_123102132_603965", "height": 3.650859117507935, "hmax": 0.011, "ratio": 0.003, "vulnClass": "none"}}, {"type": "Feature", "geometry": {"type": "MultiPolygon", "coordinates": [[[[71.94064756, 34.47016683], [71.94059341, 34.47011086], [71.94054915, 34.47013997], [71.9406033, 34.47019593], [71.94064756, 34.47016683]]]]}, "properties": {"id": "Pakistan_123102132_603970", "height": 2.900101900100708, "hmax": 0.042, "ratio": 0.014, "vulnClass": "none"}}, {"type": "Feature", "geometry": {"type": "MultiPolygon", "coordinates": [[[[71.94131211, 34.47018332], [71.94118398, 34.47002459], [71.94104337, 34.47010172], [71.94117149, 34.47026047], [71.94131211, 34.47018332]]]]}, "properties": {"id": "Pakistan_123102132_487701", "height": 3.633445978164673, "hmax": 0.066, "ratio": 0.018, "vulnClass": "none"}}, {"type": "Feature", "geometry": {"type": "MultiPolygon", "coordinates": [[[[71.94064897, 34.46944814], [71.94052224, 34.4694894], [71.94054881, 34.46954488], [71.94071499, 34.46949078], [71.94067284, 34.46940278], [71.94063339, 34.46941562], [71.94064897, 34.46944814]]]]}, "properties": {"id": "Pakistan_123102132_579435", "height": 2.61180305480957, "hmax": 0.033, "ratio": 0.013, "vulnClass": "none"}}, {"type": "Feature", "geometry": {"type": "MultiPolygon", "coordinates": [[[[71.94105088, 34.46926976], [71.94105172, 34.46931397], [71.94124479, 34.46931145], [71.94124395, 34.46926724], [71.94105088, 34.46926976]]]]}, "properties": {"id": "Pakistan_123102132_225738", "height": 2.973577499389648, "hmax": 0.024, "ratio": 0.008, "vulnClass": "none"}}, {"type": "Feature", "geometry": {"type": "MultiPolygon", "coordinates": [[[[71.94121578, 34.46888549], [71.94114158, 34.46889549], [71.94115422, 34.46895919], [71.94122841, 34.46894918], [71.94121578, 34.46888549]]]]}, "properties": {"id": "Pakistan_123102132_398392", "height": 3.010156154632568, "hmax": 0.016, "ratio": 0.005, "vulnClass": "none"}}, {"type": "Feature", "geometry": {"type": "MultiPolygon", "coordinates": [[[[71.94016449, 34.46926264], [71.94023485, 34.46945767], [71.94032014, 34.46943675], [71.94033187, 34.46946926], [71.9405019, 34.46942756], [71.94050923, 34.46944788], [71.94060287, 34.46942491], [71.94057575, 34.46934975], [71.94063489, 34.46933524], [71.94062127, 34.46929748], [71.94046848, 34.46933494], [71.94041981, 34.46920003], [71.94016449, 34.46926264]]]]}, "properties": {"id": "Pakistan_123102132_275102", "height": 5.653668403625488, "hmax": 0.033, "ratio": 0.006, "vulnClass": "none"}}, {"type": "Feature", "geometry": {"type": "MultiPolygon", "coordinates": [[[[71.94036622, 34.46950264], [71.94054725, 34.46974079], [71.94061777, 34.46970435], [71.94050553, 34.4695567], [71.94054789, 34.46953481], [71.94047065, 34.4694332], [71.94043673, 34.46945073], [71.94044517, 34.46946184], [71.94036622, 34.46950264]]]]}, "properties": {"id": "Pakistan_123102132_74755", "height": 2.558939456939697, "hmax": 0.033, "ratio": 0.013, "vulnClass": "none"}}, {"type": "Feature", "geometry": {"type": "MultiPolygon", "coordinates": [[[[71.93986073, 34.46952093], [71.93981405, 34.4693389], [71.9397473, 34.46935053], [71.93976304, 34.46941191], [71.93960385, 34.46943965], [71.93957075, 34.46931053], [71.9395194, 34.46931948], [71.93956336, 34.46949093], [71.93936309, 34.46952583], [71.93933975, 34.46943481], [71.93927043, 34.46944689], [71.93925198, 34.46937492], [71.9392186, 34.46938074], [71.93926582, 34.46956489], [71.93935825, 34.46954879], [71.93936802, 34.46958689], [71.93946301, 34.46957034], [71.9394679, 34.46958939], [71.93986073, 34.46952093]]]]}, "properties": {"id": "Pakistan_123102132_4169", "height": 3.235939502716064, "hmax": 0.021, "ratio": 0.007, "vulnClass": "none"}}, {"type": "Feature", "geometry": {"type": "MultiPolygon", "coordinates": [[[[71.94001913, 34.47118549], [71.94004734, 34.47138399], [71.94021138, 34.47136815], [71.94020704, 34.47133761], [71.94017794, 34.47134042], [71.9401736, 34.47130988], [71.9402371, 34.47130375], [71.94020473, 34.47107602], [71.94000894, 34.47109494], [71.9400103, 34.47110453], [71.93964782, 34.47113954], [71.93963883, 34.47107628], [71.93955416, 34.47108446], [71.93954858, 34.4710452], [71.93963325, 34.47103702], [71.93962395, 34.47097158], [71.93921748, 34.47101084], [71.93922182, 34.47104138], [71.93934253, 34.47102972], [71.93936175, 34.47116496], [71.93925327, 34.47117544], [71.93926505, 34.47125833], [71.94001913, 34.47118549]]]]}, "properties": {"id": "Pakistan_123102132_77749", "height": 6.009894371032715, "hmax": 0.012, "ratio": 0.002, "vulnClass": "none"}}, {"type": "Feature", "geometry": {"type": "MultiPolygon", "coordinates": [[[[71.93957186, 34.47091019], [71.94010244, 34.47084948], [71.94011449, 34.47092107], [71.94023554, 34.47090722], [71.94022313, 34.47083346], [71.94027148, 34.47082793], [71.94025541, 34.47073247], [71.93955542, 34.47081256], [71.93957186, 34.47091019]]]]}, "properties": {"id": "Pakistan_123102132_108449", "height": 3.084766864776611, "hmax": 0.017, "ratio": 0.006, "vulnClass": "none"}}, {"type": "Feature", "geometry": {"type": "MultiPolygon", "coordinates": [[[[71.93997531, 34.47095755], [71.93997518, 34.47087131], [71.93990813, 34.47087138], [71.93990826, 34.47095762], [71.93997531, 34.47095755]]]]}, "properties": {"id": "Pakistan_123102132_410680", "height": 2.50579047203064, "hmax": 0.017, "ratio": 0.007, "vulnClass": "none"}}, {"type": "Feature", "geometry": {"type": "MultiPolygon", "coordinates": [[[[71.93965775, 34.47090863], [71.93966288, 34.47100131], [71.93981813, 34.47099547], [71.9398224, 34.4710727], [71.93987058, 34.47107089], [71.93986118, 34.47090098], [71.93965775, 34.47090863]]]]}, "properties": {"id": "Pakistan_123102132_176587", "height": 2.489232540130615, "hmax": 0.017, "ratio": 0.007, "vulnClass": "none"}}, {"type": "Feature", "geometry": {"type": "MultiPolygon", "coordinates": [[[[71.94086955, 34.47118976], [71.9408214, 34.47110426], [71.94074553, 34.47113329], [71.94070968, 34.47106962], [71.9407494, 34.47105442], [71.94072687, 34.47101439], [71.94061075, 34.47105883], [71.9404751, 34.47081795], [71.94039926, 34.47084697], [71.94064141, 34.47127706], [71.94086955, 34.47118976]]]]}, "properties": {"id": "Pakistan_123102132_136384", "height": 3.04619026184082, "hmax": 0.032, "ratio": 0.011, "vulnClass": "none"}}, {"type": "Feature", "geometry": {"type": "MultiPolygon", "coordinates": [[[[71.94153058, 34.47103908], [71.94149634, 34.47097511], [71.94127633, 34.47105515], [71.94131058, 34.47111913], [71.94153058, 34.47103908]]]]}, "properties": {"id": "Pakistan_123102132_358201", "height": 3.909493207931519, "hmax": 0.06, "ratio": 0.015, "vulnClass": "none"}}, {"type": "Feature", "geometry": {"type": "MultiPolygon", "coordinates": [[[[71.94101875, 34.47146622], [71.9411724, 34.471382], [71.94110562, 34.4712992], [71.94086827, 34.4714293], [71.940987, 34.47157649], [71.94107069, 34.47153062], [71.94101875, 34.47146622]]]]}, "properties": {"id": "Pakistan_123102132_262830", "height": 4.19099760055542, "hmax": 0.06, "ratio": 0.014, "vulnClass": "none"}}, {"type": "Feature", "geometry": {"type": "MultiPolygon", "coordinates": [[[[71.94123968, 34.4713075], [71.94122329, 34.47126295], [71.94118153, 34.47127339], [71.94119792, 34.47131794], [71.94123968, 34.4713075]]]]}, "properties": {"id": "Pakistan_123102132_160991", "height": 2.912231206893921, "hmax": 0.06, "ratio": 0.021, "vulnClass": "none"}}, {"type": "Feature", "geometry": {"type": "MultiPolygon", "coordinates": [[[[71.94110538, 34.47153513], [71.94116306, 34.47171256], [71.94136726, 34.47166744], [71.9413461, 34.47160231], [71.94120445, 34.4716336], [71.94116794, 34.47152131], [71.94110538, 34.47153513]]]]}, "properties": {"id": "Pakistan_123102132_407540", "height": 3.207260131835938, "hmax": 0.044, "ratio": 0.014, "vulnClass": "none"}}, {"type": "Feature", "geometry": {"type": "MultiPolygon", "coordinates": [[[[71.94148243, 34.4718186], [71.94140005, 34.47166512], [71.94133949, 34.47168722], [71.94133496, 34.47167877], [71.94124299, 34.47171232], [71.9413299, 34.47187425], [71.94148243, 34.4718186]]]]}, "properties": {"id": "Pakistan_123102132_339782", "height": 3.502717018127441, "hmax": 0.024, "ratio": 0.007, "vulnClass": "none"}}, {"type": "Feature", "geometry": {"type": "MultiPolygon", "coordinates": [[[[71.94053238, 34.47162715], [71.94064714, 34.47175748], [71.94094224, 34.47158087], [71.94082748, 34.47145054], [71.94053238, 34.47162715]]]]}, "properties": {"id": "Pakistan_123102132_395234", "height": 6.934967994689941, "hmax": 0.041, "ratio": 0.006, "vulnClass": "none"}}, {"type": "Feature", "geometry": {"type": "MultiPolygon", "coordinates": [[[[71.94000495, 34.47129146], [71.93981845, 34.47129671], [71.93982074, 34.47135193], [71.94000723, 34.47134667], [71.94000495, 34.47129146]]]]}, "properties": {"id": "Pakistan_123102132_213650", "height": 5.386462211608887, "hmax": 0.017, "ratio": 0.003, "vulnClass": "none"}}, {"type": "Feature", "geometry": {"type": "MultiPolygon", "coordinates": [[[[71.93969563, 34.47173988], [71.93969863, 34.47187164], [71.93985146, 34.47186928], [71.93985056, 34.47182949], [71.93978512, 34.47183051], [71.93978252, 34.47171556], [71.93976482, 34.47171584], [71.93976377, 34.47166942], [71.93957608, 34.47167232], [71.93957765, 34.47174169], [71.93969563, 34.47173988]]]]}, "properties": {"id": "Pakistan_123102132_536717", "height": 3.249130964279175, "hmax": 0.008, "ratio": 0.003, "vulnClass": "none"}}, {"type": "Feature", "geometry": {"type": "MultiPolygon", "coordinates": [[[[71.93999435, 34.47182628], [71.94034945, 34.47187046], [71.94036037, 34.4718108], [71.9403053, 34.47180394], [71.94032311, 34.47170665], [71.94024338, 34.47169673], [71.94023483, 34.47174342], [71.94018763, 34.47173755], [71.94017757, 34.47179247], [71.94000449, 34.47177093], [71.93999435, 34.47182628]]]]}, "properties": {"id": "Pakistan_123102132_582471", "height": 2.469090938568115, "hmax": 0.008, "ratio": 0.003, "vulnClass": "none"}}, {"type": "Feature", "geometry": {"type": "MultiPolygon", "coordinates": [[[[71.94021517, 34.4725338], [71.94021675, 34.4725428], [71.9403314, 34.47276241], [71.94036486, 34.47275841], [71.94058833, 34.47267913], [71.94060139, 34.47270415], [71.94065571, 34.47268489], [71.94063428, 34.47264384], [71.9406771, 34.47262865], [71.94067018, 34.47258929], [71.94066209, 34.4725738], [71.94063977, 34.47244694], [71.94054346, 34.47245845], [71.94048706, 34.47247846], [71.9404721, 34.47248025], [71.94045886, 34.47248495], [71.94029906, 34.47250404], [71.94021517, 34.4725338]]]]}, "properties": {"id": "Pakistan_123102132_579427", "height": 3.409576892852783, "hmax": 0.005, "ratio": 0.002, "vulnClass": "none"}}, {"type": "Feature", "geometry": {"type": "MultiPolygon", "coordinates": [[[[71.92864976, 34.47259547], [71.92861851, 34.47251626], [71.92845599, 34.47255984], [71.92848725, 34.47263906], [71.92864976, 34.47259547]]]]}, "properties": {"id": "Pakistan_123102132_327303", "height": 3.079275846481323, "hmax": 0.002, "ratio": 0.001, "vulnClass": "none"}}, {"type": "Feature", "geometry": {"type": "MultiPolygon", "coordinates": [[[[71.9288505, 34.46995873], [71.92884916, 34.46980174], [71.9287687, 34.4698022], [71.92876926, 34.46986767], [71.92853224, 34.46986905], [71.92853175, 34.46981241], [71.92845129, 34.46981288], [71.92845256, 34.46996102], [71.9288505, 34.46995873]]]]}, "properties": {"id": "Pakistan_123102132_53156", "height": 2.471473693847656, "hmax": 0.003, "ratio": 0.001, "vulnClass": "none"}}, {"type": "Feature", "geometry": {"type": "MultiPolygon", "coordinates": [[[[71.92862691, 34.47020242], [71.92882359, 34.47020591], [71.92882535, 34.47013874], [71.92862866, 34.47013526], [71.92862691, 34.47020242]]]]}, "properties": {"id": "Pakistan_123102132_373350", "height": 3.001367330551147, "hmax": 0.003, "ratio": 0.001, "vulnClass": "none"}}, {"type": "Feature", "geometry": {"type": "MultiPolygon", "coordinates": [[[[71.92964538, 34.47014448], [71.9295939, 34.47021691], [71.92968575, 34.47026128], [71.92973723, 34.47018885], [71.92964538, 34.47014448]]]]}, "properties": {"id": "Pakistan_123102132_447580", "height": 2.692925453186035, "hmax": 0.005, "ratio": 0.002, "vulnClass": "none"}}, {"type": "Feature", "geometry": {"type": "MultiPolygon", "coordinates": [[[[71.92936693, 34.46998298], [71.9293477, 34.46971947], [71.92923712, 34.46972496], [71.92925638, 34.46998847], [71.92936693, 34.46998298]]]]}, "properties": {"id": "Pakistan_123102132_222661", "height": 2.911965608596802, "hmax": 0.005, "ratio": 0.002, "vulnClass": "none"}}, {"type": "Feature", "geometry": {"type": "MultiPolygon", "coordinates": [[[[71.9286064, 34.46963096], [71.92860696, 34.46964864], [71.92867933, 34.46964706], [71.92867827, 34.46961392], [71.92877208, 34.46961188], [71.92877081, 34.4695721], [71.92843577, 34.46957939], [71.92843754, 34.46963463], [71.9286064, 34.46963096]]]]}, "properties": {"id": "Pakistan_123102132_86791", "height": 2.529245615005493, "hmax": 0.001, "ratio": 0.0, "vulnClass": "none"}}, {"type": "Feature", "geometry": {"type": "MultiPolygon", "coordinates": [[[[71.92994279, 34.47186212], [71.93004971, 34.47189376], [71.93008773, 34.47180645], [71.92998082, 34.4717748], [71.92994279, 34.47186212]]]]}, "properties": {"id": "Pakistan_123102132_392022", "height": 3.89081859588623, "hmax": 0.038, "ratio": 0.01, "vulnClass": "none"}}, {"type": "Feature", "geometry": {"type": "MultiPolygon", "coordinates": [[[[71.93077834, 34.47175099], [71.93073849, 34.47179198], [71.93066596, 34.47174407], [71.93062015, 34.4717912], [71.93066262, 34.47181925], [71.93060299, 34.47188061], [71.93103327, 34.47216482], [71.93112299, 34.47207251], [71.93105535, 34.47202783], [71.93108211, 34.47200029], [71.9309988, 34.47194526], [71.9310276, 34.47191564], [71.93077834, 34.47175099]]]]}, "properties": {"id": "Pakistan_123102132_551796", "height": 3.038551568984985, "hmax": 0.031, "ratio": 0.01, "vulnClass": "none"}}, {"type": "Feature", "geometry": {"type": "MultiPolygon", "coordinates": [[[[71.93132358, 34.47213212], [71.93134723, 34.47220791], [71.93166169, 34.47214122], [71.93161315, 34.47198567], [71.93157187, 34.47199443], [71.93159676, 34.4720742], [71.93132358, 34.47213212]]]]}, "properties": {"id": "Pakistan_123102132_151701", "height": 2.469353914260864, "hmax": 0.024, "ratio": 0.01, "vulnClass": "none"}}, {"type": "Feature", "geometry": {"type": "MultiPolygon", "coordinates": [[[[71.93276831, 34.47199544], [71.93294364, 34.47209664], [71.93303185, 34.47199278], [71.93289253, 34.47191236], [71.93284212, 34.47197171], [71.93280612, 34.47195093], [71.93276831, 34.47199544]]]]}, "properties": {"id": "Pakistan_123102132_315231", "height": 2.517846584320068, "hmax": 0.049, "ratio": 0.019, "vulnClass": "none"}}, {"type": "Feature", "geometry": {"type": "MultiPolygon", "coordinates": [[[[71.93319111, 34.47181641], [71.93348319, 34.47182384], [71.93348645, 34.47173656], [71.93319437, 34.47172914], [71.93319111, 34.47181641]]]]}, "properties": {"id": "Pakistan_123102132_83831", "height": 3.59950590133667, "hmax": 0.03, "ratio": 0.008, "vulnClass": "none"}}, {"type": "Feature", "geometry": {"type": "MultiPolygon", "coordinates": [[[[71.9334206, 34.47168398], [71.9334206, 34.47172378], [71.93347961, 34.47172378], [71.93347961, 34.47168398], [71.9334206, 34.47168398]]]]}, "properties": {"id": "Pakistan_123102132_31640", "height": 3.622101783752441, "hmax": 0.03, "ratio": 0.008, "vulnClass": "none"}}, {"type": "Feature", "geometry": {"type": "MultiPolygon", "coordinates": [[[[71.93270402, 34.471563], [71.93271294, 34.47160104], [71.9326923, 34.47162315], [71.93273271, 34.4716167], [71.93276621, 34.47175951], [71.93279724, 34.47175457], [71.93281316, 34.47182246], [71.93307267, 34.47198721], [71.93318288, 34.47186922], [71.93311146, 34.47182388], [71.93303073, 34.47183675], [71.93287483, 34.47173778], [71.93291, 34.47173217], [71.9329025, 34.4717002], [71.93286786, 34.47170572], [71.93280924, 34.47166851], [71.93279926, 34.47162599], [71.93285199, 34.47161759], [71.93288759, 34.47157947], [71.93290643, 34.47165977], [71.93293169, 34.47165574], [71.93295838, 34.47162716], [71.93299659, 34.47162107], [71.93298659, 34.47157844], [71.93307709, 34.47156401], [71.93306809, 34.47152565], [71.93297306, 34.47154079], [71.93297306, 34.47154079], [71.93273006, 34.47157953], [71.93270402, 34.471563]]]]}, "properties": {"id": "Pakistan_123102132_438357", "height": 2.510207653045654, "hmax": 0.045, "ratio": 0.018, "vulnClass": "none"}}, {"type": "Feature", "geometry": {"type": "MultiPolygon", "coordinates": [[[[71.93315562, 34.47154214], [71.93307863, 34.47155563], [71.93309609, 34.47162333], [71.93317308, 34.47160984], [71.93315562, 34.47154214]]]]}, "properties": {"id": "Pakistan_123102132_89926", "height": 2.587241888046265, "hmax": 0.03, "ratio": 0.012, "vulnClass": "none"}}, {"type": "Feature", "geometry": {"type": "MultiPolygon", "coordinates": [[[[71.93510495, 34.47232899], [71.93508621, 34.47230637], [71.934693, 34.4725278], [71.93476047, 34.47260921], [71.93480802, 34.47258244], [71.93475929, 34.47252364], [71.93510495, 34.47232899]]]]}, "properties": {"id": "Pakistan_123102132_111532", "height": 5.098753929138184, "hmax": 0.028, "ratio": 0.006, "vulnClass": "none"}}, {"type": "Feature", "geometry": {"type": "MultiPolygon", "coordinates": [[[[71.93534564, 34.47259072], [71.93525494, 34.47247404], [71.93488608, 34.47266891], [71.93491465, 34.47270567], [71.93493937, 34.47269261], [71.93500151, 34.47277254], [71.93534564, 34.47259072]]]]}, "properties": {"id": "Pakistan_123102132_154783", "height": 4.498346328735352, "hmax": 0.024, "ratio": 0.005, "vulnClass": "none"}}, {"type": "Feature", "geometry": {"type": "MultiPolygon", "coordinates": [[[[71.93655951, 34.47253048], [71.93651251, 34.4725752], [71.93645517, 34.47253425], [71.93640527, 34.47258172], [71.93651404, 34.47265942], [71.93661094, 34.47256723], [71.93655951, 34.47253048]]]]}, "properties": {"id": "Pakistan_123102132_579407", "height": 4.63550853729248, "hmax": 0.014, "ratio": 0.003, "vulnClass": "none"}}, {"type": "Feature", "geometry": {"type": "MultiPolygon", "coordinates": [[[[71.93634819, 34.47246185], [71.93624203, 34.47235332], [71.93619165, 34.47238682], [71.936383, 34.47258243], [71.93646264, 34.47252948], [71.93637744, 34.4724424], [71.93634819, 34.47246185]]]]}, "properties": {"id": "Pakistan_123102132_321282", "height": 3.734298944473267, "hmax": 0.014, "ratio": 0.004, "vulnClass": "none"}}, {"type": "Feature", "geometry": {"type": "MultiPolygon", "coordinates": [[[[71.93660666, 34.47266939], [71.93668265, 34.47273931], [71.93684779, 34.47261732], [71.93680113, 34.47257439], [71.93667765, 34.47266561], [71.93664832, 34.47263862], [71.93660666, 34.47266939]]]]}, "properties": {"id": "Pakistan_123102132_179715", "height": 3.184098482131958, "hmax": 0.014, "ratio": 0.004, "vulnClass": "none"}}, {"type": "Feature", "geometry": {"type": "MultiPolygon", "coordinates": [[[[71.9343156, 34.46833064], [71.9342566, 34.46834861], [71.93432634, 34.46850428], [71.93438535, 34.46848631], [71.9343156, 34.46833064]]]]}, "properties": {"id": "Pakistan_123102132_231958", "height": 2.642683029174805, "hmax": 0.004, "ratio": 0.002, "vulnClass": "none"}}, {"type": "Feature", "geometry": {"type": "MultiPolygon", "coordinates": [[[[71.93647231, 34.46780174], [71.93636591, 34.46764207], [71.93630525, 34.46766955], [71.93635213, 34.46773989], [71.93622942, 34.46779548], [71.93614518, 34.46766907], [71.93619784, 34.46764522], [71.93617973, 34.46761805], [71.93600873, 34.4676955], [71.93617061, 34.4679384], [71.93647231, 34.46780174]]]]}, "properties": {"id": "Pakistan_123102132_506131", "height": 4.535547256469727, "hmax": 0.013, "ratio": 0.003, "vulnClass": "none"}}, {"type": "Feature", "geometry": {"type": "MultiPolygon", "coordinates": [[[[71.93719833, 34.46751488], [71.93711624, 34.46760629], [71.93723481, 34.46767867], [71.9373169, 34.46758726], [71.93719833, 34.46751488]]]]}, "properties": {"id": "Pakistan_123102132_475313", "height": 3.120915412902832, "hmax": 0.004, "ratio": 0.001, "vulnClass": "none"}}, {"type": "Feature", "geometry": {"type": "MultiPolygon", "coordinates": [[[[71.93720137, 34.46751128], [71.9373651, 34.46761343], [71.93755224, 34.46740954], [71.93738851, 34.46730739], [71.93720137, 34.46751128]]]]}, "properties": {"id": "Pakistan_123102132_191985", "height": 3.09219217300415, "hmax": 0.004, "ratio": 0.001, "vulnClass": "none"}}, {"type": "Feature", "geometry": {"type": "MultiPolygon", "coordinates": [[[[71.93714735, 34.46708247], [71.93732562, 34.4671249], [71.93734134, 34.46707999], [71.93716307, 34.46703757], [71.93714735, 34.46708247]]]]}, "properties": {"id": "Pakistan_123102132_265875", "height": 6.115126609802246, "hmax": 0.004, "ratio": 0.001, "vulnClass": "none"}}, {"type": "Feature", "geometry": {"type": "MultiPolygon", "coordinates": [[[[71.93730368, 34.46679127], [71.93735727, 34.46678991], [71.93735554, 34.46674351], [71.93730194, 34.46674487], [71.93730368, 34.46679127]]]]}, "properties": {"id": "Pakistan_123102132_435363", "height": 4.351267337799072, "hmax": 0.005, "ratio": 0.001, "vulnClass": "none"}}, {"type": "Feature", "geometry": {"type": "MultiPolygon", "coordinates": [[[[71.93734511, 34.46701387], [71.93736331, 34.46679734], [71.9372939, 34.46679338], [71.93729853, 34.46673836], [71.93735992, 34.46674187], [71.93736751, 34.46665163], [71.93725005, 34.46664492], [71.93724702, 34.46668099], [71.93719897, 34.46667825], [71.93720089, 34.46665538], [71.9371048, 34.46664989], [71.93711164, 34.46656846], [71.93690343, 34.46655657], [71.93689621, 34.4666424], [71.93704036, 34.46665064], [71.93702734, 34.46680556], [71.93707948, 34.46680854], [71.93708687, 34.4667205], [71.93715219, 34.46672423], [71.93714838, 34.46676959], [71.9371644, 34.4667705], [71.93715878, 34.46683739], [71.93731236, 34.46684615], [71.93730541, 34.46692893], [71.93714114, 34.46691954], [71.93714736, 34.46684558], [71.93708329, 34.46684192], [71.93706524, 34.46705674], [71.93714943, 34.46706155], [71.93715165, 34.46703514], [71.93723974, 34.46704017], [71.93724244, 34.46700801], [71.93734511, 34.46701387]]]]}, "properties": {"id": "Pakistan_123102132_475314", "height": 5.883317470550537, "hmax": 0.005, "ratio": 0.001, "vulnClass": "none"}}, {"type": "Feature", "geometry": {"type": "MultiPolygon", "coordinates": [[[[71.93614422, 34.46682468], [71.93619019, 34.46685876], [71.93628221, 34.46677438], [71.93623623, 34.4667403], [71.93614422, 34.46682468]]]]}, "properties": {"id": "Pakistan_123102132_342798", "height": 3.574724197387695, "hmax": 0.009, "ratio": 0.003, "vulnClass": "none"}}, {"type": "Feature", "geometry": {"type": "MultiPolygon", "coordinates": [[[[71.93701718, 34.46642329], [71.93716828, 34.46642959], [71.93717118, 34.4663824], [71.93711906, 34.46638023], [71.93712311, 34.46631406], [71.93714719, 34.46631506], [71.93715079, 34.46625637], [71.93718557, 34.46625782], [71.93718819, 34.46621505], [71.93729918, 34.46621968], [71.93730149, 34.46618218], [71.93712628, 34.46617487], [71.9371242, 34.46620882], [71.93703056, 34.46620492], [71.93701718, 34.46642329]]]]}, "properties": {"id": "Pakistan_123102132_37728", "height": 2.584885358810425, "hmax": 0.005, "ratio": 0.002, "vulnClass": "none"}}, {"type": "Feature", "geometry": {"type": "MultiPolygon", "coordinates": [[[[71.93116866, 34.46593131], [71.93134507, 34.46643205], [71.93148358, 34.46639887], [71.93146562, 34.46634789], [71.93153488, 34.4663313], [71.93155102, 34.46637711], [71.93166975, 34.46634868], [71.93165107, 34.46629565], [71.9317216, 34.46627876], [71.9317022, 34.4662237], [71.93160488, 34.46624701], [71.93172284, 34.46614136], [71.93161521, 34.46616714], [71.93157928, 34.46606517], [71.93152525, 34.46607811], [71.93154366, 34.46606162], [71.93159256, 34.46604991], [71.93155059, 34.46601805], [71.93149739, 34.46586705], [71.93138485, 34.465894], [71.93138446, 34.4658929], [71.93126696, 34.46592103], [71.9312878, 34.46598018], [71.93132862, 34.4659704], [71.9313588, 34.46605605], [71.93130313, 34.46606938], [71.93124781, 34.46591235], [71.93116866, 34.46593131]]]]}, "properties": {"id": "Pakistan_123102132_582423", "height": 2.687949419021606, "hmax": 0.003, "ratio": 0.001, "vulnClass": "none"}}, {"type": "Feature", "geometry": {"type": "MultiPolygon", "coordinates": [[[[71.93161731, 34.46750569], [71.93161062, 34.46755371], [71.93165033, 34.46755747], [71.93165702, 34.46750945], [71.93161731, 34.46750569]]]]}, "properties": {"id": "Pakistan_123102132_207468", "height": 3.206552505493164, "hmax": 0.004, "ratio": 0.001, "vulnClass": "none"}}, {"type": "Feature", "geometry": {"type": "MultiPolygon", "coordinates": [[[[71.9311904, 34.46698754], [71.93125796, 34.46733339], [71.93178203, 34.46726384], [71.93176584, 34.46718092], [71.93161301, 34.46720121], [71.93160122, 34.46714086], [71.93157105, 34.46714487], [71.93155211, 34.46704787], [71.93137574, 34.46707129], [71.93136521, 34.4670174], [71.93129985, 34.46702608], [71.93128975, 34.46697435], [71.9311904, 34.46698754]]]]}, "properties": {"id": "Pakistan_123102132_364287", "height": 5.074467182159424, "hmax": 0.004, "ratio": 0.001, "vulnClass": "none"}}, {"type": "Feature", "geometry": {"type": "MultiPolygon", "coordinates": [[[[71.93167825, 34.46711268], [71.93169356, 34.46716019], [71.93173615, 34.46715086], [71.93172084, 34.46710335], [71.93167825, 34.46711268]]]]}, "properties": {"id": "Pakistan_123102132_435323", "height": 5.000178813934326, "hmax": 0.004, "ratio": 0.001, "vulnClass": "none"}}, {"type": "Feature", "geometry": {"type": "MultiPolygon", "coordinates": [[[[71.93269758, 34.46797359], [71.93257346, 34.4677316], [71.93252213, 34.4677495], [71.93264623, 34.46799149], [71.93269758, 34.46797359]]]]}, "properties": {"id": "Pakistan_123102132_336630", "height": 3.392539024353027, "hmax": 0.004, "ratio": 0.001, "vulnClass": "none"}}, {"type": "Feature", "geometry": {"type": "MultiPolygon", "coordinates": [[[[71.93224253, 34.46748798], [71.93220975, 34.46749653], [71.9322275, 34.46754276], [71.93226028, 34.4675342], [71.93224253, 34.46748798]]]]}, "properties": {"id": "Pakistan_123102132_478434", "height": 2.61077094078064, "hmax": 0.004, "ratio": 0.002, "vulnClass": "none"}}, {"type": "Feature", "geometry": {"type": "MultiPolygon", "coordinates": [[[[71.93207103, 34.4674881], [71.93208668, 34.46752817], [71.93212691, 34.46751749], [71.93216135, 34.46760565], [71.93221103, 34.46759246], [71.93216095, 34.46746423], [71.93207103, 34.4674881]]]]}, "properties": {"id": "Pakistan_123102132_379585", "height": 3.322642803192139, "hmax": 0.004, "ratio": 0.001, "vulnClass": "none"}}, {"type": "Feature", "geometry": {"type": "MultiPolygon", "coordinates": [[[[71.93186132, 34.46738295], [71.93174448, 34.46740574], [71.93176523, 34.46747805], [71.93188207, 34.46745526], [71.93186132, 34.46738295]]]]}, "properties": {"id": "Pakistan_123102132_585477", "height": 2.53098726272583, "hmax": 0.004, "ratio": 0.002, "vulnClass": "none"}}, {"type": "Feature", "geometry": {"type": "MultiPolygon", "coordinates": [[[[71.93230398, 34.46776799], [71.93235922, 34.46792264], [71.93240364, 34.46791186], [71.93233097, 34.46770837], [71.93239267, 34.46769339], [71.93237814, 34.46765269], [71.93229037, 34.46767399], [71.93230563, 34.46771673], [71.93222063, 34.46773736], [71.93218792, 34.46764579], [71.93213224, 34.46765931], [71.93211698, 34.46761657], [71.93205528, 34.46763155], [71.93208943, 34.4677272], [71.93213277, 34.46771667], [71.93214911, 34.46776242], [71.93219955, 34.46775017], [71.93221374, 34.4677899], [71.93230398, 34.46776799]]]]}, "properties": {"id": "Pakistan_123102132_148585", "height": 3.079885959625244, "hmax": 0.004, "ratio": 0.001, "vulnClass": "none"}}, {"type": "Feature", "geometry": {"type": "MultiPolygon", "coordinates": [[[[71.93247732, 34.46813195], [71.93242057, 34.46814576], [71.93245188, 34.46823323], [71.93250863, 34.46821942], [71.93247732, 34.46813195]]]]}, "properties": {"id": "Pakistan_123102132_139439", "height": 2.544465065002441, "hmax": 0.005, "ratio": 0.002, "vulnClass": "none"}}, {"type": "Feature", "geometry": {"type": "MultiPolygon", "coordinates": [[[[71.92842881, 34.46822062], [71.92850113, 34.46822284], [71.92850246, 34.46819329], [71.92841407, 34.46819058], [71.92841572, 34.46815388], [71.92833805, 34.4681515], [71.92833018, 34.46832595], [71.92842393, 34.46832883], [71.92842881, 34.46822062]]]]}, "properties": {"id": "Pakistan_123102132_573191", "height": 2.939529895782471, "hmax": 0.003, "ratio": 0.001, "vulnClass": "none"}}, {"type": "Feature", "geometry": {"type": "MultiPolygon", "coordinates": [[[[71.92855176, 34.46812616], [71.92855612, 34.46822333], [71.92871415, 34.46821851], [71.9287094, 34.46811252], [71.92887012, 34.46810762], [71.92886685, 34.46803475], [71.9286981, 34.46803989], [71.92869375, 34.46794272], [71.92863482, 34.46794452], [71.92863785, 34.46801212], [71.92853071, 34.46801539], [71.92852916, 34.4679809], [71.92845836, 34.46798306], [71.92846051, 34.4680308], [71.92811077, 34.46804148], [71.92810873, 34.46799593], [71.92799623, 34.46799935], [71.92800266, 34.46814289], [71.92855176, 34.46812616]]]]}, "properties": {"id": "Pakistan_123102132_4097", "height": 3.508353471755981, "hmax": 0.005, "ratio": 0.001, "vulnClass": "none"}}, {"type": "Feature", "geometry": {"type": "MultiPolygon", "coordinates": [[[[71.93308937, 34.4630424], [71.93305064, 34.46290731], [71.93298817, 34.46291949], [71.93297946, 34.46288912], [71.93291849, 34.46290101], [71.93292871, 34.46293661], [71.93289314, 34.46294355], [71.93293039, 34.4630734], [71.93308937, 34.4630424]]]]}, "properties": {"id": "Pakistan_123102132_185902", "height": 3.295752048492432, "hmax": 0.004, "ratio": 0.001, "vulnClass": "none"}}, {"type": "Feature", "geometry": {"type": "MultiPolygon", "coordinates": [[[[71.93208049, 34.46266162], [71.93205555, 34.46258296], [71.93196517, 34.46260243], [71.9319901, 34.4626811], [71.93208049, 34.46266162]]]]}, "properties": {"id": "Pakistan_123102132_373370", "height": 2.57145619392395, "hmax": 0.016, "ratio": 0.006, "vulnClass": "none"}}, {"type": "Feature", "geometry": {"type": "MultiPolygon", "coordinates": [[[[71.93226461, 34.46282975], [71.93224432, 34.46279042], [71.93212487, 34.46283232], [71.93208139, 34.46274805], [71.93203505, 34.4627643], [71.93209881, 34.4628879], [71.93226461, 34.46282975]]]]}, "properties": {"id": "Pakistan_123102132_191965", "height": 2.617801427841187, "hmax": 0.016, "ratio": 0.006, "vulnClass": "none"}}, {"type": "Feature", "geometry": {"type": "MultiPolygon", "coordinates": [[[[71.93264242, 34.4640846], [71.93269657, 34.46421235], [71.93272848, 34.46421169], [71.93278145, 34.46433663], [71.93283462, 34.46433553], [71.93280662, 34.46426948], [71.93285574, 34.46425533], [71.93289297, 34.46434316], [71.93294946, 34.46434198], [71.93292169, 34.46436156], [71.93292344, 34.46441881], [71.9329851, 34.46441753], [71.93298817, 34.4645179], [71.93309059, 34.46461665], [71.93310589, 34.46465274], [71.93319877, 34.46465081], [71.93320006, 34.4646928], [71.93327776, 34.46469118], [71.93326912, 34.46467082], [71.93325872, 34.46433136], [71.93325319, 34.46432603], [71.93325181, 34.46428073], [71.93323101, 34.46426068], [71.93324626, 34.46424993], [71.93311222, 34.46393374], [71.93300466, 34.46396473], [71.93304225, 34.46405341], [71.93286926, 34.46410326], [71.93285736, 34.46409178], [71.93283692, 34.46404357], [71.93278074, 34.46404474], [71.93264242, 34.4640846]]]]}, "properties": {"id": "Pakistan_123102132_570099", "height": 2.702373743057251, "hmax": 0.011, "ratio": 0.004, "vulnClass": "none"}}, {"type": "Feature", "geometry": {"type": "MultiPolygon", "coordinates": [[[[71.93260915, 34.46313046], [71.93265615, 34.46311922], [71.93267553, 34.46317429], [71.93290314, 34.46311985], [71.93287371, 34.46303622], [71.9326461, 34.46309066], [71.93263247, 34.46305191], [71.93258546, 34.46306315], [71.93260915, 34.46313046]]]]}, "properties": {"id": "Pakistan_123102132_265849", "height": 3.098382472991943, "hmax": 0.004, "ratio": 0.001, "vulnClass": "none"}}, {"type": "Feature", "geometry": {"type": "MultiPolygon", "coordinates": [[[[71.93621414, 34.46345449], [71.93615282, 34.46345844], [71.93616676, 34.46360571], [71.93652134, 34.4635829], [71.93651343, 34.46349937], [71.93622017, 34.46351824], [71.93621414, 34.46345449]]]]}, "properties": {"id": "Pakistan_123102132_435356", "height": 4.797901153564453, "hmax": 0.006, "ratio": 0.001, "vulnClass": "none"}}, {"type": "Feature", "geometry": {"type": "MultiPolygon", "coordinates": [[[[71.93621599, 34.46331731], [71.9362225, 34.46340766], [71.9363989, 34.46339903], [71.9363924, 34.46330868], [71.93621599, 34.46331731]]]]}, "properties": {"id": "Pakistan_123102132_198198", "height": 2.838615417480469, "hmax": 0.027, "ratio": 0.009, "vulnClass": "none"}}, {"type": "Feature", "geometry": {"type": "MultiPolygon", "coordinates": [[[[71.93118125, 34.4597878], [71.93120812, 34.46005578], [71.93143456, 34.46004036], [71.93141408, 34.45983608], [71.93135388, 34.45984018], [71.9313475, 34.45977648], [71.93118125, 34.4597878]]]]}, "properties": {"id": "Pakistan_123102132_382690", "height": 4.162376403808594, "hmax": 0.008, "ratio": 0.002, "vulnClass": "none"}}, {"type": "Feature", "geometry": {"type": "MultiPolygon", "coordinates": [[[[71.9313646, 34.45972381], [71.93147097, 34.45971566], [71.93145516, 34.45957533], [71.93144187, 34.45957635], [71.93143915, 34.45955223], [71.93134608, 34.45955936], [71.9313646, 34.45972381]]]]}, "properties": {"id": "Pakistan_123102132_484538", "height": 2.534611940383911, "hmax": 0.031, "ratio": 0.012, "vulnClass": "none"}}, {"type": "Feature", "geometry": {"type": "MultiPolygon", "coordinates": [[[[71.93129529, 34.45955434], [71.93125528, 34.45955685], [71.93125975, 34.45960523], [71.93129975, 34.45960272], [71.93129529, 34.45955434]]]]}, "properties": {"id": "Pakistan_123102132_364291", "height": 3.050272703170776, "hmax": 0.062, "ratio": 0.02, "vulnClass": "none"}}, {"type": "Feature", "geometry": {"type": "MultiPolygon", "coordinates": [[[[71.93130763, 34.45973048], [71.93130312, 34.4596144], [71.93125489, 34.45961567], [71.93125579, 34.45963897], [71.93106019, 34.45964415], [71.9310638, 34.45973694], [71.93130763, 34.45973048]]]]}, "properties": {"id": "Pakistan_123102132_499872", "height": 3.069416522979736, "hmax": 0.029, "ratio": 0.009, "vulnClass": "none"}}, {"type": "Feature", "geometry": {"type": "MultiPolygon", "coordinates": [[[[71.93054233, 34.4597228], [71.93060678, 34.45988695], [71.93076604, 34.45984444], [71.93070158, 34.4596803], [71.93054233, 34.4597228]]]]}, "properties": {"id": "Pakistan_123102132_309012", "height": 2.748105525970459, "hmax": 0.008, "ratio": 0.003, "vulnClass": "none"}}, {"type": "Feature", "geometry": {"type": "MultiPolygon", "coordinates": [[[[71.93561792, 34.45780409], [71.93549601, 34.45780583], [71.93549805, 34.45790311], [71.93561995, 34.45790137], [71.93561792, 34.45780409]]]]}, "properties": {"id": "Pakistan_123102132_1114", "height": 4.872873306274414, "hmax": 0.004, "ratio": 0.001, "vulnClass": "none"}}, {"type": "Feature", "geometry": {"type": "MultiPolygon", "coordinates": [[[[71.94224967, 34.45776737], [71.94220735, 34.45770055], [71.94203356, 34.4577754], [71.94207588, 34.45784221], [71.94224967, 34.45776737]]]]}, "properties": {"id": "Pakistan_123102132_321314", "height": 3.031028270721436, "hmax": 0.036, "ratio": 0.012, "vulnClass": "none"}}, {"type": "Feature", "geometry": {"type": "MultiPolygon", "coordinates": [[[[71.94196682, 34.45771778], [71.94203038, 34.45778572], [71.94207074, 34.45776006], [71.94200718, 34.45769211], [71.94196682, 34.45771778]]]]}, "properties": {"id": "Pakistan_123102132_139485", "height": 3.014043807983398, "hmax": 0.036, "ratio": 0.012, "vulnClass": "none"}}, {"type": "Feature", "geometry": {"type": "MultiPolygon", "coordinates": [[[[71.9422872, 34.45837846], [71.94223972, 34.45825363], [71.94219576, 34.45826499], [71.94224325, 34.45838983], [71.9422872, 34.45837846]]]]}, "properties": {"id": "Pakistan_123102132_56323", "height": 3.857909202575684, "hmax": 0.024, "ratio": 0.006, "vulnClass": "none"}}, {"type": "Feature", "geometry": {"type": "MultiPolygon", "coordinates": [[[[71.94279479, 34.45845866], [71.94275394, 34.45832328], [71.94271605, 34.45833106], [71.9426972, 34.45826858], [71.9426972, 34.45826858], [71.94268275, 34.45822068], [71.94251099, 34.45825591], [71.94248334, 34.45816428], [71.94236462, 34.45818863], [71.94235142, 34.4581449], [71.94231721, 34.45815191], [71.94239198, 34.45839975], [71.94256766, 34.45836371], [71.94257457, 34.45838662], [71.94268066, 34.45836486], [71.94271396, 34.45847524], [71.94279479, 34.45845866]]]]}, "properties": {"id": "Pakistan_123102132_355156", "height": 2.85301661491394, "hmax": 0.034, "ratio": 0.012, "vulnClass": "none"}}, {"type": "Feature", "geometry": {"type": "MultiPolygon", "coordinates": [[[[71.94222277, 34.45821311], [71.94218009, 34.45822013], [71.94218729, 34.45824991], [71.94222997, 34.45824288], [71.94222277, 34.45821311]]]]}, "properties": {"id": "Pakistan_123102132_43960", "height": 3.057417869567871, "hmax": 0.014, "ratio": 0.005, "vulnClass": "none"}}, {"type": "Feature", "geometry": {"type": "MultiPolygon", "coordinates": [[[[71.94205357, 34.45804655], [71.94189736, 34.45806127], [71.94190947, 34.45814859], [71.94206568, 34.45813387], [71.94205357, 34.45804655]]]]}, "properties": {"id": "Pakistan_123102132_551877", "height": 2.513806343078613, "hmax": 0.036, "ratio": 0.014, "vulnClass": "none"}}, {"type": "Feature", "geometry": {"type": "MultiPolygon", "coordinates": [[[[71.94094984, 34.45988509], [71.94102477, 34.45988212], [71.94102934, 34.45996062], [71.94116849, 34.45995511], [71.94116014, 34.45981169], [71.94107986, 34.45981487], [71.94107478, 34.45972755], [71.94094097, 34.45973284], [71.94094984, 34.45988509]]]]}, "properties": {"id": "Pakistan_123102132_77753", "height": 2.542649269104004, "hmax": 0.005, "ratio": 0.002, "vulnClass": "none"}}, {"type": "Feature", "geometry": {"type": "MultiPolygon", "coordinates": [[[[71.93878458, 34.46067347], [71.93878129, 34.4605696], [71.93851325, 34.46057537], [71.93851654, 34.46067924], [71.93878458, 34.46067347]]]]}, "properties": {"id": "Pakistan_123102132_43943", "height": 2.697526931762695, "hmax": 0.002, "ratio": 0.001, "vulnClass": "none"}}, {"type": "Feature", "geometry": {"type": "MultiPolygon", "coordinates": [[[[71.93829355, 34.46050259], [71.93829234, 34.46042299], [71.93820116, 34.46042393], [71.93820005, 34.46035096], [71.93813033, 34.46035168], [71.93813191, 34.46045561], [71.93802463, 34.46045671], [71.93802537, 34.46050536], [71.93829355, 34.46050259]]]]}, "properties": {"id": "Pakistan_123102132_348950", "height": 2.799747943878174, "hmax": 0.002, "ratio": 0.001, "vulnClass": "none"}}, {"type": "Feature", "geometry": {"type": "MultiPolygon", "coordinates": [[[[71.93843672, 34.46033997], [71.93876556, 34.46032451], [71.9387593, 34.46023413], [71.93843046, 34.4602496], [71.93843672, 34.46033997]]]]}, "properties": {"id": "Pakistan_123102132_305973", "height": 2.461444616317749, "hmax": 0.002, "ratio": 0.001, "vulnClass": "none"}}, {"type": "Feature", "geometry": {"type": "MultiPolygon", "coordinates": [[[[71.93866831, 34.46138106], [71.93835316, 34.46141898], [71.93836887, 34.46150776], [71.93868403, 34.46146985], [71.93866831, 34.46138106]]]]}, "properties": {"id": "Pakistan_123102132_588532", "height": 3.250136137008667, "hmax": 0.003, "ratio": 0.001, "vulnClass": "none"}}, {"type": "Feature", "geometry": {"type": "MultiPolygon", "coordinates": [[[[71.93842704, 34.46115561], [71.93841523, 34.46111364], [71.93835669, 34.46112484], [71.9383685, 34.46116681], [71.93842704, 34.46115561]]]]}, "properties": {"id": "Pakistan_123102132_481494", "height": 2.619489192962646, "hmax": 0.003, "ratio": 0.001, "vulnClass": "none"}}, {"type": "Feature", "geometry": {"type": "MultiPolygon", "coordinates": [[[[71.93826738, 34.46110253], [71.93826572, 34.46100303], [71.93847489, 34.46100066], [71.93847416, 34.46095644], [71.93820063, 34.46095953], [71.93820302, 34.46110325], [71.93826738, 34.46110253]]]]}, "properties": {"id": "Pakistan_123102132_296595", "height": 2.562356233596802, "hmax": 0.003, "ratio": 0.001, "vulnClass": "none"}}, {"type": "Feature", "geometry": {"type": "MultiPolygon", "coordinates": [[[[71.93827155, 34.46100813], [71.93827188, 34.46109438], [71.93853376, 34.46109369], [71.93853354, 34.4610362], [71.93847283, 34.46103635], [71.93847272, 34.4610076], [71.93827155, 34.46100813]]]]}, "properties": {"id": "Pakistan_123102132_576363", "height": 3.006821155548096, "hmax": 0.003, "ratio": 0.001, "vulnClass": "none"}}, {"type": "Feature", "geometry": {"type": "MultiPolygon", "coordinates": [[[[71.93889526, 34.46183732], [71.93889141, 34.46188354], [71.9389705, 34.46188802], [71.93897435, 34.46184179], [71.93889526, 34.46183732]]]]}, "properties": {"id": "Pakistan_123102132_43944", "height": 2.805201053619385, "hmax": 0.002, "ratio": 0.001, "vulnClass": "none"}}, {"type": "Feature", "geometry": {"type": "MultiPolygon", "coordinates": [[[[71.93800275, 34.46194251], [71.93799849, 34.46183123], [71.93783772, 34.46183541], [71.93784198, 34.4619467], [71.93800275, 34.46194251]]]]}, "properties": {"id": "Pakistan_123102132_241245", "height": 3.168532133102417, "hmax": 0.004, "ratio": 0.001, "vulnClass": "none"}}, {"type": "Feature", "geometry": {"type": "MultiPolygon", "coordinates": [[[[71.93859824, 34.46222636], [71.9389764, 34.46220563], [71.93898019, 34.46225268], [71.93918849, 34.46224127], [71.93917689, 34.46209733], [71.93905775, 34.46210386], [71.93905142, 34.46202542], [71.93896063, 34.46203039], [71.93896631, 34.46210085], [71.93880074, 34.46210991], [71.9387989, 34.46208709], [71.93864669, 34.46209544], [71.93864225, 34.46204039], [71.93872236, 34.462036], [71.93871917, 34.46199637], [71.93877423, 34.46199335], [71.93876785, 34.46191409], [71.93857391, 34.46192472], [71.93859824, 34.46222636]]]]}, "properties": {"id": "Pakistan_123102132_92978", "height": 2.672305583953857, "hmax": 0.003, "ratio": 0.001, "vulnClass": "none"}}, {"type": "Feature", "geometry": {"type": "MultiPolygon", "coordinates": [[[[71.93851771, 34.46481866], [71.93855221, 34.4649285], [71.93861757, 34.46491455], [71.93858307, 34.46480471], [71.93851771, 34.46481866]]]]}, "properties": {"id": "Pakistan_123102132_419883", "height": 3.397699356079102, "hmax": 0.037, "ratio": 0.011, "vulnClass": "none"}}, {"type": "Feature", "geometry": {"type": "MultiPolygon", "coordinates": [[[[71.93847593, 34.46468195], [71.9385108, 34.46468173], [71.93851119, 34.46472596], [71.93859165, 34.46472547], [71.93859136, 34.4646923], [71.93866914, 34.46469183], [71.93866872, 34.4646454], [71.93847561, 34.46464657], [71.93847593, 34.46468195]]]]}, "properties": {"id": "Pakistan_123102132_56305", "height": 2.931396484375, "hmax": 0.037, "ratio": 0.013, "vulnClass": "none"}}, {"type": "Feature", "geometry": {"type": "MultiPolygon", "coordinates": [[[[71.93990258, 34.46659532], [71.93986935, 34.46647413], [71.93969959, 34.46650576], [71.93967133, 34.46640267], [71.93980403, 34.46637794], [71.93978096, 34.46629378], [71.9396062, 34.46632635], [71.93969078, 34.4666348], [71.93990258, 34.46659532]]]]}, "properties": {"id": "Pakistan_123102132_560997", "height": 3.078495979309082, "hmax": 0.053, "ratio": 0.017, "vulnClass": "none"}}, {"type": "Feature", "geometry": {"type": "MultiPolygon", "coordinates": [[[[71.94076165, 34.46673292], [71.94074467, 34.4665861], [71.94068885, 34.46659048], [71.94069494, 34.46664308], [71.94063646, 34.46664767], [71.94063114, 34.46660165], [71.94057532, 34.46660604], [71.94059153, 34.46674629], [71.94076165, 34.46673292]]]]}, "properties": {"id": "Pakistan_123102132_160989", "height": 3.738864421844482, "hmax": 0.06, "ratio": 0.016, "vulnClass": "none"}}, {"type": "Feature", "geometry": {"type": "MultiPolygon", "coordinates": [[[[71.94050833, 34.46675811], [71.94046667, 34.46650536], [71.94031392, 34.46652248], [71.940318, 34.46654724], [71.94038384, 34.46653987], [71.94040568, 34.46667231], [71.94023186, 34.46669179], [71.94024761, 34.46678732], [71.94050833, 34.46675811]]]]}, "properties": {"id": "Pakistan_123102132_450651", "height": 3.165197134017944, "hmax": 0.06, "ratio": 0.019, "vulnClass": "none"}}, {"type": "Feature", "geometry": {"type": "MultiPolygon", "coordinates": [[[[71.93986605, 34.46691962], [71.93985496, 34.46678448], [71.93952655, 34.4668028], [71.93953594, 34.46691727], [71.93956674, 34.46691555], [71.9395809, 34.4670881], [71.93968359, 34.46708237], [71.93967114, 34.46693048], [71.93986605, 34.46691962]]]]}, "properties": {"id": "Pakistan_123102132_447624", "height": 3.611761808395386, "hmax": 0.052, "ratio": 0.014, "vulnClass": "none"}}, {"type": "Feature", "geometry": {"type": "MultiPolygon", "coordinates": [[[[71.93797138, 34.46720117], [71.93769562, 34.46714789], [71.93766189, 34.46726659], [71.93797208, 34.46732653], [71.93799472, 34.46724687], [71.93796028, 34.46724022], [71.93797138, 34.46720117]]]]}, "properties": {"id": "Pakistan_123102132_120863", "height": 2.659569263458252, "hmax": 0.005, "ratio": 0.002, "vulnClass": "none"}}, {"type": "Feature", "geometry": {"type": "MultiPolygon", "coordinates": [[[[71.93937491, 34.46680867], [71.9390244, 34.46682297], [71.93903009, 34.46691782], [71.93899263, 34.46691935], [71.93900164, 34.46706936], [71.93905247, 34.46706728], [71.93905923, 34.46717979], [71.93913682, 34.46717662], [71.93913889, 34.46721109], [71.93939843, 34.46720049], [71.93937491, 34.46680867]]]]}, "properties": {"id": "Pakistan_123102132_352023", "height": 3.755764007568359, "hmax": 0.055, "ratio": 0.015, "vulnClass": "none"}}, {"type": "Feature", "geometry": {"type": "MultiPolygon", "coordinates": [[[[71.93958439, 34.46743916], [71.93955173, 34.46731683], [71.93938429, 34.46734721], [71.93941696, 34.46746954], [71.93958439, 34.46743916]]]]}, "properties": {"id": "Pakistan_123102132_426087", "height": 2.578441619873047, "hmax": 0.07, "ratio": 0.027, "vulnClass": "none"}}, {"type": "Feature", "geometry": {"type": "MultiPolygon", "coordinates": [[[[71.93855715, 34.4676996], [71.93869521, 34.46771614], [71.93870437, 34.46766417], [71.93849801, 34.46763944], [71.93849611, 34.46765027], [71.9385644, 34.46765845], [71.93855715, 34.4676996]]]]}, "properties": {"id": "Pakistan_123102132_324301", "height": 2.714930534362793, "hmax": 0.032, "ratio": 0.012, "vulnClass": "none"}}, {"type": "Feature", "geometry": {"type": "MultiPolygon", "coordinates": [[[[71.93826369, 34.46789732], [71.93824743, 34.46786438], [71.93815308, 34.46789602], [71.93816933, 34.46792897], [71.93826369, 34.46789732]]]]}, "properties": {"id": "Pakistan_123102132_570122", "height": 3.8195960521698, "hmax": 0.005, "ratio": 0.001, "vulnClass": "none"}}, {"type": "Feature", "geometry": {"type": "MultiPolygon", "coordinates": [[[[71.93869101, 34.46796231], [71.93840078, 34.46798279], [71.93840967, 34.4680684], [71.93864931, 34.46805149], [71.93865432, 34.46809979], [71.93870492, 34.46809622], [71.93870104, 34.4680589], [71.93892471, 34.46804311], [71.93891855, 34.46798384], [71.93878808, 34.46799305], [71.93877623, 34.4678789], [71.93874428, 34.46788115], [71.9387347, 34.46778895], [71.93867346, 34.46779327], [71.93869101, 34.46796231]]]]}, "properties": {"id": "Pakistan_123102132_210637", "height": 2.603081226348877, "hmax": 0.036, "ratio": 0.014, "vulnClass": "none"}}, {"type": "Feature", "geometry": {"type": "MultiPolygon", "coordinates": [[[[71.94070822, 34.46886232], [71.9403937, 34.46878854], [71.94041776, 34.46881255], [71.94040182, 34.46885874], [71.94039133, 34.46879904], [71.9403531, 34.46879007], [71.94038264, 34.46870444], [71.94032497, 34.46871132], [71.94031737, 34.46866801], [71.94018543, 34.46868375], [71.94013946, 34.46871505], [71.94016873, 34.46888166], [71.94010705, 34.46888902], [71.94010612, 34.46889172], [71.94011785, 34.4689585], [71.94019141, 34.46894972], [71.9402065, 34.46903562], [71.94010115, 34.46901091], [71.94011806, 34.4689994], [71.94011231, 34.46896668], [71.94005609, 34.46897338], [71.94004277, 34.46889758], [71.9399729, 34.46890592], [71.93999414, 34.46902693], [71.94007156, 34.46910422], [71.9402008, 34.46908879], [71.94022195, 34.46920921], [71.94052566, 34.46917296], [71.94049843, 34.4690179], [71.94063241, 34.46900191], [71.94061834, 34.46892177], [71.9407166, 34.46891005], [71.94070822, 34.46886232]]]]}, "properties": {"id": "Pakistan_123102132_99111", "height": 3.148977756500244, "hmax": 0.047, "ratio": 0.015, "vulnClass": "none"}}, {"type": "Feature", "geometry": {"type": "MultiPolygon", "coordinates": [[[[71.94054958, 34.46867067], [71.94054536, 34.46875546], [71.94053891, 34.46875525], [71.94053672, 34.4687994], [71.94058868, 34.46880115], [71.94060092, 34.4685552], [71.9405554, 34.46855366], [71.94056084, 34.46844419], [71.94053139, 34.4684432], [71.94053286, 34.46841359], [71.94047395, 34.4684116], [71.94047138, 34.46846328], [71.94035356, 34.4684593], [71.94036037, 34.46832242], [71.94030949, 34.4683207], [71.94030565, 34.46839797], [71.9402521, 34.46839616], [71.94024331, 34.46857277], [71.94021653, 34.46857186], [71.94021218, 34.46865928], [71.94054958, 34.46867067]]]]}, "properties": {"id": "Pakistan_123102132_142521", "height": 2.461427211761475, "hmax": 0.067, "ratio": 0.027, "vulnClass": "none"}}, {"type": "Feature", "geometry": {"type": "MultiPolygon", "coordinates": [[[[71.94037304, 34.46834156], [71.94037459, 34.46841451], [71.94051134, 34.46841254], [71.9405089, 34.46829758], [71.9403802, 34.46829944], [71.94038109, 34.46834144], [71.94037304, 34.46834156]]]]}, "properties": {"id": "Pakistan_123102132_43953", "height": 3.91573429107666, "hmax": 0.067, "ratio": 0.017, "vulnClass": "none"}}, {"type": "Feature", "geometry": {"type": "MultiPolygon", "coordinates": [[[[71.94065861, 34.46828568], [71.94052044, 34.46830503], [71.94053595, 34.46838025], [71.940597, 34.4683717], [71.9405915, 34.46834502], [71.94066862, 34.46833422], [71.94065861, 34.46828568]]]]}, "properties": {"id": "Pakistan_123102132_392081", "height": 2.74037504196167, "hmax": 0.067, "ratio": 0.024, "vulnClass": "none"}}, {"type": "Feature", "geometry": {"type": "MultiPolygon", "coordinates": [[[[71.94063421, 34.46847639], [71.94068724, 34.46846549], [71.94066521, 34.46839262], [71.94060713, 34.46840456], [71.94059795, 34.46837419], [71.94053986, 34.46838612], [71.94063842, 34.46871213], [71.94070155, 34.46869916], [71.94063421, 34.46847639]]]]}, "properties": {"id": "Pakistan_123102132_247392", "height": 2.779609680175781, "hmax": 0.067, "ratio": 0.024, "vulnClass": "none"}}, {"type": "Feature", "geometry": {"type": "MultiPolygon", "coordinates": [[[[71.94079291, 34.46836063], [71.94067236, 34.46837247], [71.9406796, 34.46842262], [71.94080015, 34.46841078], [71.94079291, 34.46836063]]]]}, "properties": {"id": "Pakistan_123102132_579436", "height": 2.471437931060791, "hmax": 0.063, "ratio": 0.025, "vulnClass": "none"}}, {"type": "Feature", "geometry": {"type": "MultiPolygon", "coordinates": [[[[71.94097939, 34.4684401], [71.94115444, 34.46842476], [71.94116459, 34.46850348], [71.94122028, 34.4684986], [71.94120252, 34.46836084], [71.94101045, 34.46837768], [71.94100594, 34.46834269], [71.94085322, 34.46835608], [71.94084702, 34.46830797], [71.94079551, 34.46831248], [71.9408082, 34.46841088], [71.94088888, 34.46840381], [71.94092525, 34.46868588], [71.9410393, 34.46867589], [71.94103507, 34.46864309], [71.94100589, 34.46864564], [71.94097939, 34.4684401]]]]}, "properties": {"id": "Pakistan_123102132_247394", "height": 2.913475275039673, "hmax": 0.014, "ratio": 0.005, "vulnClass": "none"}}, {"type": "Feature", "geometry": {"type": "MultiPolygon", "coordinates": [[[[71.94077751, 34.46828467], [71.94077461, 34.46819628], [71.94061379, 34.46819987], [71.9406167, 34.46828826], [71.94077751, 34.46828467]]]]}, "properties": {"id": "Pakistan_123102132_518354", "height": 2.811995029449463, "hmax": 0.067, "ratio": 0.024, "vulnClass": "none"}}, {"type": "Feature", "geometry": {"type": "MultiPolygon", "coordinates": [[[[71.9406771, 34.46728963], [71.94060486, 34.46730148], [71.9406256, 34.46738744], [71.94069784, 34.46737559], [71.9406771, 34.46728963]]]]}, "properties": {"id": "Pakistan_123102132_429114", "height": 2.670125961303711, "hmax": 0.045, "ratio": 0.017, "vulnClass": "none"}}, {"type": "Feature", "geometry": {"type": "MultiPolygon", "coordinates": [[[[71.94078919, 34.46772033], [71.94078236, 34.46759454], [71.94061372, 34.46760075], [71.94062055, 34.46772655], [71.94078919, 34.46772033]]]]}, "properties": {"id": "Pakistan_123102132_198227", "height": 2.779967069625854, "hmax": 0.045, "ratio": 0.016, "vulnClass": "none"}}, {"type": "Feature", "geometry": {"type": "MultiPolygon", "coordinates": [[[[71.93999734, 34.46766705], [71.94000556, 34.46769644], [71.94006811, 34.46768456], [71.94005989, 34.46765516], [71.93999734, 34.46766705]]]]}, "properties": {"id": "Pakistan_123102132_447625", "height": 3.777738332748413, "hmax": 0.045, "ratio": 0.012, "vulnClass": "none"}}, {"type": "Feature", "geometry": {"type": "MultiPolygon", "coordinates": [[[[71.94057839, 34.46777191], [71.94060959, 34.46801229], [71.94045988, 34.4680255], [71.94038683, 34.46789716], [71.9403049, 34.46804123], [71.94028051, 34.46785336], [71.94014527, 34.46786529], [71.94017052, 34.46805987], [71.94011782, 34.46806452], [71.93983386, 34.46795475], [71.93981993, 34.46784756], [71.93960098, 34.46786687], [71.93963929, 34.46816202], [71.94012723, 34.46811897], [71.94014613, 34.46826458], [71.93977488, 34.46829735], [71.93980042, 34.46849412], [71.9401414, 34.46846402], [71.94012561, 34.46834246], [71.94035007, 34.46832266], [71.94030971, 34.46825175], [71.94024176, 34.46827804], [71.94023586, 34.46823257], [71.94036611, 34.46818218], [71.94038112, 34.4682978], [71.9405031, 34.46828704], [71.94047955, 34.46810558], [71.94111599, 34.46804943], [71.94108494, 34.4678102], [71.94097621, 34.46781979], [71.94099165, 34.46793878], [71.94068859, 34.46796551], [71.94057839, 34.46777191]]]]}, "properties": {"id": "Pakistan_123102132_512273", "height": 4.873561859130859, "hmax": 0.054, "ratio": 0.011, "vulnClass": "none"}}, {"type": "Feature", "geometry": {"type": "MultiPolygon", "coordinates": [[[[71.93980053, 34.4677911], [71.93973244, 34.46767726], [71.93966124, 34.4677062], [71.93972933, 34.46782004], [71.93980053, 34.4677911]]]]}, "properties": {"id": "Pakistan_123102132_238070", "height": 2.731759548187256, "hmax": 0.054, "ratio": 0.02, "vulnClass": "none"}}, {"type": "Feature", "geometry": {"type": "MultiPolygon", "coordinates": [[[[71.94021829, 34.46762314], [71.94020114, 34.46755671], [71.93976862, 34.46763261], [71.93980596, 34.46777729], [71.93987781, 34.46776469], [71.93985761, 34.46768641], [71.94021829, 34.46762314]]]]}, "properties": {"id": "Pakistan_123102132_31672", "height": 3.435502529144287, "hmax": 0.045, "ratio": 0.013, "vulnClass": "none"}}, {"type": "Feature", "geometry": {"type": "MultiPolygon", "coordinates": [[[[71.93996446, 34.46743402], [71.93980515, 34.46746876], [71.9398558, 34.46762665], [71.93989731, 34.4676176], [71.93988736, 34.46758659], [71.93993861, 34.46757542], [71.93994697, 34.46760147], [71.93999599, 34.46759078], [71.93995978, 34.46747793], [71.93997733, 34.4674741], [71.93996446, 34.46743402]]]]}, "properties": {"id": "Pakistan_123102132_548837", "height": 2.658379793167114, "hmax": 0.045, "ratio": 0.017, "vulnClass": "none"}}, {"type": "Feature", "geometry": {"type": "MultiPolygon", "coordinates": [[[[71.94240322, 34.46900087], [71.94239066, 34.46890795], [71.94232336, 34.46891413], [71.94232159, 34.46890103], [71.94216104, 34.46891578], [71.94214615, 34.46880558], [71.94230139, 34.46879131], [71.94229105, 34.46871486], [71.94212679, 34.46872996], [71.94212486, 34.46871566], [71.94204116, 34.46872335], [71.94205461, 34.46882284], [71.94208798, 34.46881977], [71.94209182, 34.46884816], [71.94206002, 34.46885109], [71.94207066, 34.46892972], [71.94201079, 34.46893522], [71.94202302, 34.46902575], [71.9422959, 34.46900068], [71.94229724, 34.46901061], [71.94240322, 34.46900087]]]]}, "properties": {"id": "Pakistan_123102132_170421", "height": 6.138070106506348, "hmax": 0.015, "ratio": 0.002, "vulnClass": "none"}}]}