{"type": "FeatureCollection", "features": [{"type": "Feature", "geometry": {"type": "MultiPolygon", "coordinates": [[[[72.08737638, 34.4807568], [72.08737872, 34.48071534], [72.08724837, 34.4807103], [72.08724603, 34.48075175], [72.08737638, 34.4807568]]]]}, "properties": {"id": "8J6JF3JP+7WV9", "height": 2.711716651916504, "hmax": 0.11, "ratio": 0.041, "vulnClass": "none"}}, {"type": "Feature", "geometry": {"type": "MultiPolygon", "coordinates": [[[[72.08724647, 34.48075029], [72.08719599, 34.48074781], [72.08718941, 34.48083976], [72.08730164, 34.48084527], [72.08730606, 34.48078357], [72.0872443, 34.48078054], [72.08724647, 34.48075029]]]]}, "properties": {"id": "8J6JF3JP+8VH5", "height": 2.711716651916504, "hmax": 0.027, "ratio": 0.01, "vulnClass": "none"}}, {"type": "Feature", "geometry": {"type": "MultiPolygon", "coordinates": [[[[72.08406874, 34.4868481], [72.08395911, 34.48684135], [72.08394472, 34.48700167], [72.08415046, 34.48701433], [72.08415646, 34.48694753], [72.08406034, 34.48694161], [72.08406874, 34.4868481]]]]}, "properties": {"id": "8J6JF3PM+QJFC", "height": 2.802575826644897, "hmax": 0.086, "ratio": 0.031, "vulnClass": "none"}}, {"type": "Feature", "geometry": {"type": "MultiPolygon", "coordinates": [[[[72.08112465, 34.48731718], [72.08108274, 34.48731984], [72.08108516, 34.487346], [72.08112707, 34.48734334], [72.08112465, 34.48731718]]]]}, "properties": {"id": "8J6JF3PJ+WCQ7", "height": 2.875707149505615, "hmax": 0.025, "ratio": 0.009, "vulnClass": "none"}}, {"type": "Feature", "geometry": {"type": "MultiPolygon", "coordinates": [[[[72.08112194, 34.48735516], [72.08109392, 34.48735332], [72.08108794, 34.48741557], [72.08111596, 34.48741742], [72.08112194, 34.48735516]]]]}, "properties": {"id": "8J6JF3PJ+XC5F", "height": 2.875707149505615, "hmax": 0.025, "ratio": 0.009, "vulnClass": "none"}}, {"type": "Feature", "geometry": {"type": "MultiPolygon", "coordinates": [[[[72.08144041, 34.48766681], [72.08146027, 34.48756051], [72.08138669, 34.48755109], [72.08137963, 34.48758893], [72.08128088, 34.48757629], [72.08126809, 34.48764475], [72.08144041, 34.48766681]]]]}, "properties": {"id": "8J6JF3QJ+2GXH", "height": 3.156890153884888, "hmax": 0.025, "ratio": 0.008, "vulnClass": "none"}}, {"type": "Feature", "geometry": {"type": "MultiPolygon", "coordinates": [[[[72.08052207, 34.48731575], [72.08048475, 34.48731061], [72.08047698, 34.48734933], [72.08051429, 34.48735447], [72.08052207, 34.48731575]]]]}, "properties": {"id": "8J6JF3PJ+W5Q9", "height": 2.824025630950928, "hmax": 0.051, "ratio": 0.018, "vulnClass": "none"}}, {"type": "Feature", "geometry": {"type": "MultiPolygon", "coordinates": [[[[72.08006171, 34.48733605], [72.07999551, 34.48732083], [72.07994075, 34.48748413], [72.08024068, 34.48755309], [72.08026995, 34.48746581], [72.08003622, 34.48741207], [72.08006171, 34.48733605]]]]}, "properties": {"id": "8J6JF3PJ+X2P9", "height": 2.67180347442627, "hmax": 0.051, "ratio": 0.019, "vulnClass": "none"}}, {"type": "Feature", "geometry": {"type": "MultiPolygon", "coordinates": [[[[72.07981823, 34.48717471], [72.07976443, 34.48716801], [72.07973486, 34.48733101], [72.07982839, 34.48734264], [72.07983643, 34.48729833], [72.0797967, 34.48729339], [72.07981823, 34.48717471]]]]}, "properties": {"id": "8J6JF3PH+WW3C", "height": 3.038033485412598, "hmax": 0.051, "ratio": 0.017, "vulnClass": "none"}}, {"type": "Feature", "geometry": {"type": "MultiPolygon", "coordinates": [[[[72.07977286, 34.48697088], [72.07977407, 34.48694767], [72.07968726, 34.48694459], [72.07968509, 34.48698634], [72.07974078, 34.48698832], [72.07974175, 34.48696978], [72.07977286, 34.48697088]]]]}, "properties": {"id": "8J6JF3PH+QVQC", "height": 3.334760904312134, "hmax": 0.051, "ratio": 0.015, "vulnClass": "none"}}, {"type": "Feature", "geometry": {"type": "MultiPolygon", "coordinates": [[[[72.07988868, 34.48696173], [72.07979819, 34.48695393], [72.07977558, 34.48713357], [72.07989821, 34.48714415], [72.07990367, 34.48710071], [72.07982652, 34.48709405], [72.07983928, 34.48699261], [72.0798843, 34.4869965], [72.07988868, 34.48696173]]]]}, "properties": {"id": "8J6JF3PH+RWG8", "height": 2.563321828842163, "hmax": 0.051, "ratio": 0.02, "vulnClass": "none"}}, {"type": "Feature", "geometry": {"type": "MultiPolygon", "coordinates": [[[[72.07964813, 34.48694624], [72.07955609, 34.48694196], [72.07955269, 34.48699192], [72.07964473, 34.48699621], [72.07964813, 34.48694624]]]]}, "properties": {"id": "8J6JF3PH+QRQJ", "height": 3.548598289489746, "hmax": 0.051, "ratio": 0.014, "vulnClass": "none"}}, {"type": "Feature", "geometry": {"type": "MultiPolygon", "coordinates": [[[[72.07954227, 34.48692054], [72.07949684, 34.48690881], [72.0794594, 34.48700827], [72.07950482, 34.48701999], [72.07954227, 34.48692054]]]]}, "properties": {"id": "8J6JF3PH+QRJC", "height": 2.90435266494751, "hmax": 0.051, "ratio": 0.018, "vulnClass": "none"}}, {"type": "Feature", "geometry": {"type": "MultiPolygon", "coordinates": [[[[72.07922461, 34.48702237], [72.07925003, 34.48687774], [72.0792016, 34.48687191], [72.07917618, 34.48701654], [72.07922461, 34.48702237]]]]}, "properties": {"id": "8J6JF3PH+QMGX", "height": 3.917487144470215, "hmax": 0.996, "ratio": 0.254, "vulnClass": "low"}}, {"type": "Feature", "geometry": {"type": "MultiPolygon", "coordinates": [[[[72.07942462, 34.48705226], [72.07928176, 34.48703513], [72.07927449, 34.48707671], [72.07941735, 34.48709384], [72.07942462, 34.48705226]]]]}, "properties": {"id": "8J6JF3PH+RPHC", "height": 3.595641613006592, "hmax": 0.996, "ratio": 0.277, "vulnClass": "low"}}, {"type": "Feature", "geometry": {"type": "MultiPolygon", "coordinates": [[[[72.07951928, 34.48710542], [72.07941321, 34.4871089], [72.07941549, 34.48715659], [72.07952157, 34.48715311], [72.07951928, 34.48710542]]]]}, "properties": {"id": "8J6JF3PH+VQ49", "height": 2.539304971694946, "hmax": 0.287, "ratio": 0.113, "vulnClass": "low"}}, {"type": "Feature", "geometry": {"type": "MultiPolygon", "coordinates": [[[[72.07888785, 34.48711098], [72.07884455, 34.4871081], [72.07884002, 34.48715475], [72.07888332, 34.48715764], [72.07888785, 34.48711098]]]]}, "properties": {"id": "8J6JF3PH+VG58", "height": 3.692732334136963, "hmax": 0.996, "ratio": 0.27, "vulnClass": "low"}}, {"type": "Feature", "geometry": {"type": "MultiPolygon", "coordinates": [[[[72.07878333, 34.48699663], [72.07870855, 34.48698947], [72.07869665, 34.4870747], [72.07888158, 34.48709241], [72.07890105, 34.48695295], [72.0787909, 34.4869424], [72.07878333, 34.48699663]]]]}, "properties": {"id": "8J6JF3PH+RG3X", "height": 2.713864803314209, "hmax": 0.996, "ratio": 0.367, "vulnClass": "moderate"}}, {"type": "Feature", "geometry": {"type": "MultiPolygon", "coordinates": [[[[72.07902514, 34.48687499], [72.07892823, 34.48686907], [72.07890514, 34.48712797], [72.07922294, 34.4871474], [72.07922638, 34.48710874], [72.07919728, 34.48710696], [72.07920064, 34.48706934], [72.07900886, 34.48705762], [72.07902514, 34.48687499]]]]}, "properties": {"id": "8J6JF3PH+RJ6P", "height": 3.694748401641846, "hmax": 0.996, "ratio": 0.27, "vulnClass": "low"}}, {"type": "Feature", "geometry": {"type": "MultiPolygon", "coordinates": [[[[72.07992785, 34.48686213], [72.07993896, 34.48673039], [72.07985336, 34.48672544], [72.07983535, 34.48693895], [72.07987228, 34.48694109], [72.07987565, 34.48690118], [72.07996438, 34.48690632], [72.07996791, 34.48686444], [72.07992785, 34.48686213]]]]}, "properties": {"id": "8J6JF3PH+PXJ4", "height": 4.074693202972412, "hmax": 0.044, "ratio": 0.011, "vulnClass": "none"}}, {"type": "Feature", "geometry": {"type": "MultiPolygon", "coordinates": [[[[72.08005082, 34.48667778], [72.08002438, 34.48667631], [72.08002169, 34.48670947], [72.08004813, 34.48671094], [72.08005082, 34.48667778]]]]}, "properties": {"id": "8J6JF3PJ+M2FJ", "height": 3.658068656921387, "hmax": 0.002, "ratio": 0.001, "vulnClass": "none"}}, {"type": "Feature", "geometry": {"type": "MultiPolygon", "coordinates": [[[[72.08009307, 34.48668013], [72.08005082, 34.48667778], [72.08004813, 34.48671094], [72.08009038, 34.48671329], [72.08009307, 34.48668013]]]]}, "properties": {"id": "8J6JF3PJ+M2GV", "height": 3.912918567657471, "hmax": 0.002, "ratio": 0.001, "vulnClass": "none"}}, {"type": "Feature", "geometry": {"type": "MultiPolygon", "coordinates": [[[[72.07998437, 34.4866801], [72.07995032, 34.48667869], [72.07994851, 34.48670869], [72.07998256, 34.4867101], [72.07998437, 34.4866801]]]]}, "properties": {"id": "8J6JF3PH+MXGQ", "height": 4.231503009796143, "hmax": 0.002, "ratio": 0.001, "vulnClass": "none"}}, {"type": "Feature", "geometry": {"type": "MultiPolygon", "coordinates": [[[[72.07990274, 34.48668596], [72.07986583, 34.48668508], [72.07986506, 34.48670702], [72.07990198, 34.4867079], [72.07990274, 34.48668596]]]]}, "properties": {"id": "8J6JF3PH+MXCV", "height": 4.06730842590332, "hmax": 0.002, "ratio": 0.001, "vulnClass": "none"}}, {"type": "Feature", "geometry": {"type": "MultiPolygon", "coordinates": [[[[72.07987794, 34.48663742], [72.0798514, 34.48663595], [72.07984901, 34.48666565], [72.07987555, 34.48666712], [72.07987794, 34.48663742]]]]}, "properties": {"id": "8J6JF3PH+MW94", "height": 4.03548526763916, "hmax": 0.002, "ratio": 0.001, "vulnClass": "none"}}, {"type": "Feature", "geometry": {"type": "MultiPolygon", "coordinates": [[[[72.07988362, 34.48659152], [72.0798485, 34.48658831], [72.07984439, 34.48661909], [72.07987951, 34.48662231], [72.07988362, 34.48659152]]]]}, "properties": {"id": "8J6JF3PH+JWX8", "height": 4.364469528198242, "hmax": 0.002, "ratio": 0.001, "vulnClass": "none"}}, {"type": "Feature", "geometry": {"type": "MultiPolygon", "coordinates": [[[[72.08001884, 34.48647662], [72.0799923, 34.48647542], [72.07998992, 34.48651146], [72.08001647, 34.48651266], [72.08001884, 34.48647662]]]]}, "properties": {"id": "8J6JF3PJ+H2RJ", "height": 4.193562984466553, "hmax": 0.002, "ratio": 0.001, "vulnClass": "none"}}, {"type": "Feature", "geometry": {"type": "MultiPolygon", "coordinates": [[[[72.08032195, 34.48732531], [72.08034941, 34.48723765], [72.08029837, 34.48722669], [72.08027091, 34.48731435], [72.08032195, 34.48732531]]]]}, "properties": {"id": "8J6JF3PJ+W475", "height": 3.413401365280151, "hmax": 0.051, "ratio": 0.015, "vulnClass": "none"}}, {"type": "Feature", "geometry": {"type": "MultiPolygon", "coordinates": [[[[72.08199003, 34.48713646], [72.08197053, 34.48721651], [72.08222968, 34.4872598], [72.08224918, 34.48717974], [72.08199003, 34.48713646]]]]}, "properties": {"id": "8J6JF3PJ+VRHW", "height": 2.632337808609009, "hmax": 0.085, "ratio": 0.032, "vulnClass": "none"}}, {"type": "Feature", "geometry": {"type": "MultiPolygon", "coordinates": [[[[72.08201427, 34.48705987], [72.08190655, 34.48704254], [72.08188986, 34.48711367], [72.08199759, 34.487131], [72.08201427, 34.48705987]]]]}, "properties": {"id": "8J6JF3PJ+RQPF", "height": 3.143991947174072, "hmax": 0.085, "ratio": 0.027, "vulnClass": "none"}}, {"type": "Feature", "geometry": {"type": "MultiPolygon", "coordinates": [[[[72.08190592, 34.48579231], [72.08179319, 34.48576555], [72.08176703, 34.48584111], [72.08187976, 34.48586787], [72.08190592, 34.48579231]]]]}, "properties": {"id": "8J6JF3PJ+8PGQ", "height": 2.621979713439941, "hmax": 0.07, "ratio": 0.027, "vulnClass": "none"}}, {"type": "Feature", "geometry": {"type": "MultiPolygon", "coordinates": [[[[72.08182705, 34.48569768], [72.08177344, 34.48569364], [72.08177036, 34.48572162], [72.08182397, 34.48572567], [72.08182705, 34.48569768]]]]}, "properties": {"id": "8J6JF3PJ+7PM8", "height": 3.375531673431396, "hmax": 0.07, "ratio": 0.021, "vulnClass": "none"}}, {"type": "Feature", "geometry": {"type": "MultiPolygon", "coordinates": [[[[72.08097098, 34.4863147], [72.08085724, 34.486305], [72.08084348, 34.48641556], [72.08095722, 34.48642527], [72.08097098, 34.4863147]]]]}, "properties": {"id": "8J6JF3PJ+G9VJ", "height": 2.645419836044312, "hmax": 0.004, "ratio": 0.002, "vulnClass": "none"}}, {"type": "Feature", "geometry": {"type": "MultiPolygon", "coordinates": [[[[72.08224544, 34.48550106], [72.08216151, 34.48549491], [72.08215069, 34.48559618], [72.08223462, 34.48560233], [72.08224544, 34.48550106]]]]}, "properties": {"id": "8J6JF3PJ+6V8V", "height": 2.77718186378479, "hmax": 0.07, "ratio": 0.025, "vulnClass": "none"}}, {"type": "Feature", "geometry": {"type": "MultiPolygon", "coordinates": [[[[72.08245943, 34.48574534], [72.08220435, 34.48569725], [72.08219253, 34.48574023], [72.08239697, 34.48577878], [72.08238965, 34.48580543], [72.08244028, 34.48581497], [72.08245943, 34.48574534]]]]}, "properties": {"id": "8J6JF3PJ+7WWX", "height": 3.173048496246338, "hmax": 0.07, "ratio": 0.022, "vulnClass": "none"}}, {"type": "Feature", "geometry": {"type": "MultiPolygon", "coordinates": [[[[72.08219891, 34.48571703], [72.08209958, 34.4856983], [72.08207279, 34.48579571], [72.08217212, 34.48581444], [72.08219891, 34.48571703]]]]}, "properties": {"id": "8J6JF3PJ+8V27", "height": 3.173048496246338, "hmax": 0.07, "ratio": 0.022, "vulnClass": "none"}}, {"type": "Feature", "geometry": {"type": "MultiPolygon", "coordinates": [[[[72.08370874, 34.48625799], [72.08358532, 34.48625704], [72.08358041, 34.48669237], [72.08375316, 34.48669371], [72.08375447, 34.48657771], [72.08370514, 34.48657733], [72.08370874, 34.48625799]]]]}, "properties": {"id": "8J6JF3PM+HFRQ", "height": 2.680467128753662, "hmax": 0.057, "ratio": 0.021, "vulnClass": "none"}}, {"type": "Feature", "geometry": {"type": "MultiPolygon", "coordinates": [[[[72.07878333, 34.48699663], [72.07870855, 34.48698947], [72.07869665, 34.4870747], [72.07888158, 34.48709241], [72.07890105, 34.48695295], [72.0787909, 34.4869424], [72.07878333, 34.48699663]]]]}, "properties": {"id": "8J6JF3PH+RG3X", "height": 2.713864803314209, "hmax": 0.996, "ratio": 0.367, "vulnClass": "moderate"}}, {"type": "Feature", "geometry": {"type": "MultiPolygon", "coordinates": [[[[72.07902514, 34.48687499], [72.07892823, 34.48686907], [72.07890514, 34.48712797], [72.07922294, 34.4871474], [72.07922638, 34.48710874], [72.07919728, 34.48710696], [72.07920064, 34.48706934], [72.07900886, 34.48705762], [72.07902514, 34.48687499]]]]}, "properties": {"id": "8J6JF3PH+RJ6P", "height": 3.694748401641846, "hmax": 0.996, "ratio": 0.27, "vulnClass": "low"}}, {"type": "Feature", "geometry": {"type": "MultiPolygon", "coordinates": [[[[72.0805303, 34.48551178], [72.08047094, 34.48550414], [72.08046604, 34.48553024], [72.0805254, 34.48553788], [72.0805303, 34.48551178]]]]}, "properties": {"id": "8J6JF3PJ+655X", "height": 2.45868706703186, "hmax": 0.108, "ratio": 0.044, "vulnClass": "none"}}, {"type": "Feature", "geometry": {"type": "MultiPolygon", "coordinates": [[[[72.08052374, 34.4856486], [72.08047615, 34.48564219], [72.08046729, 34.48568734], [72.08051488, 34.48569374], [72.08052374, 34.4856486]]]]}, "properties": {"id": "8J6JF3PJ+759Q", "height": 3.243828773498535, "hmax": 0.108, "ratio": 0.033, "vulnClass": "none"}}, {"type": "Feature", "geometry": {"type": "MultiPolygon", "coordinates": [[[[72.08031912, 34.48581039], [72.08028386, 34.48580721], [72.08027818, 34.48585034], [72.08031344, 34.48585353], [72.08031912, 34.48581039]]]]}, "properties": {"id": "8J6JF3PJ+84M8", "height": 3.661569118499756, "hmax": 0.108, "ratio": 0.03, "vulnClass": "none"}}, {"type": "Feature", "geometry": {"type": "MultiPolygon", "coordinates": [[[[72.07985084, 34.48587913], [72.07987037, 34.48576788], [72.07982128, 34.48576197], [72.07980176, 34.48587323], [72.07985084, 34.48587913]]]]}, "properties": {"id": "8J6JF3PH+8WGX", "height": 2.448437690734863, "hmax": 0.087, "ratio": 0.035, "vulnClass": "none"}}, {"type": "Feature", "geometry": {"type": "MultiPolygon", "coordinates": [[[[72.08015311, 34.48563332], [72.07972653, 34.48558166], [72.07971185, 34.48566475], [72.07987614, 34.48568464], [72.07987923, 34.48566715], [72.08014152, 34.48569891], [72.08015311, 34.48563332]]]]}, "properties": {"id": "8J6JF3PH+7X3M", "height": 2.675559997558594, "hmax": 0.108, "ratio": 0.04, "vulnClass": "none"}}, {"type": "Feature", "geometry": {"type": "MultiPolygon", "coordinates": [[[[72.079745, 34.4854772], [72.0796448, 34.4854651], [72.0796148, 34.4856351], [72.0795932, 34.4856325], [72.0795901, 34.48565], [72.0796519, 34.4856575], [72.0796448, 34.4856977], [72.0797048, 34.4857049], [72.079745, 34.4854772]]]]}, "properties": {"id": "8J6JF3PH+6VM4", "height": 2.982954740524292, "hmax": 0.108, "ratio": 0.036, "vulnClass": "none"}}, {"type": "Feature", "geometry": {"type": "MultiPolygon", "coordinates": [[[[72.080099, 34.4853746], [72.08004843, 34.48537119], [72.08004453, 34.48541082], [72.0800951, 34.48541423], [72.080099, 34.4853746]]]]}, "properties": {"id": "8J6JF3PJ+524M", "height": 4.013379096984863, "hmax": 0.108, "ratio": 0.027, "vulnClass": "none"}}]}