{"type": "FeatureCollection", "features": [{"type": "Feature", "geometry": {"type": "MultiPolygon", "coordinates": [[[[71.9875937, 34.49380967], [71.98734048, 34.49376655], [71.98733113, 34.49380421], [71.98741211, 34.493818], [71.98740261, 34.49385623], [71.98757485, 34.49388556], [71.9875937, 34.49380967]]]]}, "properties": {"id": "8J6HFXVP+GXQ2", "height": 2.560304641723633, "hmax": 0.01, "ratio": 0.004, "vulnClass": "none"}}, {"type": "Feature", "geometry": {"type": "MultiPolygon", "coordinates": [[[[71.98661899, 34.49644746], [71.98653304, 34.49645256], [71.98654687, 34.49661256], [71.98672598, 34.49660195], [71.98671215, 34.49644194], [71.98666749, 34.49644459], [71.98667509, 34.49653243], [71.98662659, 34.4965353], [71.98661899, 34.49644746]]]]}, "properties": {"id": "8J6HFXWP+JM66", "height": 3.188814163208008, "hmax": 0.007, "ratio": 0.002, "vulnClass": "none"}}, {"type": "Feature", "geometry": {"type": "MultiPolygon", "coordinates": [[[[71.98644591, 34.48775929], [71.98640781, 34.48775324], [71.98639869, 34.48779266], [71.98643678, 34.48779871], [71.98644591, 34.48775929]]]]}, "properties": {"id": "8J6HFXQP+4H74", "height": 2.740338325500488, "hmax": 0.017, "ratio": 0.006, "vulnClass": "none"}}, {"type": "Feature", "geometry": {"type": "MultiPolygon", "coordinates": [[[[71.98645243, 34.48772638], [71.98644688, 34.48775955], [71.98653085, 34.48776919], [71.9865364, 34.48773602], [71.98645243, 34.48772638]]]]}, "properties": {"id": "8J6HFXQP+3HXW", "height": 4.024041175842285, "hmax": 0.017, "ratio": 0.004, "vulnClass": "none"}}]}