{"type": "FeatureCollection", "features": [{"type": "Feature", "geometry": {"type": "MultiPolygon", "coordinates": [[[[72.04477873, 34.52675299], [72.04474132, 34.52678662], [72.04488921, 34.52689826], [72.04492662, 34.52686462], [72.04477873, 34.52675299]]]]}, "properties": {"id": "Pakistan_123102132_402037", "height": 3.055965662002563, "hmax": 0.005, "ratio": 0.002, "vulnClass": "none"}}, {"type": "Feature", "geometry": {"type": "MultiPolygon", "coordinates": [[[[72.04436915, 34.52652217], [72.04423794, 34.52652664], [72.04424248, 34.52661709], [72.04437369, 34.52661262], [72.04436915, 34.52652217]]]]}, "properties": {"id": "Pakistan_123102132_472781", "height": 3.379128217697144, "hmax": 0.01, "ratio": 0.003, "vulnClass": "none"}}]}