{"type": "FeatureCollection", "features": [{"type": "Feature", "geometry": {"type": "MultiPolygon", "coordinates": [[[[71.93943393, 34.57012091], [71.93940202, 34.57018527], [71.93951007, 34.57022159], [71.93961144, 34.57001714], [71.93955166, 34.56999705], [71.93948221, 34.57013714], [71.93943393, 34.57012091]]]]}, "properties": {"id": "Pakistan_123102132_238068", "height": 2.46886944770813, "hmax": 0.0, "ratio": 0.0, "vulnClass": "none"}}, {"type": "Feature", "geometry": {"type": "MultiPolygon", "coordinates": [[[[71.93805316, 34.57150946], [71.93800535, 34.57158543], [71.93824639, 34.57168828], [71.93827488, 34.57164301], [71.93832986, 34.57166647], [71.93837329, 34.57159745], [71.93829928, 34.57156588], [71.93827518, 34.57160418], [71.93805316, 34.57150946]]]]}, "properties": {"id": "Pakistan_123102132_34692", "height": 3.042922735214233, "hmax": 0.0, "ratio": 0.0, "vulnClass": "none"}}, {"type": "Feature", "geometry": {"type": "MultiPolygon", "coordinates": [[[[71.93635643, 34.57147187], [71.93633409, 34.57151637], [71.93641104, 34.57154256], [71.93643338, 34.57149807], [71.93635643, 34.57147187]]]]}, "properties": {"id": "Pakistan_123102132_361211", "height": 3.748334646224976, "hmax": 0.0, "ratio": 0.0, "vulnClass": "none"}}, {"type": "Feature", "geometry": {"type": "MultiPolygon", "coordinates": [[[[71.93423717, 34.57055181], [71.93436019, 34.57068041], [71.93443549, 34.57069713], [71.93455752, 34.57096055], [71.93471751, 34.57099609], [71.93465299, 34.57101635], [71.93463657, 34.57106646], [71.93470006, 34.57108056], [71.93471993, 34.57101992], [71.93486736, 34.57105267], [71.93485253, 34.57102067], [71.93480283, 34.57100962], [71.93479554, 34.571002], [71.93481633, 34.57093853], [71.93494134, 34.57096629], [71.93495446, 34.57092625], [71.93483882, 34.57090056], [71.9348246, 34.57090503], [71.93476273, 34.57089129], [71.93467541, 34.57094792], [71.93469286, 34.57089466], [71.93458575, 34.57078268], [71.9346006, 34.57073732], [71.93458396, 34.5707014], [71.93452232, 34.5706877], [71.93451206, 34.57066555], [71.934489, 34.57066043], [71.93451157, 34.57059154], [71.93448462, 34.57058555], [71.93438516, 34.57061679], [71.93430317, 34.57053108], [71.93423717, 34.57055181]]]]}, "properties": {"id": "Pakistan_123102132_432205", "height": 3.408393621444702, "hmax": 0.0, "ratio": 0.0, "vulnClass": "none"}}, {"type": "Feature", "geometry": {"type": "MultiPolygon", "coordinates": [[[[71.93719911, 34.57116615], [71.93720465, 34.57108469], [71.9369854, 34.5710746], [71.93697986, 34.57115606], [71.93719911, 34.57116615]]]]}, "properties": {"id": "Pakistan_123102132_557885", "height": 2.621018409729004, "hmax": 0.0, "ratio": 0.0, "vulnClass": "none"}}, {"type": "Feature", "geometry": {"type": "MultiPolygon", "coordinates": [[[[71.9354037, 34.56931819], [71.93527365, 34.56931248], [71.93526822, 34.56939616], [71.93539828, 34.56940188], [71.9354037, 34.56931819]]]]}, "properties": {"id": "Pakistan_123102132_241232", "height": 2.61302924156189, "hmax": 0.0, "ratio": 0.0, "vulnClass": "none"}}, {"type": "Feature", "geometry": {"type": "MultiPolygon", "coordinates": [[[[71.9347494, 34.56929066], [71.93489851, 34.56930739], [71.93490747, 34.56925318], [71.93486633, 34.56924857], [71.934871, 34.56922038], [71.93476303, 34.56920826], [71.9347494, 34.56929066]]]]}, "properties": {"id": "Pakistan_123102132_582439", "height": 2.581712484359741, "hmax": 0.0, "ratio": 0.0, "vulnClass": "none"}}, {"type": "Feature", "geometry": {"type": "MultiPolygon", "coordinates": [[[[71.93462513, 34.56874903], [71.93466079, 34.5688236], [71.93475368, 34.56879349], [71.93473813, 34.56876098], [71.93471582, 34.56876821], [71.93469571, 34.56872614], [71.93462513, 34.56874903]]]]}, "properties": {"id": "Pakistan_123102132_40823", "height": 7.133477687835693, "hmax": 0.0, "ratio": 0.0, "vulnClass": "none"}}, {"type": "Feature", "geometry": {"type": "MultiPolygon", "coordinates": [[[[71.934568, 34.56853743], [71.93457053, 34.56860463], [71.9346402, 34.56860285], [71.93463767, 34.56853565], [71.934568, 34.56853743]]]]}, "properties": {"id": "Pakistan_123102132_315239", "height": 2.736730098724365, "hmax": 0.0, "ratio": 0.0, "vulnClass": "none"}}, {"type": "Feature", "geometry": {"type": "MultiPolygon", "coordinates": [[[[71.9345364, 34.5684507], [71.93412871, 34.56844901], [71.93412839, 34.56850202], [71.93428395, 34.56850266], [71.93428348, 34.56857996], [71.93438165, 34.56858037], [71.93438185, 34.56854827], [71.93442047, 34.56854843], [71.93442069, 34.56851207], [71.93453602, 34.56851254], [71.9345364, 34.5684507]]]]}, "properties": {"id": "Pakistan_123102132_515258", "height": 7.08522891998291, "hmax": 0.0, "ratio": 0.0, "vulnClass": "none"}}, {"type": "Feature", "geometry": {"type": "MultiPolygon", "coordinates": [[[[71.93388445, 34.56854994], [71.93382956, 34.56852251], [71.9337992, 34.56856371], [71.93385409, 34.56859114], [71.93388445, 34.56854994]]]]}, "properties": {"id": "Pakistan_123102132_164042", "height": 2.916691541671753, "hmax": 0.0, "ratio": 0.0, "vulnClass": "none"}}, {"type": "Feature", "geometry": {"type": "MultiPolygon", "coordinates": [[[[71.93395991, 34.56870908], [71.93382713, 34.56865415], [71.93381155, 34.56867968], [71.93370446, 34.56863539], [71.93365497, 34.56871652], [71.93385285, 34.56879837], [71.9338733, 34.56876486], [71.93391529, 34.56878223], [71.93395991, 34.56870908]]]]}, "properties": {"id": "Pakistan_123102132_219698", "height": 2.506343841552734, "hmax": 0.0, "ratio": 0.0, "vulnClass": "none"}}, {"type": "Feature", "geometry": {"type": "MultiPolygon", "coordinates": [[[[71.93459064, 34.56867546], [71.93396032, 34.568674], [71.93395998, 34.56877234], [71.93447496, 34.56877356], [71.93447513, 34.56872497], [71.93459046, 34.56872524], [71.93459064, 34.56867546]]]]}, "properties": {"id": "Pakistan_123102132_19416", "height": 3.790419578552246, "hmax": 0.0, "ratio": 0.0, "vulnClass": "none"}}, {"type": "Feature", "geometry": {"type": "MultiPolygon", "coordinates": [[[[71.93442535, 34.56899152], [71.93442888, 34.56893424], [71.93429511, 34.56892865], [71.93429159, 34.56898593], [71.93442535, 34.56899152]]]]}, "properties": {"id": "Pakistan_123102132_588502", "height": 5.110705375671387, "hmax": 0.0, "ratio": 0.0, "vulnClass": "none"}}, {"type": "Feature", "geometry": {"type": "MultiPolygon", "coordinates": [[[[71.93319432, 34.57011869], [71.93315043, 34.57009244], [71.9331179, 34.57012931], [71.93316179, 34.57015556], [71.93319432, 34.57011869]]]]}, "properties": {"id": "Pakistan_123102132_438362", "height": 2.646945238113403, "hmax": 0.0, "ratio": 0.0, "vulnClass": "none"}}, {"type": "Feature", "geometry": {"type": "MultiPolygon", "coordinates": [[[[71.93318575, 34.56947815], [71.93304018, 34.56938741], [71.93306341, 34.56936213], [71.93302995, 34.56934127], [71.93294411, 34.56943464], [71.93312315, 34.56954624], [71.93318575, 34.56947815]]]]}, "properties": {"id": "Pakistan_123102132_351991", "height": 3.463014125823975, "hmax": 0.0, "ratio": 0.0, "vulnClass": "none"}}, {"type": "Feature", "geometry": {"type": "MultiPolygon", "coordinates": [[[[71.93283698, 34.56865629], [71.93249533, 34.56853259], [71.93244888, 34.56861959], [71.93278828, 34.56874246], [71.93282287, 34.56867768], [71.93293076, 34.56871674], [71.93295942, 34.56866307], [71.93285378, 34.56862482], [71.93283698, 34.56865629]]]]}, "properties": {"id": "Pakistan_123102132_83830", "height": 5.180028915405273, "hmax": 0.0, "ratio": 0.0, "vulnClass": "none"}}, {"type": "Feature", "geometry": {"type": "MultiPolygon", "coordinates": [[[[71.9326407, 34.56881798], [71.93259063, 34.56879595], [71.93255941, 34.56884405], [71.93260948, 34.56886608], [71.9326407, 34.56881798]]]]}, "properties": {"id": "Pakistan_123102132_506109", "height": 4.017221450805664, "hmax": 0.0, "ratio": 0.0, "vulnClass": "none"}}, {"type": "Feature", "geometry": {"type": "MultiPolygon", "coordinates": [[[[71.93263134, 34.56883659], [71.9326138, 34.56887145], [71.93264954, 34.56888364], [71.93266708, 34.56884878], [71.93263134, 34.56883659]]]]}, "properties": {"id": "Pakistan_123102132_139442", "height": 3.323995113372803, "hmax": 0.0, "ratio": 0.0, "vulnClass": "none"}}, {"type": "Feature", "geometry": {"type": "MultiPolygon", "coordinates": [[[[71.9324828, 34.5688868], [71.93253407, 34.56889769], [71.93254738, 34.56885521], [71.9324961, 34.56884432], [71.9324828, 34.5688868]]]]}, "properties": {"id": "Pakistan_123102132_96061", "height": 3.098579168319702, "hmax": 0.0, "ratio": 0.0, "vulnClass": "none"}}, {"type": "Feature", "geometry": {"type": "MultiPolygon", "coordinates": [[[[71.93237325, 34.56878844], [71.93235636, 34.56883626], [71.9324142, 34.56885012], [71.9324311, 34.5688023], [71.93237325, 34.56878844]]]]}, "properties": {"id": "Pakistan_123102132_259660", "height": 4.187527656555176, "hmax": 0.0, "ratio": 0.0, "vulnClass": "none"}}, {"type": "Feature", "geometry": {"type": "MultiPolygon", "coordinates": [[[[71.93229028, 34.56869605], [71.93223289, 34.56868754], [71.93223023, 34.5686739], [71.9321476, 34.56866165], [71.93213965, 34.56869802], [71.93203572, 34.56868263], [71.93203168, 34.56870112], [71.93204305, 34.56875956], [71.93204041, 34.56877167], [71.93212874, 34.56878475], [71.93211964, 34.56882642], [71.93204689, 34.56881564], [71.93202935, 34.56889592], [71.93203687, 34.56893458], [71.93207076, 34.5689396], [71.93206667, 34.56895834], [71.93208028, 34.56902832], [71.9321748, 34.56901585], [71.93217973, 34.56899332], [71.93217341, 34.56896085], [71.93217964, 34.56893234], [71.93223764, 34.56892469], [71.93227514, 34.56875307], [71.9322764, 34.56875956], [71.93229028, 34.56869605]]]]}, "properties": {"id": "Pakistan_123102132_16335", "height": 2.884475231170654, "hmax": 0.0, "ratio": 0.0, "vulnClass": "none"}}, {"type": "Feature", "geometry": {"type": "MultiPolygon", "coordinates": [[[[71.93244236, 34.56910184], [71.93226858, 34.56919955], [71.9323167, 34.56925757], [71.93249047, 34.56915986], [71.93244236, 34.56910184]]]]}, "properties": {"id": "Pakistan_123102132_392032", "height": 3.153509378433228, "hmax": 0.0, "ratio": 0.0, "vulnClass": "none"}}, {"type": "Feature", "geometry": {"type": "MultiPolygon", "coordinates": [[[[71.93259349, 34.56922301], [71.93276086, 34.56925611], [71.9327703, 34.56922375], [71.93273987, 34.56921774], [71.9327563, 34.56916135], [71.93271669, 34.56915352], [71.9327307, 34.56910549], [71.93263336, 34.56908625], [71.93259349, 34.56922301]]]]}, "properties": {"id": "Pakistan_123102132_241211", "height": 3.284250974655151, "hmax": 0.0, "ratio": 0.0, "vulnClass": "none"}}, {"type": "Feature", "geometry": {"type": "MultiPolygon", "coordinates": [[[[71.93263572, 34.56904012], [71.93268705, 34.56906057], [71.9327412, 34.56896841], [71.93268987, 34.56894796], [71.93263572, 34.56904012]]]]}, "properties": {"id": "Pakistan_123102132_13257", "height": 3.293099880218506, "hmax": 0.0, "ratio": 0.0, "vulnClass": "none"}}, {"type": "Feature", "geometry": {"type": "MultiPolygon", "coordinates": [[[[71.93285274, 34.56891942], [71.93280043, 34.56889655], [71.93274599, 34.56898098], [71.9327983, 34.56900385], [71.93285274, 34.56891942]]]]}, "properties": {"id": "Pakistan_123102132_570102", "height": 3.087572574615479, "hmax": 0.0, "ratio": 0.0, "vulnClass": "none"}}, {"type": "Feature", "geometry": {"type": "MultiPolygon", "coordinates": [[[[71.93278986, 34.56901298], [71.93272431, 34.56899353], [71.93269478, 34.56906098], [71.93276035, 34.56908043], [71.93278986, 34.56901298]]]]}, "properties": {"id": "Pakistan_123102132_281271", "height": 2.738317966461182, "hmax": 0.0, "ratio": 0.0, "vulnClass": "none"}}, {"type": "Feature", "geometry": {"type": "MultiPolygon", "coordinates": [[[[71.93324513, 34.56890206], [71.9332314, 34.56898218], [71.93348386, 34.56901153], [71.93349537, 34.5689444], [71.93336388, 34.56892911], [71.93337093, 34.56888797], [71.93330255, 34.56888002], [71.93329773, 34.56890817], [71.93324513, 34.56890206]]]]}, "properties": {"id": "Pakistan_123102132_302892", "height": 4.159822463989258, "hmax": 0.0, "ratio": 0.0, "vulnClass": "none"}}, {"type": "Feature", "geometry": {"type": "MultiPolygon", "coordinates": [[[[71.93331651, 34.56873079], [71.93327402, 34.56879897], [71.93348208, 34.56888689], [71.93352457, 34.56881871], [71.93331651, 34.56873079]]]]}, "properties": {"id": "Pakistan_123102132_182785", "height": 3.250736713409424, "hmax": 0.0, "ratio": 0.0, "vulnClass": "none"}}, {"type": "Feature", "geometry": {"type": "MultiPolygon", "coordinates": [[[[71.93331406, 34.56885215], [71.93336241, 34.56886723], [71.93337395, 34.56884211], [71.93332561, 34.56882704], [71.93331406, 34.56885215]]]]}, "properties": {"id": "Pakistan_123102132_188874", "height": 3.980063915252686, "hmax": 0.0, "ratio": 0.0, "vulnClass": "none"}}, {"type": "Feature", "geometry": {"type": "MultiPolygon", "coordinates": [[[[71.9329624, 34.56856492], [71.93289136, 34.56855093], [71.93288317, 34.56857915], [71.93295422, 34.56859312], [71.9329624, 34.56856492]]]]}, "properties": {"id": "Pakistan_123102132_185901", "height": 2.642178535461426, "hmax": 0.0, "ratio": 0.0, "vulnClass": "none"}}, {"type": "Feature", "geometry": {"type": "MultiPolygon", "coordinates": [[[[71.93282544, 34.56855595], [71.93276513, 34.56853745], [71.93273794, 34.56859758], [71.93279825, 34.56861608], [71.93282544, 34.56855595]]]]}, "properties": {"id": "Pakistan_123102132_222684", "height": 3.893461227416992, "hmax": 0.0, "ratio": 0.0, "vulnClass": "none"}}, {"type": "Feature", "geometry": {"type": "MultiPolygon", "coordinates": [[[[71.93322503, 34.56853661], [71.93317313, 34.56852412], [71.93317999, 34.56850478], [71.93298327, 34.56845748], [71.93295801, 34.56852871], [71.93320664, 34.56858849], [71.93322503, 34.56853661]]]]}, "properties": {"id": "Pakistan_123102132_444562", "height": 5.792092323303223, "hmax": 0.0, "ratio": 0.0, "vulnClass": "none"}}, {"type": "Feature", "geometry": {"type": "MultiPolygon", "coordinates": [[[[71.9334232, 34.56865162], [71.93356367, 34.56872596], [71.93361978, 34.56865406], [71.93366154, 34.56867616], [71.93372683, 34.56859251], [71.9335446, 34.56849607], [71.9334232, 34.56865162]]]]}, "properties": {"id": "Pakistan_123102132_351992", "height": 3.074238777160645, "hmax": 0.0, "ratio": 0.0, "vulnClass": "none"}}, {"type": "Feature", "geometry": {"type": "MultiPolygon", "coordinates": [[[[71.93325094, 34.56854142], [71.93343364, 34.56859872], [71.93349654, 34.56846277], [71.93342627, 34.56844073], [71.93345125, 34.56838672], [71.93333882, 34.56835145], [71.93325094, 34.56854142]]]]}, "properties": {"id": "Pakistan_123102132_145493", "height": 4.493889808654785, "hmax": 0.0, "ratio": 0.0, "vulnClass": "none"}}, {"type": "Feature", "geometry": {"type": "MultiPolygon", "coordinates": [[[[71.93283324, 34.56815494], [71.93282071, 34.56821274], [71.9328727, 34.56822038], [71.93288523, 34.56816258], [71.93283324, 34.56815494]]]]}, "properties": {"id": "Pakistan_123102132_358160", "height": 2.58637523651123, "hmax": 0.0, "ratio": 0.0, "vulnClass": "none"}}, {"type": "Feature", "geometry": {"type": "MultiPolygon", "coordinates": [[[[71.9331245, 34.56805025], [71.93313879, 34.56800115], [71.93324533, 34.56802217], [71.93323833, 34.56804621], [71.93331443, 34.56806122], [71.93334148, 34.56796826], [71.93307007, 34.56791471], [71.9330491, 34.56798678], [71.93298209, 34.56797355], [71.93297291, 34.56800511], [71.93284579, 34.56803637], [71.93283401, 34.56807685], [71.93293399, 34.56809658], [71.93293095, 34.56810703], [71.93301173, 34.56812297], [71.93301259, 34.56812535], [71.93340975, 34.56820372], [71.93338665, 34.56828309], [71.93359718, 34.56832464], [71.93358199, 34.56837685], [71.93373572, 34.56840719], [71.93375176, 34.56840324], [71.9337377, 34.56836447], [71.93365858, 34.56834886], [71.93362241, 34.56835775], [71.93363867, 34.5683019], [71.93346515, 34.56826766], [71.93350829, 34.56811936], [71.93336035, 34.56809016], [71.93336294, 34.5680973], [71.9331245, 34.56805025]]]]}, "properties": {"id": "Pakistan_123102132_37698", "height": 5.454517364501953, "hmax": 0.0, "ratio": 0.0, "vulnClass": "none"}}, {"type": "Feature", "geometry": {"type": "MultiPolygon", "coordinates": [[[[71.93347708, 34.56802746], [71.93340765, 34.56802364], [71.93340516, 34.56805443], [71.93347458, 34.56805824], [71.93347708, 34.56802746]]]]}, "properties": {"id": "Pakistan_123102132_351993", "height": 3.693079233169556, "hmax": 0.0, "ratio": 0.0, "vulnClass": "none"}}, {"type": "Feature", "geometry": {"type": "MultiPolygon", "coordinates": [[[[71.93317433, 34.56766438], [71.93317576, 34.56760477], [71.93293713, 34.5676009], [71.93293571, 34.56766051], [71.93317433, 34.56766438]]]]}, "properties": {"id": "Pakistan_123102132_453744", "height": 5.569667339324951, "hmax": 0.001, "ratio": 0.0, "vulnClass": "none"}}, {"type": "Feature", "geometry": {"type": "MultiPolygon", "coordinates": [[[[71.93285197, 34.56756951], [71.93310633, 34.56757828], [71.93311211, 34.56746474], [71.93295681, 34.56745938], [71.93295513, 34.56749245], [71.93285606, 34.56748903], [71.93285197, 34.56756951]]]]}, "properties": {"id": "Pakistan_123102132_10160", "height": 7.247302055358887, "hmax": 0.001, "ratio": 0.0, "vulnClass": "none"}}, {"type": "Feature", "geometry": {"type": "MultiPolygon", "coordinates": [[[[71.93289402, 34.56773503], [71.93300763, 34.56774657], [71.93301512, 34.56769653], [71.93290151, 34.567685], [71.93289402, 34.56773503]]]]}, "properties": {"id": "Pakistan_123102132_597779", "height": 3.88658332824707, "hmax": 0.001, "ratio": 0.0, "vulnClass": "none"}}, {"type": "Feature", "geometry": {"type": "MultiPolygon", "coordinates": [[[[71.93300558, 34.56788262], [71.93313073, 34.5679102], [71.93316589, 34.56780198], [71.93304073, 34.56777441], [71.93300558, 34.56788262]]]]}, "properties": {"id": "Pakistan_123102132_518316", "height": 3.43628716468811, "hmax": 0.001, "ratio": 0.0, "vulnClass": "none"}}, {"type": "Feature", "geometry": {"type": "MultiPolygon", "coordinates": [[[[71.93269744, 34.56788791], [71.93286073, 34.567913], [71.93288153, 34.56782122], [71.93266121, 34.56778737], [71.93264961, 34.5678386], [71.93270663, 34.56784736], [71.93269744, 34.56788791]]]]}, "properties": {"id": "Pakistan_123102132_305938", "height": 3.604353666305542, "hmax": 0.001, "ratio": 0.0, "vulnClass": "none"}}, {"type": "Feature", "geometry": {"type": "MultiPolygon", "coordinates": [[[[71.93267693, 34.56759458], [71.9326873, 34.5675725], [71.93262997, 34.56755425], [71.93261509, 34.56758593], [71.93266875, 34.56760302], [71.93265341, 34.56763568], [71.93270607, 34.56765246], [71.93272592, 34.56761019], [71.93267693, 34.56759458]]]]}, "properties": {"id": "Pakistan_123102132_502962", "height": 2.531638622283936, "hmax": 0.001, "ratio": 0.0, "vulnClass": "none"}}, {"type": "Feature", "geometry": {"type": "MultiPolygon", "coordinates": [[[[71.93194922, 34.56788866], [71.9324021, 34.56793078], [71.93240733, 34.56789265], [71.93228815, 34.56788157], [71.93230088, 34.56778874], [71.93225552, 34.56772172], [71.93236502, 34.5677319], [71.93236786, 34.5677306], [71.93237631, 34.5676689], [71.93249099, 34.56767956], [71.93242374, 34.5675802], [71.9324483, 34.56756893], [71.93245342, 34.56757649], [71.93252512, 34.56754359], [71.9323051, 34.56752313], [71.93228944, 34.56763742], [71.93224486, 34.56765787], [71.93224652, 34.56764579], [71.93197524, 34.56762057], [71.93198065, 34.56758112], [71.93192815, 34.56750355], [71.93186187, 34.56749739], [71.93184391, 34.56762824], [71.93170355, 34.56761519], [71.93169457, 34.56768062], [71.93213877, 34.56772191], [71.9321507, 34.56773954], [71.93197194, 34.56772291], [71.93194922, 34.56788866]]]]}, "properties": {"id": "Pakistan_123102132_429066", "height": 5.024149894714355, "hmax": 0.001, "ratio": 0.0, "vulnClass": "none"}}, {"type": "Feature", "geometry": {"type": "MultiPolygon", "coordinates": [[[[71.93170398, 34.56752221], [71.93170398, 34.56761822], [71.9317764, 34.56761822], [71.9317764, 34.56752221], [71.93170398, 34.56752221]]]]}, "properties": {"id": "Pakistan_123102132_275055", "height": 2.855489730834961, "hmax": 0.001, "ratio": 0.0, "vulnClass": "none"}}, {"type": "Feature", "geometry": {"type": "MultiPolygon", "coordinates": [[[[71.93169517, 34.56770207], [71.93167863, 34.56793539], [71.93180159, 34.5679413], [71.93181813, 34.56770798], [71.93169517, 34.56770207]]]]}, "properties": {"id": "Pakistan_123102132_321262", "height": 4.779099941253662, "hmax": 0.001, "ratio": 0.0, "vulnClass": "none"}}, {"type": "Feature", "geometry": {"type": "MultiPolygon", "coordinates": [[[[71.93206094, 34.56815676], [71.93213321, 34.56816856], [71.93216032, 34.56805592], [71.93231, 34.56808035], [71.93233227, 34.56798787], [71.9322471, 34.56797397], [71.93225655, 34.56793469], [71.93211977, 34.56791237], [71.93206094, 34.56815676]]]]}, "properties": {"id": "Pakistan_123102132_576340", "height": 3.652681827545166, "hmax": 0.0, "ratio": 0.0, "vulnClass": "none"}}, {"type": "Feature", "geometry": {"type": "MultiPolygon", "coordinates": [[[[71.93273226, 34.56833068], [71.93288549, 34.5683609], [71.9328946, 34.56832957], [71.93315739, 34.56838139], [71.93319019, 34.56826859], [71.93307858, 34.56824658], [71.93306643, 34.56828836], [71.93296242, 34.56826785], [71.9329685, 34.56824696], [71.93271229, 34.56819643], [71.93272748, 34.56814421], [71.93264377, 34.5681277], [71.93262068, 34.56820708], [71.932504, 34.56818406], [71.93251189, 34.56815691], [71.93243833, 34.5681424], [71.93236725, 34.56838679], [71.93248647, 34.56841031], [71.93253113, 34.56825675], [71.9325829, 34.56826697], [71.93257408, 34.56829728], [71.93261213, 34.56830478], [71.93260788, 34.5683194], [71.93255865, 34.56830969], [71.93252402, 34.56842876], [71.93269398, 34.56846228], [71.93273226, 34.56833068]]]]}, "properties": {"id": "Pakistan_123102132_173445", "height": 4.892160415649414, "hmax": 0.0, "ratio": 0.0, "vulnClass": "none"}}, {"type": "Feature", "geometry": {"type": "MultiPolygon", "coordinates": [[[[71.9317092, 34.56750299], [71.9317085, 34.56748313], [71.93182374, 34.56748037], [71.93182226, 34.56743844], [71.9316159, 34.56744339], [71.93161809, 34.56750518], [71.9317092, 34.56750299]]]]}, "properties": {"id": "Pakistan_123102132_509153", "height": 3.084346532821655, "hmax": 0.002, "ratio": 0.001, "vulnClass": "none"}}, {"type": "Feature", "geometry": {"type": "MultiPolygon", "coordinates": [[[[71.93180302, 34.56738145], [71.93180462, 34.56733393], [71.9318475, 34.56733491], [71.93184962, 34.56727208], [71.93169149, 34.56726847], [71.93169045, 34.56729937], [71.9316288, 34.56729796], [71.93162754, 34.56733548], [71.93167578, 34.56733658], [71.93167437, 34.56737851], [71.93180302, 34.56738145]]]]}, "properties": {"id": "Pakistan_123102132_361186", "height": 2.760341167449951, "hmax": 0.001, "ratio": 0.0, "vulnClass": "none"}}, {"type": "Feature", "geometry": {"type": "MultiPolygon", "coordinates": [[[[71.93146734, 34.56687555], [71.93141994, 34.5670124], [71.93147314, 34.5670249], [71.93152055, 34.56688805], [71.93146734, 34.56687555]]]]}, "properties": {"id": "Pakistan_123102132_305929", "height": 3.321247100830078, "hmax": 0.002, "ratio": 0.001, "vulnClass": "none"}}, {"type": "Feature", "geometry": {"type": "MultiPolygon", "coordinates": [[[[71.93160789, 34.5669214], [71.93169336, 34.56693094], [71.93169943, 34.56689407], [71.93161395, 34.56688453], [71.93160789, 34.5669214]]]]}, "properties": {"id": "Pakistan_123102132_333565", "height": 3.078963994979858, "hmax": 0.001, "ratio": 0.0, "vulnClass": "none"}}, {"type": "Feature", "geometry": {"type": "MultiPolygon", "coordinates": [[[[71.93160545, 34.56685465], [71.93176431, 34.56688296], [71.93178372, 34.56680912], [71.93162487, 34.5667808], [71.93160545, 34.56685465]]]]}, "properties": {"id": "Pakistan_123102132_216621", "height": 2.931132316589355, "hmax": 0.001, "ratio": 0.0, "vulnClass": "none"}}, {"type": "Feature", "geometry": {"type": "MultiPolygon", "coordinates": [[[[71.93181974, 34.56653828], [71.93190005, 34.56654117], [71.93190438, 34.5664596], [71.93182407, 34.56645671], [71.93181974, 34.56653828]]]]}, "properties": {"id": "Pakistan_123102132_167207", "height": 2.595115900039673, "hmax": 0.002, "ratio": 0.001, "vulnClass": "none"}}, {"type": "Feature", "geometry": {"type": "MultiPolygon", "coordinates": [[[[71.93167049, 34.56670762], [71.93176341, 34.5667154], [71.93177582, 34.56661484], [71.93178113, 34.56661528], [71.93178896, 34.56655189], [71.93169074, 34.56654366], [71.93167049, 34.56670762]]]]}, "properties": {"id": "Pakistan_123102132_407487", "height": 7.41395092010498, "hmax": 0.001, "ratio": 0.0, "vulnClass": "none"}}, {"type": "Feature", "geometry": {"type": "MultiPolygon", "coordinates": [[[[71.93219585, 34.56640854], [71.93218676, 34.56649402], [71.93221871, 34.56649632], [71.93221358, 34.56654455], [71.93245581, 34.566562], [71.93246047, 34.56651816], [71.93236198, 34.56651106], [71.93236664, 34.56646722], [71.93239059, 34.56646895], [71.93239548, 34.56642292], [71.93219585, 34.56640854]]]]}, "properties": {"id": "Pakistan_123102132_376455", "height": 7.542788982391357, "hmax": 0.002, "ratio": 0.0, "vulnClass": "none"}}, {"type": "Feature", "geometry": {"type": "MultiPolygon", "coordinates": [[[[71.9323947, 34.56691603], [71.93234928, 34.56677222], [71.93242464, 34.56675608], [71.93240669, 34.56669922], [71.9323489, 34.5667116], [71.93232604, 34.56663919], [71.93219288, 34.56666771], [71.93227913, 34.56694078], [71.9323947, 34.56691603]]]]}, "properties": {"id": "Pakistan_123102132_463009", "height": 3.001386165618896, "hmax": 0.002, "ratio": 0.001, "vulnClass": "none"}}, {"type": "Feature", "geometry": {"type": "MultiPolygon", "coordinates": [[[[71.93248553, 34.56668598], [71.93246026, 34.56677268], [71.93261749, 34.56680376], [71.9326041, 34.5668497], [71.93276641, 34.56688179], [71.93277797, 34.56684211], [71.93271572, 34.56682981], [71.9327346, 34.56676507], [71.93264077, 34.56674652], [71.932649, 34.56671831], [71.93248553, 34.56668598]]]]}, "properties": {"id": "Pakistan_123102132_123974", "height": 4.759205341339111, "hmax": 0.002, "ratio": 0.0, "vulnClass": "none"}}, {"type": "Feature", "geometry": {"type": "MultiPolygon", "coordinates": [[[[71.93256676, 34.56684495], [71.93249873, 34.56683607], [71.93249003, 34.56688132], [71.93255806, 34.56689019], [71.93256676, 34.56684495]]]]}, "properties": {"id": "Pakistan_123102132_269006", "height": 4.071321487426758, "hmax": 0.002, "ratio": 0.001, "vulnClass": "none"}}, {"type": "Feature", "geometry": {"type": "MultiPolygon", "coordinates": [[[[71.93247751, 34.56700289], [71.93264421, 34.56705027], [71.9326624, 34.56700684], [71.93257851, 34.566983], [71.93260373, 34.56692283], [71.93247299, 34.56688568], [71.93245479, 34.5669291], [71.93242842, 34.56692161], [71.93240857, 34.56696898], [71.93248287, 34.56699009], [71.93247751, 34.56700289]]]]}, "properties": {"id": "Pakistan_123102132_444560", "height": 4.79555606842041, "hmax": 0.001, "ratio": 0.0, "vulnClass": "none"}}, {"type": "Feature", "geometry": {"type": "MultiPolygon", "coordinates": [[[[71.93187602, 34.56693063], [71.93205788, 34.56693872], [71.93206244, 34.5668693], [71.93197539, 34.56686542], [71.93198168, 34.56676968], [71.93182802, 34.56676284], [71.9318195, 34.56689278], [71.93180078, 34.56689195], [71.93179601, 34.56696462], [71.93187357, 34.56696807], [71.93187602, 34.56693063]]]]}, "properties": {"id": "Pakistan_123102132_53178", "height": 6.198633670806885, "hmax": 0.002, "ratio": 0.0, "vulnClass": "none"}}, {"type": "Feature", "geometry": {"type": "MultiPolygon", "coordinates": [[[[71.93211025, 34.56707639], [71.93197249, 34.56706373], [71.9319852, 34.56696992], [71.93185539, 34.566958], [71.93183986, 34.56707259], [71.9319526, 34.56708294], [71.93194862, 34.56711234], [71.93210345, 34.56712656], [71.93211025, 34.56707639]]]]}, "properties": {"id": "Pakistan_123102132_102142", "height": 3.856425046920776, "hmax": 0.001, "ratio": 0.0, "vulnClass": "none"}}, {"type": "Feature", "geometry": {"type": "MultiPolygon", "coordinates": [[[[71.93180062, 34.56710477], [71.93178334, 34.56716315], [71.93181879, 34.56717026], [71.93180089, 34.56723072], [71.93185406, 34.56724139], [71.93188923, 34.56712255], [71.93180062, 34.56710477]]]]}, "properties": {"id": "Pakistan_123102132_123968", "height": 3.607467174530029, "hmax": 0.001, "ratio": 0.0, "vulnClass": "none"}}, {"type": "Feature", "geometry": {"type": "MultiPolygon", "coordinates": [[[[71.93199255, 34.56726584], [71.93199502, 34.56719743], [71.93191195, 34.56719539], [71.93191031, 34.56724069], [71.93187547, 34.56723983], [71.93187208, 34.56733355], [71.93202064, 34.56733721], [71.9320232, 34.5672666], [71.93199255, 34.56726584]]]]}, "properties": {"id": "Pakistan_123102132_499877", "height": 5.159127712249756, "hmax": 0.001, "ratio": 0.0, "vulnClass": "none"}}, {"type": "Feature", "geometry": {"type": "MultiPolygon", "coordinates": [[[[71.93210413, 34.56726978], [71.93210951, 34.56723501], [71.93204089, 34.56722781], [71.93203551, 34.56726258], [71.93210413, 34.56726978]]]]}, "properties": {"id": "Pakistan_123102132_463004", "height": 6.766449451446533, "hmax": 0.001, "ratio": 0.0, "vulnClass": "none"}}, {"type": "Feature", "geometry": {"type": "MultiPolygon", "coordinates": [[[[71.93228209, 34.56728683], [71.93223265, 34.56728589], [71.93223148, 34.56732783], [71.93228091, 34.56732877], [71.93228209, 34.56728683]]]]}, "properties": {"id": "Pakistan_123102132_164031", "height": 2.875466346740723, "hmax": 0.001, "ratio": 0.0, "vulnClass": "none"}}, {"type": "Feature", "geometry": {"type": "MultiPolygon", "coordinates": [[[[71.93236859, 34.56729019], [71.93234552, 34.56739387], [71.93249604, 34.56741658], [71.93250412, 34.56738025], [71.93243924, 34.56737046], [71.93245423, 34.56730312], [71.93236859, 34.56729019]]]]}, "properties": {"id": "Pakistan_123102132_142484", "height": 3.734821796417236, "hmax": 0.001, "ratio": 0.0, "vulnClass": "none"}}, {"type": "Feature", "geometry": {"type": "MultiPolygon", "coordinates": [[[[71.93263142, 34.5675404], [71.93269996, 34.56742139], [71.93254449, 34.56736067], [71.93248738, 34.56745985], [71.93251803, 34.56747182], [71.93253465, 34.56744297], [71.93258939, 34.56746435], [71.93256135, 34.56751303], [71.93263142, 34.5675404]]]]}, "properties": {"id": "Pakistan_123102132_490738", "height": 3.169826984405518, "hmax": 0.001, "ratio": 0.0, "vulnClass": "none"}}, {"type": "Feature", "geometry": {"type": "MultiPolygon", "coordinates": [[[[71.9323665, 34.56710686], [71.93229174, 34.56708986], [71.93227866, 34.56712885], [71.93235343, 34.56714585], [71.9323665, 34.56710686]]]]}, "properties": {"id": "Pakistan_123102132_7112", "height": 3.571088314056396, "hmax": 0.001, "ratio": 0.0, "vulnClass": "none"}}, {"type": "Feature", "geometry": {"type": "MultiPolygon", "coordinates": [[[[71.93282036, 34.56733272], [71.93289631, 34.56734585], [71.93290439, 34.56731412], [71.93282845, 34.56730099], [71.93282036, 34.56733272]]]]}, "properties": {"id": "Pakistan_123102132_613280", "height": 2.611737728118896, "hmax": 0.001, "ratio": 0.0, "vulnClass": "none"}}, {"type": "Feature", "geometry": {"type": "MultiPolygon", "coordinates": [[[[71.93309397, 34.56731127], [71.93299716, 34.56729865], [71.93297312, 34.56742362], [71.93314582, 34.56744614], [71.93315949, 34.56737504], [71.93308361, 34.56736514], [71.93309397, 34.56731127]]]]}, "properties": {"id": "Pakistan_123102132_92948", "height": 2.547957420349121, "hmax": 0.001, "ratio": 0.0, "vulnClass": "none"}}, {"type": "Feature", "geometry": {"type": "MultiPolygon", "coordinates": [[[[71.93411656, 34.56829073], [71.93398499, 34.56824996], [71.93396154, 34.56830128], [71.9340931, 34.56834206], [71.93411656, 34.56829073]]]]}, "properties": {"id": "Pakistan_123102132_299722", "height": 3.77347469329834, "hmax": 0.0, "ratio": 0.0, "vulnClass": "none"}}, {"type": "Feature", "geometry": {"type": "MultiPolygon", "coordinates": [[[[71.93391967, 34.56814277], [71.93389592, 34.56818986], [71.93398836, 34.56822148], [71.93401211, 34.56817439], [71.93391967, 34.56814277]]]]}, "properties": {"id": "Pakistan_123102132_478443", "height": 3.586327075958252, "hmax": 0.0, "ratio": 0.0, "vulnClass": "none"}}, {"type": "Feature", "geometry": {"type": "MultiPolygon", "coordinates": [[[[71.93437176, 34.56835471], [71.93429572, 34.56831818], [71.93423913, 34.56839805], [71.93431518, 34.56843458], [71.93437176, 34.56835471]]]]}, "properties": {"id": "Pakistan_123102132_496810", "height": 4.036289215087891, "hmax": 0.0, "ratio": 0.0, "vulnClass": "none"}}, {"type": "Feature", "geometry": {"type": "MultiPolygon", "coordinates": [[[[71.93657462, 34.56696153], [71.93656552, 34.56700667], [71.93662295, 34.56701452], [71.93663204, 34.56696938], [71.93657462, 34.56696153]]]]}, "properties": {"id": "Pakistan_123102132_416741", "height": 2.657425165176392, "hmax": 0.014, "ratio": 0.005, "vulnClass": "none"}}, {"type": "Feature", "geometry": {"type": "MultiPolygon", "coordinates": [[[[71.93673553, 34.56737543], [71.93673603, 34.5674196], [71.93679352, 34.56741916], [71.93679303, 34.56737499], [71.93673553, 34.56737543]]]]}, "properties": {"id": "Pakistan_123102132_16366", "height": 3.375423431396484, "hmax": 0.007, "ratio": 0.002, "vulnClass": "none"}}, {"type": "Feature", "geometry": {"type": "MultiPolygon", "coordinates": [[[[71.93488757, 34.56518097], [71.93498799, 34.56518406], [71.93499044, 34.56513014], [71.93489002, 34.56512704], [71.93488757, 34.56518097]]]]}, "properties": {"id": "Pakistan_123102132_265862", "height": 3.271816968917847, "hmax": 2.396, "ratio": 0.732, "vulnClass": "high"}}, {"type": "Feature", "geometry": {"type": "MultiPolygon", "coordinates": [[[[71.93226675, 34.56501333], [71.93227374, 34.56490984], [71.93223898, 34.56490824], [71.93224701, 34.56478934], [71.93220958, 34.56478762], [71.93221984, 34.56463569], [71.93228134, 34.56463851], [71.93228573, 34.56457351], [71.93210926, 34.56456541], [71.93210977, 34.56455776], [71.93202955, 34.56455408], [71.93203685, 34.56444618], [71.93183897, 34.56443712], [71.93183258, 34.5645318], [71.93183792, 34.56453205], [71.9318206, 34.56478851], [71.9318714, 34.56479084], [71.93186626, 34.56486687], [71.93198926, 34.5648725], [71.93198495, 34.56493636], [71.93186462, 34.56493085], [71.93186194, 34.56497048], [71.93192345, 34.5649733], [71.93192181, 34.56499752], [71.93226675, 34.56501333]]]]}, "properties": {"id": "Pakistan_123102132_506106", "height": 4.110860347747803, "hmax": 0.001, "ratio": 0.0, "vulnClass": "none"}}, {"type": "Feature", "geometry": {"type": "MultiPolygon", "coordinates": [[[[71.93180905, 34.56427321], [71.93181153, 34.56422471], [71.93174315, 34.56422233], [71.93174068, 34.56427084], [71.93180905, 34.56427321]]]]}, "properties": {"id": "Pakistan_123102132_521361", "height": 3.581472158432007, "hmax": 0.002, "ratio": 0.001, "vulnClass": "none"}}, {"type": "Feature", "geometry": {"type": "MultiPolygon", "coordinates": [[[[71.9319448, 34.56422157], [71.93187415, 34.56421235], [71.9318526, 34.5643244], [71.93192325, 34.56433361], [71.9319448, 34.56422157]]]]}, "properties": {"id": "Pakistan_123102132_309017", "height": 3.963828086853027, "hmax": 0.002, "ratio": 0.001, "vulnClass": "none"}}, {"type": "Feature", "geometry": {"type": "MultiPolygon", "coordinates": [[[[71.93191953, 34.56434201], [71.93196037, 34.56434679], [71.93195515, 34.5643771], [71.93206295, 34.5643897], [71.93208141, 34.56428258], [71.93193276, 34.56426521], [71.93191953, 34.56434201]]]]}, "properties": {"id": "Pakistan_123102132_342772", "height": 4.859041213989258, "hmax": 0.001, "ratio": 0.0, "vulnClass": "none"}}, {"type": "Feature", "geometry": {"type": "MultiPolygon", "coordinates": [[[[71.93202392, 34.56388666], [71.93200127, 34.56406031], [71.93202657, 34.56406254], [71.93202087, 34.56410622], [71.93209511, 34.56411278], [71.93209169, 34.56413899], [71.93184631, 34.56411728], [71.93184232, 34.56414785], [71.93188475, 34.5641516], [71.9318792, 34.56419412], [71.93212192, 34.56421561], [71.93213418, 34.56412171], [71.93217517, 34.56412534], [71.93219012, 34.56401075], [71.93217035, 34.564009], [71.93218447, 34.56390087], [71.93202392, 34.56388666]]]]}, "properties": {"id": "Pakistan_123102132_450607", "height": 4.652567386627197, "hmax": 0.002, "ratio": 0.0, "vulnClass": "none"}}, {"type": "Feature", "geometry": {"type": "MultiPolygon", "coordinates": [[[[71.93073882, 34.5632729], [71.93082512, 34.56331598], [71.93090003, 34.56321422], [71.93081373, 34.56317114], [71.93073882, 34.5632729]]]]}, "properties": {"id": "Pakistan_123102132_130144", "height": 3.16661548614502, "hmax": 0.001, "ratio": 0.0, "vulnClass": "none"}}, {"type": "Feature", "geometry": {"type": "MultiPolygon", "coordinates": [[[[71.93069613, 34.56315092], [71.93069731, 34.56319065], [71.93076012, 34.56318938], [71.93075894, 34.56314965], [71.93069613, 34.56315092]]]]}, "properties": {"id": "Pakistan_123102132_111500", "height": 5.395449161529541, "hmax": 0.001, "ratio": 0.0, "vulnClass": "none"}}, {"type": "Feature", "geometry": {"type": "MultiPolygon", "coordinates": [[[[71.93057553, 34.56278767], [71.93103075, 34.56280292], [71.93103717, 34.56267281], [71.93058195, 34.56265757], [71.93057553, 34.56278767]]]]}, "properties": {"id": "Pakistan_123102132_96053", "height": 4.771554946899414, "hmax": 0.001, "ratio": 0.0, "vulnClass": "none"}}, {"type": "Feature", "geometry": {"type": "MultiPolygon", "coordinates": [[[[71.92981239, 34.56273416], [71.92981487, 34.56280791], [71.93001744, 34.5628033], [71.93001497, 34.56272953], [71.92981239, 34.56273416]]]]}, "properties": {"id": "Pakistan_123102132_62451", "height": 4.356205463409424, "hmax": 0.001, "ratio": 0.0, "vulnClass": "none"}}, {"type": "Feature", "geometry": {"type": "MultiPolygon", "coordinates": [[[[71.93022302, 34.56276444], [71.93005149, 34.56276052], [71.93004904, 34.56283336], [71.93022057, 34.56283727], [71.93022302, 34.56276444]]]]}, "properties": {"id": "Pakistan_123102132_59395", "height": 3.855835437774658, "hmax": 0.001, "ratio": 0.0, "vulnClass": "none"}}, {"type": "Feature", "geometry": {"type": "MultiPolygon", "coordinates": [[[[71.93068209, 34.56340957], [71.93055643, 34.56337876], [71.93052563, 34.56346398], [71.93060447, 34.56348331], [71.9305964, 34.56350562], [71.93071712, 34.56353522], [71.93074092, 34.5634694], [71.93066701, 34.56345128], [71.93068209, 34.56340957]]]]}, "properties": {"id": "Pakistan_123102132_327321", "height": 5.984543323516846, "hmax": 0.005, "ratio": 0.001, "vulnClass": "none"}}, {"type": "Feature", "geometry": {"type": "MultiPolygon", "coordinates": [[[[71.9313276, 34.56361139], [71.93128289, 34.56359262], [71.931253, 34.56364092], [71.93119456, 34.5636164], [71.93115659, 34.56367777], [71.93125975, 34.56372106], [71.9313276, 34.56361139]]]]}, "properties": {"id": "Pakistan_123102132_219686", "height": 8.116436004638672, "hmax": 0.003, "ratio": 0.0, "vulnClass": "none"}}, {"type": "Feature", "geometry": {"type": "MultiPolygon", "coordinates": [[[[71.93095022, 34.5638439], [71.93100302, 34.56392415], [71.93099058, 34.5639297], [71.93101592, 34.56396821], [71.93106775, 34.56394508], [71.93105365, 34.56392365], [71.9310972, 34.56390422], [71.93111293, 34.56392813], [71.93116062, 34.56390685], [71.93111681, 34.56384025], [71.93113339, 34.56383285], [71.93109744, 34.56377821], [71.93095022, 34.5638439]]]]}, "properties": {"id": "Pakistan_123102132_210599", "height": 2.657151460647583, "hmax": 0.003, "ratio": 0.001, "vulnClass": "none"}}, {"type": "Feature", "geometry": {"type": "MultiPolygon", "coordinates": [[[[71.93083232, 34.56396273], [71.93088414, 34.56398247], [71.93092457, 34.56391051], [71.93087276, 34.56389076], [71.93083232, 34.56396273]]]]}, "properties": {"id": "Pakistan_123102132_339716", "height": 2.768413066864014, "hmax": 0.003, "ratio": 0.001, "vulnClass": "none"}}, {"type": "Feature", "geometry": {"type": "MultiPolygon", "coordinates": [[[[71.93163559, 34.56546079], [71.93162835, 34.56541414], [71.93149904, 34.56542776], [71.93150627, 34.5654744], [71.93163559, 34.56546079]]]]}, "properties": {"id": "Pakistan_123102132_176543", "height": 2.976773500442505, "hmax": 0.001, "ratio": 0.0, "vulnClass": "none"}}, {"type": "Feature", "geometry": {"type": "MultiPolygon", "coordinates": [[[[71.93169769, 34.565258], [71.9315985, 34.56525994], [71.93160138, 34.56535928], [71.93173809, 34.5653566], [71.9317365, 34.56530141], [71.93169897, 34.56530215], [71.93169769, 34.565258]]]]}, "properties": {"id": "Pakistan_123102132_148583", "height": 2.601735591888428, "hmax": 0.001, "ratio": 0.0, "vulnClass": "none"}}, {"type": "Feature", "geometry": {"type": "MultiPolygon", "coordinates": [[[[71.93166532, 34.56493198], [71.931576, 34.56492133], [71.9315678, 34.56496792], [71.93165712, 34.56497857], [71.93166532, 34.56493198]]]]}, "properties": {"id": "Pakistan_123102132_597766", "height": 4.007288932800293, "hmax": 0.001, "ratio": 0.0, "vulnClass": "none"}}, {"type": "Feature", "geometry": {"type": "MultiPolygon", "coordinates": [[[[71.93102192, 34.56482195], [71.9315781, 34.56486831], [71.93158481, 34.56481365], [71.93149857, 34.56480646], [71.93150326, 34.56476828], [71.93133865, 34.56475457], [71.93133731, 34.5647655], [71.93116739, 34.56475135], [71.93116377, 34.56478076], [71.93102837, 34.56476948], [71.93102192, 34.56482195]]]]}, "properties": {"id": "Pakistan_123102132_191956", "height": 8.67689037322998, "hmax": 0.001, "ratio": 0.0, "vulnClass": "none"}}, {"type": "Feature", "geometry": {"type": "MultiPolygon", "coordinates": [[[[71.9312118, 34.56461645], [71.93127161, 34.56462518], [71.93125687, 34.56469371], [71.93154033, 34.56473508], [71.93156706, 34.56461087], [71.93154105, 34.56460707], [71.93156686, 34.56448715], [71.93145503, 34.56447083], [71.9314366, 34.56455649], [71.93140403, 34.56455174], [71.93140955, 34.56452604], [71.93123669, 34.56450081], [71.9312118, 34.56461645]]]]}, "properties": {"id": "Pakistan_123102132_364288", "height": 5.470134258270264, "hmax": 0.001, "ratio": 0.0, "vulnClass": "none"}}, {"type": "Feature", "geometry": {"type": "MultiPolygon", "coordinates": [[[[71.93186326, 34.56480456], [71.93183646, 34.56480407], [71.93183489, 34.56486147], [71.9318617, 34.56486196], [71.93186326, 34.56480456]]]]}, "properties": {"id": "Pakistan_123102132_151706", "height": 3.50145149230957, "hmax": 0.001, "ratio": 0.0, "vulnClass": "none"}}, {"type": "Feature", "geometry": {"type": "MultiPolygon", "coordinates": [[[[71.93181153, 34.5648525], [71.93181412, 34.56480621], [71.93177001, 34.56480453], [71.93176741, 34.56485082], [71.93181153, 34.5648525]]]]}, "properties": {"id": "Pakistan_123102132_603911", "height": 3.167470455169678, "hmax": 0.001, "ratio": 0.0, "vulnClass": "none"}}, {"type": "Feature", "geometry": {"type": "MultiPolygon", "coordinates": [[[[71.93195062, 34.56559823], [71.93216984, 34.56564186], [71.93219127, 34.56556881], [71.93209876, 34.5655504], [71.93211407, 34.56549823], [71.93200384, 34.5654763], [71.93201119, 34.56545125], [71.93185407, 34.56541998], [71.93183202, 34.56549511], [71.9318941, 34.56550747], [71.93188308, 34.56554503], [71.93196164, 34.56556066], [71.93195062, 34.56559823]]]]}, "properties": {"id": "Pakistan_123102132_59404", "height": 5.488052845001221, "hmax": 0.002, "ratio": 0.0, "vulnClass": "none"}}, {"type": "Feature", "geometry": {"type": "MultiPolygon", "coordinates": [[[[71.93182481, 34.56574281], [71.93182373, 34.56570203], [71.93181705, 34.56570215], [71.93181243, 34.56552774], [71.931732, 34.56552919], [71.93173771, 34.56574437], [71.93182481, 34.56574281]]]]}, "properties": {"id": "Pakistan_123102132_99054", "height": 4.06479024887085, "hmax": 0.002, "ratio": 0.001, "vulnClass": "none"}}, {"type": "Feature", "geometry": {"type": "MultiPolygon", "coordinates": [[[[71.93169015, 34.56594152], [71.93217483, 34.56599544], [71.93218354, 34.56594234], [71.93214013, 34.56593751], [71.93215044, 34.5658746], [71.93211093, 34.56587021], [71.93211716, 34.5658322], [71.9320276, 34.56582224], [71.93201532, 34.56589713], [71.93201268, 34.56589684], [71.93201624, 34.56587514], [71.93170669, 34.56584073], [71.93169015, 34.56594152]]]]}, "properties": {"id": "Pakistan_123102132_53177", "height": 4.88989782333374, "hmax": 0.002, "ratio": 0.0, "vulnClass": "none"}}, {"type": "Feature", "geometry": {"type": "MultiPolygon", "coordinates": [[[[71.93190161, 34.5657037], [71.93189522, 34.56576837], [71.93195651, 34.56577248], [71.9319629, 34.56570781], [71.93190161, 34.5657037]]]]}, "properties": {"id": "Pakistan_123102132_185893", "height": 2.860420703887939, "hmax": 0.002, "ratio": 0.001, "vulnClass": "none"}}, {"type": "Feature", "geometry": {"type": "MultiPolygon", "coordinates": [[[[71.93239186, 34.56648024], [71.9326525, 34.56650966], [71.93265972, 34.5664663], [71.9328993, 34.56649333], [71.93292382, 34.56634591], [71.93228529, 34.56627385], [71.93227464, 34.56633785], [71.93228394, 34.5663389], [71.93227331, 34.56640281], [71.93240231, 34.56641737], [71.93239186, 34.56648024]]]]}, "properties": {"id": "Pakistan_123102132_253475", "height": 3.686107158660889, "hmax": 0.002, "ratio": 0.001, "vulnClass": "none"}}, {"type": "Feature", "geometry": {"type": "MultiPolygon", "coordinates": [[[[71.93236031, 34.56600044], [71.93235297, 34.56603471], [71.9324024, 34.56604189], [71.93240974, 34.56600761], [71.93236031, 34.56600044]]]]}, "properties": {"id": "Pakistan_123102132_34657", "height": 2.816619873046875, "hmax": 0.002, "ratio": 0.001, "vulnClass": "none"}}, {"type": "Feature", "geometry": {"type": "MultiPolygon", "coordinates": [[[[71.93240408, 34.56608916], [71.93235627, 34.56608528], [71.93234933, 34.56614329], [71.93239715, 34.56614717], [71.93240408, 34.56608916]]]]}, "properties": {"id": "Pakistan_123102132_154764", "height": 2.588817596435547, "hmax": 0.002, "ratio": 0.001, "vulnClass": "none"}}, {"type": "Feature", "geometry": {"type": "MultiPolygon", "coordinates": [[[[71.93216236, 34.5660282], [71.93201014, 34.56600326], [71.93199269, 34.5660755], [71.93214492, 34.56610044], [71.93216236, 34.5660282]]]]}, "properties": {"id": "Pakistan_123102132_40807", "height": 3.101492404937744, "hmax": 0.002, "ratio": 0.001, "vulnClass": "none"}}, {"type": "Feature", "geometry": {"type": "MultiPolygon", "coordinates": [[[[71.93177282, 34.56604622], [71.93192239, 34.56607589], [71.93193827, 34.56602161], [71.9317887, 34.56599194], [71.93177282, 34.56604622]]]]}, "properties": {"id": "Pakistan_123102132_509155", "height": 5.094558715820312, "hmax": 0.002, "ratio": 0.0, "vulnClass": "none"}}, {"type": "Feature", "geometry": {"type": "MultiPolygon", "coordinates": [[[[71.93192348, 34.5660933], [71.93171893, 34.56607671], [71.9317116, 34.56613796], [71.93191615, 34.56615455], [71.93192348, 34.5660933]]]]}, "properties": {"id": "Pakistan_123102132_450605", "height": 3.909449577331543, "hmax": 0.002, "ratio": 0.001, "vulnClass": "none"}}, {"type": "Feature", "geometry": {"type": "MultiPolygon", "coordinates": [[[[71.93198343, 34.56621186], [71.93188825, 34.56620918], [71.93188408, 34.5663095], [71.93206232, 34.56631452], [71.93206483, 34.56625391], [71.93198178, 34.56625157], [71.93198343, 34.56621186]]]]}, "properties": {"id": "Pakistan_123102132_86812", "height": 2.898484945297241, "hmax": 0.002, "ratio": 0.001, "vulnClass": "none"}}, {"type": "Feature", "geometry": {"type": "MultiPolygon", "coordinates": [[[[71.93209785, 34.56619479], [71.93206167, 34.56629891], [71.93217936, 34.56632664], [71.93221555, 34.56622252], [71.93209785, 34.56619479]]]]}, "properties": {"id": "Pakistan_123102132_213615", "height": 4.278473377227783, "hmax": 0.002, "ratio": 0.001, "vulnClass": "none"}}, {"type": "Feature", "geometry": {"type": "MultiPolygon", "coordinates": [[[[71.9317025, 34.56592585], [71.9316773, 34.56581487], [71.9316177, 34.56582405], [71.9316114, 34.5657963], [71.93149737, 34.56581386], [71.93152886, 34.56595258], [71.9317025, 34.56592585]]]]}, "properties": {"id": "Pakistan_123102132_453735", "height": 5.754019260406494, "hmax": 0.001, "ratio": 0.0, "vulnClass": "none"}}, {"type": "Feature", "geometry": {"type": "MultiPolygon", "coordinates": [[[[71.9315534, 34.56570673], [71.93153837, 34.56566392], [71.9314876, 34.56567601], [71.93150262, 34.56571881], [71.9315534, 34.56570673]]]]}, "properties": {"id": "Pakistan_123102132_275053", "height": 3.191945552825928, "hmax": 0.001, "ratio": 0.0, "vulnClass": "none"}}, {"type": "Feature", "geometry": {"type": "MultiPolygon", "coordinates": [[[[71.93173054, 34.56555501], [71.93156085, 34.56557008], [71.9315707, 34.56564532], [71.93174039, 34.56563026], [71.93173054, 34.56555501]]]]}, "properties": {"id": "Pakistan_123102132_127000", "height": 2.851797342300415, "hmax": 0.001, "ratio": 0.0, "vulnClass": "none"}}, {"type": "Feature", "geometry": {"type": "MultiPolygon", "coordinates": [[[[71.93169988, 34.56550505], [71.93160474, 34.56550714], [71.93160527, 34.56552362], [71.93153022, 34.56552526], [71.93153148, 34.56556397], [71.93170166, 34.56556023], [71.93169988, 34.56550505]]]]}, "properties": {"id": "Pakistan_123102132_201234", "height": 2.754124402999878, "hmax": 0.001, "ratio": 0.0, "vulnClass": "none"}}]}