{"type": "FeatureCollection", "features": [{"type": "Feature", "geometry": {"type": "MultiPolygon", "coordinates": [[[[72.03243789, 34.06220527], [72.03240713, 34.06220831], [72.03241709, 34.06227735], [72.03248486, 34.06227065], [72.03247633, 34.0622115], [72.03250014, 34.06220914], [72.03248418, 34.06209847], [72.03242336, 34.06210449], [72.03243789, 34.06220527]]]]}, "properties": {"id": "Pakistan_123102310_267778", "height": 3.290812015533447, "hmax": 1.368, "ratio": 0.416, "vulnClass": "moderate"}}, {"type": "Feature", "geometry": {"type": "MultiPolygon", "coordinates": [[[[72.03135284, 34.06212942], [72.03137987, 34.06222881], [72.03155505, 34.0621961], [72.03153866, 34.06213582], [72.03148761, 34.06214535], [72.03147697, 34.06210625], [72.03135284, 34.06212942]]]]}, "properties": {"id": "Pakistan_123102310_939076", "height": 2.542868137359619, "hmax": 2.533, "ratio": 0.996, "vulnClass": "high"}}, {"type": "Feature", "geometry": {"type": "MultiPolygon", "coordinates": [[[[72.03187731, 34.06206629], [72.0318797, 34.06211287], [72.0320109, 34.06210825], [72.03200851, 34.06206168], [72.03187731, 34.06206629]]]]}, "properties": {"id": "Pakistan_123102310_192274", "height": 3.380560398101807, "hmax": 2.533, "ratio": 0.749, "vulnClass": "high"}}, {"type": "Feature", "geometry": {"type": "MultiPolygon", "coordinates": [[[[72.03187049, 34.06207995], [72.03174724, 34.06208326], [72.03175254, 34.06221866], [72.0318222, 34.06221679], [72.03182081, 34.06218128], [72.0318744, 34.06217984], [72.03187049, 34.06207995]]]]}, "properties": {"id": "Pakistan_123102310_155637", "height": 3.641992092132568, "hmax": 2.533, "ratio": 0.696, "vulnClass": "high"}}, {"type": "Feature", "geometry": {"type": "MultiPolygon", "coordinates": [[[[72.03206418, 34.06220863], [72.03207261, 34.06226329], [72.03213331, 34.06225686], [72.03212487, 34.0622022], [72.03206418, 34.06220863]]]]}, "properties": {"id": "Pakistan_123102310_89205", "height": 5.337613582611084, "hmax": 2.533, "ratio": 0.475, "vulnClass": "moderate"}}, {"type": "Feature", "geometry": {"type": "MultiPolygon", "coordinates": [[[[72.03226831, 34.06222551], [72.03214443, 34.06225865], [72.03217502, 34.06233712], [72.03234991, 34.06229034], [72.03229814, 34.06215753], [72.03224713, 34.06217118], [72.03226831, 34.06222551]]]]}, "properties": {"id": "Pakistan_123102310_479458", "height": 3.611395835876465, "hmax": 2.533, "ratio": 0.701, "vulnClass": "high"}}, {"type": "Feature", "geometry": {"type": "MultiPolygon", "coordinates": [[[[72.03222536, 34.06211959], [72.03213008, 34.06214556], [72.03211097, 34.06209745], [72.03206499, 34.06210998], [72.03210122, 34.06220122], [72.03224249, 34.06216271], [72.03222536, 34.06211959]]]]}, "properties": {"id": "Pakistan_123102310_116880", "height": 3.854526519775391, "hmax": 2.533, "ratio": 0.657, "vulnClass": "high"}}, {"type": "Feature", "geometry": {"type": "MultiPolygon", "coordinates": [[[[72.03169099, 34.06192425], [72.03156606, 34.06192803], [72.03156984, 34.06201348], [72.03159662, 34.06201267], [72.0316, 34.06208921], [72.03149822, 34.06209229], [72.03150003, 34.06213337], [72.03155896, 34.06213158], [72.03156151, 34.06218928], [72.03173294, 34.06218408], [72.03172887, 34.06209198], [72.03169842, 34.0620929], [72.03169099, 34.06192425]]]]}, "properties": {"id": "Pakistan_123102310_522131", "height": 2.593072414398193, "hmax": 2.51, "ratio": 0.968, "vulnClass": "high"}}, {"type": "Feature", "geometry": {"type": "MultiPolygon", "coordinates": [[[[72.03186286, 34.06157557], [72.03184817, 34.06147483], [72.03160231, 34.06149945], [72.03161701, 34.06160019], [72.03186286, 34.06157557]]]]}, "properties": {"id": "Pakistan_123102310_22092", "height": 3.523707151412964, "hmax": 1.482, "ratio": 0.421, "vulnClass": "moderate"}}, {"type": "Feature", "geometry": {"type": "MultiPolygon", "coordinates": [[[[72.03247834, 34.06068359], [72.0324739, 34.06072216], [72.03252706, 34.06072636], [72.0325315, 34.06068778], [72.03247834, 34.06068359]]]]}, "properties": {"id": "Pakistan_123102310_702294", "height": 3.271159172058105, "hmax": 0.627, "ratio": 0.192, "vulnClass": "low"}}, {"type": "Feature", "geometry": {"type": "MultiPolygon", "coordinates": [[[[72.03246821, 34.06081123], [72.03247251, 34.06085986], [72.03258456, 34.06085306], [72.03258027, 34.06080444], [72.03246821, 34.06081123]]]]}, "properties": {"id": "Pakistan_123102310_853874", "height": 4.324414730072021, "hmax": 0.627, "ratio": 0.145, "vulnClass": "low"}}, {"type": "Feature", "geometry": {"type": "MultiPolygon", "coordinates": [[[[72.02519528, 34.05410873], [72.02513557, 34.05420402], [72.02515614, 34.05422222], [72.02506968, 34.05418503], [72.0249793, 34.05432929], [72.02502235, 34.05405578], [72.02508529, 34.05408285], [72.02514979, 34.05403282], [72.02507423, 34.05400032], [72.02499311, 34.05406324], [72.02484177, 34.05430479], [72.02492859, 34.05434213], [72.02482639, 34.05433108], [72.02473954, 34.05446971], [72.02493939, 34.05455566], [72.025043, 34.0543903], [72.02541643, 34.05472076], [72.02550691, 34.05457634], [72.0254611, 34.05453579], [72.02540412, 34.05457998], [72.02534506, 34.05455458], [72.02534639, 34.05454614], [72.0254315, 34.05448013], [72.02526948, 34.05433675], [72.02510488, 34.05431896], [72.02514267, 34.05425865], [72.02537648, 34.0543592], [72.02540815, 34.05433464], [72.02531726, 34.0542542], [72.02532322, 34.0542163], [72.02525037, 34.05418497], [72.02526126, 34.05411586], [72.02519528, 34.05410873]]]]}, "properties": {"id": "Pakistan_123102310_659400", "height": 3.196424961090088, "hmax": 6.968, "ratio": 2.18, "vulnClass": "very_high"}}, {"type": "Feature", "geometry": {"type": "MultiPolygon", "coordinates": [[[[72.02636451, 34.0564972], [72.02628672, 34.0564972], [72.02628672, 34.05663497], [72.02636451, 34.05663497], [72.02636451, 34.0564972]]]]}, "properties": {"id": "Pakistan_123102310_811327", "height": 2.507008790969849, "hmax": 6.702, "ratio": 2.673, "vulnClass": "very_high"}}, {"type": "Feature", "geometry": {"type": "MultiPolygon", "coordinates": [[[[72.02634465, 34.05646549], [72.02658041, 34.05657593], [72.02663056, 34.05650245], [72.02639481, 34.056392], [72.02634465, 34.05646549]]]]}, "properties": {"id": "Pakistan_123102310_649731", "height": 2.490046977996826, "hmax": 6.702, "ratio": 2.691, "vulnClass": "very_high"}}, {"type": "Feature", "geometry": {"type": "MultiPolygon", "coordinates": [[[[72.02032941, 34.06145043], [72.02019712, 34.06127602], [72.01976708, 34.06149988], [72.01990602, 34.06168308], [72.02005987, 34.061603], [72.01997949, 34.06149702], [72.01999872, 34.06148701], [72.02007243, 34.0615842], [72.02032941, 34.06145043]]]]}, "properties": {"id": "Pakistan_123102310_910694", "height": 3.499074459075928, "hmax": 0.337, "ratio": 0.096, "vulnClass": "low"}}, {"type": "Feature", "geometry": {"type": "MultiPolygon", "coordinates": [[[[72.02069297, 34.06097663], [72.02051965, 34.06104436], [72.02063453, 34.06124612], [72.02079908, 34.06118181], [72.02075664, 34.06110729], [72.02076542, 34.06110386], [72.02069297, 34.06097663]]]]}, "properties": {"id": "Pakistan_123102310_550180", "height": 3.042513370513916, "hmax": 0.758, "ratio": 0.249, "vulnClass": "low"}}, {"type": "Feature", "geometry": {"type": "MultiPolygon", "coordinates": [[[[72.01909032, 34.06276293], [72.01844521, 34.06186818], [72.01835881, 34.06209221], [72.01835814, 34.06209203], [72.01827853, 34.06213142], [72.01833111, 34.06230993], [72.01789571, 34.06239796], [72.01800805, 34.06277929], [72.0183609, 34.06287269], [72.01841611, 34.06272954], [72.01808972, 34.06264315], [72.01803904, 34.0626534], [72.01799439, 34.06250185], [72.01816293, 34.06241845], [72.0182204, 34.06261348], [72.01831955, 34.06256441], [72.01842397, 34.06270925], [72.01873831, 34.06255371], [72.01905422, 34.06299189], [72.01917726, 34.062931], [72.01940319, 34.0629908], [72.01928636, 34.06282878], [72.01928685, 34.06282891], [72.01945975, 34.06274335], [72.01963022, 34.06297978], [72.01987683, 34.06304506], [72.01948476, 34.06250133], [72.01935706, 34.06246753], [72.01919402, 34.0625482], [72.01928086, 34.06266864], [72.01909032, 34.06276293]]]]}, "properties": {"id": "Pakistan_123102310_450760", "height": 5.988980293273926, "hmax": 0.015, "ratio": 0.003, "vulnClass": "none"}}, {"type": "Feature", "geometry": {"type": "MultiPolygon", "coordinates": [[[[72.01919746, 34.06196635], [72.01954988, 34.06176586], [72.01951608, 34.06172509], [72.01959263, 34.06168154], [72.01956008, 34.06164228], [72.01913112, 34.06188633], [72.01919746, 34.06196635]]]]}, "properties": {"id": "Pakistan_123102310_31320", "height": 2.975647449493408, "hmax": 0.017, "ratio": 0.006, "vulnClass": "none"}}, {"type": "Feature", "geometry": {"type": "MultiPolygon", "coordinates": [[[[72.01817622, 34.06212347], [72.01816221, 34.06210509], [72.01810853, 34.06213318], [72.0181279, 34.0621586], [72.0181049, 34.06217064], [72.01815092, 34.06223099], [72.01827362, 34.06216678], [72.01822223, 34.06209939], [72.01817622, 34.06212347]]]]}, "properties": {"id": "Pakistan_123102310_867988", "height": 2.536195993423462, "hmax": 0.004, "ratio": 0.002, "vulnClass": "none"}}, {"type": "Feature", "geometry": {"type": "MultiPolygon", "coordinates": [[[[72.02946138, 34.06758495], [72.02964947, 34.06760709], [72.02965823, 34.06755603], [72.02952414, 34.06754026], [72.02954094, 34.06744225], [72.02948695, 34.0674359], [72.02946138, 34.06758495]]]]}, "properties": {"id": "Pakistan_123102310_484112", "height": 5.196264266967773, "hmax": 3.661, "ratio": 0.705, "vulnClass": "high"}}, {"type": "Feature", "geometry": {"type": "MultiPolygon", "coordinates": [[[[72.02968966, 34.0675132], [72.02969236, 34.06746344], [72.02964418, 34.06746165], [72.02964148, 34.06751141], [72.02968966, 34.0675132]]]]}, "properties": {"id": "Pakistan_123102310_351736", "height": 4.378795623779297, "hmax": 3.661, "ratio": 0.836, "vulnClass": "high"}}, {"type": "Feature", "geometry": {"type": "MultiPolygon", "coordinates": [[[[72.02970622, 34.06757368], [72.02977982, 34.06757536], [72.02978226, 34.06750209], [72.02970865, 34.06750041], [72.02970622, 34.06757368]]]]}, "properties": {"id": "Pakistan_123102310_259433", "height": 4.006116390228271, "hmax": 3.661, "ratio": 0.914, "vulnClass": "high"}}, {"type": "Feature", "geometry": {"type": "MultiPolygon", "coordinates": [[[[72.02991286, 34.06748872], [72.0298153, 34.06748467], [72.02981262, 34.06752899], [72.02991018, 34.06753304], [72.02991286, 34.06748872]]]]}, "properties": {"id": "Pakistan_123102310_22050", "height": 2.567682266235352, "hmax": 3.661, "ratio": 1.426, "vulnClass": "very_high"}}, {"type": "Feature", "geometry": {"type": "MultiPolygon", "coordinates": [[[[72.02980557, 34.06760355], [72.02980359, 34.0676457], [72.02994163, 34.06765013], [72.0299436, 34.06760798], [72.02980557, 34.06760355]]]]}, "properties": {"id": "Pakistan_123102310_820786", "height": 2.862767457962036, "hmax": 3.661, "ratio": 1.279, "vulnClass": "very_high"}}, {"type": "Feature", "geometry": {"type": "MultiPolygon", "coordinates": [[[[72.03004311, 34.06748459], [72.03017879, 34.0674994], [72.03018852, 34.06743824], [72.03005284, 34.06742344], [72.03004311, 34.06748459]]]]}, "properties": {"id": "Pakistan_123102310_654618", "height": 6.575464725494385, "hmax": 2.704, "ratio": 0.411, "vulnClass": "moderate"}}, {"type": "Feature", "geometry": {"type": "MultiPolygon", "coordinates": [[[[72.0306892, 34.06743248], [72.03056266, 34.06741863], [72.03054942, 34.06750161], [72.03047825, 34.06749382], [72.03048312, 34.06746324], [72.03040404, 34.06745459], [72.03039951, 34.06748298], [72.03033219, 34.06747561], [72.03032348, 34.0675302], [72.03075196, 34.0675771], [72.03076206, 34.06751377], [72.030787, 34.0675165], [72.03079781, 34.06744881], [72.0306885, 34.06743684], [72.0306892, 34.06743248]]]]}, "properties": {"id": "Pakistan_123102310_183733", "height": 4.402160167694092, "hmax": 2.704, "ratio": 0.614, "vulnClass": "high"}}, {"type": "Feature", "geometry": {"type": "MultiPolygon", "coordinates": [[[[72.03076356, 34.06752332], [72.0307601, 34.06759993], [72.03089938, 34.06760424], [72.03090284, 34.06752764], [72.03076356, 34.06752332]]]]}, "properties": {"id": "Pakistan_123102310_258552", "height": 5.127050876617432, "hmax": 2.704, "ratio": 0.527, "vulnClass": "moderate"}}, {"type": "Feature", "geometry": {"type": "MultiPolygon", "coordinates": [[[[72.03074947, 34.06764294], [72.03075297, 34.06761435], [72.0307064, 34.06761044], [72.03069779, 34.06768082], [72.0308957, 34.06769743], [72.03090081, 34.06765565], [72.03074947, 34.06764294]]]]}, "properties": {"id": "Pakistan_123102310_905943", "height": 5.489636421203613, "hmax": 2.704, "ratio": 0.493, "vulnClass": "moderate"}}, {"type": "Feature", "geometry": {"type": "MultiPolygon", "coordinates": [[[[72.03051013, 34.06763294], [72.03056999, 34.0676416], [72.03058251, 34.06758224], [72.03044577, 34.06756244], [72.03044052, 34.06758731], [72.0305174, 34.06759844], [72.03051013, 34.06763294]]]]}, "properties": {"id": "Pakistan_123102310_32689", "height": 3.715574741363525, "hmax": 2.704, "ratio": 0.728, "vulnClass": "high"}}, {"type": "Feature", "geometry": {"type": "MultiPolygon", "coordinates": [[[[72.03121544, 34.06760744], [72.0311635, 34.06756638], [72.03107042, 34.06764717], [72.03112235, 34.06768823], [72.03121544, 34.06760744]]]]}, "properties": {"id": "Pakistan_123102310_51717", "height": 5.305448055267334, "hmax": 1.988, "ratio": 0.375, "vulnClass": "moderate"}}, {"type": "Feature", "geometry": {"type": "MultiPolygon", "coordinates": [[[[72.03124081, 34.06734522], [72.03122638, 34.06730552], [72.03118326, 34.06731628], [72.03119769, 34.06735597], [72.03124081, 34.06734522]]]]}, "properties": {"id": "Pakistan_123102310_488776", "height": 4.814600944519043, "hmax": 3.292, "ratio": 0.684, "vulnClass": "high"}}, {"type": "Feature", "geometry": {"type": "MultiPolygon", "coordinates": [[[[72.03056797, 34.0674285], [72.03072912, 34.06741783], [72.03072954, 34.06742224], [72.03097617, 34.06740591], [72.03095998, 34.06723812], [72.03067747, 34.06725683], [72.03068215, 34.0673054], [72.03071539, 34.0673032], [72.03071837, 34.06733411], [72.03064782, 34.06733878], [72.03063739, 34.0672306], [72.03054943, 34.06723642], [72.03056797, 34.0674285]]]]}, "properties": {"id": "Pakistan_123102310_337456", "height": 6.381737232208252, "hmax": 3.588, "ratio": 0.562, "vulnClass": "moderate"}}, {"type": "Feature", "geometry": {"type": "MultiPolygon", "coordinates": [[[[72.03086751, 34.06719981], [72.03084035, 34.06707379], [72.03072462, 34.0670909], [72.03073297, 34.06712966], [72.03058357, 34.06715175], [72.03059471, 34.06720342], [72.03068691, 34.06718979], [72.03069458, 34.06722539], [72.03086751, 34.06719981]]]]}, "properties": {"id": "Pakistan_123102310_924854", "height": 3.251367807388306, "hmax": 4.809, "ratio": 1.479, "vulnClass": "very_high"}}, {"type": "Feature", "geometry": {"type": "MultiPolygon", "coordinates": [[[[72.02936875, 34.06654866], [72.02936283, 34.06670056], [72.02947269, 34.0667035], [72.0294786, 34.0665516], [72.02936875, 34.06654866]]]]}, "properties": {"id": "Pakistan_123102310_692793", "height": 2.654664993286133, "hmax": 5.101, "ratio": 1.921, "vulnClass": "very_high"}}, {"type": "Feature", "geometry": {"type": "MultiPolygon", "coordinates": [[[[72.03006562, 34.06728879], [72.03020111, 34.06729087], [72.0301996, 34.06735871], [72.03028809, 34.06736006], [72.03028749, 34.06738671], [72.03043228, 34.06738892], [72.03043093, 34.06744992], [72.03054891, 34.06745172], [72.03055451, 34.0671997], [72.03006778, 34.06719228], [72.03006562, 34.06728879]]]]}, "properties": {"id": "Pakistan_123102310_550256", "height": 6.466989994049072, "hmax": 4.019, "ratio": 0.621, "vulnClass": "high"}}, {"type": "Feature", "geometry": {"type": "MultiPolygon", "coordinates": [[[[72.03001416, 34.06747294], [72.03001738, 34.06738759], [72.02995039, 34.06738586], [72.02995189, 34.0673459], [72.02990366, 34.06734466], [72.02989894, 34.06746996], [72.03001416, 34.06747294]]]]}, "properties": {"id": "Pakistan_123102310_356384", "height": 3.79791522026062, "hmax": 3.661, "ratio": 0.964, "vulnClass": "high"}}, {"type": "Feature", "geometry": {"type": "MultiPolygon", "coordinates": [[[[72.02976303, 34.06728074], [72.02971262, 34.06727639], [72.02970736, 34.06731815], [72.02975778, 34.0673225], [72.02976303, 34.06728074]]]]}, "properties": {"id": "Pakistan_123102310_588327", "height": 4.357641696929932, "hmax": 4.244, "ratio": 0.974, "vulnClass": "high"}}, {"type": "Feature", "geometry": {"type": "MultiPolygon", "coordinates": [[[[72.02940455, 34.0672751], [72.02947593, 34.06728221], [72.02948038, 34.06725154], [72.02940899, 34.06724444], [72.02940455, 34.0672751]]]]}, "properties": {"id": "Pakistan_123102310_683326", "height": 5.420281410217285, "hmax": 5.101, "ratio": 0.941, "vulnClass": "high"}}, {"type": "Feature", "geometry": {"type": "MultiPolygon", "coordinates": [[[[72.02906235, 34.06738152], [72.02905917, 34.0674258], [72.02900838, 34.06742329], [72.02900122, 34.06752292], [72.02907606, 34.06752662], [72.0290864, 34.0673827], [72.02906235, 34.06738152]]]]}, "properties": {"id": "Pakistan_123102310_116832", "height": 3.694785594940186, "hmax": 3.661, "ratio": 0.991, "vulnClass": "high"}}, {"type": "Feature", "geometry": {"type": "MultiPolygon", "coordinates": [[[[72.02889977, 34.06748908], [72.0288515, 34.06748849], [72.02885429, 34.06733077], [72.0287953, 34.06733005], [72.02879159, 34.06753886], [72.02889886, 34.06754017], [72.02889977, 34.06748908]]]]}, "properties": {"id": "Pakistan_123102310_258508", "height": 3.691146612167358, "hmax": 4.186, "ratio": 1.134, "vulnClass": "very_high"}}, {"type": "Feature", "geometry": {"type": "MultiPolygon", "coordinates": [[[[72.02880739, 34.0673125], [72.02955753, 34.06740596], [72.02956423, 34.06736902], [72.0293885, 34.06734713], [72.02939639, 34.06730367], [72.02927312, 34.06728831], [72.02928298, 34.06723399], [72.02920692, 34.06722452], [72.02920376, 34.0672419], [72.02908311, 34.06722687], [72.02907302, 34.06728243], [72.0288186, 34.06725074], [72.02880739, 34.0673125]]]]}, "properties": {"id": "Pakistan_123102310_479434", "height": 5.64340877532959, "hmax": 4.039, "ratio": 0.716, "vulnClass": "high"}}, {"type": "Feature", "geometry": {"type": "MultiPolygon", "coordinates": [[[[72.0300697, 34.06711375], [72.02925422, 34.06700685], [72.02924578, 34.06700893], [72.02923032, 34.06696583], [72.02921498, 34.06704615], [72.02929656, 34.06705684], [72.02930228, 34.06707279], [72.02934177, 34.06706306], [72.0293174, 34.06719066], [72.0296157, 34.06722977], [72.02960092, 34.06730713], [72.02955165, 34.06731926], [72.02956248, 34.06734944], [72.02959995, 34.06735435], [72.0295867, 34.06742371], [72.02980912, 34.06745287], [72.02982527, 34.06736833], [72.02980195, 34.06736528], [72.02977839, 34.06737108], [72.02959581, 34.06734714], [72.02969729, 34.06732216], [72.02970548, 34.06727931], [72.02966693, 34.06727425], [72.02964196, 34.06720465], [72.0296503, 34.06716098], [72.02979945, 34.06718053], [72.02977129, 34.06732793], [72.02982624, 34.06733513], [72.02983411, 34.06729395], [72.03004738, 34.0673219], [72.03001979, 34.06724499], [72.03004585, 34.06723858], [72.0300697, 34.06711375]]]]}, "properties": {"id": "Pakistan_123102310_934281", "height": 6.405597686767578, "hmax": 4.851, "ratio": 0.757, "vulnClass": "high"}}, {"type": "Feature", "geometry": {"type": "MultiPolygon", "coordinates": [[[[72.02882028, 34.06713616], [72.02912139, 34.06717513], [72.02911625, 34.0672024], [72.0292943, 34.06722543], [72.02930861, 34.06714951], [72.02923791, 34.06714037], [72.02924282, 34.06711434], [72.0293109, 34.06712314], [72.02931744, 34.06708844], [72.02920485, 34.06707388], [72.02922611, 34.06696109], [72.02913446, 34.06694923], [72.02912997, 34.06697309], [72.02895977, 34.06695108], [72.02896836, 34.06690553], [72.02886624, 34.06689232], [72.02882028, 34.06713616]]]]}, "properties": {"id": "Pakistan_123102310_611918", "height": 7.307968616485596, "hmax": 5.168, "ratio": 0.707, "vulnClass": "high"}}, {"type": "Feature", "geometry": {"type": "MultiPolygon", "coordinates": [[[[72.0290491, 34.06689639], [72.02919723, 34.0669109], [72.02920755, 34.06683859], [72.02913613, 34.06683159], [72.02914208, 34.06678996], [72.02906537, 34.06678244], [72.0290491, 34.06689639]]]]}, "properties": {"id": "Pakistan_123102310_126240", "height": 2.520207166671753, "hmax": 5.101, "ratio": 2.024, "vulnClass": "very_high"}}, {"type": "Feature", "geometry": {"type": "MultiPolygon", "coordinates": [[[[72.0290777, 34.06752558], [72.02927611, 34.06755279], [72.02926832, 34.06759172], [72.0293597, 34.06760425], [72.02934889, 34.06765832], [72.0293788, 34.06766242], [72.02939894, 34.06756172], [72.02940818, 34.06756299], [72.02942523, 34.06747771], [72.02936257, 34.06746911], [72.02937276, 34.06741815], [72.02927617, 34.0674049], [72.02927506, 34.06741045], [72.02910537, 34.06738717], [72.0290777, 34.06752558]]]]}, "properties": {"id": "Pakistan_123102310_155583", "height": 5.513961315155029, "hmax": 3.661, "ratio": 0.664, "vulnClass": "high"}}, {"type": "Feature", "geometry": {"type": "MultiPolygon", "coordinates": [[[[72.02923567, 34.06756576], [72.02918479, 34.06756748], [72.02918991, 34.06767173], [72.02924078, 34.06767002], [72.02923567, 34.06756576]]]]}, "properties": {"id": "Pakistan_123102310_792446", "height": 2.802699327468872, "hmax": 3.661, "ratio": 1.306, "vulnClass": "very_high"}}, {"type": "Feature", "geometry": {"type": "MultiPolygon", "coordinates": [[[[72.02936318, 34.06767], [72.02933658, 34.06766801], [72.02934161, 34.06762173], [72.0292538, 34.06761518], [72.02924518, 34.06769453], [72.02935959, 34.06770306], [72.02936318, 34.06767]]]]}, "properties": {"id": "Pakistan_123102310_649753", "height": 3.091811180114746, "hmax": 3.661, "ratio": 1.184, "vulnClass": "very_high"}}, {"type": "Feature", "geometry": {"type": "MultiPolygon", "coordinates": [[[[72.02904552, 34.06757366], [72.02904624, 34.06754384], [72.02900335, 34.06754313], [72.02900262, 34.06757295], [72.02904552, 34.06757366]]]]}, "properties": {"id": "Pakistan_123102310_394084", "height": 3.746837139129639, "hmax": 3.661, "ratio": 0.977, "vulnClass": "high"}}, {"type": "Feature", "geometry": {"type": "MultiPolygon", "coordinates": [[[[72.02890871, 34.06751809], [72.028911, 34.06760693], [72.02899947, 34.06760537], [72.02899719, 34.06751654], [72.02890871, 34.06751809]]]]}, "properties": {"id": "Pakistan_123102310_126234", "height": 3.610317230224609, "hmax": 3.819, "ratio": 1.058, "vulnClass": "very_high"}}, {"type": "Feature", "geometry": {"type": "MultiPolygon", "coordinates": [[[[72.01782206, 34.06447942], [72.0177897, 34.06451445], [72.01788781, 34.06457665], [72.01792018, 34.06454162], [72.01782206, 34.06447942]]]]}, "properties": {"id": "Pakistan_123102310_863193", "height": 2.729678869247437, "hmax": 0.705, "ratio": 0.258, "vulnClass": "low"}}, {"type": "Feature", "geometry": {"type": "MultiPolygon", "coordinates": [[[[72.01776668, 34.06491102], [72.01783197, 34.06493581], [72.01781513, 34.06496626], [72.01787054, 34.06498729], [72.01790407, 34.0649267], [72.01778336, 34.06488087], [72.01776668, 34.06491102]]]]}, "properties": {"id": "Pakistan_123102310_654502", "height": 5.583191871643066, "hmax": 0.705, "ratio": 0.126, "vulnClass": "low"}}, {"type": "Feature", "geometry": {"type": "MultiPolygon", "coordinates": [[[[72.01942338, 34.06546021], [72.01953441, 34.06555889], [72.01949566, 34.06558881], [72.01954085, 34.06562897], [72.01943788, 34.06558823], [72.01932627, 34.06578182], [72.0194857, 34.0658449], [72.01959306, 34.06565868], [72.01957533, 34.06564292], [72.01958546, 34.06562535], [72.0195685, 34.06558436], [72.0196264, 34.06560727], [72.01979776, 34.06575955], [72.01984078, 34.06568494], [72.01982673, 34.06565098], [72.01988183, 34.06567278], [72.01991903, 34.06564406], [72.01990974, 34.0656216], [72.01987042, 34.06560605], [72.01996555, 34.06553259], [72.0200104, 34.06555033], [72.01998552, 34.06549021], [72.01984416, 34.06536459], [72.01977231, 34.06538499], [72.01974326, 34.06543539], [72.01970912, 34.06546175], [72.01969159, 34.06546673], [72.01974859, 34.06536785], [72.01972647, 34.06534819], [72.0197501, 34.06530722], [72.01971001, 34.06527159], [72.019643, 34.06529062], [72.01942338, 34.06546021]]]]}, "properties": {"id": "Pakistan_123102310_259225", "height": 2.762570858001709, "hmax": 3.557, "ratio": 1.288, "vulnClass": "very_high"}}, {"type": "Feature", "geometry": {"type": "MultiPolygon", "coordinates": [[[[72.02237947, 34.06427394], [72.02181649, 34.06418813], [72.02178689, 34.06432138], [72.02159604, 34.06429229], [72.0216094, 34.06423211], [72.02149784, 34.0642151], [72.02153483, 34.0640485], [72.02144292, 34.0640345], [72.02143837, 34.06405495], [72.02125936, 34.06402766], [72.02123956, 34.06411683], [72.02130182, 34.06412632], [72.02127939, 34.06422733], [72.02147509, 34.06425715], [72.02145385, 34.06435283], [72.02176923, 34.0644009], [72.02175802, 34.06445136], [72.0218837, 34.06447051], [72.02187654, 34.06450274], [72.02194285, 34.06451285], [72.0219531, 34.0644667], [72.02224626, 34.06451139], [72.02225463, 34.0644737], [72.02229355, 34.06447963], [72.02231716, 34.06437332], [72.02235608, 34.06437925], [72.02237947, 34.06427394]]]]}, "properties": {"id": "Pakistan_123102310_649707", "height": 2.561457633972168, "hmax": 3.262, "ratio": 1.273, "vulnClass": "very_high"}}, {"type": "Feature", "geometry": {"type": "MultiPolygon", "coordinates": [[[[72.02172229, 34.06394262], [72.02171578, 34.06397733], [72.02184149, 34.06399352], [72.02187365, 34.06382212], [72.0216039, 34.06378739], [72.02157825, 34.06392407], [72.02172229, 34.06394262]]]]}, "properties": {"id": "Pakistan_123102310_868014", "height": 4.416618347167969, "hmax": 2.797, "ratio": 0.633, "vulnClass": "high"}}, {"type": "Feature", "geometry": {"type": "MultiPolygon", "coordinates": [[[[72.02178808, 34.06288192], [72.02175878, 34.06283737], [72.02184771, 34.06279723], [72.02177333, 34.06268415], [72.02161201, 34.06275697], [72.0217157, 34.06291459], [72.02178808, 34.06288192]]]]}, "properties": {"id": "Pakistan_123102310_687960", "height": 4.276404857635498, "hmax": 0.41, "ratio": 0.096, "vulnClass": "low"}}, {"type": "Feature", "geometry": {"type": "MultiPolygon", "coordinates": [[[[72.0248196, 34.06392193], [72.02472323, 34.06387967], [72.02466223, 34.06397512], [72.0247586, 34.06401739], [72.0248196, 34.06392193]]]]}, "properties": {"id": "Pakistan_123102310_155483", "height": 2.516711235046387, "hmax": 10.548, "ratio": 4.191, "vulnClass": "very_high"}}, {"type": "Feature", "geometry": {"type": "MultiPolygon", "coordinates": [[[[72.02430452, 34.06354668], [72.02418219, 34.06365756], [72.02433563, 34.06377374], [72.02445797, 34.06366286], [72.02430452, 34.06354668]]]]}, "properties": {"id": "Pakistan_123102310_3248", "height": 3.121106386184692, "hmax": 7.589, "ratio": 2.432, "vulnClass": "very_high"}}, {"type": "Feature", "geometry": {"type": "MultiPolygon", "coordinates": [[[[72.03190398, 34.06262601], [72.0319797, 34.06275564], [72.03222529, 34.06265719], [72.03214957, 34.06252756], [72.03190398, 34.06262601]]]]}, "properties": {"id": "Pakistan_123102310_683343", "height": 2.667083263397217, "hmax": 2.533, "ratio": 0.95, "vulnClass": "high"}}, {"type": "Feature", "geometry": {"type": "MultiPolygon", "coordinates": [[[[72.0313178, 34.06759872], [72.03158245, 34.06778771], [72.03170118, 34.06767363], [72.03164118, 34.06763078], [72.03174464, 34.06753136], [72.03171387, 34.06750938], [72.03166877, 34.06755272], [72.03161728, 34.06751595], [72.03155229, 34.06757841], [72.03156992, 34.067591], [72.03149894, 34.0676592], [72.03144971, 34.06762404], [72.03156511, 34.06751315], [72.03151588, 34.06747799], [72.03154771, 34.0674474], [72.03151386, 34.06742322], [72.03154505, 34.06739326], [72.03141046, 34.06729715], [72.03134346, 34.06736153], [72.03147035, 34.06745214], [72.0313178, 34.06759872]]]]}, "properties": {"id": "Pakistan_123102310_910783", "height": 7.027756690979004, "hmax": 1.981, "ratio": 0.282, "vulnClass": "low"}}]}