{"type": "FeatureCollection", "features": [{"type": "Feature", "geometry": {"type": "MultiPolygon", "coordinates": [[[[72.06390629, 34.08256254], [72.06379052, 34.08258057], [72.06380346, 34.0826381], [72.06385033, 34.0826308], [72.06386545, 34.08269802], [72.06393435, 34.08268729], [72.06390629, 34.08256254]]]]}, "properties": {"id": "8J6J33M7+2GXX", "height": 3.341960430145264, "hmax": 0.003, "ratio": 0.001, "vulnClass": "none"}}, {"type": "Feature", "geometry": {"type": "MultiPolygon", "coordinates": [[[[72.06270967, 34.08255933], [72.0626897, 34.08252578], [72.06261541, 34.0825564], [72.06263537, 34.08258994], [72.06270967, 34.08255933]]]]}, "properties": {"id": "8J6J33M7+23F6", "height": 4.030608654022217, "hmax": 0.002, "ratio": 0.001, "vulnClass": "none"}}, {"type": "Feature", "geometry": {"type": "MultiPolygon", "coordinates": [[[[72.06347054, 34.08230274], [72.06339007, 34.08231945], [72.06342645, 34.08244077], [72.06350692, 34.08242406], [72.06347054, 34.08230274]]]]}, "properties": {"id": "8J6J33J7+W9WV", "height": 2.670073270797729, "hmax": 0.003, "ratio": 0.001, "vulnClass": "none"}}, {"type": "Feature", "geometry": {"type": "MultiPolygon", "coordinates": [[[[72.06339004, 34.08243431], [72.06336242, 34.08235233], [72.06329761, 34.08236745], [72.06332523, 34.08244943], [72.06339004, 34.08243431]]]]}, "properties": {"id": "8J6J33J7+X892", "height": 2.608155727386475, "hmax": 0.003, "ratio": 0.001, "vulnClass": "none"}}, {"type": "Feature", "geometry": {"type": "MultiPolygon", "coordinates": [[[[72.06263832, 34.08244602], [72.06259534, 34.08246687], [72.06265218, 34.082548], [72.06269516, 34.08252715], [72.06263832, 34.08244602]]]]}, "properties": {"id": "8J6J33J7+X3RW", "height": 3.075776100158691, "hmax": 0.002, "ratio": 0.001, "vulnClass": "none"}}, {"type": "Feature", "geometry": {"type": "MultiPolygon", "coordinates": [[[[72.06289762, 34.08244171], [72.06284881, 34.0823701], [72.06276229, 34.08241093], [72.0628111, 34.08248254], [72.06289762, 34.08244171]]]]}, "properties": {"id": "8J6J33J7+X4G4", "height": 2.582248210906982, "hmax": 0.002, "ratio": 0.001, "vulnClass": "none"}}, {"type": "Feature", "geometry": {"type": "MultiPolygon", "coordinates": [[[[72.06363395, 34.08234399], [72.06361373, 34.08227357], [72.06347026, 34.08230209], [72.06349048, 34.0823725], [72.06363395, 34.08234399]]]]}, "properties": {"id": "8J6J33J7+WCFW", "height": 2.670073270797729, "hmax": 0.003, "ratio": 0.001, "vulnClass": "none"}}, {"type": "Feature", "geometry": {"type": "MultiPolygon", "coordinates": [[[[72.06403589, 34.08229576], [72.06401904, 34.08220785], [72.06383626, 34.08223211], [72.06385312, 34.08232002], [72.06403589, 34.08229576]]]]}, "properties": {"id": "8J6J33J7+WH3H", "height": 2.735714912414551, "hmax": 0.003, "ratio": 0.001, "vulnClass": "none"}}, {"type": "Feature", "geometry": {"type": "MultiPolygon", "coordinates": [[[[72.06386028, 34.08233093], [72.06383946, 34.08224225], [72.06363793, 34.08227501], [72.06367989, 34.08245376], [72.06377644, 34.08243807], [72.06375529, 34.08234799], [72.06386028, 34.08233093]]]]}, "properties": {"id": "8J6J33J7+WFQG", "height": 3.35582160949707, "hmax": 0.003, "ratio": 0.001, "vulnClass": "none"}}, {"type": "Feature", "geometry": {"type": "MultiPolygon", "coordinates": [[[[72.06356479, 34.08236829], [72.06351739, 34.08237599], [72.06352953, 34.08242769], [72.06357693, 34.08241998], [72.06356479, 34.08236829]]]]}, "properties": {"id": "8J6J33J7+XC3W", "height": 2.483695268630981, "hmax": 0.003, "ratio": 0.001, "vulnClass": "none"}}, {"type": "Feature", "geometry": {"type": "MultiPolygon", "coordinates": [[[[72.06364515, 34.08246103], [72.0636419, 34.08242242], [72.06349049, 34.08243122], [72.06349374, 34.08246984], [72.06364515, 34.08246103]]]]}, "properties": {"id": "8J6J33J7+XCGR", "height": 2.961724758148193, "hmax": 0.003, "ratio": 0.001, "vulnClass": "none"}}, {"type": "Feature", "geometry": {"type": "MultiPolygon", "coordinates": [[[[72.06375796, 34.08258398], [72.06374061, 34.08249892], [72.06368052, 34.0825074], [72.06369787, 34.08259246], [72.06375796, 34.08258398]]]]}, "properties": {"id": "8J6J33M7+2F9R", "height": 4.143572807312012, "hmax": 0.003, "ratio": 0.001, "vulnClass": "none"}}, {"type": "Feature", "geometry": {"type": "MultiPolygon", "coordinates": [[[[72.06410084, 34.08261663], [72.06407351, 34.08249514], [72.0638973, 34.08252259], [72.06392463, 34.08264408], [72.06410084, 34.08261663]]]]}, "properties": {"id": "8J6J33M7+2HHQ", "height": 3.186875343322754, "hmax": 0.003, "ratio": 0.001, "vulnClass": "none"}}, {"type": "Feature", "geometry": {"type": "MultiPolygon", "coordinates": [[[[72.0641663, 34.08245933], [72.06413847, 34.08246188], [72.06414739, 34.08252918], [72.0642043, 34.08252395], [72.06419793, 34.08247588], [72.06416885, 34.08247855], [72.0641663, 34.08245933]]]]}, "properties": {"id": "8J6J33J7+XMVV", "height": 3.046321392059326, "hmax": 0.002, "ratio": 0.001, "vulnClass": "none"}}, {"type": "Feature", "geometry": {"type": "MultiPolygon", "coordinates": [[[[72.06447607, 34.0824025], [72.06445939, 34.08232208], [72.06428043, 34.08234778], [72.06429712, 34.08242821], [72.06447607, 34.0824025]]]]}, "properties": {"id": "8J6J33J7+XQ22", "height": 3.319043874740601, "hmax": 0.002, "ratio": 0.001, "vulnClass": "none"}}, {"type": "Feature", "geometry": {"type": "MultiPolygon", "coordinates": [[[[72.06428371, 34.08224801], [72.06425757, 34.08224579], [72.06425436, 34.08227202], [72.0642805, 34.08227423], [72.06428371, 34.08224801]]]]}, "properties": {"id": "8J6J33J7+WP2G", "height": 2.856370687484741, "hmax": 0.002, "ratio": 0.001, "vulnClass": "none"}}, {"type": "Feature", "geometry": {"type": "MultiPolygon", "coordinates": [[[[72.06423453, 34.08222808], [72.0642041, 34.08222735], [72.06420306, 34.08225734], [72.06423349, 34.08225806], [72.06423453, 34.08222808]]]]}, "properties": {"id": "8J6J33J7+VMXJ", "height": 2.656553506851196, "hmax": 0.002, "ratio": 0.001, "vulnClass": "none"}}, {"type": "Feature", "geometry": {"type": "MultiPolygon", "coordinates": [[[[72.06792906, 34.08064318], [72.06789918, 34.08048258], [72.06775807, 34.08050076], [72.06778795, 34.08066136], [72.06792906, 34.08064318]]]]}, "properties": {"id": "8J6J33J9+64GX", "height": 2.98344898223877, "hmax": 0.002, "ratio": 0.001, "vulnClass": "none"}}, {"type": "Feature", "geometry": {"type": "MultiPolygon", "coordinates": [[[[72.0678357, 34.0816654], [72.0677321, 34.0816546], [72.0677229, 34.0817154], [72.0678265, 34.0817262], [72.0678357, 34.0816654]]]]}, "properties": {"id": "8J6J33J9+M4CQ", "height": 2.752209424972534, "hmax": 0.004, "ratio": 0.002, "vulnClass": "none"}}, {"type": "Feature", "geometry": {"type": "MultiPolygon", "coordinates": [[[[72.06798845, 34.08159083], [72.06784911, 34.08157631], [72.06783569, 34.08166541], [72.06797503, 34.08167994], [72.06798845, 34.08159083]]]]}, "properties": {"id": "8J6J33J9+M532", "height": 2.752209424972534, "hmax": 0.004, "ratio": 0.002, "vulnClass": "none"}}, {"type": "Feature", "geometry": {"type": "MultiPolygon", "coordinates": [[[[72.06448445, 34.08210343], [72.06446881, 34.08202228], [72.06429101, 34.082046], [72.06430664, 34.08212715], [72.06448445, 34.08210343]]]]}, "properties": {"id": "8J6J33J7+RQCV", "height": 2.664895296096802, "hmax": 0.002, "ratio": 0.001, "vulnClass": "none"}}, {"type": "Feature", "geometry": {"type": "MultiPolygon", "coordinates": [[[[72.06354159, 34.08197656], [72.06348643, 34.08189946], [72.06336125, 34.08196145], [72.06341641, 34.08203855], [72.06354159, 34.08197656]]]]}, "properties": {"id": "8J6J33J7+Q9PM", "height": 5.90846061706543, "hmax": 0.003, "ratio": 0.001, "vulnClass": "none"}}, {"type": "Feature", "geometry": {"type": "MultiPolygon", "coordinates": [[[[72.0629858, 34.08154404], [72.06295171, 34.0815173], [72.0629221, 34.08154344], [72.06295619, 34.08157018], [72.0629858, 34.08154404]]]]}, "properties": {"id": "8J6J33J7+J58P", "height": 3.57243800163269, "hmax": 0.002, "ratio": 0.001, "vulnClass": "none"}}, {"type": "Feature", "geometry": {"type": "MultiPolygon", "coordinates": [[[[72.06415764, 34.08108894], [72.06408655, 34.08107287], [72.06406505, 34.08113875], [72.06413614, 34.08115482], [72.06415764, 34.08108894]]]]}, "properties": {"id": "8J6J33J7+CJXG", "height": 3.229802131652832, "hmax": 0.001, "ratio": 0.0, "vulnClass": "none"}}, {"type": "Feature", "geometry": {"type": "MultiPolygon", "coordinates": [[[[72.0641702, 34.08101861], [72.06409797, 34.08100273], [72.06408061, 34.08105738], [72.06415284, 34.08107327], [72.0641702, 34.08101861]]]]}, "properties": {"id": "8J6J33J7+CM6C", "height": 2.925390243530273, "hmax": 0.001, "ratio": 0.0, "vulnClass": "none"}}, {"type": "Feature", "geometry": {"type": "MultiPolygon", "coordinates": [[[[72.06438643, 34.08101707], [72.06412761, 34.0809582], [72.06411152, 34.08100719], [72.06437034, 34.08106607], [72.06438643, 34.08101707]]]]}, "properties": {"id": "8J6J33J7+CM5H", "height": 3.155161619186401, "hmax": 0.002, "ratio": 0.001, "vulnClass": "none"}}, {"type": "Feature", "geometry": {"type": "MultiPolygon", "coordinates": [[[[72.0641868, 34.08090407], [72.06414475, 34.08089457], [72.06413173, 34.08093444], [72.06417378, 34.08094394], [72.0641868, 34.08090407]]]]}, "properties": {"id": "8J6J33J7+9M7J", "height": 2.474968433380127, "hmax": 0.001, "ratio": 0.0, "vulnClass": "none"}}, {"type": "Feature", "geometry": {"type": "MultiPolygon", "coordinates": [[[[72.06434533, 34.08093508], [72.06429678, 34.08093103], [72.06429343, 34.08095874], [72.06434199, 34.0809628], [72.06434533, 34.08093508]]]]}, "properties": {"id": "8J6J33J7+9PGR", "height": 2.455527544021606, "hmax": 0.002, "ratio": 0.001, "vulnClass": "none"}}, {"type": "Feature", "geometry": {"type": "MultiPolygon", "coordinates": [[[[72.06713728, 34.07957895], [72.06709328, 34.07958232], [72.06710206, 34.07966181], [72.06714607, 34.07965844], [72.06713728, 34.07957895]]]]}, "properties": {"id": "8J6J33H8+RRXX", "height": 2.779354333877563, "hmax": 0.002, "ratio": 0.001, "vulnClass": "none"}}, {"type": "Feature", "geometry": {"type": "MultiPolygon", "coordinates": [[[[72.06967633, 34.07986229], [72.06964156, 34.0798605], [72.06963927, 34.07989131], [72.06967405, 34.07989309], [72.06967633, 34.07986229]]]]}, "properties": {"id": "8J6J33H9+XV32", "height": 2.919298887252808, "hmax": 0.002, "ratio": 0.001, "vulnClass": "none"}}, {"type": "Feature", "geometry": {"type": "MultiPolygon", "coordinates": [[[[72.07002437, 34.07972231], [72.0699413, 34.07973597], [72.06997086, 34.07986043], [72.07005393, 34.07984677], [72.07002437, 34.07972231]]]]}, "properties": {"id": "8J6J33H9+WX9Q", "height": 2.797226428985596, "hmax": 0.002, "ratio": 0.001, "vulnClass": "none"}}, {"type": "Feature", "geometry": {"type": "MultiPolygon", "coordinates": [[[[72.07032002, 34.07875157], [72.0702438, 34.07874819], [72.07023793, 34.07884001], [72.07031415, 34.07884338], [72.07032002, 34.07875157]]]]}, "properties": {"id": "8J6J33HC+G46X", "height": 7.046385288238525, "hmax": 0.003, "ratio": 0.0, "vulnClass": "none"}}, {"type": "Feature", "geometry": {"type": "MultiPolygon", "coordinates": [[[[72.0700831, 34.07874987], [72.07009326, 34.07863706], [72.07003199, 34.07863324], [72.07002842, 34.0786729], [72.06991936, 34.0786661], [72.06991647, 34.07869815], [72.06988319, 34.07869607], [72.06987948, 34.07873717], [72.0700831, 34.07874987]]]]}, "properties": {"id": "8J6J33HC+F2J2", "height": 2.937127113342285, "hmax": 0.003, "ratio": 0.001, "vulnClass": "none"}}, {"type": "Feature", "geometry": {"type": "MultiPolygon", "coordinates": [[[[72.06998179, 34.0787584], [72.06990256, 34.07875219], [72.06989377, 34.07882976], [72.069973, 34.07883598], [72.06998179, 34.0787584]]]]}, "properties": {"id": "8J6J33H9+GX8J", "height": 2.537045955657959, "hmax": 0.003, "ratio": 0.001, "vulnClass": "none"}}, {"type": "Feature", "geometry": {"type": "MultiPolygon", "coordinates": [[[[72.07013164, 34.07877558], [72.07005715, 34.0787766], [72.0700579, 34.07881505], [72.07013239, 34.07881403], [72.07013164, 34.07877558]]]]}, "properties": {"id": "8J6J33HC+G29R", "height": 2.971210956573486, "hmax": 0.003, "ratio": 0.001, "vulnClass": "none"}}, {"type": "Feature", "geometry": {"type": "MultiPolygon", "coordinates": [[[[72.07001991, 34.07840002], [72.06998932, 34.07839916], [72.06998765, 34.0784399], [72.07001825, 34.07844076], [72.07001991, 34.07840002]]]]}, "properties": {"id": "8J6J33HC+926J", "height": 2.526663064956665, "hmax": 0.003, "ratio": 0.001, "vulnClass": "none"}}, {"type": "Feature", "geometry": {"type": "MultiPolygon", "coordinates": [[[[72.07001825, 34.07844076], [72.0698837, 34.07843696], [72.06988095, 34.07850438], [72.07007736, 34.07850993], [72.0700792, 34.07846498], [72.07001733, 34.07846323], [72.07001825, 34.07844076]]]]}, "properties": {"id": "8J6J33H9+9XX2", "height": 2.935240268707275, "hmax": 0.003, "ratio": 0.001, "vulnClass": "none"}}, {"type": "Feature", "geometry": {"type": "MultiPolygon", "coordinates": [[[[72.07011957, 34.07854657], [72.07008709, 34.07854579], [72.07008634, 34.07856765], [72.07011881, 34.07856842], [72.07011957, 34.07854657]]]]}, "properties": {"id": "8J6J33HC+C2H7", "height": 3.933537244796753, "hmax": 0.003, "ratio": 0.001, "vulnClass": "none"}}, {"type": "Feature", "geometry": {"type": "MultiPolygon", "coordinates": [[[[72.07030176, 34.07838143], [72.07025605, 34.0783798], [72.07024945, 34.07850844], [72.07029516, 34.07851007], [72.07030176, 34.07838143]]]]}, "properties": {"id": "8J6J33HC+94CQ", "height": 3.001811742782593, "hmax": 0.003, "ratio": 0.001, "vulnClass": "none"}}, {"type": "Feature", "geometry": {"type": "MultiPolygon", "coordinates": [[[[72.07035107, 34.07851206], [72.07035591, 34.07841778], [72.0703, 34.07841579], [72.07029516, 34.07851007], [72.07035107, 34.07851206]]]]}, "properties": {"id": "8J6J33HC+94PF", "height": 3.001811742782593, "hmax": 0.003, "ratio": 0.001, "vulnClass": "none"}}, {"type": "Feature", "geometry": {"type": "MultiPolygon", "coordinates": [[[[72.07073037, 34.0785443], [72.07068395, 34.07854196], [72.07067585, 34.07865316], [72.07072228, 34.0786555], [72.07073037, 34.0785443]]]]}, "properties": {"id": "8J6J33HC+C7PV", "height": 7.438080310821533, "hmax": 0.003, "ratio": 0.0, "vulnClass": "none"}}, {"type": "Feature", "geometry": {"type": "MultiPolygon", "coordinates": [[[[72.0707831, 34.07846349], [72.07072405, 34.07846158], [72.07072174, 34.07851112], [72.07078079, 34.07851303], [72.0707831, 34.07846349]]]]}, "properties": {"id": "8J6J33HC+98RC", "height": 4.223711490631104, "hmax": 0.003, "ratio": 0.001, "vulnClass": "none"}}, {"type": "Feature", "geometry": {"type": "MultiPolygon", "coordinates": [[[[72.07050062, 34.07853466], [72.07044733, 34.07853427], [72.07044474, 34.07877516], [72.07049804, 34.07877556], [72.07050062, 34.07853466]]]]}, "properties": {"id": "8J6J33HC+F592", "height": 4.258785247802734, "hmax": 0.003, "ratio": 0.001, "vulnClass": "none"}}, {"type": "Feature", "geometry": {"type": "MultiPolygon", "coordinates": [[[[72.07060287, 34.07856833], [72.07050027, 34.07856756], [72.0704986, 34.07872321], [72.0706012, 34.07872398], [72.07060287, 34.07856833]]]]}, "properties": {"id": "8J6J33HC+F63W", "height": 3.639742612838745, "hmax": 0.003, "ratio": 0.001, "vulnClass": "none"}}, {"type": "Feature", "geometry": {"type": "MultiPolygon", "coordinates": [[[[72.07038865, 34.0787546], [72.07032002, 34.07875157], [72.07031415, 34.07884338], [72.07038278, 34.07884642], [72.07038865, 34.0787546]]]]}, "properties": {"id": "8J6J33HC+G49R", "height": 7.046385288238525, "hmax": 0.003, "ratio": 0.0, "vulnClass": "none"}}, {"type": "Feature", "geometry": {"type": "MultiPolygon", "coordinates": [[[[72.07145039, 34.07877928], [72.07116281, 34.07876216], [72.07115931, 34.07880288], [72.07144689, 34.07882], [72.07145039, 34.07877928]]]]}, "properties": {"id": "8J6J33HC+GG7Q", "height": 4.461954116821289, "hmax": 0.003, "ratio": 0.001, "vulnClass": "none"}}, {"type": "Feature", "geometry": {"type": "MultiPolygon", "coordinates": [[[[72.07120752, 34.07880575], [72.07115931, 34.07880288], [72.07114778, 34.07893696], [72.07124472, 34.07894273], [72.07124721, 34.07891373], [72.07119849, 34.07891083], [72.07120752, 34.07880575]]]]}, "properties": {"id": "8J6J33HC+HF39", "height": 4.398395538330078, "hmax": 0.003, "ratio": 0.001, "vulnClass": "none"}}, {"type": "Feature", "geometry": {"type": "MultiPolygon", "coordinates": [[[[72.07094161, 34.07885989], [72.07087047, 34.07885475], [72.07086601, 34.07889745], [72.07093716, 34.07890259], [72.07094161, 34.07885989]]]]}, "properties": {"id": "8J6J33HC+H925", "height": 5.540351390838623, "hmax": 0.003, "ratio": 0.001, "vulnClass": "none"}}, {"type": "Feature", "geometry": {"type": "MultiPolygon", "coordinates": [[[[72.07112765, 34.07878258], [72.07088022, 34.07876069], [72.07086872, 34.07885073], [72.07111615, 34.07887262], [72.07112765, 34.07878258]]]]}, "properties": {"id": "8J6J33HC+G9HQ", "height": 5.23189640045166, "hmax": 0.003, "ratio": 0.001, "vulnClass": "none"}}, {"type": "Feature", "geometry": {"type": "MultiPolygon", "coordinates": [[[[72.0711392, 34.0786858], [72.0711452, 34.0786373], [72.0709582, 34.0786213], [72.0709522, 34.0786697], [72.070984, 34.0786725], [72.0709792, 34.0787112], [72.0710833, 34.0787201], [72.0710881, 34.0786814], [72.0711392, 34.0786858]]]]}, "properties": {"id": "8J6J33HC+FC7M", "height": 3.360403060913086, "hmax": 0.003, "ratio": 0.001, "vulnClass": "none"}}, {"type": "Feature", "geometry": {"type": "MultiPolygon", "coordinates": [[[[72.07113331, 34.07873835], [72.07108292, 34.07873389], [72.07107727, 34.07877812], [72.07112765, 34.07878258], [72.07113331, 34.07873835]]]]}, "properties": {"id": "8J6J33HC+GC57", "height": 3.140993595123291, "hmax": 0.003, "ratio": 0.001, "vulnClass": "none"}}, {"type": "Feature", "geometry": {"type": "MultiPolygon", "coordinates": [[[[72.07154783, 34.07869199], [72.07145835, 34.07868667], [72.07145181, 34.07876273], [72.07150502, 34.07876589], [72.07150768, 34.07873496], [72.07154395, 34.07873712], [72.07154783, 34.07869199]]]]}, "properties": {"id": "8J6J33HC+FHQX", "height": 7.366868495941162, "hmax": 0.003, "ratio": 0.0, "vulnClass": "none"}}, {"type": "Feature", "geometry": {"type": "MultiPolygon", "coordinates": [[[[72.07159482, 34.07877184], [72.07160155, 34.07869674], [72.07154942, 34.0786935], [72.07154549, 34.07873727], [72.07150942, 34.07873503], [72.07150661, 34.07876636], [72.07159482, 34.07877184]]]]}, "properties": {"id": "8J6J33HC+FJVH", "height": 4.38731575012207, "hmax": 0.003, "ratio": 0.001, "vulnClass": "none"}}, {"type": "Feature", "geometry": {"type": "MultiPolygon", "coordinates": [[[[72.0715314, 34.0788833], [72.0715413, 34.0787681], [72.0714518, 34.0787627], [72.0714419, 34.0788779], [72.0715314, 34.0788833]]]]}, "properties": {"id": "8J6J33HC+GHHW", "height": 2.913810729980469, "hmax": 0.003, "ratio": 0.001, "vulnClass": "none"}}, {"type": "Feature", "geometry": {"type": "MultiPolygon", "coordinates": [[[[72.0714454, 34.0788373], [72.0713358, 34.0788308], [72.0713297, 34.0789018], [72.0714393, 34.0789083], [72.0714454, 34.0788373]]]]}, "properties": {"id": "8J6J33HC+GHRM", "height": 3.578361988067627, "hmax": 0.003, "ratio": 0.001, "vulnClass": "none"}}, {"type": "Feature", "geometry": {"type": "MultiPolygon", "coordinates": [[[[72.07178102, 34.07890507], [72.07172342, 34.07890662], [72.07172516, 34.0789511], [72.07178276, 34.07894954], [72.07178102, 34.07890507]]]]}, "properties": {"id": "8J6J33HC+HPC2", "height": 4.879868030548096, "hmax": 0.003, "ratio": 0.001, "vulnClass": "none"}}, {"type": "Feature", "geometry": {"type": "MultiPolygon", "coordinates": [[[[72.07234014, 34.07901515], [72.07222743, 34.0789809], [72.07221105, 34.07901822], [72.07232376, 34.07905247], [72.07234014, 34.07901515]]]]}, "properties": {"id": "8J6J33HC+JW2Q", "height": 3.163320302963257, "hmax": 0.002, "ratio": 0.001, "vulnClass": "none"}}, {"type": "Feature", "geometry": {"type": "MultiPolygon", "coordinates": [[[[72.07198051, 34.07877375], [72.07197314, 34.0787285], [72.07191866, 34.07873464], [72.07192604, 34.0787799], [72.07198051, 34.07877375]]]]}, "properties": {"id": "8J6J33HC+GQ43", "height": 3.418549537658691, "hmax": 0.002, "ratio": 0.001, "vulnClass": "none"}}, {"type": "Feature", "geometry": {"type": "MultiPolygon", "coordinates": [[[[72.07302299, 34.07903477], [72.0729606, 34.0790117], [72.07294083, 34.07904873], [72.07300323, 34.07907179], [72.07302299, 34.07903477]]]]}, "properties": {"id": "8J6J33HF+J59M", "height": 2.487139463424683, "hmax": 0.003, "ratio": 0.001, "vulnClass": "none"}}, {"type": "Feature", "geometry": {"type": "MultiPolygon", "coordinates": [[[[72.07296015, 34.07901045], [72.0728562, 34.0789737], [72.07283675, 34.0790118], [72.0729407, 34.07904855], [72.07296015, 34.07901045]]]]}, "properties": {"id": "8J6J33HF+J52H", "height": 3.577139854431152, "hmax": 0.002, "ratio": 0.001, "vulnClass": "none"}}, {"type": "Feature", "geometry": {"type": "MultiPolygon", "coordinates": [[[[72.07290572, 34.07895569], [72.07287156, 34.07894361], [72.0728562, 34.0789737], [72.07289035, 34.07898578], [72.07290572, 34.07895569]]]]}, "properties": {"id": "8J6J33HF+H5JC", "height": 3.512785673141479, "hmax": 0.002, "ratio": 0.001, "vulnClass": "none"}}, {"type": "Feature", "geometry": {"type": "MultiPolygon", "coordinates": [[[[72.07313553, 34.07882423], [72.07308069, 34.07880232], [72.07305504, 34.07884677], [72.07310988, 34.07886868], [72.07313553, 34.07882423]]]]}, "properties": {"id": "8J6J33HF+G6QC", "height": 2.797603607177734, "hmax": 0.003, "ratio": 0.001, "vulnClass": "none"}}, {"type": "Feature", "geometry": {"type": "MultiPolygon", "coordinates": [[[[72.07262765, 34.07883907], [72.07253835, 34.07881099], [72.07250995, 34.07887354], [72.07259925, 34.07890162], [72.07262765, 34.07883907]]]]}, "properties": {"id": "8J6J33HF+G2W6", "height": 2.741548538208008, "hmax": 0.002, "ratio": 0.001, "vulnClass": "none"}}, {"type": "Feature", "geometry": {"type": "MultiPolygon", "coordinates": [[[[72.07288667, 34.07875572], [72.07280989, 34.07871265], [72.07277844, 34.07875148], [72.07280726, 34.07876764], [72.07273214, 34.07886039], [72.07278011, 34.07888729], [72.07288667, 34.07875572]]]]}, "properties": {"id": "8J6J33HF+G47X", "height": 3.009235382080078, "hmax": 0.002, "ratio": 0.001, "vulnClass": "none"}}, {"type": "Feature", "geometry": {"type": "MultiPolygon", "coordinates": [[[[72.07259925, 34.07890162], [72.07250995, 34.07887354], [72.07248988, 34.07891773], [72.07257918, 34.07894581], [72.07259925, 34.07890162]]]]}, "properties": {"id": "8J6J33HF+H277", "height": 2.741548538208008, "hmax": 0.002, "ratio": 0.001, "vulnClass": "none"}}, {"type": "Feature", "geometry": {"type": "MultiPolygon", "coordinates": [[[[72.07272437, 34.07896996], [72.07277682, 34.07888854], [72.07272387, 34.07886492], [72.07267142, 34.07894635], [72.07272437, 34.07896996]]]]}, "properties": {"id": "8J6J33HF+H39J", "height": 2.525016069412231, "hmax": 0.002, "ratio": 0.001, "vulnClass": "none"}}, {"type": "Feature", "geometry": {"type": "MultiPolygon", "coordinates": [[[[72.07277965, 34.07899462], [72.07265076, 34.07893713], [72.07260993, 34.07900051], [72.07273882, 34.079058], [72.07277965, 34.07899462]]]]}, "properties": {"id": "8J6J33HF+H3WR", "height": 2.650234460830688, "hmax": 0.002, "ratio": 0.001, "vulnClass": "none"}}, {"type": "Feature", "geometry": {"type": "MultiPolygon", "coordinates": [[[[72.07293466, 34.07922768], [72.072795, 34.0791784], [72.07277656, 34.07921457], [72.07291622, 34.07926385], [72.07293466, 34.07922768]]]]}, "properties": {"id": "8J6J33HF+M4QV", "height": 2.782196998596191, "hmax": 0.005, "ratio": 0.002, "vulnClass": "none"}}, {"type": "Feature", "geometry": {"type": "MultiPolygon", "coordinates": [[[[72.07289211, 34.07917557], [72.07284909, 34.07917129], [72.07284523, 34.07919819], [72.07288825, 34.07920246], [72.07289211, 34.07917557]]]]}, "properties": {"id": "8J6J33HF+M4HH", "height": 2.985330581665039, "hmax": 0.005, "ratio": 0.002, "vulnClass": "none"}}, {"type": "Feature", "geometry": {"type": "MultiPolygon", "coordinates": [[[[72.07299625, 34.07920126], [72.07301802, 34.07915224], [72.07298704, 34.07914272], [72.07296527, 34.07919174], [72.07299625, 34.07920126]]]]}, "properties": {"id": "8J6J33HF+M59W", "height": 2.909656524658203, "hmax": 0.005, "ratio": 0.002, "vulnClass": "none"}}, {"type": "Feature", "geometry": {"type": "MultiPolygon", "coordinates": [[[[72.07315584, 34.07914836], [72.07300511, 34.07910202], [72.07298704, 34.07914272], [72.07313777, 34.07918906], [72.07315584, 34.07914836]]]]}, "properties": {"id": "8J6J33HF+M64V", "height": 2.909656524658203, "hmax": 0.004, "ratio": 0.001, "vulnClass": "none"}}, {"type": "Feature", "geometry": {"type": "MultiPolygon", "coordinates": [[[[72.07234617, 34.07928714], [72.07226295, 34.07926123], [72.0722346, 34.07932428], [72.07231782, 34.07935019], [72.07234617, 34.07928714]]]]}, "properties": {"id": "8J6J33HC+PWF7", "height": 2.999760627746582, "hmax": 0.005, "ratio": 0.002, "vulnClass": "none"}}, {"type": "Feature", "geometry": {"type": "MultiPolygon", "coordinates": [[[[72.07225012, 34.07921086], [72.0720609, 34.0791612], [72.07203069, 34.07924089], [72.07221991, 34.07929055], [72.07225012, 34.07921086]]]]}, "properties": {"id": "8J6J33HC+MVR3", "height": 2.738883495330811, "hmax": 0.005, "ratio": 0.002, "vulnClass": "none"}}, {"type": "Feature", "geometry": {"type": "MultiPolygon", "coordinates": [[[[72.07640326, 34.07969377], [72.07644489, 34.07959515], [72.0763967, 34.07958107], [72.07635506, 34.07967969], [72.07640326, 34.07969377]]]]}, "properties": {"id": "8J6J33HG+VH2H", "height": 4.280153274536133, "hmax": 0.003, "ratio": 0.001, "vulnClass": "none"}}, {"type": "Feature", "geometry": {"type": "MultiPolygon", "coordinates": [[[[72.07643187, 34.07975458], [72.0764723, 34.07965882], [72.07642398, 34.07964469], [72.07638355, 34.07974046], [72.07643187, 34.07975458]]]]}, "properties": {"id": "8J6J33HG+VHFW", "height": 3.74857234954834, "hmax": 0.003, "ratio": 0.001, "vulnClass": "none"}}, {"type": "Feature", "geometry": {"type": "MultiPolygon", "coordinates": [[[[72.0754071, 34.07930744], [72.07509508, 34.07925555], [72.0750731, 34.07934704], [72.07530453, 34.07938553], [72.07529374, 34.07943044], [72.07537433, 34.07944384], [72.0754071, 34.07930744]]]]}, "properties": {"id": "8J6J33HG+P4JC", "height": 5.359367370605469, "hmax": 0.004, "ratio": 0.001, "vulnClass": "none"}}, {"type": "Feature", "geometry": {"type": "MultiPolygon", "coordinates": [[[[72.06362569, 34.07686879], [72.06362402, 34.0768155], [72.06348732, 34.07681844], [72.06348899, 34.07687172], [72.06362569, 34.07686879]]]]}, "properties": {"id": "Pakistan_123102310_41338", "height": 3.201099395751953, "hmax": 0.002, "ratio": 0.001, "vulnClass": "none"}}, {"type": "Feature", "geometry": {"type": "MultiPolygon", "coordinates": [[[[72.07232656, 34.07849339], [72.0722656, 34.07837975], [72.07221968, 34.07839681], [72.07228064, 34.07851044], [72.07232656, 34.07849339]]]]}, "properties": {"id": "8J6J33HC+9WCW", "height": 3.428311347961426, "hmax": 0.002, "ratio": 0.001, "vulnClass": "none"}}, {"type": "Feature", "geometry": {"type": "MultiPolygon", "coordinates": [[[[72.0722492, 34.0782703], [72.072202, 34.0782764], [72.0722131, 34.0783358], [72.0722602, 34.0783298], [72.0722492, 34.0782703]]]]}, "properties": {"id": "8J6J33HC+8VH3", "height": 3.587422370910645, "hmax": 0.002, "ratio": 0.001, "vulnClass": "none"}}, {"type": "Feature", "geometry": {"type": "MultiPolygon", "coordinates": [[[[72.0723509, 34.07853544], [72.07233745, 34.07849893], [72.07228986, 34.07851107], [72.07230331, 34.07854758], [72.0723509, 34.07853544]]]]}, "properties": {"id": "8J6J33HC+CW4V", "height": 2.819809675216675, "hmax": 0.002, "ratio": 0.001, "vulnClass": "none"}}, {"type": "Feature", "geometry": {"type": "MultiPolygon", "coordinates": [[[[72.07306564, 34.07862664], [72.07281627, 34.07854709], [72.07275653, 34.07867675], [72.07280061, 34.07869081], [72.07282917, 34.07862881], [72.0729505, 34.07866752], [72.07293154, 34.07870867], [72.07301551, 34.07873545], [72.07306564, 34.07862664]]]]}, "properties": {"id": "8J6J33HF+F53F", "height": 3.909832000732422, "hmax": 0.002, "ratio": 0.001, "vulnClass": "none"}}, {"type": "Feature", "geometry": {"type": "MultiPolygon", "coordinates": [[[[72.07288667, 34.07875572], [72.07280989, 34.07871265], [72.07277844, 34.07875148], [72.07280726, 34.07876764], [72.07273214, 34.07886039], [72.07278011, 34.07888729], [72.07288667, 34.07875572]]]]}, "properties": {"id": "8J6J33HF+G47X", "height": 3.009235382080078, "hmax": 0.002, "ratio": 0.001, "vulnClass": "none"}}, {"type": "Feature", "geometry": {"type": "MultiPolygon", "coordinates": [[[[72.07653136, 34.079259], [72.07648517, 34.07925235], [72.07647569, 34.07929794], [72.07652185, 34.07930477], [72.07653136, 34.079259]]]]}, "properties": {"id": "8J6J33HG+PJ62", "height": 2.456135511398315, "hmax": 0.003, "ratio": 0.001, "vulnClass": "none"}}, {"type": "Feature", "geometry": {"type": "MultiPolygon", "coordinates": [[[[72.07648517, 34.07925235], [72.07642321, 34.07924343], [72.07641352, 34.07928874], [72.07647569, 34.07929794], [72.07648517, 34.07925235]]]]}, "properties": {"id": "8J6J33HG+PH4V", "height": 2.476909399032593, "hmax": 0.003, "ratio": 0.001, "vulnClass": "none"}}, {"type": "Feature", "geometry": {"type": "MultiPolygon", "coordinates": [[[[72.0764914, 34.07942078], [72.07644102, 34.0794135], [72.0764179, 34.07952436], [72.07650146, 34.07953642], [72.07650637, 34.07951286], [72.0764732, 34.07950807], [72.0764914, 34.07942078]]]]}, "properties": {"id": "8J6J33HG+QHW4", "height": 4.251360416412354, "hmax": 0.003, "ratio": 0.001, "vulnClass": "none"}}, {"type": "Feature", "geometry": {"type": "MultiPolygon", "coordinates": [[[[72.07640326, 34.07969377], [72.07644489, 34.07959515], [72.0763967, 34.07958107], [72.07635506, 34.07967969], [72.07640326, 34.07969377]]]]}, "properties": {"id": "8J6J33HG+VH2H", "height": 4.280153274536133, "hmax": 0.003, "ratio": 0.001, "vulnClass": "none"}}, {"type": "Feature", "geometry": {"type": "MultiPolygon", "coordinates": [[[[72.0754071, 34.07930744], [72.07509508, 34.07925555], [72.0750731, 34.07934704], [72.07530453, 34.07938553], [72.07529374, 34.07943044], [72.07537433, 34.07944384], [72.0754071, 34.07930744]]]]}, "properties": {"id": "8J6J33HG+P4JC", "height": 5.359367370605469, "hmax": 0.004, "ratio": 0.001, "vulnClass": "none"}}, {"type": "Feature", "geometry": {"type": "MultiPolygon", "coordinates": [[[[72.07618728, 34.07897845], [72.07615198, 34.07897489], [72.07614177, 34.07904493], [72.07617706, 34.07904849], [72.07618728, 34.07897845]]]]}, "properties": {"id": "8J6J33HG+JF3F", "height": 3.377233505249023, "hmax": 0.002, "ratio": 0.001, "vulnClass": "none"}}, {"type": "Feature", "geometry": {"type": "MultiPolygon", "coordinates": [[[[72.07612181, 34.078943], [72.07612627, 34.07889625], [72.0760764, 34.07889296], [72.07607193, 34.0789397], [72.07612181, 34.078943]]]]}, "properties": {"id": "8J6J33HG+HC9J", "height": 3.688598394393921, "hmax": 0.002, "ratio": 0.001, "vulnClass": "none"}}, {"type": "Feature", "geometry": {"type": "MultiPolygon", "coordinates": [[[[72.0755845, 34.07874965], [72.07554288, 34.07874547], [72.07552653, 34.07885828], [72.07556815, 34.07886246], [72.0755845, 34.07874965]]]]}, "properties": {"id": "8J6J33HG+G6F5", "height": 2.7711181640625, "hmax": 0.002, "ratio": 0.001, "vulnClass": "none"}}, {"type": "Feature", "geometry": {"type": "MultiPolygon", "coordinates": [[[[72.07527601, 34.07886461], [72.07522816, 34.07886117], [72.07522193, 34.0789213], [72.07526978, 34.07892473], [72.07527601, 34.07886461]]]]}, "properties": {"id": "8J6J33HG+H35Q", "height": 2.823049306869507, "hmax": 0.002, "ratio": 0.001, "vulnClass": "none"}}, {"type": "Feature", "geometry": {"type": "MultiPolygon", "coordinates": [[[[72.07534771, 34.0788688], [72.07530433, 34.07886535], [72.07530056, 34.07889817], [72.07534394, 34.07890162], [72.07534771, 34.0788688]]]]}, "properties": {"id": "8J6J33HG+H447", "height": 2.992337942123413, "hmax": 0.002, "ratio": 0.001, "vulnClass": "none"}}, {"type": "Feature", "geometry": {"type": "MultiPolygon", "coordinates": [[[[72.07547055, 34.07888279], [72.07541421, 34.07887945], [72.07540651, 34.07896966], [72.07546285, 34.078973], [72.07547055, 34.07888279]]]]}, "properties": {"id": "8J6J33HG+H5G2", "height": 2.785878658294678, "hmax": 0.002, "ratio": 0.001, "vulnClass": "none"}}, {"type": "Feature", "geometry": {"type": "MultiPolygon", "coordinates": [[[[72.07570706, 34.07888021], [72.07555254, 34.07887413], [72.07555007, 34.0789177], [72.07570459, 34.07892377], [72.07570706, 34.07888021]]]]}, "properties": {"id": "8J6J33HG+H72R", "height": 2.539249897003174, "hmax": 0.002, "ratio": 0.001, "vulnClass": "none"}}, {"type": "Feature", "geometry": {"type": "MultiPolygon", "coordinates": [[[[72.07528274, 34.07836567], [72.07519219, 34.0783588], [72.0751641, 34.07861501], [72.07521428, 34.07861882], [72.07523434, 34.07843583], [72.07527471, 34.0784389], [72.07528274, 34.07836567]]]]}, "properties": {"id": "8J6J33HG+93PX", "height": 5.338298797607422, "hmax": 0.002, "ratio": 0.0, "vulnClass": "none"}}, {"type": "Feature", "geometry": {"type": "MultiPolygon", "coordinates": [[[[72.0756474, 34.07836181], [72.0756004, 34.07835736], [72.07559544, 34.07839368], [72.07564243, 34.07839813], [72.0756474, 34.07836181]]]]}, "properties": {"id": "8J6J33HG+9655", "height": 3.161824703216553, "hmax": 0.002, "ratio": 0.001, "vulnClass": "none"}}, {"type": "Feature", "geometry": {"type": "MultiPolygon", "coordinates": [[[[72.07543851, 34.0783775], [72.07528274, 34.07836567], [72.07527471, 34.0784389], [72.07543049, 34.07845072], [72.07543851, 34.0783775]]]]}, "properties": {"id": "8J6J33HG+9497", "height": 5.23753833770752, "hmax": 0.002, "ratio": 0.0, "vulnClass": "none"}}, {"type": "Feature", "geometry": {"type": "MultiPolygon", "coordinates": [[[[72.0753138, 34.0785173], [72.0753205, 34.0784559], [72.0752732, 34.0784523], [72.0752665, 34.0785137], [72.0753138, 34.0785173]]]]}, "properties": {"id": "8J6J33HG+94V7", "height": 4.614983081817627, "hmax": 0.002, "ratio": 0.0, "vulnClass": "none"}}, {"type": "Feature", "geometry": {"type": "MultiPolygon", "coordinates": [[[[72.07548812, 34.07857608], [72.07524921, 34.07854677], [72.07523654, 34.07861831], [72.07547544, 34.07864762], [72.07548812, 34.07857608]]]]}, "properties": {"id": "8J6J33HG+C4QW", "height": 5.797829627990723, "hmax": 0.002, "ratio": 0.0, "vulnClass": "none"}}, {"type": "Feature", "geometry": {"type": "MultiPolygon", "coordinates": [[[[72.07622523, 34.07843515], [72.07617139, 34.07842494], [72.07615988, 34.07846697], [72.07621371, 34.07847718], [72.07622523, 34.07843515]]]]}, "properties": {"id": "8J6J33HG+9FP2", "height": 2.866135597229004, "hmax": 0.002, "ratio": 0.001, "vulnClass": "none"}}, {"type": "Feature", "geometry": {"type": "MultiPolygon", "coordinates": [[[[72.07693206, 34.0784347], [72.07677104, 34.07842052], [72.07676421, 34.07847419], [72.07692523, 34.07848837], [72.07693206, 34.0784347]]]]}, "properties": {"id": "8J6J33HG+9PQ2", "height": 2.96601390838623, "hmax": 0.002, "ratio": 0.001, "vulnClass": "none"}}, {"type": "Feature", "geometry": {"type": "MultiPolygon", "coordinates": [[[[72.07653815, 34.07885169], [72.07650096, 34.07884827], [72.07649588, 34.0788865], [72.07653307, 34.07888992], [72.07653815, 34.07885169]]]]}, "properties": {"id": "8J6J33HG+GJRP", "height": 2.977473020553589, "hmax": 0.002, "ratio": 0.001, "vulnClass": "none"}}, {"type": "Feature", "geometry": {"type": "MultiPolygon", "coordinates": [[[[72.0766183, 34.07902858], [72.07656818, 34.07901683], [72.07652236, 34.07915212], [72.07665777, 34.07918387], [72.07666941, 34.0791495], [72.07658413, 34.0791295], [72.0766183, 34.07902858]]]]}, "properties": {"id": "8J6J33HG+JJWG", "height": 3.747016668319702, "hmax": 0.002, "ratio": 0.001, "vulnClass": "none"}}, {"type": "Feature", "geometry": {"type": "MultiPolygon", "coordinates": [[[[72.07530255, 34.0780649], [72.07519058, 34.0780604], [72.07518308, 34.07818949], [72.07534246, 34.0781959], [72.07534795, 34.07810131], [72.07530055, 34.0780994], [72.07530255, 34.0780649]]]]}, "properties": {"id": "8J6J33HG+7427", "height": 9.752957344055176, "hmax": 0.002, "ratio": 0.0, "vulnClass": "none"}}, {"type": "Feature", "geometry": {"type": "MultiPolygon", "coordinates": [[[[72.07450387, 34.07773134], [72.07449147, 34.07769756], [72.07443464, 34.077712], [72.07444704, 34.07774578], [72.07450387, 34.07773134]]]]}, "properties": {"id": "8J6J33HF+3QQR", "height": 2.802231311798096, "hmax": 0.002, "ratio": 0.001, "vulnClass": "none"}}, {"type": "Feature", "geometry": {"type": "MultiPolygon", "coordinates": [[[[72.07489598, 34.07747005], [72.07485839, 34.07747968], [72.07488826, 34.07756038], [72.07492585, 34.07755075], [72.07489598, 34.07747005]]]]}, "properties": {"id": "8J6J33HF+2X2P", "height": 4.470617771148682, "hmax": 0.002, "ratio": 0.0, "vulnClass": "none"}}, {"type": "Feature", "geometry": {"type": "MultiPolygon", "coordinates": [[[[72.07484037, 34.07757266], [72.07482358, 34.07752731], [72.07473952, 34.07754885], [72.0747563, 34.0775942], [72.07484037, 34.07757266]]]]}, "properties": {"id": "8J6J33HF+2WFF", "height": 4.565503120422363, "hmax": 0.002, "ratio": 0.0, "vulnClass": "none"}}, {"type": "Feature", "geometry": {"type": "MultiPolygon", "coordinates": [[[[72.07494272, 34.07759632], [72.07492585, 34.07755075], [72.07484037, 34.07757266], [72.07485723, 34.07761823], [72.07494272, 34.07759632]]]]}, "properties": {"id": "8J6J33HF+2XJ8", "height": 3.358340978622437, "hmax": 0.002, "ratio": 0.001, "vulnClass": "none"}}, {"type": "Feature", "geometry": {"type": "MultiPolygon", "coordinates": [[[[72.0749565, 34.07763354], [72.07494272, 34.07759632], [72.07485723, 34.07761823], [72.07487101, 34.07765545], [72.0749565, 34.07763354]]]]}, "properties": {"id": "8J6J33HF+3X32", "height": 3.07795524597168, "hmax": 0.002, "ratio": 0.001, "vulnClass": "none"}}, {"type": "Feature", "geometry": {"type": "MultiPolygon", "coordinates": [[[[72.07487139, 34.07764648], [72.07485396, 34.07758048], [72.07476519, 34.07759671], [72.07478262, 34.07766271], [72.07487139, 34.07764648]]]]}, "properties": {"id": "8J6J33HF+2WWR", "height": 3.358340978622437, "hmax": 0.002, "ratio": 0.001, "vulnClass": "none"}}, {"type": "Feature", "geometry": {"type": "MultiPolygon", "coordinates": [[[[72.07454549, 34.07753318], [72.07448916, 34.07754789], [72.0745481, 34.07770414], [72.07460442, 34.07768942], [72.07454549, 34.07753318]]]]}, "properties": {"id": "8J6J33HF+2RVM", "height": 4.560873031616211, "hmax": 0.002, "ratio": 0.0, "vulnClass": "none"}}, {"type": "Feature", "geometry": {"type": "MultiPolygon", "coordinates": [[[[72.07444691, 34.07761371], [72.07440498, 34.07761636], [72.07441032, 34.07767482], [72.07445225, 34.07767217], [72.07444691, 34.07761371]]]]}, "properties": {"id": "8J6J33HF+3Q3P", "height": 2.790851593017578, "hmax": 0.002, "ratio": 0.001, "vulnClass": "none"}}, {"type": "Feature", "geometry": {"type": "MultiPolygon", "coordinates": [[[[72.07443058, 34.07770093], [72.07440101, 34.07762037], [72.0743521, 34.0776328], [72.07438167, 34.07771335], [72.07443058, 34.07770093]]]]}, "properties": {"id": "8J6J33HF+3Q6P", "height": 3.325719118118286, "hmax": 0.002, "ratio": 0.001, "vulnClass": "none"}}, {"type": "Feature", "geometry": {"type": "MultiPolygon", "coordinates": [[[[72.07433292, 34.0775787], [72.07429481, 34.07757524], [72.07428865, 34.07762226], [72.07432677, 34.07762572], [72.07433292, 34.0775787]]]]}, "properties": {"id": "8J6J33HF+2PV5", "height": 3.493039131164551, "hmax": 0.002, "ratio": 0.001, "vulnClass": "none"}}, {"type": "Feature", "geometry": {"type": "MultiPolygon", "coordinates": [[[[72.074488, 34.07753795], [72.07444959, 34.07743339], [72.07439949, 34.07744614], [72.0744379, 34.07755069], [72.074488, 34.07753795]]]]}, "properties": {"id": "8J6J33GF+XQWJ", "height": 3.041957378387451, "hmax": 0.002, "ratio": 0.001, "vulnClass": "none"}}, {"type": "Feature", "geometry": {"type": "MultiPolygon", "coordinates": [[[[72.07462083, 34.07748401], [72.07460417, 34.07744551], [72.0745682, 34.07745629], [72.07458485, 34.07749479], [72.07462083, 34.07748401]]]]}, "properties": {"id": "8J6J33GF+XRQR", "height": 3.116461038589478, "hmax": 0.002, "ratio": 0.001, "vulnClass": "none"}}, {"type": "Feature", "geometry": {"type": "MultiPolygon", "coordinates": [[[[72.07466898, 34.07746958], [72.07465233, 34.07743108], [72.07460417, 34.07744551], [72.07462083, 34.07748401], [72.07466898, 34.07746958]]]]}, "properties": {"id": "8J6J33GF+XVJ7", "height": 3.122692108154297, "hmax": 0.002, "ratio": 0.001, "vulnClass": "none"}}, {"type": "Feature", "geometry": {"type": "MultiPolygon", "coordinates": [[[[72.07482358, 34.07752731], [72.07476937, 34.07738084], [72.07468531, 34.07740238], [72.07473952, 34.07754885], [72.07482358, 34.07752731]]]]}, "properties": {"id": "8J6J33GF+XWJC", "height": 6.401162147521973, "hmax": 0.002, "ratio": 0.0, "vulnClass": "none"}}, {"type": "Feature", "geometry": {"type": "MultiPolygon", "coordinates": [[[[72.07471855, 34.07734206], [72.07468081, 34.07729701], [72.07463896, 34.07732129], [72.07467669, 34.07736633], [72.07471855, 34.07734206]]]]}, "properties": {"id": "8J6J33GF+WVM8", "height": 3.053786277770996, "hmax": 0.002, "ratio": 0.001, "vulnClass": "none"}}, {"type": "Feature", "geometry": {"type": "MultiPolygon", "coordinates": [[[[72.07464555, 34.07733195], [72.07462925, 34.07729417], [72.07458248, 34.07730815], [72.07459878, 34.07734593], [72.07464555, 34.07733195]]]]}, "properties": {"id": "8J6J33GF+WRHW", "height": 2.732082366943359, "hmax": 0.002, "ratio": 0.001, "vulnClass": "none"}}, {"type": "Feature", "geometry": {"type": "MultiPolygon", "coordinates": [[[[72.07468081, 34.07729701], [72.07465178, 34.07726235], [72.07460993, 34.07728663], [72.07463896, 34.07732129], [72.07468081, 34.07729701]]]]}, "properties": {"id": "8J6J33GF+WV6P", "height": 2.468692779541016, "hmax": 0.002, "ratio": 0.001, "vulnClass": "none"}}, {"type": "Feature", "geometry": {"type": "MultiPolygon", "coordinates": [[[[72.074896, 34.07747], [72.0748549, 34.0773589], [72.0747694, 34.0773808], [72.0748105, 34.077492], [72.074896, 34.07747]]]]}, "properties": {"id": "8J6J33GF+XWG4", "height": 6.401162147521973, "hmax": 0.002, "ratio": 0.0, "vulnClass": "none"}}, {"type": "Feature", "geometry": {"type": "MultiPolygon", "coordinates": [[[[72.07556237, 34.0775901], [72.07555853, 34.07753907], [72.07535684, 34.0775496], [72.07536069, 34.07760062], [72.07556237, 34.0775901]]]]}, "properties": {"id": "8J6J33HG+25GP", "height": 2.547282695770264, "hmax": 0.002, "ratio": 0.001, "vulnClass": "none"}}, {"type": "Feature", "geometry": {"type": "MultiPolygon", "coordinates": [[[[72.07583104, 34.07721938], [72.07577962, 34.07721815], [72.07577867, 34.07724595], [72.07583008, 34.07724718], [72.07583104, 34.07721938]]]]}, "properties": {"id": "8J6J33GG+V8V9", "height": 3.451689481735229, "hmax": 0.003, "ratio": 0.001, "vulnClass": "none"}}, {"type": "Feature", "geometry": {"type": "MultiPolygon", "coordinates": [[[[72.07586972, 34.07709504], [72.07583441, 34.07709088], [72.07582773, 34.07713014], [72.07586305, 34.07713429], [72.07586972, 34.07709504]]]]}, "properties": {"id": "8J6J33GG+R8XC", "height": 7.157345294952393, "hmax": 0.003, "ratio": 0.0, "vulnClass": "none"}}, {"type": "Feature", "geometry": {"type": "MultiPolygon", "coordinates": [[[[72.07549574, 34.07673982], [72.07544611, 34.07674132], [72.07545118, 34.07685734], [72.07550081, 34.07685584], [72.07549574, 34.07673982]]]]}, "properties": {"id": "8J6J33GG+P59R", "height": 2.498162031173706, "hmax": 0.003, "ratio": 0.001, "vulnClass": "none"}}, {"type": "Feature", "geometry": {"type": "MultiPolygon", "coordinates": [[[[72.07578517, 34.07713566], [72.07578661, 34.07709382], [72.07566213, 34.07709086], [72.07566069, 34.0771327], [72.07578517, 34.07713566]]]]}, "properties": {"id": "8J6J33GG+R7XC", "height": 3.980853319168091, "hmax": 0.003, "ratio": 0.001, "vulnClass": "none"}}, {"type": "Feature", "geometry": {"type": "MultiPolygon", "coordinates": [[[[72.07546373, 34.07711119], [72.07542995, 34.07711605], [72.07543596, 34.07714503], [72.07546975, 34.07714017], [72.07546373, 34.07711119]]]]}, "properties": {"id": "8J6J33GG+V543", "height": 2.44459867477417, "hmax": 0.003, "ratio": 0.001, "vulnClass": "none"}}, {"type": "Feature", "geometry": {"type": "MultiPolygon", "coordinates": [[[[72.07435829, 34.07748147], [72.07432197, 34.07743313], [72.07420006, 34.07749656], [72.07423639, 34.0775449], [72.07435829, 34.07748147]]]]}, "properties": {"id": "8J6J33GF+XPRH", "height": 3.8694167137146, "hmax": 0.002, "ratio": 0.001, "vulnClass": "none"}}, {"type": "Feature", "geometry": {"type": "MultiPolygon", "coordinates": [[[[72.07424621, 34.0775976], [72.07420175, 34.07760889], [72.07426863, 34.07779112], [72.07444704, 34.07774578], [72.07443058, 34.07770093], [72.07429663, 34.07773497], [72.07424621, 34.0775976]]]]}, "properties": {"id": "8J6J33HF+3PMH", "height": 3.794954538345337, "hmax": 0.002, "ratio": 0.001, "vulnClass": "none"}}, {"type": "Feature", "geometry": {"type": "MultiPolygon", "coordinates": [[[[72.0724845, 34.077852], [72.0724368, 34.0778717], [72.0725655, 34.0780871], [72.0726132, 34.0780674], [72.0724845, 34.077852]]]]}, "properties": {"id": "8J6J33HF+52JQ", "height": 2.456692218780518, "hmax": 0.003, "ratio": 0.001, "vulnClass": "none"}}, {"type": "Feature", "geometry": {"type": "MultiPolygon", "coordinates": [[[[72.06636886, 34.07590055], [72.06634464, 34.07589002], [72.06639321, 34.07581338], [72.06632171, 34.0757823], [72.06621855, 34.0759451], [72.0662564, 34.07596155], [72.06628561, 34.07591546], [72.06634348, 34.07594062], [72.06636886, 34.07590055]]]]}, "properties": {"id": "Pakistan_123102310_137121", "height": 2.488954544067383, "hmax": 0.002, "ratio": 0.001, "vulnClass": "none"}}, {"type": "Feature", "geometry": {"type": "MultiPolygon", "coordinates": [[[[72.06543111, 34.07553578], [72.06543764, 34.07558514], [72.06548004, 34.07558129], [72.06547351, 34.07553193], [72.06543111, 34.07553578]]]]}, "properties": {"id": "Pakistan_123102310_802224", "height": 2.487804174423218, "hmax": 0.003, "ratio": 0.001, "vulnClass": "none"}}, {"type": "Feature", "geometry": {"type": "MultiPolygon", "coordinates": [[[[72.06588646, 34.07577846], [72.06582377, 34.07580394], [72.06585242, 34.07585228], [72.06592807, 34.07582153], [72.06594717, 34.07585375], [72.06629735, 34.07571141], [72.06625067, 34.07563263], [72.06594156, 34.07575828], [72.06584715, 34.07559893], [72.06579311, 34.0756209], [72.06588646, 34.07577846]]]]}, "properties": {"id": "Pakistan_123102310_778611", "height": 3.198556661605835, "hmax": 0.002, "ratio": 0.001, "vulnClass": "none"}}, {"type": "Feature", "geometry": {"type": "MultiPolygon", "coordinates": [[[[72.06579175, 34.07569501], [72.06575621, 34.07561866], [72.06544798, 34.0757171], [72.06547048, 34.07576546], [72.06552653, 34.07574756], [72.06553956, 34.07577557], [72.06579175, 34.07569501]]]]}, "properties": {"id": "Pakistan_123102310_89909", "height": 2.950222492218018, "hmax": 0.002, "ratio": 0.001, "vulnClass": "none"}}, {"type": "Feature", "geometry": {"type": "MultiPolygon", "coordinates": [[[[72.06545522, 34.07542417], [72.06529636, 34.07546343], [72.0653489, 34.07560932], [72.06541294, 34.07559351], [72.06537656, 34.07549249], [72.06547138, 34.07546906], [72.06545522, 34.07542417]]]]}, "properties": {"id": "Pakistan_123102310_873069", "height": 3.428410530090332, "hmax": 0.003, "ratio": 0.001, "vulnClass": "none"}}, {"type": "Feature", "geometry": {"type": "MultiPolygon", "coordinates": [[[[72.06464145, 34.07524794], [72.06454079, 34.07525732], [72.06456461, 34.07543284], [72.06466526, 34.07542346], [72.06464145, 34.07524794]]]]}, "properties": {"id": "Pakistan_123102310_59990", "height": 2.710910797119141, "hmax": 0.002, "ratio": 0.001, "vulnClass": "none"}}, {"type": "Feature", "geometry": {"type": "MultiPolygon", "coordinates": [[[[72.06371381, 34.07496434], [72.06340431, 34.07493405], [72.06339181, 34.0750217], [72.06376215, 34.07505794], [72.06377433, 34.07497248], [72.06397409, 34.07499203], [72.06398253, 34.07493287], [72.06384626, 34.07491954], [72.06387345, 34.07472891], [72.06389726, 34.07473124], [72.06389976, 34.07471371], [72.06386537, 34.07471034], [72.06386474, 34.07471473], [72.063751, 34.0747036], [72.06371381, 34.07496434]]]]}, "properties": {"id": "Pakistan_123102310_759724", "height": 2.526496648788452, "hmax": 0.005, "ratio": 0.002, "vulnClass": "none"}}, {"type": "Feature", "geometry": {"type": "MultiPolygon", "coordinates": [[[[72.06483194, 34.07496348], [72.06487506, 34.07487725], [72.06475516, 34.07483611], [72.06486091, 34.07479735], [72.06492939, 34.07492555], [72.06501687, 34.07489348], [72.0649732, 34.07481174], [72.06498558, 34.0748072], [72.06499734, 34.07482922], [72.06507921, 34.07485731], [72.06515223, 34.07483055], [72.06509565, 34.07472464], [72.0654209, 34.07460544], [72.06534399, 34.07446147], [72.06499407, 34.0745897], [72.06503227, 34.07466123], [72.06488647, 34.07471466], [72.0648567, 34.07465892], [72.06430042, 34.0748628], [72.06435004, 34.0749557], [72.06463491, 34.07485129], [72.06480959, 34.07517829], [72.06492174, 34.07513719], [72.06487311, 34.07504615], [72.06492695, 34.07502642], [72.06489349, 34.07496378], [72.06490748, 34.0749358], [72.06483194, 34.07496348]]]]}, "properties": {"id": "Pakistan_123102310_164850", "height": 2.648538827896118, "hmax": 0.002, "ratio": 0.001, "vulnClass": "none"}}, {"type": "Feature", "geometry": {"type": "MultiPolygon", "coordinates": [[[[72.06589782, 34.07466716], [72.06606552, 34.07505253], [72.06630405, 34.0749813], [72.06625013, 34.07485744], [72.0663071, 34.07484042], [72.06626392, 34.07474121], [72.06645619, 34.0746838], [72.06643052, 34.07462482], [72.06627623, 34.07467088], [72.06628261, 34.07468555], [72.06623988, 34.07469831], [72.06625272, 34.07472781], [72.0662005, 34.0747434], [72.06616456, 34.07466082], [72.0661207, 34.07467392], [72.06614939, 34.07473985], [72.06599623, 34.07478558], [72.06597781, 34.07474325], [72.06602291, 34.07472978], [72.06599467, 34.0746649], [72.06610149, 34.074633], [72.0660818, 34.07458778], [72.06596075, 34.07462393], [72.06597016, 34.07464556], [72.06589782, 34.07466716]]]]}, "properties": {"id": "Pakistan_123102310_536428", "height": 2.746260166168213, "hmax": 0.001, "ratio": 0.0, "vulnClass": "none"}}, {"type": "Feature", "geometry": {"type": "MultiPolygon", "coordinates": [[[[72.06565549, 34.07416105], [72.06548041, 34.07421095], [72.06551506, 34.07429438], [72.06569014, 34.07424449], [72.06565549, 34.07416105]]]]}, "properties": {"id": "Pakistan_123102310_89905", "height": 2.919790506362915, "hmax": 0.003, "ratio": 0.001, "vulnClass": "none"}}, {"type": "Feature", "geometry": {"type": "MultiPolygon", "coordinates": [[[[72.06585585, 34.07399215], [72.06587137, 34.07403118], [72.06595122, 34.07400939], [72.0659357, 34.07397037], [72.06585585, 34.07399215]]]]}, "properties": {"id": "Pakistan_123102310_531718", "height": 3.098833084106445, "hmax": 0.003, "ratio": 0.001, "vulnClass": "none"}}, {"type": "Feature", "geometry": {"type": "MultiPolygon", "coordinates": [[[[72.06575413, 34.07387401], [72.06568975, 34.07388487], [72.06569943, 34.07392428], [72.06576382, 34.07391342], [72.06575413, 34.07387401]]]]}, "properties": {"id": "Pakistan_123102310_707379", "height": 3.397090911865234, "hmax": 0.003, "ratio": 0.001, "vulnClass": "none"}}, {"type": "Feature", "geometry": {"type": "MultiPolygon", "coordinates": [[[[72.06589182, 34.07384378], [72.06590165, 34.07390037], [72.06598049, 34.07389097], [72.06597065, 34.07383438], [72.06589182, 34.07384378]]]]}, "properties": {"id": "Pakistan_123102310_260065", "height": 2.690078258514404, "hmax": 0.003, "ratio": 0.001, "vulnClass": "none"}}, {"type": "Feature", "geometry": {"type": "MultiPolygon", "coordinates": [[[[72.0663334, 34.07278212], [72.06630238, 34.07268208], [72.06624598, 34.07269407], [72.06627699, 34.07279412], [72.0663334, 34.07278212]]]]}, "properties": {"id": "Pakistan_123102310_299766", "height": 2.940005779266357, "hmax": 0.005, "ratio": 0.002, "vulnClass": "none"}}, {"type": "Feature", "geometry": {"type": "MultiPolygon", "coordinates": [[[[72.0700179, 34.07099218], [72.07027558, 34.07096194], [72.07026106, 34.07087699], [72.06996393, 34.07091186], [72.06999248, 34.07107878], [72.07003192, 34.07107415], [72.0700179, 34.07099218]]]]}, "properties": {"id": "Pakistan_123102310_80479", "height": 5.663715839385986, "hmax": 0.02, "ratio": 0.003, "vulnClass": "none"}}, {"type": "Feature", "geometry": {"type": "MultiPolygon", "coordinates": [[[[72.07262302, 34.06923073], [72.07263989, 34.0694431], [72.07281241, 34.06943369], [72.07281416, 34.06945581], [72.07299577, 34.06944591], [72.07298908, 34.06936184], [72.07303983, 34.06935907], [72.07304334, 34.06940332], [72.07307005, 34.06940186], [72.07307603, 34.06947708], [72.07313745, 34.06947373], [72.073116, 34.06920383], [72.07262302, 34.06923073]]]]}, "properties": {"id": "Pakistan_123102310_773926", "height": 3.915886402130127, "hmax": 0.011, "ratio": 0.003, "vulnClass": "none"}}]}