{"type": "FeatureCollection", "features": [{"type": "Feature", "geometry": {"type": "MultiPolygon", "coordinates": [[[[72.10102792, 34.14264175], [72.10096485, 34.14263683], [72.10096057, 34.14267478], [72.10102364, 34.1426797], [72.10102792, 34.14264175]]]]}, "properties": {"id": "8J6J44V2+3999", "height": 2.613399028778076, "hmax": 0.717, "ratio": 0.274, "vulnClass": "low"}}, {"type": "Feature", "geometry": {"type": "MultiPolygon", "coordinates": [[[[72.10096389, 34.14263486], [72.1009266, 34.14263225], [72.10092274, 34.14267037], [72.10096003, 34.14267298], [72.10096389, 34.14263486]]]]}, "properties": {"id": "8J6J44V2+3982", "height": 2.48048996925354, "hmax": 0.717, "ratio": 0.289, "vulnClass": "low"}}, {"type": "Feature", "geometry": {"type": "MultiPolygon", "coordinates": [[[[72.10089574, 34.14263244], [72.10079406, 34.14263933], [72.10079792, 34.14267866], [72.1008996, 34.14267177], [72.10089574, 34.14263244]]]]}, "properties": {"id": "8J6J44V2+3896", "height": 3.834000110626221, "hmax": 0.717, "ratio": 0.187, "vulnClass": "low"}}, {"type": "Feature", "geometry": {"type": "MultiPolygon", "coordinates": [[[[72.09423034, 34.14269877], [72.09422808, 34.14262157], [72.09409242, 34.14262432], [72.09409466, 34.14270078], [72.09423034, 34.14269877]]]]}, "properties": {"id": "8J6J43VV+3M7C", "height": 3.125093460083008, "hmax": 0.124, "ratio": 0.04, "vulnClass": "none"}}, {"type": "Feature", "geometry": {"type": "MultiPolygon", "coordinates": [[[[72.09665544, 34.14269782], [72.09665049, 34.14261266], [72.09656292, 34.14261618], [72.09656787, 34.14270134], [72.09665544, 34.14269782]]]]}, "properties": {"id": "8J6J43VW+3J97", "height": 2.515173435211182, "hmax": 0.364, "ratio": 0.145, "vulnClass": "low"}}, {"type": "Feature", "geometry": {"type": "MultiPolygon", "coordinates": [[[[72.09744431, 34.14264793], [72.09742846, 34.14248864], [72.09732046, 34.14249607], [72.0973363, 34.14265536], [72.09744431, 34.14264793]]]]}, "properties": {"id": "8J6J43VW+2XCR", "height": 3.170939445495605, "hmax": 0.438, "ratio": 0.138, "vulnClass": "low"}}, {"type": "Feature", "geometry": {"type": "MultiPolygon", "coordinates": [[[[72.0979096, 34.1422576], [72.09790239, 34.14216074], [72.09780476, 34.14216576], [72.09780344, 34.14214796], [72.09765198, 34.14215575], [72.0976533, 34.14217354], [72.09737169, 34.14218802], [72.09737889, 34.14228488], [72.0979096, 34.1422576]]]]}, "properties": {"id": "8J6J43RX+V3JP", "height": 3.019589424133301, "hmax": 0.446, "ratio": 0.148, "vulnClass": "low"}}, {"type": "Feature", "geometry": {"type": "MultiPolygon", "coordinates": [[[[72.0976145, 34.14229675], [72.09758248, 34.14229481], [72.09757894, 34.14233527], [72.09761097, 34.14233721], [72.0976145, 34.14229675]]]]}, "properties": {"id": "8J6J43RX+W2HJ", "height": 2.643836975097656, "hmax": 0.438, "ratio": 0.166, "vulnClass": "low"}}, {"type": "Feature", "geometry": {"type": "MultiPolygon", "coordinates": [[[[72.09768206, 34.14229863], [72.09762325, 34.14230012], [72.09762462, 34.14233748], [72.0975796, 34.14233862], [72.09758276, 34.14242474], [72.09770847, 34.14242155], [72.09770665, 34.14237186], [72.09768477, 34.14237242], [72.09768206, 34.14229863]]]]}, "properties": {"id": "8J6J43RX+W3RW", "height": 2.585620880126953, "hmax": 0.438, "ratio": 0.169, "vulnClass": "low"}}, {"type": "Feature", "geometry": {"type": "MultiPolygon", "coordinates": [[[[72.09739302, 34.14177228], [72.09738926, 34.14172167], [72.09725101, 34.14172877], [72.09725476, 34.14177938], [72.09739302, 34.14177228]]]]}, "properties": {"id": "8J6J43RW+PW43", "height": 3.063490867614746, "hmax": 0.683, "ratio": 0.223, "vulnClass": "low"}}, {"type": "Feature", "geometry": {"type": "MultiPolygon", "coordinates": [[[[72.09724879, 34.1416989], [72.0971601, 34.14170346], [72.09716608, 34.14178394], [72.09725476, 34.14177938], [72.09724879, 34.1416989]]]]}, "properties": {"id": "8J6J43RW+MVWP", "height": 3.063490867614746, "hmax": 0.683, "ratio": 0.223, "vulnClass": "low"}}, {"type": "Feature", "geometry": {"type": "MultiPolygon", "coordinates": [[[[72.09716608, 34.14178394], [72.0971601, 34.14170346], [72.09700184, 34.14171158], [72.09700782, 34.14179206], [72.09716608, 34.14178394]]]]}, "properties": {"id": "8J6J43RW+MRWW", "height": 3.13483190536499, "hmax": 0.683, "ratio": 0.218, "vulnClass": "low"}}, {"type": "Feature", "geometry": {"type": "MultiPolygon", "coordinates": [[[[72.09690871, 34.14162903], [72.0967533, 34.14163887], [72.09676046, 34.141717], [72.09686431, 34.14171042], [72.0968711, 34.14178456], [72.09692265, 34.1417813], [72.09690871, 34.14162903]]]]}, "properties": {"id": "8J6J43RW+MPHJ", "height": 2.649435043334961, "hmax": 0.683, "ratio": 0.258, "vulnClass": "low"}}, {"type": "Feature", "geometry": {"type": "MultiPolygon", "coordinates": [[[[72.0978782, 34.1418419], [72.0978712, 34.1417477], [72.0968852, 34.1417984], [72.0968905, 34.1418706], [72.0968922, 34.1418925], [72.0978782, 34.1418419]]]]}, "properties": {"id": "8J6J43RW+PXCR", "height": 5.082490921020508, "hmax": 0.683, "ratio": 0.134, "vulnClass": "low"}}, {"type": "Feature", "geometry": {"type": "MultiPolygon", "coordinates": [[[[72.0968687, 34.14175832], [72.09681738, 34.14176157], [72.09681978, 34.14178781], [72.0968711, 34.14178456], [72.0968687, 34.14175832]]]]}, "properties": {"id": "8J6J43RW+PP5R", "height": 2.494892597198486, "hmax": 0.683, "ratio": 0.274, "vulnClass": "low"}}, {"type": "Feature", "geometry": {"type": "MultiPolygon", "coordinates": [[[[72.0969387, 34.1420907], [72.0969721, 34.1423328], [72.0971814, 34.1423128], [72.0971481, 34.1420708], [72.0969387, 34.1420907]]]]}, "properties": {"id": "8J6J43RW+VRM5", "height": 3.943560123443604, "hmax": 0.438, "ratio": 0.111, "vulnClass": "low"}}, {"type": "Feature", "geometry": {"type": "MultiPolygon", "coordinates": [[[[72.09584846, 34.14193011], [72.09579245, 34.14193343], [72.09579505, 34.14196375], [72.09585105, 34.14196043], [72.09584846, 34.14193011]]]]}, "properties": {"id": "8J6J43RW+Q8GV", "height": 2.505298376083374, "hmax": 0.364, "ratio": 0.145, "vulnClass": "low"}}, {"type": "Feature", "geometry": {"type": "MultiPolygon", "coordinates": [[[[72.09662483, 34.14227296], [72.09662334, 34.14225377], [72.09652512, 34.14225903], [72.09653212, 34.14234931], [72.09659486, 34.14234595], [72.09658936, 34.14227486], [72.09662483, 34.14227296]]]]}, "properties": {"id": "8J6J43RW+WJ8R", "height": 2.496342182159424, "hmax": 0.364, "ratio": 0.146, "vulnClass": "low"}}, {"type": "Feature", "geometry": {"type": "MultiPolygon", "coordinates": [[[[72.0966916, 34.14223145], [72.0966219, 34.14223519], [72.09662483, 34.14227296], [72.09669452, 34.14226922], [72.0966916, 34.14223145]]]]}, "properties": {"id": "8J6J43RW+WM32", "height": 3.456247091293335, "hmax": 0.364, "ratio": 0.105, "vulnClass": "low"}}, {"type": "Feature", "geometry": {"type": "MultiPolygon", "coordinates": [[[[72.09672865, 34.14257506], [72.09672491, 34.14249758], [72.09662304, 34.14250098], [72.09662877, 34.14261983], [72.0966715, 34.1426184], [72.09666951, 34.14257704], [72.09672865, 34.14257506]]]]}, "properties": {"id": "8J6J43VW+2M7V", "height": 2.515173435211182, "hmax": 0.364, "ratio": 0.145, "vulnClass": "low"}}, {"type": "Feature", "geometry": {"type": "MultiPolygon", "coordinates": [[[[72.09623044, 34.14251383], [72.09613517, 34.14251643], [72.09613673, 34.14255587], [72.096232, 34.14255326], [72.09623044, 34.14251383]]]]}, "properties": {"id": "8J6J43VW+2F79", "height": 2.447145938873291, "hmax": 0.364, "ratio": 0.149, "vulnClass": "low"}}, {"type": "Feature", "geometry": {"type": "MultiPolygon", "coordinates": [[[[72.09483204, 34.14248267], [72.09478668, 34.14248159], [72.09478551, 34.14251578], [72.09483087, 34.14251686], [72.09483204, 34.14248267]]]]}, "properties": {"id": "8J6J43RV+XWVX", "height": 2.957841157913208, "hmax": 0.311, "ratio": 0.105, "vulnClass": "low"}}, {"type": "Feature", "geometry": {"type": "MultiPolygon", "coordinates": [[[[72.09455803, 34.14246085], [72.09455711, 34.14243709], [72.09449631, 34.14243871], [72.09450126, 34.14256634], [72.09456205, 34.14256471], [72.09456094, 34.14253591], [72.09460528, 34.14253472], [72.09460238, 34.14245967], [72.09455803, 34.14246085]]]]}, "properties": {"id": "8J6J43VV+2R33", "height": 4.204619407653809, "hmax": 0.124, "ratio": 0.03, "vulnClass": "none"}}, {"type": "Feature", "geometry": {"type": "MultiPolygon", "coordinates": [[[[72.09443618, 34.14238019], [72.0944349, 34.14234708], [72.09424973, 34.14235204], [72.09425426, 34.14246899], [72.09421822, 34.14246995], [72.09422113, 34.14254501], [72.09425717, 34.14254405], [72.09426115, 34.14264695], [72.09444633, 34.14264199], [72.09444478, 34.14260214], [72.09450258, 34.14260059], [72.09449399, 34.14237864], [72.09443618, 34.14238019]]]]}, "properties": {"id": "8J6J43RV+XPXW", "height": 3.749270677566528, "hmax": 0.124, "ratio": 0.033, "vulnClass": "none"}}, {"type": "Feature", "geometry": {"type": "MultiPolygon", "coordinates": [[[[72.09413503, 34.14210004], [72.09407173, 34.14210156], [72.09407853, 34.14229824], [72.09418478, 34.1422957], [72.09418048, 34.14217115], [72.09413752, 34.14217218], [72.09413503, 34.14210004]]]]}, "properties": {"id": "8J6J43RV+VJQ9", "height": 4.049314022064209, "hmax": 0.124, "ratio": 0.031, "vulnClass": "none"}}, {"type": "Feature", "geometry": {"type": "MultiPolygon", "coordinates": [[[[72.0940779, 34.1421961], [72.0940801, 34.1421719], [72.0939983, 34.1421667], [72.093996, 34.1421909], [72.0940779, 34.1421961]]]]}, "properties": {"id": "8J6J43RV+VJF6", "height": 4.558408737182617, "hmax": 0.124, "ratio": 0.027, "vulnClass": "none"}}, {"type": "Feature", "geometry": {"type": "MultiPolygon", "coordinates": [[[[72.09401767, 34.14216467], [72.09402308, 34.14207785], [72.093978, 34.14207591], [72.09397672, 34.14209638], [72.09391507, 34.14209372], [72.09391093, 34.14216006], [72.09401767, 34.14216467]]]]}, "properties": {"id": "8J6J43RV+RHXR", "height": 3.918405055999756, "hmax": 0.124, "ratio": 0.032, "vulnClass": "none"}}, {"type": "Feature", "geometry": {"type": "MultiPolygon", "coordinates": [[[[72.09385294, 34.1413163], [72.0937616, 34.14132963], [72.09377516, 34.14139388], [72.09382307, 34.14138689], [72.09382913, 34.14141559], [72.09381288, 34.14141796], [72.09386696, 34.1416742], [72.09388321, 34.14167183], [72.09389154, 34.14171129], [72.09402513, 34.14169179], [72.09395242, 34.1413473], [72.09386225, 34.14136045], [72.09385294, 34.1413163]]]]}, "properties": {"id": "8J6J43RV+JH2H", "height": 2.518494844436646, "hmax": 0.334, "ratio": 0.133, "vulnClass": "low"}}, {"type": "Feature", "geometry": {"type": "MultiPolygon", "coordinates": [[[[72.09438791, 34.14087057], [72.09438461, 34.14082931], [72.09417055, 34.14084114], [72.09417384, 34.1408824], [72.09438791, 34.14087057]]]]}, "properties": {"id": "8J6J43RV+8PR9", "height": 2.789687633514404, "hmax": 0.476, "ratio": 0.171, "vulnClass": "low"}}, {"type": "Feature", "geometry": {"type": "MultiPolygon", "coordinates": [[[[72.09391975, 34.14075913], [72.09379095, 34.14076425], [72.09379519, 34.14083802], [72.09392399, 34.1408329], [72.09391975, 34.14075913]]]]}, "properties": {"id": "8J6J43RV+8G9V", "height": 3.455787897109985, "hmax": 0.476, "ratio": 0.138, "vulnClass": "low"}}, {"type": "Feature", "geometry": {"type": "MultiPolygon", "coordinates": [[[[72.09384224, 34.14070064], [72.09378742, 34.14070282], [72.09379095, 34.14076425], [72.09384577, 34.14076207], [72.09384224, 34.14070064]]]]}, "properties": {"id": "8J6J43RV+7GW6", "height": 3.363825798034668, "hmax": 0.476, "ratio": 0.142, "vulnClass": "low"}}, {"type": "Feature", "geometry": {"type": "MultiPolygon", "coordinates": [[[[72.09392269, 34.14068154], [72.09392476, 34.14066263], [72.09386679, 34.14065825], [72.09386473, 34.14067716], [72.09392269, 34.14068154]]]]}, "properties": {"id": "8J6J43RV+7H6P", "height": 2.743083477020264, "hmax": 0.476, "ratio": 0.174, "vulnClass": "low"}}, {"type": "Feature", "geometry": {"type": "MultiPolygon", "coordinates": [[[[72.09498303, 34.14082604], [72.09492089, 34.1408286], [72.0949239, 34.14087913], [72.09498604, 34.14087657], [72.09498303, 34.14082604]]]]}, "properties": {"id": "8J6J43RV+8XW4", "height": 4.941667556762695, "hmax": 0.751, "ratio": 0.152, "vulnClass": "low"}}, {"type": "Feature", "geometry": {"type": "MultiPolygon", "coordinates": [[[[72.09647921, 34.14140358], [72.09643389, 34.14140664], [72.09644017, 34.14147088], [72.09656105, 34.1414627], [72.09655682, 34.1414194], [72.09648126, 34.14142452], [72.09647921, 34.14140358]]]]}, "properties": {"id": "8J6J43RW+HHHQ", "height": 2.6634681224823, "hmax": 0.685, "ratio": 0.257, "vulnClass": "low"}}, {"type": "Feature", "geometry": {"type": "MultiPolygon", "coordinates": [[[[72.09641399, 34.14142907], [72.09636664, 34.14143227], [72.09637182, 34.14148514], [72.09641916, 34.14148194], [72.09641399, 34.14142907]]]]}, "properties": {"id": "8J6J43RW+HHJ8", "height": 2.50631856918335, "hmax": 0.685, "ratio": 0.273, "vulnClass": "low"}}, {"type": "Feature", "geometry": {"type": "MultiPolygon", "coordinates": [[[[72.09645189, 34.14159063], [72.09635885, 34.14159692], [72.09636426, 34.14165226], [72.09645731, 34.14164597], [72.09645189, 34.14159063]]]]}, "properties": {"id": "8J6J43RW+JHVR", "height": 2.669099092483521, "hmax": 0.685, "ratio": 0.257, "vulnClass": "low"}}, {"type": "Feature", "geometry": {"type": "MultiPolygon", "coordinates": [[[[72.09671567, 34.14157278], [72.09657277, 34.14158245], [72.09657706, 34.1416263], [72.09671996, 34.14161664], [72.09671567, 34.14157278]]]]}, "properties": {"id": "8J6J43RW+JMJW", "height": 2.468935966491699, "hmax": 0.685, "ratio": 0.277, "vulnClass": "low"}}, {"type": "Feature", "geometry": {"type": "MultiPolygon", "coordinates": [[[[72.09657706, 34.1416263], [72.09656199, 34.14147227], [72.09648643, 34.14147739], [72.09649498, 34.14156479], [72.09644966, 34.14156786], [72.09645618, 34.14163448], [72.09657706, 34.1416263]]]]}, "properties": {"id": "8J6J43RW+JJCG", "height": 2.669099092483521, "hmax": 0.685, "ratio": 0.257, "vulnClass": "low"}}, {"type": "Feature", "geometry": {"type": "MultiPolygon", "coordinates": [[[[72.0970676, 34.1414381], [72.0969102, 34.1414487], [72.0969264, 34.1416142], [72.0970078, 34.1416087], [72.0969981, 34.141509], [72.097074, 34.1415038], [72.0970676, 34.1414381]]]]}, "properties": {"id": "8J6J43RW+JQ5F", "height": 2.79765248298645, "hmax": 0.683, "ratio": 0.244, "vulnClass": "low"}}, {"type": "Feature", "geometry": {"type": "MultiPolygon", "coordinates": [[[[72.09764871, 34.1417352], [72.09764115, 34.14163347], [72.09759558, 34.14163581], [72.09759303, 34.14160153], [72.09752587, 34.14160498], [72.09753013, 34.14166241], [72.09747996, 34.14166498], [72.09747569, 34.14160756], [72.0973808, 34.14161244], [72.09739091, 34.14174845], [72.09764871, 34.1417352]]]]}, "properties": {"id": "8J6J43RX+M2C7", "height": 2.727637767791748, "hmax": 0.683, "ratio": 0.25, "vulnClass": "low"}}, {"type": "Feature", "geometry": {"type": "MultiPolygon", "coordinates": [[[[72.09757066, 34.1415714], [72.09756857, 34.14152868], [72.09747566, 34.14153183], [72.09747775, 34.14157455], [72.09757066, 34.1415714]]]]}, "properties": {"id": "8J6J43RX+J2C4", "height": 2.473886728286743, "hmax": 0.683, "ratio": 0.276, "vulnClass": "low"}}, {"type": "Feature", "geometry": {"type": "MultiPolygon", "coordinates": [[[[72.09781069, 34.14172624], [72.09780057, 34.14159001], [72.0976373, 34.1415984], [72.09764742, 34.14173462], [72.09781069, 34.14172624]]]]}, "properties": {"id": "8J6J43RX+M39C", "height": 2.75950288772583, "hmax": 0.683, "ratio": 0.247, "vulnClass": "low"}}, {"type": "Feature", "geometry": {"type": "MultiPolygon", "coordinates": [[[[72.09909995, 34.14125967], [72.09909084, 34.14119235], [72.09900657, 34.14120024], [72.09901988, 34.14129861], [72.09897596, 34.14130272], [72.09898097, 34.14133978], [72.09914181, 34.14132472], [72.09913259, 34.14125661], [72.09909995, 34.14125967]]]]}, "properties": {"id": "8J6J43RX+GJ3X", "height": 2.525840997695923, "hmax": 0.796, "ratio": 0.315, "vulnClass": "moderate"}}, {"type": "Feature", "geometry": {"type": "MultiPolygon", "coordinates": [[[[72.09973071, 34.14159613], [72.09971389, 34.14145204], [72.09947036, 34.1414717], [72.09948718, 34.1416158], [72.09973071, 34.14159613]]]]}, "properties": {"id": "8J6J43RX+JR96", "height": 3.0659499168396, "hmax": 0.799, "ratio": 0.261, "vulnClass": "low"}}, {"type": "Feature", "geometry": {"type": "MultiPolygon", "coordinates": [[[[72.09830203, 34.14136012], [72.09829709, 34.14125671], [72.09825586, 34.14125808], [72.0982608, 34.14136148], [72.09830203, 34.14136012]]]]}, "properties": {"id": "8J6J43RX+G8C9", "height": 3.131556749343872, "hmax": 0.713, "ratio": 0.228, "vulnClass": "low"}}, {"type": "Feature", "geometry": {"type": "MultiPolygon", "coordinates": [[[[72.0982397, 34.14138848], [72.09813764, 34.14139284], [72.09814418, 34.14149883], [72.09818829, 34.14149695], [72.09818664, 34.14147028], [72.0982446, 34.14146781], [72.0982397, 34.14138848]]]]}, "properties": {"id": "8J6J43RX+H7GC", "height": 2.511815786361694, "hmax": 0.713, "ratio": 0.284, "vulnClass": "low"}}, {"type": "Feature", "geometry": {"type": "MultiPolygon", "coordinates": [[[[72.0979873, 34.14174093], [72.09787163, 34.14174687], [72.09790564, 34.1422044], [72.09793271, 34.14220301], [72.09793666, 34.14225621], [72.09802527, 34.14225166], [72.0979873, 34.14174093]]]]}, "properties": {"id": "8J6J43RX+Q5WM", "height": 4.044207572937012, "hmax": 0.639, "ratio": 0.158, "vulnClass": "low"}}, {"type": "Feature", "geometry": {"type": "MultiPolygon", "coordinates": [[[[72.09772857, 34.14227544], [72.09768267, 34.14227765], [72.09768442, 34.14230268], [72.09773031, 34.14230047], [72.09772857, 34.14227544]]]]}, "properties": {"id": "8J6J43RX+W38G", "height": 2.799052476882935, "hmax": 0.438, "ratio": 0.157, "vulnClass": "low"}}, {"type": "Feature", "geometry": {"type": "MultiPolygon", "coordinates": [[[[72.09782626, 34.14229586], [72.09777666, 34.14228984], [72.09775531, 34.14241138], [72.09788413, 34.14242702], [72.09789047, 34.14239089], [72.09781127, 34.14238127], [72.09782626, 34.14229586]]]]}, "properties": {"id": "8J6J43RX+W4VQ", "height": 2.761753797531128, "hmax": 0.449, "ratio": 0.163, "vulnClass": "low"}}, {"type": "Feature", "geometry": {"type": "MultiPolygon", "coordinates": [[[[72.09830704, 34.14222568], [72.0982345, 34.14222692], [72.09823665, 34.14231324], [72.09830919, 34.14231199], [72.09830704, 34.14222568]]]]}, "properties": {"id": "8J6J43RX+W82P", "height": 2.443802118301392, "hmax": 0.592, "ratio": 0.242, "vulnClass": "low"}}, {"type": "Feature", "geometry": {"type": "MultiPolygon", "coordinates": [[[[72.09880622, 34.14211465], [72.098726, 34.14211785], [72.09872712, 34.14213733], [72.09880734, 34.14213412], [72.09880622, 34.14211465]]]]}, "properties": {"id": "8J6J43RX+VG24", "height": 2.584438323974609, "hmax": 0.592, "ratio": 0.229, "vulnClass": "low"}}, {"type": "Feature", "geometry": {"type": "MultiPolygon", "coordinates": [[[[72.09968646, 34.14169055], [72.09968182, 34.14162876], [72.09954525, 34.14163585], [72.09954989, 34.14169764], [72.09968646, 34.14169055]]]]}, "properties": {"id": "8J6J43RX+MR9G", "height": 2.692309379577637, "hmax": 0.799, "ratio": 0.297, "vulnClass": "low"}}, {"type": "Feature", "geometry": {"type": "MultiPolygon", "coordinates": [[[[72.09983729, 34.14168272], [72.09983265, 34.14162093], [72.09968182, 34.14162876], [72.09968646, 34.14169055], [72.09983729, 34.14168272]]]]}, "properties": {"id": "8J6J43RX+MW67", "height": 2.88319993019104, "hmax": 0.799, "ratio": 0.277, "vulnClass": "low"}}, {"type": "Feature", "geometry": {"type": "MultiPolygon", "coordinates": [[[[72.09990399, 34.14175031], [72.09989403, 34.14161774], [72.09983265, 34.14162093], [72.09984261, 34.1417535], [72.09990399, 34.14175031]]]]}, "properties": {"id": "8J6J43RX+MWHH", "height": 2.826119422912598, "hmax": 0.799, "ratio": 0.283, "vulnClass": "low"}}, {"type": "Feature", "geometry": {"type": "MultiPolygon", "coordinates": [[[[72.09983729, 34.14168272], [72.09968646, 34.14169055], [72.09969003, 34.14173806], [72.0997738, 34.14173371], [72.09977555, 34.14175698], [72.09984261, 34.1417535], [72.09983729, 34.14168272]]]]}, "properties": {"id": "8J6J43RX+MWJP", "height": 3.058870792388916, "hmax": 0.799, "ratio": 0.261, "vulnClass": "low"}}, {"type": "Feature", "geometry": {"type": "MultiPolygon", "coordinates": [[[[72.10053648, 34.14256155], [72.10053129, 34.14248955], [72.10036155, 34.14249802], [72.10037095, 34.1426283], [72.10046814, 34.14262345], [72.10046394, 34.14256517], [72.10053648, 34.14256155]]]]}, "properties": {"id": "8J6J44V2+25G2", "height": 3.996595621109009, "hmax": 0.717, "ratio": 0.179, "vulnClass": "low"}}, {"type": "Feature", "geometry": {"type": "MultiPolygon", "coordinates": [[[[72.10057589, 34.14238776], [72.10052456, 34.14239019], [72.10053131, 34.14248875], [72.10058264, 34.14248632], [72.10057589, 34.14238776]]]]}, "properties": {"id": "8J6J44R2+X6FG", "height": 2.654302835464478, "hmax": 0.717, "ratio": 0.27, "vulnClass": "low"}}, {"type": "Feature", "geometry": {"type": "MultiPolygon", "coordinates": [[[[72.10116402, 34.1424588], [72.10115366, 34.1423075], [72.1010874, 34.14231064], [72.10109101, 34.14236337], [72.10105142, 34.14236525], [72.10104781, 34.14231252], [72.10099576, 34.14231498], [72.10100612, 34.14246627], [72.10116402, 34.1424588]]]]}, "properties": {"id": "8J6J44R2+XC4P", "height": 3.212442398071289, "hmax": 0.705, "ratio": 0.22, "vulnClass": "low"}}, {"type": "Feature", "geometry": {"type": "MultiPolygon", "coordinates": [[[[72.10077534, 34.14235543], [72.10077193, 34.14232148], [72.10066691, 34.14232877], [72.10067274, 34.14238678], [72.10075103, 34.14238134], [72.10074861, 34.14235728], [72.10077534, 34.14235543]]]]}, "properties": {"id": "8J6J44R2+W7W5", "height": 2.894331932067871, "hmax": 0.717, "ratio": 0.248, "vulnClass": "low"}}, {"type": "Feature", "geometry": {"type": "MultiPolygon", "coordinates": [[[[72.10083983, 34.14244254], [72.10078767, 34.14243769], [72.10078303, 34.1424722], [72.1008347, 34.14247745], [72.10083983, 34.14244254]]]]}, "properties": {"id": "8J6J44R2+X8M9", "height": 2.822916984558105, "hmax": 0.717, "ratio": 0.254, "vulnClass": "low"}}, {"type": "Feature", "geometry": {"type": "MultiPolygon", "coordinates": [[[[72.10076907, 34.1424775], [72.10076447, 34.14241033], [72.10068458, 34.14241411], [72.10068918, 34.14248128], [72.10076907, 34.1424775]]]]}, "properties": {"id": "8J6J44R2+X7HV", "height": 3.423282623291016, "hmax": 0.717, "ratio": 0.209, "vulnClass": "low"}}, {"type": "Feature", "geometry": {"type": "MultiPolygon", "coordinates": [[[[72.10091554, 34.14260101], [72.10090663, 34.14247098], [72.10086792, 34.14247282], [72.10087157, 34.14252619], [72.10083069, 34.14252812], [72.10083594, 34.14260478], [72.10091554, 34.14260101]]]]}, "properties": {"id": "8J6J44V2+296R", "height": 5.368572235107422, "hmax": 0.717, "ratio": 0.134, "vulnClass": "low"}}, {"type": "Feature", "geometry": {"type": "MultiPolygon", "coordinates": [[[[72.10101427, 34.14257531], [72.10101073, 34.14252621], [72.10091019, 34.14253122], [72.10091524, 34.14260115], [72.10094428, 34.1425997], [72.10094278, 34.14257887], [72.10101427, 34.14257531]]]]}, "properties": {"id": "8J6J44V2+29G8", "height": 3.051214933395386, "hmax": 0.717, "ratio": 0.235, "vulnClass": "low"}}, {"type": "Feature", "geometry": {"type": "MultiPolygon", "coordinates": [[[[72.10116402, 34.1424588], [72.10100612, 34.14246627], [72.10101085, 34.14253531], [72.10110249, 34.14253097], [72.10110667, 34.14259196], [72.10117293, 34.14258882], [72.10116402, 34.1424588]]]]}, "properties": {"id": "8J6J44V2+2C5C", "height": 3.212442398071289, "hmax": 0.695, "ratio": 0.216, "vulnClass": "low"}}, {"type": "Feature", "geometry": {"type": "MultiPolygon", "coordinates": [[[[72.10097649, 34.14252122], [72.10097168, 34.1424509], [72.10090547, 34.14245404], [72.10091029, 34.14252435], [72.10097649, 34.14252122]]]]}, "properties": {"id": "8J6J44R2+X9WC", "height": 3.216988325119019, "hmax": 0.717, "ratio": 0.223, "vulnClass": "low"}}, {"type": "Feature", "geometry": {"type": "MultiPolygon", "coordinates": [[[[72.10100257, 34.14241453], [72.10093865, 34.14241756], [72.10094103, 34.14245236], [72.10100496, 34.14244933], [72.10100257, 34.14241453]]]]}, "properties": {"id": "8J6J44R2+X9H6", "height": 3.126683235168457, "hmax": 0.717, "ratio": 0.229, "vulnClass": "low"}}, {"type": "Feature", "geometry": {"type": "MultiPolygon", "coordinates": [[[[72.10131969, 34.14238404], [72.10115942, 34.14239163], [72.10116402, 34.1424588], [72.10132429, 34.14245121], [72.10131969, 34.14238404]]]]}, "properties": {"id": "8J6J44R2+XF9W", "height": 2.880114316940308, "hmax": 0.668, "ratio": 0.232, "vulnClass": "low"}}, {"type": "Feature", "geometry": {"type": "MultiPolygon", "coordinates": [[[[72.10159201, 34.14230904], [72.10155602, 34.14230819], [72.10155417, 34.14236223], [72.10159016, 34.14236308], [72.10159201, 34.14230904]]]]}, "properties": {"id": "8J6J44R2+WJPF", "height": 2.824731111526489, "hmax": 0.668, "ratio": 0.236, "vulnClass": "low"}}, {"type": "Feature", "geometry": {"type": "MultiPolygon", "coordinates": [[[[72.1015417, 34.1422862], [72.1014832, 34.1422883], [72.1014901, 34.1424184], [72.1015486, 34.1424162], [72.1015417, 34.1422862]]]]}, "properties": {"id": "8J6J44R2+WJR4", "height": 2.824731111526489, "hmax": 0.668, "ratio": 0.236, "vulnClass": "low"}}, {"type": "Feature", "geometry": {"type": "MultiPolygon", "coordinates": [[[[72.10139948, 34.14226109], [72.10139601, 34.14221854], [72.1013348, 34.14222199], [72.10133828, 34.14226454], [72.10139948, 34.14226109]]]]}, "properties": {"id": "8J6J44R2+VGXP", "height": 3.140056610107422, "hmax": 0.668, "ratio": 0.213, "vulnClass": "low"}}, {"type": "Feature", "geometry": {"type": "MultiPolygon", "coordinates": [[[[72.10133055, 34.14215584], [72.10128979, 34.14215402], [72.10128639, 34.14220671], [72.10132716, 34.14220852], [72.10133055, 34.14215584]]]]}, "properties": {"id": "8J6J44R2+VGF9", "height": 2.577248573303223, "hmax": 0.668, "ratio": 0.259, "vulnClass": "low"}}, {"type": "Feature", "geometry": {"type": "MultiPolygon", "coordinates": [[[[72.10165176, 34.14245233], [72.10164326, 34.14228355], [72.10158986, 34.14228541], [72.10159836, 34.1424542], [72.10165176, 34.14245233]]]]}, "properties": {"id": "8J6J44R2+WJXQ", "height": 2.700506687164307, "hmax": 0.668, "ratio": 0.247, "vulnClass": "low"}}, {"type": "Feature", "geometry": {"type": "MultiPolygon", "coordinates": [[[[72.10218322, 34.14214821], [72.1021463, 34.14214654], [72.10214196, 34.14221283], [72.10217888, 34.1422145], [72.10218322, 34.14214821]]]]}, "properties": {"id": "8J6J44R2+VVF6", "height": 2.894581317901611, "hmax": 0.668, "ratio": 0.231, "vulnClass": "low"}}, {"type": "Feature", "geometry": {"type": "MultiPolygon", "coordinates": [[[[72.10223977, 34.14215247], [72.10224068, 34.14211514], [72.1021901, 34.1421143], [72.10218919, 34.14215162], [72.10223977, 34.14215247]]]]}, "properties": {"id": "8J6J44R2+VV49", "height": 3.208412885665894, "hmax": 0.826, "ratio": 0.257, "vulnClass": "low"}}, {"type": "Feature", "geometry": {"type": "MultiPolygon", "coordinates": [[[[72.10186658, 34.14256762], [72.10186068, 34.14242911], [72.1016526, 34.14243523], [72.10165849, 34.14257375], [72.10186658, 34.14256762]]]]}, "properties": {"id": "8J6J44V2+2P23", "height": 3.601279020309448, "hmax": 0.668, "ratio": 0.185, "vulnClass": "low"}}, {"type": "Feature", "geometry": {"type": "MultiPolygon", "coordinates": [[[[72.09617848, 34.12798638], [72.09614346, 34.12796495], [72.09603381, 34.12808885], [72.09623053, 34.12820924], [72.09631904, 34.12810923], [72.09617781, 34.1280228], [72.09616446, 34.12803789], [72.09614398, 34.12802536], [72.09617848, 34.12798638]]]]}, "properties": {"id": "8J6J43HW+6FMW", "height": 3.123143434524536, "hmax": 2.133, "ratio": 0.683, "vulnClass": "high"}}, {"type": "Feature", "geometry": {"type": "MultiPolygon", "coordinates": [[[[72.09750348, 34.13289062], [72.09738449, 34.13280295], [72.0973051, 34.13287745], [72.09745872, 34.13299064], [72.09749593, 34.13295572], [72.0974613, 34.1329302], [72.09750348, 34.13289062]]]]}, "properties": {"id": "8J6J43MW+5X3J", "height": 2.536023378372192, "hmax": 1.824, "ratio": 0.719, "vulnClass": "high"}}, {"type": "Feature", "geometry": {"type": "MultiPolygon", "coordinates": [[[[72.0972651, 34.13284797], [72.09724536, 34.13286649], [72.09740435, 34.13298365], [72.09742409, 34.13296513], [72.0972651, 34.13284797]]]]}, "properties": {"id": "8J6J43MW+5W8P", "height": 2.536023378372192, "hmax": 1.829, "ratio": 0.721, "vulnClass": "high"}}, {"type": "Feature", "geometry": {"type": "MultiPolygon", "coordinates": [[[[72.0974715, 34.13302089], [72.09727328, 34.13287592], [72.09717491, 34.13296892], [72.09737313, 34.13311389], [72.0974715, 34.13302089]]]]}, "properties": {"id": "8J6J43MW+5WWM", "height": 4.289206504821777, "hmax": 1.839, "ratio": 0.429, "vulnClass": "moderate"}}, {"type": "Feature", "geometry": {"type": "MultiPolygon", "coordinates": [[[[72.0962695, 34.13376701], [72.09623416, 34.13375681], [72.09622099, 34.13378839], [72.09625633, 34.13379858], [72.0962695, 34.13376701]]]]}, "properties": {"id": "8J6J43MW+GF95", "height": 3.767264842987061, "hmax": 1.68, "ratio": 0.446, "vulnClass": "moderate"}}, {"type": "Feature", "geometry": {"type": "MultiPolygon", "coordinates": [[[[72.09624479, 34.13376573], [72.09627629, 34.13371195], [72.09623336, 34.13369457], [72.09620186, 34.13374834], [72.09624479, 34.13376573]]]]}, "properties": {"id": "8J6J43MW+FFX8", "height": 2.497708320617676, "hmax": 1.678, "ratio": 0.672, "vulnClass": "high"}}, {"type": "Feature", "geometry": {"type": "MultiPolygon", "coordinates": [[[[72.09624067, 34.13386711], [72.09616113, 34.13383986], [72.09613132, 34.13390002], [72.09621086, 34.13392727], [72.09624067, 34.13386711]]]]}, "properties": {"id": "8J6J43MW+HF39", "height": 3.195596694946289, "hmax": 1.698, "ratio": 0.531, "vulnClass": "moderate"}}, {"type": "Feature", "geometry": {"type": "MultiPolygon", "coordinates": [[[[72.09572023, 34.13500561], [72.09564847, 34.13498691], [72.09561314, 34.13508068], [72.0956849, 34.13509938], [72.09572023, 34.13500561]]]]}, "properties": {"id": "8J6J43PW+277M", "height": 2.739503145217896, "hmax": 1.185, "ratio": 0.433, "vulnClass": "moderate"}}, {"type": "Feature", "geometry": {"type": "MultiPolygon", "coordinates": [[[[72.09575697, 34.1351486], [72.09567445, 34.1351271], [72.09566357, 34.13515599], [72.09574609, 34.13517749], [72.09575697, 34.1351486]]]]}, "properties": {"id": "8J6J43PW+3784", "height": 3.694999217987061, "hmax": 1.185, "ratio": 0.321, "vulnClass": "moderate"}}, {"type": "Feature", "geometry": {"type": "MultiPolygon", "coordinates": [[[[72.09569284, 34.13524525], [72.09553338, 34.13518786], [72.0954632, 34.13532271], [72.09562266, 34.1353801], [72.09569284, 34.13524525]]]]}, "properties": {"id": "8J6J43PW+4687", "height": 3.423120737075806, "hmax": 1.185, "ratio": 0.346, "vulnClass": "moderate"}}, {"type": "Feature", "geometry": {"type": "MultiPolygon", "coordinates": [[[[72.09443923, 34.13615455], [72.09439852, 34.13615236], [72.0943888, 34.13627737], [72.09464078, 34.13629092], [72.09464722, 34.13620809], [72.09457946, 34.13620445], [72.09457629, 34.13624526], [72.09443277, 34.13623754], [72.09443923, 34.13615455]]]]}, "properties": {"id": "8J6J43PV+FRRM", "height": 3.119872331619263, "hmax": 0.686, "ratio": 0.22, "vulnClass": "low"}}, {"type": "Feature", "geometry": {"type": "MultiPolygon", "coordinates": [[[[72.09416417, 34.13641861], [72.09412448, 34.1364163], [72.09412225, 34.13644272], [72.09416194, 34.13644503], [72.09416417, 34.13641861]]]]}, "properties": {"id": "8J6J43PV+HMC8", "height": 3.591941118240356, "hmax": 0.686, "ratio": 0.191, "vulnClass": "low"}}, {"type": "Feature", "geometry": {"type": "MultiPolygon", "coordinates": [[[[72.09414835, 34.13645387], [72.09410083, 34.13645275], [72.09409959, 34.13648878], [72.09414711, 34.1364899], [72.09414835, 34.13645387]]]]}, "properties": {"id": "8J6J43PV+HJQX", "height": 2.914589881896973, "hmax": 0.539, "ratio": 0.185, "vulnClass": "low"}}, {"type": "Feature", "geometry": {"type": "MultiPolygon", "coordinates": [[[[72.09409294, 34.13645097], [72.09404134, 34.13645396], [72.09405081, 34.13656679], [72.0941024, 34.1365638], [72.09409294, 34.13645097]]]]}, "properties": {"id": "8J6J43PV+JJ47", "height": 3.273590803146362, "hmax": 0.539, "ratio": 0.165, "vulnClass": "low"}}, {"type": "Feature", "geometry": {"type": "MultiPolygon", "coordinates": [[[[72.09457977, 34.13655424], [72.09453933, 34.13655328], [72.09453476, 34.13668653], [72.0945752, 34.13668749], [72.09457977, 34.13655424]]]]}, "properties": {"id": "8J6J43PV+JRVX", "height": 3.690580606460571, "hmax": 0.539, "ratio": 0.146, "vulnClass": "low"}}, {"type": "Feature", "geometry": {"type": "MultiPolygon", "coordinates": [[[[72.09438732, 34.13629635], [72.09430582, 34.13629196], [72.09429517, 34.13642896], [72.09437667, 34.13643334], [72.09438732, 34.13629635]]]]}, "properties": {"id": "8J6J43PV+GPWH", "height": 2.682872772216797, "hmax": 0.686, "ratio": 0.256, "vulnClass": "low"}}, {"type": "Feature", "geometry": {"type": "MultiPolygon", "coordinates": [[[[72.09459723, 34.13628814], [72.09450076, 34.13629004], [72.09450198, 34.13633286], [72.09452741, 34.13633236], [72.09452826, 34.13636215], [72.09459929, 34.13636076], [72.09459723, 34.13628814]]]]}, "properties": {"id": "8J6J43PV+GRFW", "height": 2.892609357833862, "hmax": 0.686, "ratio": 0.237, "vulnClass": "low"}}, {"type": "Feature", "geometry": {"type": "MultiPolygon", "coordinates": [[[[72.09503204, 34.1364259], [72.09494582, 34.13642126], [72.0949366, 34.13653983], [72.09502282, 34.13654446], [72.09503204, 34.1364259]]]]}, "properties": {"id": "8J6J43PV+HXX7", "height": 2.796990871429443, "hmax": 0.92, "ratio": 0.329, "vulnClass": "moderate"}}, {"type": "Feature", "geometry": {"type": "MultiPolygon", "coordinates": [[[[72.09498486, 34.13638206], [72.09495038, 34.13637715], [72.09494127, 34.13642138], [72.09497576, 34.13642629], [72.09498486, 34.13638206]]]]}, "properties": {"id": "8J6J43PV+HX85", "height": 3.148265361785889, "hmax": 1.058, "ratio": 0.336, "vulnClass": "moderate"}}, {"type": "Feature", "geometry": {"type": "MultiPolygon", "coordinates": [[[[72.09494893, 34.13638116], [72.09483435, 34.136375], [72.09483123, 34.1364151], [72.09494582, 34.13642126], [72.09494893, 34.13638116]]]]}, "properties": {"id": "8J6J43PV+HX2V", "height": 2.742992639541626, "hmax": 1.058, "ratio": 0.386, "vulnClass": "moderate"}}, {"type": "Feature", "geometry": {"type": "MultiPolygon", "coordinates": [[[[72.09579691, 34.13635657], [72.09572607, 34.13634566], [72.09569627, 34.13647938], [72.09576711, 34.13649029], [72.09579691, 34.13635657]]]]}, "properties": {"id": "8J6J43PW+H79Q", "height": 3.613524913787842, "hmax": 1.054, "ratio": 0.292, "vulnClass": "low"}}, {"type": "Feature", "geometry": {"type": "MultiPolygon", "coordinates": [[[[72.09587886, 34.13618375], [72.0956165, 34.13615387], [72.09560695, 34.13621186], [72.09582047, 34.13623618], [72.09580816, 34.13631093], [72.09601359, 34.13633432], [72.09603122, 34.13622723], [72.09587463, 34.1362094], [72.09587886, 34.13618375]]]]}, "properties": {"id": "8J6J43PW+F8XJ", "height": 3.568173408508301, "hmax": 1.182, "ratio": 0.331, "vulnClass": "moderate"}}, {"type": "Feature", "geometry": {"type": "MultiPolygon", "coordinates": [[[[72.0962778, 34.13596295], [72.09614788, 34.13596424], [72.09614936, 34.13606812], [72.09627928, 34.13606683], [72.0962778, 34.13596295]]]]}, "properties": {"id": "8J6J43PW+CF4Q", "height": 3.481107234954834, "hmax": 1.433, "ratio": 0.412, "vulnClass": "moderate"}}, {"type": "Feature", "geometry": {"type": "MultiPolygon", "coordinates": [[[[72.09620323, 34.13592665], [72.096154, 34.13592339], [72.09615069, 34.13595806], [72.09619992, 34.13596131], [72.09620323, 34.13592665]]]]}, "properties": {"id": "8J6J43PW+9FFP", "height": 3.20797872543335, "hmax": 1.433, "ratio": 0.447, "vulnClass": "moderate"}}, {"type": "Feature", "geometry": {"type": "MultiPolygon", "coordinates": [[[[72.09631673, 34.1358715], [72.09606293, 34.13585826], [72.09605858, 34.13591581], [72.09631239, 34.13592904], [72.09631673, 34.1358715]]]]}, "properties": {"id": "8J6J43PW+9F4J", "height": 2.54662823677063, "hmax": 1.433, "ratio": 0.563, "vulnClass": "moderate"}}, {"type": "Feature", "geometry": {"type": "MultiPolygon", "coordinates": [[[[72.09639886, 34.13597794], [72.09635009, 34.13598104], [72.09635455, 34.13602952], [72.09640332, 34.13602642], [72.09639886, 34.13597794]]]]}, "properties": {"id": "8J6J43PW+CH22", "height": 2.908308744430542, "hmax": 1.433, "ratio": 0.493, "vulnClass": "moderate"}}, {"type": "Feature", "geometry": {"type": "MultiPolygon", "coordinates": [[[[72.09622861, 34.13628266], [72.0960259, 34.13625958], [72.09601744, 34.13631092], [72.09622016, 34.13633401], [72.09622861, 34.13628266]]]]}, "properties": {"id": "8J6J43PW+GC9X", "height": 3.179561614990234, "hmax": 1.433, "ratio": 0.451, "vulnClass": "moderate"}}, {"type": "Feature", "geometry": {"type": "MultiPolygon", "coordinates": [[[[72.0962118, 34.13663433], [72.0961655, 34.13663573], [72.09616725, 34.13667591], [72.09621355, 34.13667451], [72.0962118, 34.13663433]]]]}, "properties": {"id": "8J6J43PW+MF86", "height": 2.92205023765564, "hmax": 0.884, "ratio": 0.302, "vulnClass": "moderate"}}, {"type": "Feature", "geometry": {"type": "MultiPolygon", "coordinates": [[[[72.09616665, 34.1365074], [72.09611913, 34.13650355], [72.09610471, 34.13662657], [72.09636369, 34.13664756], [72.0963741, 34.13655878], [72.09632863, 34.1365551], [72.09633418, 34.13650773], [72.09616823, 34.13649393], [72.09616665, 34.1365074]]]]}, "properties": {"id": "8J6J43PW+JFHW", "height": 3.290736436843872, "hmax": 0.884, "ratio": 0.269, "vulnClass": "low"}}, {"type": "Feature", "geometry": {"type": "MultiPolygon", "coordinates": [[[[72.09642552, 34.13648788], [72.09641556, 34.13634653], [72.09632375, 34.136351], [72.0963273, 34.13640146], [72.09623492, 34.13640596], [72.09624132, 34.13649685], [72.09642552, 34.13648788]]]]}, "properties": {"id": "8J6J43PW+HGG9", "height": 2.824222564697266, "hmax": 1.432, "ratio": 0.507, "vulnClass": "moderate"}}, {"type": "Feature", "geometry": {"type": "MultiPolygon", "coordinates": [[[[72.097395, 34.13549795], [72.09739237, 34.13545369], [72.09721688, 34.13546089], [72.09722575, 34.13561043], [72.09731039, 34.13560696], [72.09730415, 34.13550168], [72.097395, 34.13549795]]]]}, "properties": {"id": "8J6J43PW+6W3R", "height": 3.027221202850342, "hmax": 1.552, "ratio": 0.513, "vulnClass": "moderate"}}, {"type": "Feature", "geometry": {"type": "MultiPolygon", "coordinates": [[[[72.09728412, 34.13534111], [72.09728186, 34.13530302], [72.09713367, 34.1353091], [72.09713593, 34.13534719], [72.09728412, 34.13534111]]]]}, "properties": {"id": "8J6J43PW+4VP4", "height": 2.467113256454468, "hmax": 1.552, "ratio": 0.629, "vulnClass": "high"}}, {"type": "Feature", "geometry": {"type": "MultiPolygon", "coordinates": [[[[72.09696047, 34.13551334], [72.09695747, 34.13547253], [72.09681911, 34.13547955], [72.09683083, 34.13563936], [72.0969692, 34.13563234], [72.09696213, 34.13553603], [72.09692898, 34.13553771], [72.09692731, 34.13551503], [72.09696047, 34.13551334]]]]}, "properties": {"id": "8J6J43PW+6QC8", "height": 2.750685214996338, "hmax": 1.589, "ratio": 0.578, "vulnClass": "moderate"}}, {"type": "Feature", "geometry": {"type": "MultiPolygon", "coordinates": [[[[72.09716143, 34.13557549], [72.09710054, 34.13557799], [72.09710277, 34.13561547], [72.09716366, 34.13561298], [72.09716143, 34.13557549]]]]}, "properties": {"id": "8J6J43PW+6VJR", "height": 3.737200736999512, "hmax": 1.549, "ratio": 0.415, "vulnClass": "moderate"}}, {"type": "Feature", "geometry": {"type": "MultiPolygon", "coordinates": [[[[72.09581149, 34.1351628], [72.09575697, 34.1351486], [72.09574609, 34.13517749], [72.0958006, 34.13519169], [72.09581149, 34.1351628]]]]}, "properties": {"id": "8J6J43PW+386X", "height": 3.694999217987061, "hmax": 1.185, "ratio": 0.321, "vulnClass": "moderate"}}, {"type": "Feature", "geometry": {"type": "MultiPolygon", "coordinates": [[[[72.09778009, 34.13507094], [72.09768288, 34.13506823], [72.09767544, 34.13525267], [72.09777264, 34.13525538], [72.09778009, 34.13507094]]]]}, "properties": {"id": "8J6J43PX+339F", "height": 2.617442607879639, "hmax": 1.552, "ratio": 0.593, "vulnClass": "moderate"}}, {"type": "Feature", "geometry": {"type": "MultiPolygon", "coordinates": [[[[72.09919658, 34.13496199], [72.09915474, 34.13498682], [72.09928383, 34.13513719], [72.09932566, 34.13511236], [72.09919658, 34.13496199]]]]}, "properties": {"id": "8J6J43PX+2M9W", "height": 2.823541402816772, "hmax": 2.393, "ratio": 0.848, "vulnClass": "high"}}, {"type": "Feature", "geometry": {"type": "MultiPolygon", "coordinates": [[[[72.09786819, 34.13558407], [72.09786514, 34.1355327], [72.09781945, 34.13553457], [72.09782027, 34.13554846], [72.0977354, 34.13555194], [72.09773762, 34.13558943], [72.09786819, 34.13558407]]]]}, "properties": {"id": "8J6J43PX+64FH", "height": 3.423683166503906, "hmax": 1.552, "ratio": 0.453, "vulnClass": "moderate"}}, {"type": "Feature", "geometry": {"type": "MultiPolygon", "coordinates": [[[[72.09783277, 34.13558163], [72.097796, 34.13558076], [72.09779525, 34.1356027], [72.09783201, 34.13560357], [72.09783277, 34.13558163]]]]}, "properties": {"id": "8J6J43PX+64PJ", "height": 2.624648571014404, "hmax": 1.552, "ratio": 0.591, "vulnClass": "moderate"}}, {"type": "Feature", "geometry": {"type": "MultiPolygon", "coordinates": [[[[72.09979293, 34.14059232], [72.09974553, 34.14059487], [72.09975245, 34.14068373], [72.09979985, 34.14068118], [72.09979293, 34.14059232]]]]}, "properties": {"id": "8J6J43RX+7W2G", "height": 2.465717792510986, "hmax": 0.764, "ratio": 0.31, "vulnClass": "moderate"}}, {"type": "Feature", "geometry": {"type": "MultiPolygon", "coordinates": [[[[72.09998059, 34.14067145], [72.09997367, 34.14058259], [72.09979293, 34.14059232], [72.09979985, 34.14068118], [72.09998059, 34.14067145]]]]}, "properties": {"id": "8J6J43RX+7X27", "height": 2.776103973388672, "hmax": 0.764, "ratio": 0.275, "vulnClass": "low"}}, {"type": "Feature", "geometry": {"type": "MultiPolygon", "coordinates": [[[[72.0983928, 34.13975357], [72.09838877, 34.13971656], [72.09825566, 34.1397266], [72.0982597, 34.13976361], [72.0983928, 34.13975357]]]]}, "properties": {"id": "8J6J43QX+V8WM", "height": 3.143565654754639, "hmax": 0.92, "ratio": 0.293, "vulnClass": "low"}}, {"type": "Feature", "geometry": {"type": "MultiPolygon", "coordinates": [[[[72.09844256, 34.1397125], [72.09838877, 34.13971656], [72.0983928, 34.13975357], [72.09844659, 34.13974951], [72.09844256, 34.1397125]]]]}, "properties": {"id": "8J6J43QX+V9V7", "height": 3.143565654754639, "hmax": 0.92, "ratio": 0.293, "vulnClass": "low"}}, {"type": "Feature", "geometry": {"type": "MultiPolygon", "coordinates": [[[[72.0985066, 34.13970767], [72.09844256, 34.1397125], [72.09844659, 34.13974951], [72.09851064, 34.13974468], [72.0985066, 34.13970767]]]]}, "properties": {"id": "8J6J43QX+V9X3", "height": 2.629189491271973, "hmax": 0.92, "ratio": 0.35, "vulnClass": "moderate"}}, {"type": "Feature", "geometry": {"type": "MultiPolygon", "coordinates": [[[[72.09875117, 34.13930391], [72.09864024, 34.13931672], [72.09865309, 34.13939366], [72.09870577, 34.13938758], [72.09871328, 34.13943258], [72.09877152, 34.13942586], [72.09875117, 34.13930391]]]]}, "properties": {"id": "8J6J43QX+PFWG", "height": 2.478642702102661, "hmax": 0.92, "ratio": 0.371, "vulnClass": "moderate"}}, {"type": "Feature", "geometry": {"type": "MultiPolygon", "coordinates": [[[[72.09831879, 34.13967232], [72.09830263, 34.13960676], [72.09825611, 34.13961469], [72.09827226, 34.13968025], [72.09831879, 34.13967232]]]]}, "properties": {"id": "8J6J43QX+V83J", "height": 2.453422546386719, "hmax": 0.92, "ratio": 0.375, "vulnClass": "moderate"}}, {"type": "Feature", "geometry": {"type": "MultiPolygon", "coordinates": [[[[72.09804661, 34.13942475], [72.09799836, 34.13942775], [72.09800276, 34.13947668], [72.09805101, 34.13947368], [72.09804661, 34.13942475]]]]}, "properties": {"id": "8J6J43QX+Q6J5", "height": 3.145376205444336, "hmax": 0.92, "ratio": 0.292, "vulnClass": "low"}}, {"type": "Feature", "geometry": {"type": "MultiPolygon", "coordinates": [[[[72.098637, 34.13939551], [72.09863182, 34.13936449], [72.09851332, 34.13937816], [72.09851849, 34.13940919], [72.098637, 34.13939551]]]]}, "properties": {"id": "8J6J43QX+QC4F", "height": 2.866638660430908, "hmax": 0.92, "ratio": 0.321, "vulnClass": "moderate"}}, {"type": "Feature", "geometry": {"type": "MultiPolygon", "coordinates": [[[[72.09786464, 34.13899122], [72.09785842, 34.13895326], [72.09781496, 34.13895819], [72.09782118, 34.13899615], [72.09786464, 34.13899122]]]]}, "properties": {"id": "8J6J43QX+H4PX", "height": 2.465824365615845, "hmax": 0.77, "ratio": 0.312, "vulnClass": "moderate"}}, {"type": "Feature", "geometry": {"type": "MultiPolygon", "coordinates": [[[[72.09819782, 34.13869488], [72.09812328, 34.13870255], [72.09813815, 34.13880251], [72.09821269, 34.13879485], [72.09819782, 34.13869488]]]]}, "properties": {"id": "8J6J43QX+F7VV", "height": 2.840386629104614, "hmax": 0.966, "ratio": 0.34, "vulnClass": "moderate"}}, {"type": "Feature", "geometry": {"type": "MultiPolygon", "coordinates": [[[[72.09836792, 34.13867739], [72.09833689, 34.13868058], [72.09834215, 34.13871595], [72.09837318, 34.13871276], [72.09836792, 34.13867739]]]]}, "properties": {"id": "8J6J43QX+F8HV", "height": 2.81303858757019, "hmax": 0.966, "ratio": 0.343, "vulnClass": "moderate"}}, {"type": "Feature", "geometry": {"type": "MultiPolygon", "coordinates": [[[[72.09819223, 34.13883474], [72.09814909, 34.13883795], [72.09816013, 34.13894055], [72.09820327, 34.13893734], [72.09819223, 34.13883474]]]]}, "properties": {"id": "8J6J43QX+H73G", "height": 3.052527904510498, "hmax": 0.966, "ratio": 0.317, "vulnClass": "moderate"}}, {"type": "Feature", "geometry": {"type": "MultiPolygon", "coordinates": [[[[72.09823496, 34.13893584], [72.09823763, 34.13891107], [72.0982069, 34.13890878], [72.09820422, 34.13893355], [72.09823496, 34.13893584]]]]}, "properties": {"id": "8J6J43QX+H79R", "height": 3.052527904510498, "hmax": 0.966, "ratio": 0.317, "vulnClass": "moderate"}}, {"type": "Feature", "geometry": {"type": "MultiPolygon", "coordinates": [[[[72.09907065, 34.13882401], [72.09902013, 34.13883087], [72.09904928, 34.13897938], [72.0990998, 34.13897252], [72.09907065, 34.13882401]]]]}, "properties": {"id": "8J6J43QX+HJ75", "height": 4.544981479644775, "hmax": 0.995, "ratio": 0.219, "vulnClass": "low"}}, {"type": "Feature", "geometry": {"type": "MultiPolygon", "coordinates": [[[[72.09913268, 34.13884127], [72.09912778, 34.13881626], [72.09907065, 34.13882401], [72.09907556, 34.13884902], [72.09913268, 34.13884127]]]]}, "properties": {"id": "8J6J43QX+GJQ7", "height": 4.410773277282715, "hmax": 1.084, "ratio": 0.246, "vulnClass": "low"}}, {"type": "Feature", "geometry": {"type": "MultiPolygon", "coordinates": [[[[72.10063814, 34.13896143], [72.10057366, 34.13896819], [72.10058348, 34.13903287], [72.10064796, 34.13902611], [72.10063814, 34.13896143]]]]}, "properties": {"id": "8J6J44Q2+H6XW", "height": 2.488342046737671, "hmax": 1.245, "ratio": 0.5, "vulnClass": "moderate"}}, {"type": "Feature", "geometry": {"type": "MultiPolygon", "coordinates": [[[[72.1007395, 34.13908439], [72.10061347, 34.13909307], [72.10061725, 34.13913103], [72.10058828, 34.13913303], [72.10059739, 34.13922437], [72.10070965, 34.13921663], [72.100713, 34.13925023], [72.10075573, 34.13924728], [72.1007395, 34.13908439]]]]}, "properties": {"id": "8J6J44Q2+M77G", "height": 2.709792375564575, "hmax": 1.245, "ratio": 0.459, "vulnClass": "moderate"}}, {"type": "Feature", "geometry": {"type": "MultiPolygon", "coordinates": [[[[72.10073758, 34.13897155], [72.10069271, 34.13897049], [72.10069179, 34.13899751], [72.10073666, 34.13899857], [72.10073758, 34.13897155]]]]}, "properties": {"id": "8J6J44Q2+H7W9", "height": 2.534995555877686, "hmax": 1.245, "ratio": 0.491, "vulnClass": "moderate"}}, {"type": "Feature", "geometry": {"type": "MultiPolygon", "coordinates": [[[[72.10061552, 34.13749946], [72.10042984, 34.13751389], [72.10043874, 34.13759306], [72.10056006, 34.13758363], [72.10057005, 34.13767244], [72.10063441, 34.13766744], [72.10061552, 34.13749946]]]]}, "properties": {"id": "8J6J44Q2+26FM", "height": 2.977495193481445, "hmax": 1.475, "ratio": 0.495, "vulnClass": "moderate"}}, {"type": "Feature", "geometry": {"type": "MultiPolygon", "coordinates": [[[[72.09885839, 34.13769382], [72.09875757, 34.13769948], [72.09876783, 34.13782584], [72.09892461, 34.13781704], [72.09891722, 34.13772597], [72.09886125, 34.13772911], [72.09885839, 34.13769382]]]]}, "properties": {"id": "8J6J43QX+4G4G", "height": 2.668056488037109, "hmax": 1.08, "ratio": 0.405, "vulnClass": "moderate"}}, {"type": "Feature", "geometry": {"type": "MultiPolygon", "coordinates": [[[[72.0991117, 34.1377471], [72.0989833, 34.1377543], [72.0989895, 34.1378305], [72.0991179, 34.1378233], [72.0991117, 34.1377471]]]]}, "properties": {"id": "8J6J43QX+4J7G", "height": 2.517530918121338, "hmax": 1.085, "ratio": 0.431, "vulnClass": "moderate"}}, {"type": "Feature", "geometry": {"type": "MultiPolygon", "coordinates": [[[[72.09726817, 34.1376363], [72.09702197, 34.13764726], [72.09702986, 34.13776981], [72.09727606, 34.13775885], [72.09726817, 34.1376363]]]]}, "properties": {"id": "8J6J43QW+3VJ5", "height": 4.05320405960083, "hmax": 0.769, "ratio": 0.19, "vulnClass": "low"}}, {"type": "Feature", "geometry": {"type": "MultiPolygon", "coordinates": [[[[72.0946031, 34.1373095], [72.0945135, 34.1373152], [72.0945175, 34.1373589], [72.0943297, 34.1373707], [72.0943335, 34.1374112], [72.0946108, 34.1373937], [72.0946031, 34.1373095]]]]}, "properties": {"id": "8J6J43PV+WQXQ", "height": 2.554719686508179, "hmax": 0.611, "ratio": 0.239, "vulnClass": "low"}}, {"type": "Feature", "geometry": {"type": "MultiPolygon", "coordinates": [[[[72.0951307, 34.13806472], [72.09508809, 34.13806269], [72.09508509, 34.1380985], [72.09512771, 34.13810096], [72.0951307, 34.13806472]]]]}, "properties": {"id": "8J6J43QW+62Q7", "height": 2.500063896179199, "hmax": 0.72, "ratio": 0.288, "vulnClass": "low"}}, {"type": "Feature", "geometry": {"type": "MultiPolygon", "coordinates": [[[[72.09644361, 34.13903387], [72.09641413, 34.13903517], [72.09641972, 34.13912264], [72.09654108, 34.13911727], [72.09653857, 34.13907794], [72.09644669, 34.139082], [72.09644361, 34.13903387]]]]}, "properties": {"id": "8J6J43QW+JHPQ", "height": 2.742774963378906, "hmax": 0.711, "ratio": 0.259, "vulnClass": "low"}}, {"type": "Feature", "geometry": {"type": "MultiPolygon", "coordinates": [[[[72.09801951, 34.13900904], [72.09801348, 34.13897348], [72.09758552, 34.1390236], [72.09761014, 34.13916893], [72.09765892, 34.13916322], [72.09764032, 34.13905345], [72.09774368, 34.13904134], [72.09774922, 34.13907405], [72.0978781, 34.13905895], [72.09789116, 34.13913602], [72.09794636, 34.13912956], [72.09792777, 34.13901978], [72.09801951, 34.13900904]]]]}, "properties": {"id": "8J6J43QX+J47V", "height": 3.398083686828613, "hmax": 0.776, "ratio": 0.228, "vulnClass": "low"}}, {"type": "Feature", "geometry": {"type": "MultiPolygon", "coordinates": [[[[72.09766548, 34.13906503], [72.09765064, 34.13906675], [72.09765998, 34.13912246], [72.09767482, 34.13912074], [72.09766548, 34.13906503]]]]}, "properties": {"id": "8J6J43QX+J3MJ", "height": 2.689741134643555, "hmax": 0.77, "ratio": 0.286, "vulnClass": "low"}}, {"type": "Feature", "geometry": {"type": "MultiPolygon", "coordinates": [[[[72.09706783, 34.13924923], [72.09705575, 34.13915419], [72.09693001, 34.13916524], [72.0969421, 34.13926028], [72.09706783, 34.13924923]]]]}, "properties": {"id": "8J6J43QW+MQQ9", "height": 2.977404356002808, "hmax": 0.824, "ratio": 0.277, "vulnClass": "low"}}, {"type": "Feature", "geometry": {"type": "MultiPolygon", "coordinates": [[[[72.09688582, 34.1393729], [72.09683583, 34.13937671], [72.09684416, 34.13945232], [72.09689414, 34.13944851], [72.09688582, 34.1393729]]]]}, "properties": {"id": "8J6J43QW+QP9G", "height": 2.647889137268066, "hmax": 0.879, "ratio": 0.332, "vulnClass": "moderate"}}, {"type": "Feature", "geometry": {"type": "MultiPolygon", "coordinates": [[[[72.09695056, 34.13936797], [72.09694257, 34.1392954], [72.09687783, 34.13930033], [72.09688007, 34.13932063], [72.09685455, 34.13932257], [72.09685231, 34.13930227], [72.09682784, 34.13930413], [72.09683583, 34.13937671], [72.09695056, 34.13936797]]]]}, "properties": {"id": "8J6J43QW+PQJG", "height": 3.02867865562439, "hmax": 0.891, "ratio": 0.294, "vulnClass": "low"}}, {"type": "Feature", "geometry": {"type": "MultiPolygon", "coordinates": [[[[72.09726831, 34.13953814], [72.09720016, 34.1395485], [72.0972312, 34.13968965], [72.09729935, 34.13967929], [72.09726831, 34.13953814]]]]}, "properties": {"id": "8J6J43QW+RVXH", "height": 4.395243644714355, "hmax": 0.904, "ratio": 0.206, "vulnClass": "low"}}, {"type": "Feature", "geometry": {"type": "MultiPolygon", "coordinates": [[[[72.09684469, 34.13946862], [72.0968077, 34.13947511], [72.09684244, 34.13961205], [72.09687943, 34.13960556], [72.09684469, 34.13946862]]]]}, "properties": {"id": "8J6J43QW+RP8Q", "height": 2.980269432067871, "hmax": 0.878, "ratio": 0.295, "vulnClass": "low"}}, {"type": "Feature", "geometry": {"type": "MultiPolygon", "coordinates": [[[[72.09689329, 34.13945691], [72.09685073, 34.13946337], [72.09687398, 34.13956929], [72.09691653, 34.13956284], [72.09689329, 34.13945691]]]]}, "properties": {"id": "8J6J43QW+RQ2F", "height": 2.817192792892456, "hmax": 0.89, "ratio": 0.316, "vulnClass": "moderate"}}, {"type": "Feature", "geometry": {"type": "MultiPolygon", "coordinates": [[[[72.09584363, 34.13920629], [72.09581792, 34.1392083], [72.09582248, 34.13924864], [72.09584819, 34.13924663], [72.09584363, 34.13920629]]]]}, "properties": {"id": "8J6J43QW+M8W4", "height": 2.769769668579102, "hmax": 0.878, "ratio": 0.317, "vulnClass": "moderate"}}, {"type": "Feature", "geometry": {"type": "MultiPolygon", "coordinates": [[[[72.09611842, 34.1396516], [72.09611464, 34.13962708], [72.09599667, 34.13963965], [72.09600261, 34.13967815], [72.09605306, 34.13967278], [72.0960509, 34.1396588], [72.09611842, 34.1396516]]]]}, "properties": {"id": "8J6J43QW+VC74", "height": 3.236425638198853, "hmax": 0.878, "ratio": 0.271, "vulnClass": "low"}}, {"type": "Feature", "geometry": {"type": "MultiPolygon", "coordinates": [[[[72.09582743, 34.14007092], [72.0958229, 34.14002891], [72.09570547, 34.14003767], [72.09571, 34.14007968], [72.09582743, 34.14007092]]]]}, "properties": {"id": "8J6J43RW+28C4", "height": 3.829915761947632, "hmax": 0.812, "ratio": 0.212, "vulnClass": "low"}}, {"type": "Feature", "geometry": {"type": "MultiPolygon", "coordinates": [[[[72.09625399, 34.14017163], [72.0962484, 34.14012867], [72.09618218, 34.14013463], [72.09618777, 34.14017759], [72.09625399, 34.14017163]]]]}, "properties": {"id": "8J6J43RW+3F85", "height": 3.882155418395996, "hmax": 0.852, "ratio": 0.22, "vulnClass": "low"}}, {"type": "Feature", "geometry": {"type": "MultiPolygon", "coordinates": [[[[72.09692016, 34.14022912], [72.09690307, 34.14012642], [72.09682998, 34.14013482], [72.09684706, 34.14023753], [72.09661189, 34.14026457], [72.09662694, 34.14035502], [72.09697185, 34.14031536], [72.09695681, 34.14022491], [72.09692016, 34.14022912]]]]}, "properties": {"id": "8J6J43RW+4P3Q", "height": 3.082663059234619, "hmax": 0.835, "ratio": 0.271, "vulnClass": "low"}}, {"type": "Feature", "geometry": {"type": "MultiPolygon", "coordinates": [[[[72.09671404, 34.13999253], [72.09670745, 34.13995073], [72.09658416, 34.13996416], [72.09659074, 34.14000596], [72.09671404, 34.13999253]]]]}, "properties": {"id": "8J6J43QW+XMR5", "height": 2.765446901321411, "hmax": 0.878, "ratio": 0.318, "vulnClass": "moderate"}}, {"type": "Feature", "geometry": {"type": "MultiPolygon", "coordinates": [[[[72.09681443, 34.13998159], [72.09679522, 34.13985971], [72.09674136, 34.13986558], [72.09674426, 34.13988396], [72.09669773, 34.13988903], [72.09671404, 34.13999253], [72.09681443, 34.13998159]]]]}, "properties": {"id": "8J6J43QW+XPC2", "height": 2.765446901321411, "hmax": 0.878, "ratio": 0.318, "vulnClass": "moderate"}}, {"type": "Feature", "geometry": {"type": "MultiPolygon", "coordinates": [[[[72.09752059, 34.13967743], [72.09748098, 34.13968175], [72.09749061, 34.13974286], [72.09757277, 34.13973391], [72.09756871, 34.13970813], [72.09752616, 34.13971276], [72.09752059, 34.13967743]]]]}, "properties": {"id": "8J6J43QX+V2JG", "height": 2.585177183151245, "hmax": 0.904, "ratio": 0.35, "vulnClass": "moderate"}}, {"type": "Feature", "geometry": {"type": "MultiPolygon", "coordinates": [[[[72.09725889, 34.13980919], [72.0972154, 34.13981393], [72.09723111, 34.13991363], [72.09736383, 34.13989917], [72.09735786, 34.13986125], [72.09733487, 34.13986375], [72.09733204, 34.1398458], [72.09726579, 34.13985302], [72.09725889, 34.13980919]]]]}, "properties": {"id": "8J6J43QW+WWRQ", "height": 2.678257465362549, "hmax": 0.904, "ratio": 0.338, "vulnClass": "moderate"}}, {"type": "Feature", "geometry": {"type": "MultiPolygon", "coordinates": [[[[72.097178, 34.14005237], [72.09716996, 34.14000131], [72.09698806, 34.14002113], [72.09699611, 34.14007219], [72.097178, 34.14005237]]]]}, "properties": {"id": "8J6J43RW+2R8G", "height": 2.802144527435303, "hmax": 0.904, "ratio": 0.323, "vulnClass": "moderate"}}, {"type": "Feature", "geometry": {"type": "MultiPolygon", "coordinates": [[[[72.09688719, 34.13996964], [72.09687908, 34.13993924], [72.09681062, 34.13995187], [72.09681873, 34.13998228], [72.09688719, 34.13996964]]]]}, "properties": {"id": "8J6J43QW+XPQC", "height": 2.848281860351562, "hmax": 0.883, "ratio": 0.31, "vulnClass": "moderate"}}, {"type": "Feature", "geometry": {"type": "MultiPolygon", "coordinates": [[[[72.09684857, 34.14023721], [72.09683177, 34.14013499], [72.09678451, 34.14014036], [72.09680131, 34.14024258], [72.09684857, 34.14023721]]]]}, "properties": {"id": "8J6J43RW+3PGC", "height": 2.591195821762085, "hmax": 0.852, "ratio": 0.329, "vulnClass": "moderate"}}, {"type": "Feature", "geometry": {"type": "MultiPolygon", "coordinates": [[[[72.09648822, 34.14017401], [72.09642493, 34.14018121], [72.09645659, 34.14037392], [72.09662654, 34.14035461], [72.0966042, 34.14021866], [72.09649755, 34.14023078], [72.09648822, 34.14017401]]]]}, "properties": {"id": "8J6J43RW+4J68", "height": 2.808270454406738, "hmax": 0.852, "ratio": 0.303, "vulnClass": "moderate"}}, {"type": "Feature", "geometry": {"type": "MultiPolygon", "coordinates": [[[[72.0961502, 34.14040494], [72.09614608, 34.14036789], [72.09601689, 34.14037782], [72.09602101, 34.14041487], [72.0959701, 34.14041879], [72.09598001, 34.14050785], [72.09603092, 34.14050394], [72.09604168, 34.14060075], [72.09612007, 34.14059472], [72.09611623, 34.14056014], [72.09616703, 34.14055624], [72.0961601, 34.140494], [72.09620483, 34.14049056], [72.09619492, 34.1404015], [72.0961502, 34.14040494]]]]}, "properties": {"id": "8J6J43RW+5CPX", "height": 5.09716272354126, "hmax": 0.852, "ratio": 0.167, "vulnClass": "low"}}, {"type": "Feature", "geometry": {"type": "MultiPolygon", "coordinates": [[[[72.09618479, 34.14032965], [72.09616859, 34.14021431], [72.0960648, 34.14022439], [72.09608101, 34.14033973], [72.09618479, 34.14032965]]]]}, "properties": {"id": "8J6J43RW+4C95", "height": 3.030603170394897, "hmax": 0.852, "ratio": 0.281, "vulnClass": "low"}}, {"type": "Feature", "geometry": {"type": "MultiPolygon", "coordinates": [[[[72.0960648, 34.14022439], [72.09601404, 34.14022932], [72.09603024, 34.14034466], [72.09608101, 34.14033973], [72.0960648, 34.14022439]]]]}, "properties": {"id": "8J6J43RW+4C78", "height": 3.193430662155151, "hmax": 0.852, "ratio": 0.267, "vulnClass": "low"}}, {"type": "Feature", "geometry": {"type": "MultiPolygon", "coordinates": [[[[72.0958574, 34.14033943], [72.09579554, 34.14034861], [72.09580309, 34.14038376], [72.09586494, 34.14037458], [72.0958574, 34.14033943]]]]}, "properties": {"id": "8J6J43RW+48WG", "height": 3.178288698196411, "hmax": 0.852, "ratio": 0.268, "vulnClass": "low"}}, {"type": "Feature", "geometry": {"type": "MultiPolygon", "coordinates": [[[[72.09603491, 34.14053988], [72.09598401, 34.1405438], [72.09598693, 34.14057009], [72.09603784, 34.14056617], [72.09603491, 34.14053988]]]]}, "properties": {"id": "8J6J43RW+6CC3", "height": 4.069934844970703, "hmax": 0.852, "ratio": 0.209, "vulnClass": "low"}}, {"type": "Feature", "geometry": {"type": "MultiPolygon", "coordinates": [[[[72.09589207, 34.14065684], [72.09588789, 34.14062246], [72.09573458, 34.14063536], [72.09573877, 34.14066975], [72.09589207, 34.14065684]]]]}, "properties": {"id": "8J6J43RW+784R", "height": 3.118707656860352, "hmax": 0.835, "ratio": 0.268, "vulnClass": "low"}}, {"type": "Feature", "geometry": {"type": "MultiPolygon", "coordinates": [[[[72.0949905, 34.14037199], [72.09491357, 34.1403804], [72.09491809, 34.14040893], [72.09499501, 34.14040051], [72.0949905, 34.14037199]]]]}, "properties": {"id": "8J6J43RV+5X4P", "height": 3.04875373840332, "hmax": 0.751, "ratio": 0.246, "vulnClass": "low"}}, {"type": "Feature", "geometry": {"type": "MultiPolygon", "coordinates": [[[[72.09484234, 34.14029616], [72.09477948, 34.14030251], [72.09479133, 34.14038352], [72.09485418, 34.14037716], [72.09484234, 34.14029616]]]]}, "properties": {"id": "8J6J43RV+4WPC", "height": 3.950515747070312, "hmax": 0.751, "ratio": 0.19, "vulnClass": "low"}}, {"type": "Feature", "geometry": {"type": "MultiPolygon", "coordinates": [[[[72.09504233, 34.14024895], [72.0949624, 34.14025891], [72.09499085, 34.14041673], [72.09519394, 34.14039141], [72.09516142, 34.14021099], [72.09503826, 34.14022634], [72.09504233, 34.14024895]]]]}, "properties": {"id": "8J6J43RW+42GP", "height": 3.74991512298584, "hmax": 0.751, "ratio": 0.2, "vulnClass": "low"}}, {"type": "Feature", "geometry": {"type": "MultiPolygon", "coordinates": [[[[72.09475856, 34.14015947], [72.09473927, 34.14016142], [72.09475637, 34.14027837], [72.09483852, 34.14027006], [72.09484622, 34.14032269], [72.09488859, 34.14031841], [72.0948688, 34.14018312], [72.09476358, 34.14019376], [72.09475856, 34.14015947]]]]}, "properties": {"id": "8J6J43RV+3WWC", "height": 4.43065881729126, "hmax": 0.751, "ratio": 0.169, "vulnClass": "low"}}, {"type": "Feature", "geometry": {"type": "MultiPolygon", "coordinates": [[[[72.09493019, 34.14017691], [72.0948688, 34.14018312], [72.09488471, 34.14029187], [72.0949461, 34.14028566], [72.09493019, 34.14017691]]]]}, "properties": {"id": "8J6J43RV+3XV6", "height": 3.72107195854187, "hmax": 0.751, "ratio": 0.202, "vulnClass": "low"}}, {"type": "Feature", "geometry": {"type": "MultiPolygon", "coordinates": [[[[72.09496422, 34.14015092], [72.09493229, 34.14015558], [72.09495408, 34.14025891], [72.09498601, 34.14025425], [72.09496422, 34.14015092]]]]}, "properties": {"id": "8J6J43RV+3XP4", "height": 2.656943321228027, "hmax": 0.751, "ratio": 0.283, "vulnClass": "low"}}, {"type": "Feature", "geometry": {"type": "MultiPolygon", "coordinates": [[[[72.09543135, 34.14035262], [72.09539537, 34.14017133], [72.09520278, 34.14019776], [72.0952206, 34.14028754], [72.09518543, 34.14029236], [72.09519926, 34.14036206], [72.09523443, 34.14035723], [72.09523876, 34.14037904], [72.09543135, 34.14035262]]]]}, "properties": {"id": "8J6J43RW+4475", "height": 3.82918119430542, "hmax": 0.751, "ratio": 0.196, "vulnClass": "low"}}, {"type": "Feature", "geometry": {"type": "MultiPolygon", "coordinates": [[[[72.0956489, 34.1403347], [72.0956164, 34.1401543], [72.0954821, 34.140171], [72.0954862, 34.1401936], [72.0954276, 34.1402009], [72.0954561, 34.1403587], [72.0956489, 34.1403347]]]]}, "properties": {"id": "8J6J43RW+4637", "height": 3.419534206390381, "hmax": 0.751, "ratio": 0.22, "vulnClass": "low"}}, {"type": "Feature", "geometry": {"type": "MultiPolygon", "coordinates": [[[[72.09574415, 34.14028288], [72.09572935, 34.14016932], [72.09568033, 34.14017374], [72.09569513, 34.14028729], [72.09574415, 34.14028288]]]]}, "properties": {"id": "8J6J43RW+37W5", "height": 3.058475017547607, "hmax": 0.751, "ratio": 0.245, "vulnClass": "low"}}, {"type": "Feature", "geometry": {"type": "MultiPolygon", "coordinates": [[[[72.09531562, 34.13989207], [72.09526141, 34.13989506], [72.09526629, 34.13995625], [72.09532051, 34.13995325], [72.09531562, 34.13989207]]]]}, "properties": {"id": "8J6J43QW+X47V", "height": 3.302006244659424, "hmax": 0.774, "ratio": 0.234, "vulnClass": "low"}}, {"type": "Feature", "geometry": {"type": "MultiPolygon", "coordinates": [[[[72.09487818, 34.14014737], [72.09487277, 34.14011034], [72.09473385, 34.14012438], [72.09473927, 34.14016142], [72.09487818, 34.14014737]]]]}, "properties": {"id": "8J6J43RV+3W3H", "height": 3.961795806884766, "hmax": 0.751, "ratio": 0.19, "vulnClass": "low"}}, {"type": "Feature", "geometry": {"type": "MultiPolygon", "coordinates": [[[[72.0942245, 34.14011041], [72.09414637, 34.14012054], [72.09417755, 34.14028681], [72.09425567, 34.14027669], [72.0942245, 34.14011041]]]]}, "properties": {"id": "8J6J43RV+3MGV", "height": 3.155527591705322, "hmax": 0.476, "ratio": 0.151, "vulnClass": "low"}}, {"type": "Feature", "geometry": {"type": "MultiPolygon", "coordinates": [[[[72.09407176, 34.1401603], [72.09407022, 34.14013564], [72.09401285, 34.14013812], [72.09401439, 34.14016278], [72.09407176, 34.1401603]]]]}, "properties": {"id": "8J6J43RV+3J3V", "height": 3.571107864379883, "hmax": 0.476, "ratio": 0.133, "vulnClass": "low"}}, {"type": "Feature", "geometry": {"type": "MultiPolygon", "coordinates": [[[[72.0939298, 34.1401417], [72.0939477, 34.1404282], [72.0940137, 34.1404254], [72.0940124, 34.1404043], [72.0940868, 34.1404011], [72.0940815, 34.1403167], [72.0940242, 34.1403191], [72.0940128, 34.1401381], [72.0939298, 34.1401417]]]]}, "properties": {"id": "8J6J43RV+4H9Q", "height": 3.571107864379883, "hmax": 0.476, "ratio": 0.133, "vulnClass": "low"}}, {"type": "Feature", "geometry": {"type": "MultiPolygon", "coordinates": [[[[72.09416461, 34.14038711], [72.09414589, 34.14029632], [72.09407486, 34.14030564], [72.09409213, 34.14039662], [72.09416461, 34.14038711]]]]}, "properties": {"id": "8J6J43RV+4JQX", "height": 3.052387237548828, "hmax": 0.476, "ratio": 0.156, "vulnClass": "low"}}, {"type": "Feature", "geometry": {"type": "MultiPolygon", "coordinates": [[[[72.09418925, 34.14029063], [72.09414589, 34.14029632], [72.09416461, 34.14038711], [72.09420797, 34.14038142], [72.09418925, 34.14029063]]]]}, "properties": {"id": "8J6J43RV+4MMG", "height": 3.052387237548828, "hmax": 0.476, "ratio": 0.156, "vulnClass": "low"}}, {"type": "Feature", "geometry": {"type": "MultiPolygon", "coordinates": [[[[72.09429893, 34.14036518], [72.09427374, 34.14027637], [72.09419174, 34.14029262], [72.09421689, 34.14038127], [72.09429893, 34.14036518]]]]}, "properties": {"id": "8J6J43RV+4MQ5", "height": 2.613106966018677, "hmax": 0.476, "ratio": 0.182, "vulnClass": "low"}}, {"type": "Feature", "geometry": {"type": "MultiPolygon", "coordinates": [[[[72.09468575, 34.14049875], [72.09467535, 34.14041194], [72.09457817, 34.14041999], [72.09458858, 34.1405068], [72.09468575, 34.14049875]]]]}, "properties": {"id": "8J6J43RV+5VJ6", "height": 5.259511947631836, "hmax": 0.477, "ratio": 0.091, "vulnClass": "low"}}, {"type": "Feature", "geometry": {"type": "MultiPolygon", "coordinates": [[[[72.09469686, 34.14059149], [72.09468575, 34.14049875], [72.09458858, 34.1405068], [72.09459969, 34.14059954], [72.09469686, 34.14059149]]]]}, "properties": {"id": "8J6J43RV+6V6W", "height": 4.205924510955811, "hmax": 0.503, "ratio": 0.12, "vulnClass": "low"}}, {"type": "Feature", "geometry": {"type": "MultiPolygon", "coordinates": [[[[72.09473308, 34.14067891], [72.09484213, 34.1406643], [72.09483274, 34.14061585], [72.0946832, 34.14063589], [72.09468823, 34.14066182], [72.09472871, 34.14065639], [72.09473308, 34.14067891]]]]}, "properties": {"id": "8J6J43RV+7W2W", "height": 2.876501321792603, "hmax": 0.751, "ratio": 0.261, "vulnClass": "low"}}, {"type": "Feature", "geometry": {"type": "MultiPolygon", "coordinates": [[[[72.09371142, 34.14066785], [72.09370395, 34.14053071], [72.0935994, 34.14053465], [72.09360882, 34.14070759], [72.09367858, 34.14070496], [72.09367663, 34.14066916], [72.09371142, 34.14066785]]]]}, "properties": {"id": "8J6J43RV+6FRH", "height": 2.944504499435425, "hmax": 0.476, "ratio": 0.162, "vulnClass": "low"}}, {"type": "Feature", "geometry": {"type": "MultiPolygon", "coordinates": [[[[72.09285591, 34.1405008], [72.09284989, 34.14042482], [72.09280218, 34.14042744], [72.09280821, 34.14050341], [72.09285591, 34.1405008]]]]}, "properties": {"id": "8J6J43RV+54PG", "height": 2.908002614974976, "hmax": 0.276, "ratio": 0.095, "vulnClass": "low"}}, {"type": "Feature", "geometry": {"type": "MultiPolygon", "coordinates": [[[[72.09320139, 34.14026281], [72.09314726, 34.14026098], [72.09314395, 34.14032852], [72.09319808, 34.14033036], [72.09320139, 34.14026281]]]]}, "properties": {"id": "8J6J43RV+477W", "height": 3.064117908477783, "hmax": 0.276, "ratio": 0.09, "vulnClass": "low"}}, {"type": "Feature", "geometry": {"type": "MultiPolygon", "coordinates": [[[[72.09302383, 34.14017249], [72.09296579, 34.14017567], [72.09296874, 34.14021288], [72.09302679, 34.1402097], [72.09302383, 34.14017249]]]]}, "properties": {"id": "8J6J43RV+35HQ", "height": 3.27868127822876, "hmax": 0.276, "ratio": 0.084, "vulnClass": "low"}}, {"type": "Feature", "geometry": {"type": "MultiPolygon", "coordinates": [[[[72.09316833, 34.14016457], [72.0930596, 34.14017053], [72.09306255, 34.14020774], [72.09317128, 34.14020178], [72.09316833, 34.14016457]]]]}, "properties": {"id": "8J6J43RV+36HG", "height": 3.02886438369751, "hmax": 0.276, "ratio": 0.091, "vulnClass": "low"}}, {"type": "Feature", "geometry": {"type": "MultiPolygon", "coordinates": [[[[72.09321911, 34.14016178], [72.09316833, 34.14016457], [72.09317128, 34.14020178], [72.09322206, 34.14019899], [72.09321911, 34.14016178]]]]}, "properties": {"id": "8J6J43RV+37G6", "height": 2.489981651306152, "hmax": 0.276, "ratio": 0.111, "vulnClass": "low"}}, {"type": "Feature", "geometry": {"type": "MultiPolygon", "coordinates": [[[[72.09378452, 34.14012091], [72.09370214, 34.14012447], [72.09370537, 34.14017614], [72.09369031, 34.14017679], [72.09369224, 34.14020772], [72.09374429, 34.14020547], [72.09374724, 34.14025272], [72.09371025, 34.14025432], [72.09371689, 34.14036052], [72.09375388, 34.14035892], [72.09375213, 34.14033089], [72.09379752, 34.14032893], [72.09378452, 34.14012091]]]]}, "properties": {"id": "8J6J43RV+3FX9", "height": 2.701399564743042, "hmax": 0.476, "ratio": 0.176, "vulnClass": "low"}}, {"type": "Feature", "geometry": {"type": "MultiPolygon", "coordinates": [[[[72.09371154, 34.14013081], [72.09364413, 34.14012844], [72.09364185, 34.1401731], [72.09370926, 34.14017548], [72.09371154, 34.14013081]]]]}, "properties": {"id": "8J6J43RV+3F74", "height": 3.347874402999878, "hmax": 0.476, "ratio": 0.142, "vulnClass": "low"}}, {"type": "Feature", "geometry": {"type": "MultiPolygon", "coordinates": [[[[72.0937375, 34.1400965], [72.0937333, 34.1400297], [72.0936963, 34.1400313], [72.093698, 34.1400586], [72.0935957, 34.140063], [72.0935982, 34.1401026], [72.0937375, 34.1400965]]]]}, "properties": {"id": "8J6J43RV+2FFW", "height": 4.627283096313477, "hmax": 0.462, "ratio": 0.1, "vulnClass": "low"}}, {"type": "Feature", "geometry": {"type": "MultiPolygon", "coordinates": [[[[72.09358807, 34.14008409], [72.09355103, 34.14008612], [72.093556, 34.1401488], [72.09359304, 34.14014677], [72.09358807, 34.14008409]]]]}, "properties": {"id": "8J6J43RV+2CWM", "height": 4.627283096313477, "hmax": 0.276, "ratio": 0.06, "vulnClass": "low"}}, {"type": "Feature", "geometry": {"type": "MultiPolygon", "coordinates": [[[[72.093556, 34.1401488], [72.09355259, 34.1401058], [72.09344896, 34.14011149], [72.09345237, 34.14015448], [72.093556, 34.1401488]]]]}, "properties": {"id": "8J6J43RV+3C26", "height": 3.891141176223755, "hmax": 0.276, "ratio": 0.071, "vulnClass": "low"}}, {"type": "Feature", "geometry": {"type": "MultiPolygon", "coordinates": [[[[72.09381706, 34.14005435], [72.09380406, 34.13986497], [72.09362291, 34.13987357], [72.09362741, 34.13993906], [72.09354043, 34.13994319], [72.09354676, 34.14003546], [72.0937276, 34.14002688], [72.09372977, 34.14005849], [72.09381706, 34.14005435]]]]}, "properties": {"id": "8J6J43QV+XFPF", "height": 4.195943355560303, "hmax": 0.551, "ratio": 0.131, "vulnClass": "low"}}, {"type": "Feature", "geometry": {"type": "MultiPolygon", "coordinates": [[[[72.09294255, 34.1399396], [72.09288757, 34.13994156], [72.09288963, 34.13998148], [72.09294461, 34.13997952], [72.09294255, 34.1399396]]]]}, "properties": {"id": "8J6J43QV+X5MF", "height": 2.923153877258301, "hmax": 0.404, "ratio": 0.138, "vulnClass": "low"}}, {"type": "Feature", "geometry": {"type": "MultiPolygon", "coordinates": [[[[72.09320006, 34.13998116], [72.09319831, 34.13994367], [72.09310151, 34.13994679], [72.09310325, 34.13998428], [72.09320006, 34.13998116]]]]}, "properties": {"id": "8J6J43QV+X7JH", "height": 2.787434101104736, "hmax": 0.404, "ratio": 0.145, "vulnClass": "low"}}, {"type": "Feature", "geometry": {"type": "MultiPolygon", "coordinates": [[[[72.09321791, 34.14014668], [72.09345074, 34.14013391], [72.0934474, 34.1400918], [72.09321457, 34.14010457], [72.09321791, 34.14014668]]]]}, "properties": {"id": "8J6J43RV+28WP", "height": 3.902936935424805, "hmax": 0.276, "ratio": 0.071, "vulnClass": "low"}}, {"type": "Feature", "geometry": {"type": "MultiPolygon", "coordinates": [[[[72.09296621, 34.14017975], [72.09295406, 34.14000266], [72.09289915, 34.14000527], [72.09290695, 34.14011893], [72.09280072, 34.14012397], [72.09279926, 34.14010265], [72.09283036, 34.14010117], [72.09282778, 34.14006355], [72.0927053, 34.14006936], [72.0927137, 34.14019173], [72.09296621, 34.14017975]]]]}, "properties": {"id": "8J6J43RV+24WX", "height": 2.830190658569336, "hmax": 0.28, "ratio": 0.099, "vulnClass": "low"}}, {"type": "Feature", "geometry": {"type": "MultiPolygon", "coordinates": [[[[72.09279717, 34.1404107], [72.09276146, 34.14041246], [72.09276616, 34.14047845], [72.09280187, 34.14047669], [72.09279717, 34.1404107]]]]}, "properties": {"id": "8J6J43RV+54FJ", "height": 2.681704759597778, "hmax": 0.276, "ratio": 0.103, "vulnClass": "low"}}, {"type": "Feature", "geometry": {"type": "MultiPolygon", "coordinates": [[[[72.09328778, 34.13921543], [72.0932496, 34.13921688], [72.09325319, 34.13928206], [72.09329137, 34.13928061], [72.09328778, 34.13921543]]]]}, "properties": {"id": "8J6J43QV+M8RW", "height": 2.490696430206299, "hmax": 0.404, "ratio": 0.162, "vulnClass": "low"}}, {"type": "Feature", "geometry": {"type": "MultiPolygon", "coordinates": [[[[72.09313776, 34.13947605], [72.09308241, 34.13947821], [72.09308722, 34.13956343], [72.09314257, 34.13956127], [72.09313776, 34.13947605]]]]}, "properties": {"id": "8J6J43QV+R65P", "height": 2.523494243621826, "hmax": 0.404, "ratio": 0.16, "vulnClass": "low"}}, {"type": "Feature", "geometry": {"type": "MultiPolygon", "coordinates": [[[[72.093267, 34.13950175], [72.09326527, 34.13947108], [72.09313776, 34.13947605], [72.09313949, 34.13950672], [72.093267, 34.13950175]]]]}, "properties": {"id": "8J6J43QV+Q7WF", "height": 2.683444499969482, "hmax": 0.404, "ratio": 0.151, "vulnClass": "low"}}, {"type": "Feature", "geometry": {"type": "MultiPolygon", "coordinates": [[[[72.09342676, 34.13928149], [72.09327784, 34.13927728], [72.09327641, 34.13931228], [72.09342559, 34.13931581], [72.09342676, 34.13928149]]]]}, "properties": {"id": "8J6J43QV+P89R", "height": 2.583437204360962, "hmax": 0.404, "ratio": 0.156, "vulnClass": "low"}}, {"type": "Feature", "geometry": {"type": "MultiPolygon", "coordinates": [[[[72.0935562, 34.13926821], [72.0935521, 34.1391976], [72.09342685, 34.13920262], [72.09343094, 34.13927323], [72.0935562, 34.13926821]]]]}, "properties": {"id": "8J6J43QV+M9XG", "height": 2.782993793487549, "hmax": 0.404, "ratio": 0.145, "vulnClass": "low"}}, {"type": "Feature", "geometry": {"type": "MultiPolygon", "coordinates": [[[[72.09377994, 34.13924996], [72.09377477, 34.1391616], [72.09355321, 34.13917056], [72.09355838, 34.13925892], [72.09377994, 34.13924996]]]]}, "properties": {"id": "8J6J43QV+MFMF", "height": 2.782993793487549, "hmax": 0.514, "ratio": 0.185, "vulnClass": "low"}}, {"type": "Feature", "geometry": {"type": "MultiPolygon", "coordinates": [[[[72.09378265, 34.13902905], [72.09377878, 34.13896231], [72.09351115, 34.13897303], [72.09351502, 34.13903978], [72.09378265, 34.13902905]]]]}, "properties": {"id": "8J6J43QV+JF24", "height": 2.707792520523071, "hmax": 0.563, "ratio": 0.208, "vulnClass": "low"}}, {"type": "Feature", "geometry": {"type": "MultiPolygon", "coordinates": [[[[72.09348016, 34.13908468], [72.09343741, 34.13908153], [72.09343401, 34.13911352], [72.09347675, 34.13911668], [72.09348016, 34.13908468]]]]}, "properties": {"id": "8J6J43QV+J9PW", "height": 3.398121356964111, "hmax": 0.48, "ratio": 0.141, "vulnClass": "low"}}, {"type": "Feature", "geometry": {"type": "MultiPolygon", "coordinates": [[[[72.09334717, 34.13848605], [72.0932608, 34.13848961], [72.09327266, 34.13868903], [72.09373126, 34.13867017], [72.09372902, 34.13863258], [72.09369137, 34.13863413], [72.09368864, 34.1385882], [72.09347729, 34.1385969], [72.0934704, 34.13848099], [72.09341311, 34.13848334], [72.09342001, 34.13859925], [72.09335406, 34.13860196], [72.09334717, 34.13848605]]]]}, "properties": {"id": "8J6J43QV+C9W7", "height": 2.750245094299316, "hmax": 0.492, "ratio": 0.179, "vulnClass": "low"}}, {"type": "Feature", "geometry": {"type": "MultiPolygon", "coordinates": [[[[72.09290437, 34.13820808], [72.09289697, 34.13812236], [72.09281015, 34.13812754], [72.09282339, 34.13828089], [72.09287382, 34.13827788], [72.09286798, 34.13821025], [72.09290437, 34.13820808]]]]}, "properties": {"id": "8J6J43QV+74HM", "height": 2.886889219284058, "hmax": 0.41, "ratio": 0.142, "vulnClass": "low"}}, {"type": "Feature", "geometry": {"type": "MultiPolygon", "coordinates": [[[[72.09293498, 34.13723926], [72.09288755, 34.13724414], [72.09289313, 34.13728164], [72.09294056, 34.13727676], [72.09293498, 34.13723926]]]]}, "properties": {"id": "8J6J43PV+W53C", "height": 2.737282752990723, "hmax": 0.497, "ratio": 0.182, "vulnClass": "low"}}, {"type": "Feature", "geometry": {"type": "MultiPolygon", "coordinates": [[[[72.09369178, 34.13750398], [72.09354057, 34.13716545], [72.09346019, 34.13719028], [72.0936114, 34.1375288], [72.09369178, 34.13750398]]]]}, "properties": {"id": "8J6J43PV+WCPV", "height": 3.663255453109741, "hmax": 0.434, "ratio": 0.118, "vulnClass": "low"}}, {"type": "Feature", "geometry": {"type": "MultiPolygon", "coordinates": [[[[72.09325767, 34.13707731], [72.09318103, 34.13694862], [72.09305506, 34.13700049], [72.09313169, 34.13712918], [72.09325767, 34.13707731]]]]}, "properties": {"id": "8J6J43PV+R77C", "height": 3.273260593414307, "hmax": 0.497, "ratio": 0.152, "vulnClass": "low"}}, {"type": "Feature", "geometry": {"type": "MultiPolygon", "coordinates": [[[[72.09308399, 34.13697693], [72.09307704, 34.13696062], [72.0930325, 34.13697373], [72.09303945, 34.13699004], [72.09308399, 34.13697693]]]]}, "properties": {"id": "8J6J43PV+Q6V5", "height": 3.686683177947998, "hmax": 0.497, "ratio": 0.135, "vulnClass": "low"}}, {"type": "Feature", "geometry": {"type": "MultiPolygon", "coordinates": [[[[72.09345315, 34.13700456], [72.09340158, 34.13688343], [72.09330568, 34.13691166], [72.0933437, 34.13700096], [72.09323825, 34.13703201], [72.0932518, 34.13706384], [72.09345315, 34.13700456]]]]}, "properties": {"id": "8J6J43PV+Q8QW", "height": 3.012979984283447, "hmax": 0.497, "ratio": 0.165, "vulnClass": "low"}}, {"type": "Feature", "geometry": {"type": "MultiPolygon", "coordinates": [[[[72.09362154, 34.13627779], [72.09348546, 34.13627245], [72.09347681, 34.13642501], [72.09361289, 34.13643034], [72.09361543, 34.13638569], [72.09354574, 34.13638295], [72.09354648, 34.13636993], [72.09359902, 34.13637199], [72.09360079, 34.13634074], [72.09361794, 34.13634141], [72.09362154, 34.13627779]]]]}, "properties": {"id": "8J6J43PV+GCV3", "height": 2.522048711776733, "hmax": 0.46, "ratio": 0.182, "vulnClass": "low"}}, {"type": "Feature", "geometry": {"type": "MultiPolygon", "coordinates": [[[[72.09271344, 34.14102386], [72.09261221, 34.14102042], [72.09260833, 34.14109933], [72.09270956, 34.14110277], [72.09271344, 34.14102386]]]]}, "properties": {"id": "8J6J43RV+C3FC", "height": 3.806513071060181, "hmax": 0.179, "ratio": 0.047, "vulnClass": "none"}}, {"type": "Feature", "geometry": {"type": "MultiPolygon", "coordinates": [[[[72.09287382, 34.14100534], [72.09286585, 34.1408712], [72.09274825, 34.14087603], [72.09274985, 34.14090298], [72.09270493, 34.14090482], [72.0927113, 34.14101201], [72.09287382, 34.14100534]]]]}, "properties": {"id": "8J6J43RV+94FM", "height": 2.560421705245972, "hmax": 0.208, "ratio": 0.081, "vulnClass": "low"}}, {"type": "Feature", "geometry": {"type": "MultiPolygon", "coordinates": [[[[72.09286585, 34.1408712], [72.09286197, 34.14080578], [72.09269945, 34.14081245], [72.09270493, 34.14090482], [72.09274985, 34.14090298], [72.09274825, 34.14087603], [72.09286585, 34.1408712]]]]}, "properties": {"id": "8J6J43RV+84JX", "height": 3.024108171463013, "hmax": 0.276, "ratio": 0.091, "vulnClass": "low"}}, {"type": "Feature", "geometry": {"type": "MultiPolygon", "coordinates": [[[[72.0925813, 34.1408173], [72.0925918, 34.140995], [72.09271, 34.1409901], [72.0926994, 34.1408124], [72.0925813, 34.1408173]]]]}, "properties": {"id": "8J6J43RV+9364", "height": 3.953075885772705, "hmax": 0.235, "ratio": 0.059, "vulnClass": "low"}}, {"type": "Feature", "geometry": {"type": "MultiPolygon", "coordinates": [[[[72.0933728, 34.14075931], [72.09337047, 34.14071656], [72.09328242, 34.14071987], [72.09328475, 34.14076263], [72.0933728, 34.14075931]]]]}, "properties": {"id": "8J6J43RV+78WF", "height": 2.997684717178345, "hmax": 0.276, "ratio": 0.092, "vulnClass": "low"}}, {"type": "Feature", "geometry": {"type": "MultiPolygon", "coordinates": [[[[72.09378458, 34.14065353], [72.09373933, 34.14065533], [72.09374217, 34.14070462], [72.09378742, 34.14070282], [72.09378458, 34.14065353]]]]}, "properties": {"id": "8J6J43RV+7GC3", "height": 2.649749517440796, "hmax": 0.476, "ratio": 0.18, "vulnClass": "low"}}, {"type": "Feature", "geometry": {"type": "MultiPolygon", "coordinates": [[[[72.09388584, 34.1411558], [72.09382148, 34.14084415], [72.09370099, 34.14086135], [72.09370693, 34.14089014], [72.09368499, 34.14089327], [72.09370868, 34.14100798], [72.09373063, 34.14100485], [72.09373517, 34.14102687], [72.09371323, 34.14103], [72.09373624, 34.14114141], [72.09375818, 34.14113828], [72.09376536, 34.14117301], [72.09388584, 34.1411558]]]]}, "properties": {"id": "8J6J43RV+CG36", "height": 4.843008518218994, "hmax": 0.374, "ratio": 0.077, "vulnClass": "low"}}, {"type": "Feature", "geometry": {"type": "MultiPolygon", "coordinates": [[[[72.09356179, 34.14093251], [72.09354862, 34.14086798], [72.09348925, 34.14087636], [72.09350241, 34.14094088], [72.09356179, 34.14093251]]]]}, "properties": {"id": "8J6J43RV+9C65", "height": 2.8117516040802, "hmax": 0.275, "ratio": 0.098, "vulnClass": "low"}}, {"type": "Feature", "geometry": {"type": "MultiPolygon", "coordinates": [[[[72.09345681, 34.14103979], [72.09337465, 34.14105207], [72.09341825, 34.14125385], [72.09350041, 34.14124157], [72.09345681, 34.14103979]]]]}, "properties": {"id": "8J6J43RV+F94R", "height": 3.049931287765503, "hmax": 0.179, "ratio": 0.059, "vulnClass": "low"}}, {"type": "Feature", "geometry": {"type": "MultiPolygon", "coordinates": [[[[72.09317798, 34.14102961], [72.09309363, 34.14103279], [72.09310178, 34.14118258], [72.09332618, 34.14117413], [72.09332196, 34.14109653], [72.09318191, 34.1411018], [72.09317798, 34.14102961]]]]}, "properties": {"id": "8J6J43RV+C7WR", "height": 3.357509136199951, "hmax": 0.179, "ratio": 0.053, "vulnClass": "low"}}, {"type": "Feature", "geometry": {"type": "MultiPolygon", "coordinates": [[[[72.09316943, 34.14087262], [72.09308508, 34.1408758], [72.09309363, 34.14103279], [72.09331802, 34.14102434], [72.09331384, 34.14094743], [72.09317379, 34.14095271], [72.09316943, 34.14087262]]]]}, "properties": {"id": "8J6J43RV+97MQ", "height": 3.507854700088501, "hmax": 0.197, "ratio": 0.056, "vulnClass": "low"}}, {"type": "Feature", "geometry": {"type": "MultiPolygon", "coordinates": [[[[72.09305169, 34.14134185], [72.09305526, 34.14128803], [72.09282977, 34.14127771], [72.09281627, 34.14148164], [72.09293728, 34.14148718], [72.09294722, 34.14133707], [72.09305169, 34.14134185]]]]}, "properties": {"id": "8J6J43RV+G5RQ", "height": 3.135453224182129, "hmax": 0.179, "ratio": 0.057, "vulnClass": "low"}}, {"type": "Feature", "geometry": {"type": "MultiPolygon", "coordinates": [[[[72.09336601, 34.1413919], [72.09334341, 34.14128059], [72.09318742, 34.14130248], [72.09321002, 34.1414138], [72.09336601, 34.1413919]]]]}, "properties": {"id": "8J6J43RV+G8JX", "height": 2.522552013397217, "hmax": 0.179, "ratio": 0.071, "vulnClass": "low"}}, {"type": "Feature", "geometry": {"type": "MultiPolygon", "coordinates": [[[[72.09336173, 34.14125776], [72.09334688, 34.14117108], [72.09326603, 34.14118065], [72.09328088, 34.14126733], [72.09336173, 34.14125776]]]]}, "properties": {"id": "8J6J43RV+F8PJ", "height": 3.053982496261597, "hmax": 0.179, "ratio": 0.059, "vulnClass": "low"}}, {"type": "Feature", "geometry": {"type": "MultiPolygon", "coordinates": [[[[72.09369719, 34.14133399], [72.09368108, 34.14125465], [72.09345313, 34.14128664], [72.09346924, 34.14136598], [72.09369719, 34.14133399]]]]}, "properties": {"id": "8J6J43RV+GCGF", "height": 3.923644065856934, "hmax": 0.259, "ratio": 0.066, "vulnClass": "low"}}, {"type": "Feature", "geometry": {"type": "MultiPolygon", "coordinates": [[[[72.09343627, 34.14126756], [72.09337074, 34.14127675], [72.09339108, 34.14137695], [72.09345661, 34.14136775], [72.09343627, 34.14126756]]]]}, "properties": {"id": "8J6J43RV+G9FR", "height": 2.51158618927002, "hmax": 0.179, "ratio": 0.071, "vulnClass": "low"}}, {"type": "Feature", "geometry": {"type": "MultiPolygon", "coordinates": [[[[72.09381567, 34.14159816], [72.093799, 34.14151607], [72.093508, 34.14155692], [72.09352467, 34.14163901], [72.09381567, 34.14159816]]]]}, "properties": {"id": "8J6J43RV+JFM2", "height": 2.621583700180054, "hmax": 0.31, "ratio": 0.118, "vulnClass": "low"}}, {"type": "Feature", "geometry": {"type": "MultiPolygon", "coordinates": [[[[72.09382865, 34.14164485], [72.09381884, 34.14159743], [72.09371433, 34.14161239], [72.09372415, 34.14165981], [72.09382865, 34.14164485]]]]}, "properties": {"id": "8J6J43RV+MG24", "height": 2.855263233184814, "hmax": 0.334, "ratio": 0.117, "vulnClass": "low"}}, {"type": "Feature", "geometry": {"type": "MultiPolygon", "coordinates": [[[[72.09346452, 34.14157295], [72.09345684, 34.14153614], [72.09340623, 34.14154344], [72.09342465, 34.14163177], [72.0934452, 34.14162881], [72.09343566, 34.1415831], [72.09350851, 34.1415726], [72.0935073, 34.14156679], [72.09346452, 34.14157295]]]]}, "properties": {"id": "8J6J43RV+J9GR", "height": 2.591442346572876, "hmax": 0.179, "ratio": 0.069, "vulnClass": "low"}}, {"type": "Feature", "geometry": {"type": "MultiPolygon", "coordinates": [[[[72.09316106, 34.14152518], [72.09310414, 34.1415233], [72.09309703, 34.14167224], [72.09315395, 34.14167412], [72.09316106, 34.14152518]]]]}, "properties": {"id": "8J6J43RV+J7JR", "height": 2.724195957183838, "hmax": 0.179, "ratio": 0.066, "vulnClass": "low"}}, {"type": "Feature", "geometry": {"type": "MultiPolygon", "coordinates": [[[[72.09341232, 34.14178662], [72.09338885, 34.14151757], [72.09315821, 34.14153148], [72.09316511, 34.14161049], [72.09323682, 34.14160616], [72.09324217, 34.1416675], [72.09320143, 34.14166996], [72.09321266, 34.14179866], [72.09341232, 34.14178662]]]]}, "properties": {"id": "8J6J43RV+M878", "height": 2.739656686782837, "hmax": 0.179, "ratio": 0.065, "vulnClass": "low"}}, {"type": "Feature", "geometry": {"type": "MultiPolygon", "coordinates": [[[[72.09333957, 34.14151712], [72.09333481, 34.14144379], [72.09316223, 34.14145155], [72.09316699, 34.14152487], [72.09333957, 34.14151712]]]]}, "properties": {"id": "8J6J43RV+H8R6", "height": 3.289680957794189, "hmax": 0.179, "ratio": 0.054, "vulnClass": "low"}}, {"type": "Feature", "geometry": {"type": "MultiPolygon", "coordinates": [[[[72.09284909, 34.14154643], [72.09284732, 34.14150022], [72.09274222, 34.141503], [72.09274449, 34.14156237], [72.09271524, 34.14156314], [72.09271814, 34.14163908], [72.09279808, 34.14163697], [72.09279661, 34.14159825], [72.09282834, 34.14159741], [72.09282641, 34.14154703], [72.09284909, 34.14154643]]]]}, "properties": {"id": "8J6J43RV+J4CQ", "height": 2.508667469024658, "hmax": 0.179, "ratio": 0.071, "vulnClass": "low"}}, {"type": "Feature", "geometry": {"type": "MultiPolygon", "coordinates": [[[[72.09360478, 34.14207189], [72.09355225, 34.14207328], [72.09355569, 34.1421636], [72.09360823, 34.14216221], [72.09360478, 34.14207189]]]]}, "properties": {"id": "8J6J43RV+RCWP", "height": 3.695683240890503, "hmax": 0.124, "ratio": 0.034, "vulnClass": "none"}}, {"type": "Feature", "geometry": {"type": "MultiPolygon", "coordinates": [[[[72.0932159, 34.14211693], [72.09320613, 34.14206945], [72.09309999, 34.14208454], [72.09310976, 34.14213202], [72.0932159, 34.14211693]]]]}, "properties": {"id": "8J6J43RV+R7V2", "height": 2.740602016448975, "hmax": 0.087, "ratio": 0.032, "vulnClass": "none"}}, {"type": "Feature", "geometry": {"type": "MultiPolygon", "coordinates": [[[[72.09325833, 34.1419946], [72.09321087, 34.14199585], [72.09321559, 34.14211949], [72.09347131, 34.14211274], [72.09346834, 34.14203498], [72.09326009, 34.14204048], [72.09325833, 34.1419946]]]]}, "properties": {"id": "8J6J43RV+R8GW", "height": 4.505303382873535, "hmax": 0.087, "ratio": 0.019, "vulnClass": "none"}}, {"type": "Feature", "geometry": {"type": "MultiPolygon", "coordinates": [[[[72.09320947, 34.14195913], [72.09313121, 34.1419612], [72.09313219, 34.14198673], [72.09321044, 34.14198466], [72.09320947, 34.14195913]]]]}, "properties": {"id": "8J6J43RV+Q7MV", "height": 3.314652442932129, "hmax": 0.087, "ratio": 0.026, "vulnClass": "none"}}, {"type": "Feature", "geometry": {"type": "MultiPolygon", "coordinates": [[[[72.09303338, 34.14229473], [72.09303168, 34.14225134], [72.09292169, 34.14225432], [72.0929234, 34.14229771], [72.09303338, 34.14229473]]]]}, "properties": {"id": "8J6J43RV+W55V", "height": 3.507539033889771, "hmax": 0.087, "ratio": 0.025, "vulnClass": "none"}}, {"type": "Feature", "geometry": {"type": "MultiPolygon", "coordinates": [[[[72.09320477, 34.14227542], [72.09312497, 34.14227217], [72.09311883, 34.14237633], [72.09315257, 34.14237771], [72.0931512, 34.142401], [72.09319726, 34.14240288], [72.09320477, 34.14227542]]]]}, "properties": {"id": "8J6J43RV+W7M6", "height": 3.866552352905273, "hmax": 0.087, "ratio": 0.022, "vulnClass": "none"}}, {"type": "Feature", "geometry": {"type": "MultiPolygon", "coordinates": [[[[72.09312399, 34.14239828], [72.09311969, 34.14228541], [72.09301782, 34.14228809], [72.09302212, 34.14240096], [72.09312399, 34.14239828]]]]}, "properties": {"id": "8J6J43RV+W6PM", "height": 3.48639965057373, "hmax": 0.087, "ratio": 0.025, "vulnClass": "none"}}, {"type": "Feature", "geometry": {"type": "MultiPolygon", "coordinates": [[[[72.09329795, 34.14238716], [72.09328911, 34.14227363], [72.09319721, 34.14227776], [72.09320555, 34.14239131], [72.09329795, 34.14238716]]]]}, "properties": {"id": "8J6J43RV+W7Q9", "height": 3.866552352905273, "hmax": 0.087, "ratio": 0.022, "vulnClass": "none"}}, {"type": "Feature", "geometry": {"type": "MultiPolygon", "coordinates": [[[[72.09351726, 34.14219199], [72.0935142, 34.14211161], [72.09338875, 34.14211492], [72.09339182, 34.1421953], [72.09351726, 34.14219199]]]]}, "properties": {"id": "8J6J43RV+V983", "height": 3.728572130203247, "hmax": 0.087, "ratio": 0.023, "vulnClass": "none"}}, {"type": "Feature", "geometry": {"type": "MultiPolygon", "coordinates": [[[[72.09344283, 34.14226595], [72.09337068, 34.14226965], [72.09337897, 34.14238393], [72.09354869, 34.14237522], [72.09354468, 34.14231462], [72.09344672, 34.14231953], [72.09344283, 34.14226595]]]]}, "properties": {"id": "8J6J43RV+W9P7", "height": 3.085794925689697, "hmax": 0.089, "ratio": 0.029, "vulnClass": "none"}}, {"type": "Feature", "geometry": {"type": "MultiPolygon", "coordinates": [[[[72.09344366, 34.14252386], [72.09333541, 34.1425176], [72.0933295, 34.14258829], [72.09343774, 34.14259455], [72.09344366, 34.14252386]]]]}, "properties": {"id": "8J6J43VV+29C7", "height": 2.479801893234253, "hmax": 0.087, "ratio": 0.035, "vulnClass": "none"}}, {"type": "Feature", "geometry": {"type": "MultiPolygon", "coordinates": [[[[72.09324334, 34.14240577], [72.09314325, 34.14239998], [72.09313438, 34.14250597], [72.09323447, 34.14251176], [72.09324334, 34.14240577]]]]}, "properties": {"id": "8J6J43RV+X7P6", "height": 3.611386775970459, "hmax": 0.087, "ratio": 0.024, "vulnClass": "none"}}, {"type": "Feature", "geometry": {"type": "MultiPolygon", "coordinates": [[[[72.09345691, 34.14264158], [72.09343929, 34.14264062], [72.0934371, 34.1426684], [72.09345472, 34.14266936], [72.09345691, 34.14264158]]]]}, "properties": {"id": "8J6J43VV+3983", "height": 2.714418411254883, "hmax": 0.087, "ratio": 0.032, "vulnClass": "none"}}, {"type": "Feature", "geometry": {"type": "MultiPolygon", "coordinates": [[[[72.09347392, 34.1426591], [72.09347621, 34.14263394], [72.09346036, 34.14263295], [72.09345807, 34.14265811], [72.09347392, 34.1426591]]]]}, "properties": {"id": "8J6J43VV+394X", "height": 2.714418411254883, "hmax": 0.087, "ratio": 0.032, "vulnClass": "none"}}, {"type": "Feature", "geometry": {"type": "MultiPolygon", "coordinates": [[[[72.09376289, 34.14261446], [72.09345774, 34.14259722], [72.09345557, 34.14262387], [72.09347764, 34.14262512], [72.0934704, 34.14271374], [72.09375347, 34.14272973], [72.09376289, 34.14261446]]]]}, "properties": {"id": "8J6J43VV+3C9G", "height": 3.660760879516602, "hmax": 0.117, "ratio": 0.032, "vulnClass": "none"}}]}