{"type": "FeatureCollection", "features": [{"type": "Feature", "geometry": {"type": "MultiPolygon", "coordinates": [[[[72.13804799, 34.53510758], [72.13804657, 34.5351451], [72.13808248, 34.53514602], [72.13808073, 34.53519238], [72.13811289, 34.5351932], [72.13811127, 34.53523604], [72.1381611, 34.53523731], [72.13816589, 34.53511059], [72.13804799, 34.53510758]]]]}, "properties": {"id": "Pakistan_123102132_356214", "height": 2.871217727661133, "hmax": 0.009, "ratio": 0.003, "vulnClass": "none"}}, {"type": "Feature", "geometry": {"type": "MultiPolygon", "coordinates": [[[[72.13802897, 34.53613583], [72.13807647, 34.53614085], [72.13808223, 34.53610389], [72.13803473, 34.53609887], [72.13802897, 34.53613583]]]]}, "properties": {"id": "Pakistan_123102132_528604", "height": 2.63194465637207, "hmax": 0.018, "ratio": 0.007, "vulnClass": "none"}}, {"type": "Feature", "geometry": {"type": "MultiPolygon", "coordinates": [[[[72.13843185, 34.53620258], [72.13842777, 34.53609663], [72.13836882, 34.53609817], [72.1383729, 34.53620412], [72.13843185, 34.53620258]]]]}, "properties": {"id": "Pakistan_123102132_393169", "height": 2.96408224105835, "hmax": 0.018, "ratio": 0.006, "vulnClass": "none"}}, {"type": "Feature", "geometry": {"type": "MultiPolygon", "coordinates": [[[[72.13808798, 34.53522753], [72.13801028, 34.53522534], [72.13800827, 34.5352739], [72.13808596, 34.53527608], [72.13808798, 34.53522753]]]]}, "properties": {"id": "Pakistan_123102132_57391", "height": 2.730807065963745, "hmax": 0.009, "ratio": 0.003, "vulnClass": "none"}}, {"type": "Feature", "geometry": {"type": "MultiPolygon", "coordinates": [[[[72.13896497, 34.53550295], [72.13896261, 34.53543008], [72.13878729, 34.53543393], [72.13878965, 34.53550679], [72.13896497, 34.53550295]]]]}, "properties": {"id": "Pakistan_123102132_5207", "height": 2.712624549865723, "hmax": 0.007, "ratio": 0.003, "vulnClass": "none"}}, {"type": "Feature", "geometry": {"type": "MultiPolygon", "coordinates": [[[[72.1389101, 34.53642107], [72.13890856, 34.5363725], [72.13883501, 34.53637408], [72.138829, 34.53618419], [72.13873787, 34.53618615], [72.13874541, 34.53642461], [72.1389101, 34.53642107]]]]}, "properties": {"id": "Pakistan_123102132_233028", "height": 2.69706654548645, "hmax": 0.023, "ratio": 0.009, "vulnClass": "none"}}, {"type": "Feature", "geometry": {"type": "MultiPolygon", "coordinates": [[[[72.13896241, 34.53645734], [72.13885363, 34.53645745], [72.13885392, 34.53664526], [72.13907265, 34.53664503], [72.13907257, 34.53658979], [72.1389626, 34.53658991], [72.13896241, 34.53645734]]]]}, "properties": {"id": "Pakistan_123102132_577399", "height": 2.788799524307251, "hmax": 0.023, "ratio": 0.008, "vulnClass": "none"}}, {"type": "Feature", "geometry": {"type": "MultiPolygon", "coordinates": [[[[72.13943082, 34.53652213], [72.1392929, 34.53652474], [72.13929376, 34.53655566], [72.13924403, 34.5365566], [72.13924578, 34.53661939], [72.13935301, 34.53661737], [72.13935741, 34.53677541], [72.13943784, 34.53677388], [72.13943082, 34.53652213]]]]}, "properties": {"id": "Pakistan_123102132_601967", "height": 2.645748376846313, "hmax": 0.023, "ratio": 0.009, "vulnClass": "none"}}, {"type": "Feature", "geometry": {"type": "MultiPolygon", "coordinates": [[[[72.13972063, 34.53666185], [72.13984354, 34.53665557], [72.13983674, 34.53656533], [72.13976341, 34.53656908], [72.13976026, 34.53652726], [72.13971335, 34.53652966], [72.13970878, 34.53646901], [72.13968889, 34.53647003], [72.13967755, 34.53631937], [72.1395959, 34.53632355], [72.13963952, 34.53690242], [72.13973838, 34.53689736], [72.13972063, 34.53666185]]]]}, "properties": {"id": "Pakistan_123102132_479500", "height": 2.550311088562012, "hmax": 0.024, "ratio": 0.009, "vulnClass": "none"}}, {"type": "Feature", "geometry": {"type": "MultiPolygon", "coordinates": [[[[72.13979019, 34.53636536], [72.13985406, 34.53636071], [72.13986017, 34.53641771], [72.14016209, 34.53639575], [72.14014986, 34.53628174], [72.13978407, 34.53630836], [72.13979019, 34.53636536]]]]}, "properties": {"id": "Pakistan_123102132_257677", "height": 2.538562297821045, "hmax": 0.028, "ratio": 0.011, "vulnClass": "none"}}, {"type": "Feature", "geometry": {"type": "MultiPolygon", "coordinates": [[[[72.13965764, 34.53725838], [72.13991462, 34.53724894], [72.13991468, 34.53724994], [72.14005655, 34.53724473], [72.14005757, 34.53726357], [72.14015804, 34.53725988], [72.14015202, 34.53714844], [72.14001817, 34.53715334], [72.14001609, 34.53711485], [72.13990901, 34.53711878], [72.13990823, 34.53710435], [72.13964982, 34.53711382], [72.13965764, 34.53725838]]]]}, "properties": {"id": "Pakistan_123102132_383862", "height": 3.324472665786743, "hmax": 0.032, "ratio": 0.01, "vulnClass": "none"}}, {"type": "Feature", "geometry": {"type": "MultiPolygon", "coordinates": [[[[72.13943342, 34.53710692], [72.13943456, 34.53707159], [72.13933931, 34.5370695], [72.13933831, 34.53710041], [72.13939603, 34.53710168], [72.13939589, 34.53710609], [72.13943342, 34.53710692]]]]}, "properties": {"id": "Pakistan_123102132_193087", "height": 2.952043056488037, "hmax": 0.028, "ratio": 0.009, "vulnClass": "none"}}, {"type": "Feature", "geometry": {"type": "MultiPolygon", "coordinates": [[[[72.13933485, 34.53710634], [72.13933717, 34.53715488], [72.13939733, 34.53715293], [72.13939501, 34.53710439], [72.13933485, 34.53710634]]]]}, "properties": {"id": "Pakistan_123102132_365378", "height": 2.656165361404419, "hmax": 0.028, "ratio": 0.011, "vulnClass": "none"}}, {"type": "Feature", "geometry": {"type": "MultiPolygon", "coordinates": [[[[72.13934804, 34.53677023], [72.13935093, 34.5366598], [72.13926246, 34.53665823], [72.13925957, 34.53676866], [72.13934804, 34.53677023]]]]}, "properties": {"id": "Pakistan_123102132_500975", "height": 2.533374786376953, "hmax": 0.023, "ratio": 0.009, "vulnClass": "none"}}, {"type": "Feature", "geometry": {"type": "MultiPolygon", "coordinates": [[[[72.13925893, 34.53681314], [72.13925212, 34.53711228], [72.13933256, 34.53711352], [72.13933366, 34.53706493], [72.13943947, 34.53706656], [72.1394412, 34.53699049], [72.13944924, 34.53699062], [72.13945165, 34.5368846], [72.13931758, 34.53688253], [72.13931914, 34.53681406], [72.13925893, 34.53681314]]]]}, "properties": {"id": "Pakistan_123102132_494899", "height": 2.966556787490845, "hmax": 0.027, "ratio": 0.009, "vulnClass": "none"}}, {"type": "Feature", "geometry": {"type": "MultiPolygon", "coordinates": [[[[72.13893093, 34.53665341], [72.13893279, 34.53669534], [72.13897686, 34.53669401], [72.138975, 34.53665209], [72.13893093, 34.53665341]]]]}, "properties": {"id": "Pakistan_123102132_32700", "height": 2.694100856781006, "hmax": 0.023, "ratio": 0.009, "vulnClass": "none"}}, {"type": "Feature", "geometry": {"type": "MultiPolygon", "coordinates": [[[[72.13879447, 34.53692408], [72.13889254, 34.53691524], [72.13889602, 34.53694144], [72.13893843, 34.53693761], [72.13892989, 34.53687336], [72.13888869, 34.53687708], [72.1388653, 34.53670116], [72.13876604, 34.53671011], [72.13879447, 34.53692408]]]]}, "properties": {"id": "Pakistan_123102132_592696", "height": 2.571362018585205, "hmax": 0.025, "ratio": 0.01, "vulnClass": "none"}}, {"type": "Feature", "geometry": {"type": "MultiPolygon", "coordinates": [[[[72.13893721, 34.53686372], [72.13894392, 34.5369717], [72.13878876, 34.53697825], [72.13880521, 34.5372427], [72.13895234, 34.53723649], [72.13895481, 34.53727615], [72.13903507, 34.53727277], [72.13903233, 34.53722869], [72.13910723, 34.53722553], [72.13910202, 34.53714179], [72.13901374, 34.53714552], [72.13900127, 34.53694498], [72.13909758, 34.53694091], [72.13909237, 34.53685717], [72.13893721, 34.53686372]]]]}, "properties": {"id": "Pakistan_123102132_467109", "height": 2.801041126251221, "hmax": 0.028, "ratio": 0.01, "vulnClass": "none"}}, {"type": "Feature", "geometry": {"type": "MultiPolygon", "coordinates": [[[[72.13774716, 34.53653748], [72.13768432, 34.53653611], [72.13768132, 34.53662884], [72.13774417, 34.53663022], [72.13774716, 34.53653748]]]]}, "properties": {"id": "Pakistan_123102132_220776", "height": 2.550733089447021, "hmax": 0.018, "ratio": 0.007, "vulnClass": "none"}}, {"type": "Feature", "geometry": {"type": "MultiPolygon", "coordinates": [[[[72.13784193, 34.53782438], [72.13766242, 34.53782929], [72.1376679, 34.53796525], [72.13776971, 34.53796246], [72.13776663, 34.53788609], [72.13779741, 34.53788525], [72.13779848, 34.53791174], [72.1378454, 34.53791045], [72.13784193, 34.53782438]]]]}, "properties": {"id": "Pakistan_123102132_552960", "height": 2.958321571350098, "hmax": 0.006, "ratio": 0.002, "vulnClass": "none"}}, {"type": "Feature", "geometry": {"type": "MultiPolygon", "coordinates": [[[[72.13773533, 34.53781586], [72.13773239, 34.53771207], [72.13768682, 34.53771295], [72.13768976, 34.53781674], [72.13773533, 34.53781586]]]]}, "properties": {"id": "Pakistan_123102132_152825", "height": 2.869715213775635, "hmax": 0.006, "ratio": 0.002, "vulnClass": "none"}}, {"type": "Feature", "geometry": {"type": "MultiPolygon", "coordinates": [[[[72.1380913, 34.5377151], [72.13809699, 34.53761679], [72.13803544, 34.53761437], [72.13802975, 34.53771268], [72.1380913, 34.5377151]]]]}, "properties": {"id": "Pakistan_123102132_608172", "height": 2.754961490631104, "hmax": 0.009, "ratio": 0.003, "vulnClass": "none"}}, {"type": "Feature", "geometry": {"type": "MultiPolygon", "coordinates": [[[[72.13801925, 34.5377121], [72.13801001, 34.53780782], [72.13816857, 34.5378182], [72.1381651, 34.53785422], [72.13822107, 34.53785789], [72.13823377, 34.53772615], [72.13801925, 34.5377121]]]]}, "properties": {"id": "Pakistan_123102132_288440", "height": 3.009613752365112, "hmax": 0.006, "ratio": 0.002, "vulnClass": "none"}}, {"type": "Feature", "geometry": {"type": "MultiPolygon", "coordinates": [[[[72.1379397, 34.53766437], [72.13794133, 34.5377041], [72.13800295, 34.53770238], [72.13800132, 34.53766266], [72.1379397, 34.53766437]]]]}, "properties": {"id": "Pakistan_123102132_158954", "height": 2.832971334457397, "hmax": 0.009, "ratio": 0.003, "vulnClass": "none"}}, {"type": "Feature", "geometry": {"type": "MultiPolygon", "coordinates": [[[[72.13800692, 34.53781542], [72.13798373, 34.5380044], [72.13793994, 34.53800075], [72.13792947, 34.53808605], [72.13803168, 34.53809456], [72.13806533, 34.53782029], [72.13800692, 34.53781542]]]]}, "properties": {"id": "Pakistan_123102132_20488", "height": 3.141641139984131, "hmax": 0.006, "ratio": 0.002, "vulnClass": "none"}}, {"type": "Feature", "geometry": {"type": "MultiPolygon", "coordinates": [[[[72.13786817, 34.53794021], [72.13792115, 34.5379451], [72.13793243, 34.53786218], [72.13787945, 34.53785729], [72.13786817, 34.53794021]]]]}, "properties": {"id": "Pakistan_123102132_565069", "height": 2.530088901519775, "hmax": 0.006, "ratio": 0.002, "vulnClass": "none"}}, {"type": "Feature", "geometry": {"type": "MultiPolygon", "coordinates": [[[[72.13819192, 34.5382758], [72.13820351, 34.53817953], [72.1381318, 34.53817367], [72.13812548, 34.53822618], [72.13807235, 34.53822184], [72.13807894, 34.53816714], [72.13801786, 34.53816215], [72.13802592, 34.5380952], [72.13797014, 34.53809064], [72.13796524, 34.53813133], [72.13790415, 34.53812634], [72.13791127, 34.53806726], [72.13783559, 34.53806108], [72.13781686, 34.53821642], [72.13787131, 34.53822087], [72.13787552, 34.53818586], [72.13792599, 34.53818999], [72.1379223, 34.53822062], [72.13797011, 34.53822453], [72.13796009, 34.53830767], [72.13801321, 34.53831201], [72.13800847, 34.53835139], [72.13805627, 34.5383553], [72.13806708, 34.5382656], [72.13819192, 34.5382758]]]]}, "properties": {"id": "Pakistan_123102132_220779", "height": 2.800499439239502, "hmax": 0.006, "ratio": 0.002, "vulnClass": "none"}}, {"type": "Feature", "geometry": {"type": "MultiPolygon", "coordinates": [[[[72.13805957, 34.53793662], [72.13805254, 34.53801219], [72.13820453, 34.53802179], [72.13820003, 34.53807012], [72.1382587, 34.53807382], [72.13826042, 34.53805535], [72.13839908, 34.5380641], [72.13840132, 34.53803994], [72.13836801, 34.53803784], [72.13837558, 34.53795657], [72.13805957, 34.53793662]]]]}, "properties": {"id": "Pakistan_123102132_233026", "height": 3.219772815704346, "hmax": 0.006, "ratio": 0.002, "vulnClass": "none"}}, {"type": "Feature", "geometry": {"type": "MultiPolygon", "coordinates": [[[[72.1381486, 34.53794217], [72.13821022, 34.53794393], [72.13821347, 34.53786669], [72.13815185, 34.53786493], [72.1381486, 34.53794217]]]]}, "properties": {"id": "Pakistan_123102132_482583", "height": 2.514296054840088, "hmax": 0.006, "ratio": 0.002, "vulnClass": "none"}}, {"type": "Feature", "geometry": {"type": "MultiPolygon", "coordinates": [[[[72.13823824, 34.53784367], [72.13823124, 34.53788392], [72.1382772, 34.53788934], [72.1382842, 34.5378491], [72.13823824, 34.53784367]]]]}, "properties": {"id": "Pakistan_123102132_208607", "height": 3.17596435546875, "hmax": 0.006, "ratio": 0.002, "vulnClass": "none"}}, {"type": "Feature", "geometry": {"type": "MultiPolygon", "coordinates": [[[[72.13839278, 34.53785478], [72.13828713, 34.53785042], [72.13828418, 34.53789891], [72.13838984, 34.53790327], [72.13839278, 34.53785478]]]]}, "properties": {"id": "Pakistan_123102132_26559", "height": 3.17596435546875, "hmax": 0.006, "ratio": 0.002, "vulnClass": "none"}}, {"type": "Feature", "geometry": {"type": "MultiPolygon", "coordinates": [[[[72.13839789, 34.53808148], [72.13831489, 34.53808432], [72.13831799, 34.53814607], [72.138401, 34.53814324], [72.13839789, 34.53808148]]]]}, "properties": {"id": "Pakistan_123102132_60524", "height": 3.623071670532227, "hmax": 0.006, "ratio": 0.002, "vulnClass": "none"}}, {"type": "Feature", "geometry": {"type": "MultiPolygon", "coordinates": [[[[72.13856487, 34.53811123], [72.13856064, 34.53801949], [72.13845886, 34.53802267], [72.13846309, 34.53811442], [72.13856487, 34.53811123]]]]}, "properties": {"id": "Pakistan_123102132_595850", "height": 3.16514253616333, "hmax": 0.006, "ratio": 0.002, "vulnClass": "none"}}, {"type": "Feature", "geometry": {"type": "MultiPolygon", "coordinates": [[[[72.13862516, 34.53820962], [72.13862274, 34.53808022], [72.13857447, 34.53808083], [72.13857689, 34.53821023], [72.13862516, 34.53820962]]]]}, "properties": {"id": "Pakistan_123102132_310139", "height": 3.097290515899658, "hmax": 0.006, "ratio": 0.002, "vulnClass": "none"}}, {"type": "Feature", "geometry": {"type": "MultiPolygon", "coordinates": [[[[72.13856517, 34.53797574], [72.13863476, 34.53797837], [72.13863746, 34.53792987], [72.1385759, 34.53792754], [72.1385802, 34.53785037], [72.1385253, 34.5378483], [72.13851622, 34.53801146], [72.13856308, 34.53801323], [72.13856517, 34.53797574]]]]}, "properties": {"id": "Pakistan_123102132_48108", "height": 2.831547498703003, "hmax": 0.006, "ratio": 0.002, "vulnClass": "none"}}, {"type": "Feature", "geometry": {"type": "MultiPolygon", "coordinates": [[[[72.13838176, 34.53769699], [72.13826625, 34.53768296], [72.13824072, 34.53782569], [72.13853211, 34.53786107], [72.1385414, 34.53780917], [72.13836551, 34.53778781], [72.13838176, 34.53769699]]]]}, "properties": {"id": "Pakistan_123102132_500970", "height": 2.763936281204224, "hmax": 0.006, "ratio": 0.002, "vulnClass": "none"}}, {"type": "Feature", "geometry": {"type": "MultiPolygon", "coordinates": [[[[72.1385218, 34.53778175], [72.13859481, 34.53779713], [72.13861514, 34.53773164], [72.13864535, 34.537738], [72.1386585, 34.53769566], [72.13859053, 34.53768134], [72.1386128, 34.53760962], [72.13857756, 34.5376022], [72.1385218, 34.53778175]]]]}, "properties": {"id": "Pakistan_123102132_414787", "height": 2.985913991928101, "hmax": 0.008, "ratio": 0.003, "vulnClass": "none"}}, {"type": "Feature", "geometry": {"type": "MultiPolygon", "coordinates": [[[[72.1386233, 34.53769057], [72.13868491, 34.53769243], [72.13868862, 34.53760952], [72.13862701, 34.53760764], [72.1386233, 34.53769057]]]]}, "properties": {"id": "Pakistan_123102132_430215", "height": 2.955831050872803, "hmax": 0.013, "ratio": 0.004, "vulnClass": "none"}}, {"type": "Feature", "geometry": {"type": "MultiPolygon", "coordinates": [[[[72.13904364, 34.53762582], [72.13898762, 34.53762243], [72.13897606, 34.53775209], [72.13885334, 34.53774467], [72.1388647, 34.53761721], [72.13878733, 34.53761253], [72.13877343, 34.53776856], [72.13867205, 34.53776243], [72.13865795, 34.53792066], [72.13876199, 34.53792695], [72.13876767, 34.53786322], [72.1389144, 34.53787209], [72.13890872, 34.53793582], [72.13895408, 34.53793857], [72.13894487, 34.53804185], [72.13900623, 34.53804557], [72.13904364, 34.53762582]]]]}, "properties": {"id": "Pakistan_123102132_131280", "height": 4.168296337127686, "hmax": 0.015, "ratio": 0.004, "vulnClass": "none"}}, {"type": "Feature", "geometry": {"type": "MultiPolygon", "coordinates": [[[[72.13856521, 34.53757989], [72.13875019, 34.53759854], [72.13875782, 34.53754722], [72.13857285, 34.53752856], [72.13856521, 34.53757989]]]]}, "properties": {"id": "Pakistan_123102132_186975", "height": 3.31820273399353, "hmax": 0.017, "ratio": 0.005, "vulnClass": "none"}}, {"type": "Feature", "geometry": {"type": "MultiPolygon", "coordinates": [[[[72.13843072, 34.53749269], [72.13846801, 34.53749527], [72.13847203, 34.53745578], [72.13852264, 34.53745928], [72.13852689, 34.5374176], [72.138439, 34.53741151], [72.13843072, 34.53749269]]]]}, "properties": {"id": "Pakistan_123102132_337733", "height": 3.839190721511841, "hmax": 0.009, "ratio": 0.002, "vulnClass": "none"}}, {"type": "Feature", "geometry": {"type": "MultiPolygon", "coordinates": [[[[72.13834283, 34.53764323], [72.1385514, 34.5376602], [72.13856609, 34.53753766], [72.13850626, 34.5375328], [72.13850993, 34.53750216], [72.1384329, 34.5374959], [72.13842031, 34.53760093], [72.13834859, 34.53759509], [72.13834283, 34.53764323]]]]}, "properties": {"id": "Pakistan_123102132_396367", "height": 3.104214191436768, "hmax": 0.009, "ratio": 0.003, "vulnClass": "none"}}, {"type": "Feature", "geometry": {"type": "MultiPolygon", "coordinates": [[[[72.13826212, 34.53762804], [72.13833776, 34.53763424], [72.13834399, 34.53758263], [72.13826835, 34.53757643], [72.13826212, 34.53762804]]]]}, "properties": {"id": "Pakistan_123102132_140509", "height": 2.741190910339355, "hmax": 0.009, "ratio": 0.003, "vulnClass": "none"}}, {"type": "Feature", "geometry": {"type": "MultiPolygon", "coordinates": [[[[72.13809978, 34.5375991], [72.13819532, 34.53760726], [72.13818817, 34.53766409], [72.13824124, 34.53766862], [72.13825939, 34.53752434], [72.13805505, 34.53750691], [72.13804944, 34.53755151], [72.13810517, 34.53755627], [72.13809978, 34.5375991]]]]}, "properties": {"id": "Pakistan_123102132_29690", "height": 2.561619281768799, "hmax": 0.009, "ratio": 0.003, "vulnClass": "none"}}, {"type": "Feature", "geometry": {"type": "MultiPolygon", "coordinates": [[[[72.13804267, 34.53756464], [72.13796979, 34.53755416], [72.13795907, 34.53760475], [72.13803196, 34.53761523], [72.13804267, 34.53756464]]]]}, "properties": {"id": "Pakistan_123102132_78763", "height": 2.603392839431763, "hmax": 0.009, "ratio": 0.003, "vulnClass": "none"}}, {"type": "Feature", "geometry": {"type": "MultiPolygon", "coordinates": [[[[72.13788329, 34.53769683], [72.13794494, 34.53769542], [72.13794018, 34.53755412], [72.13787854, 34.53755553], [72.13788329, 34.53769683]]]]}, "properties": {"id": "Pakistan_123102132_165232", "height": 3.028932809829712, "hmax": 0.009, "ratio": 0.003, "vulnClass": "none"}}, {"type": "Feature", "geometry": {"type": "MultiPolygon", "coordinates": [[[[72.13799236, 34.53749292], [72.1379866, 34.53736626], [72.13786607, 34.53736998], [72.13787183, 34.53749663], [72.13799236, 34.53749292]]]]}, "properties": {"id": "Pakistan_123102132_546856", "height": 3.328606605529785, "hmax": 0.009, "ratio": 0.003, "vulnClass": "none"}}, {"type": "Feature", "geometry": {"type": "MultiPolygon", "coordinates": [[[[72.13840921, 34.53733879], [72.13845942, 34.53734386], [72.13845489, 34.53737433], [72.13849188, 34.53737806], [72.13848671, 34.53741289], [72.13851842, 34.53741609], [72.13853686, 34.53729201], [72.13841794, 34.53728002], [72.13840921, 34.53733879]]]]}, "properties": {"id": "Pakistan_123102132_531628", "height": 2.961081504821777, "hmax": 0.009, "ratio": 0.003, "vulnClass": "none"}}, {"type": "Feature", "geometry": {"type": "MultiPolygon", "coordinates": [[[[72.13858609, 34.5374394], [72.13863697, 34.53744111], [72.13864221, 34.53733523], [72.13859134, 34.53733352], [72.13858609, 34.5374394]]]]}, "properties": {"id": "Pakistan_123102132_343867", "height": 2.580103397369385, "hmax": 0.009, "ratio": 0.003, "vulnClass": "none"}}, {"type": "Feature", "geometry": {"type": "MultiPolygon", "coordinates": [[[[72.13877937, 34.5372485], [72.13859578, 34.53724586], [72.13859428, 34.53731655], [72.13881147, 34.53731966], [72.13881241, 34.53727549], [72.13877881, 34.53727501], [72.13877937, 34.5372485]]]]}, "properties": {"id": "Pakistan_123102132_374464", "height": 2.461653232574463, "hmax": 0.019, "ratio": 0.008, "vulnClass": "none"}}, {"type": "Feature", "geometry": {"type": "MultiPolygon", "coordinates": [[[[72.1391882, 34.53712991], [72.13919037, 34.53718509], [72.13913017, 34.5371867], [72.13913191, 34.53723084], [72.13919747, 34.53722909], [72.13919895, 34.53726661], [72.13926593, 34.53726482], [72.13926054, 34.53712798], [72.1391882, 34.53712991]]]]}, "properties": {"id": "Pakistan_123102132_411694", "height": 2.868551731109619, "hmax": 0.028, "ratio": 0.01, "vulnClass": "none"}}, {"type": "Feature", "geometry": {"type": "MultiPolygon", "coordinates": [[[[72.13952579, 34.53730791], [72.13912347, 34.53730984], [72.13912393, 34.53737487], [72.13930899, 34.53737399], [72.13930927, 34.53741376], [72.13937364, 34.53741346], [72.13937326, 34.53735822], [72.13952614, 34.5373575], [72.13952579, 34.53730791]]]]}, "properties": {"id": "Pakistan_123102132_254579", "height": 2.673030853271484, "hmax": 0.028, "ratio": 0.011, "vulnClass": "none"}}, {"type": "Feature", "geometry": {"type": "MultiPolygon", "coordinates": [[[[72.13906483, 34.53738519], [72.13906877, 34.53730799], [72.13883457, 34.53729986], [72.13883259, 34.53733863], [72.13894095, 34.53734238], [72.13893899, 34.53738082], [72.13906483, 34.53738519]]]]}, "properties": {"id": "Pakistan_123102132_307074", "height": 2.461653232574463, "hmax": 0.028, "ratio": 0.011, "vulnClass": "none"}}, {"type": "Feature", "geometry": {"type": "MultiPolygon", "coordinates": [[[[72.13902471, 34.53761584], [72.13902681, 34.53757614], [72.13906697, 34.53757758], [72.13906884, 34.5375423], [72.13877703, 34.53753182], [72.13877306, 34.5376068], [72.13902471, 34.53761584]]]]}, "properties": {"id": "Pakistan_123102132_368444", "height": 3.812192440032959, "hmax": 0.028, "ratio": 0.007, "vulnClass": "none"}}, {"type": "Feature", "geometry": {"type": "MultiPolygon", "coordinates": [[[[72.13907311, 34.53760025], [72.13935136, 34.53762552], [72.13936322, 34.53753697], [72.13915122, 34.53751771], [72.13915385, 34.53749806], [72.1390876, 34.53749204], [72.13907311, 34.53760025]]]]}, "properties": {"id": "Pakistan_123102132_14341", "height": 3.423444986343384, "hmax": 0.028, "ratio": 0.008, "vulnClass": "none"}}, {"type": "Feature", "geometry": {"type": "MultiPolygon", "coordinates": [[[[72.13905273, 34.53753809], [72.13905609, 34.53744316], [72.1390039, 34.53744191], [72.13900053, 34.53753684], [72.13905273, 34.53753809]]]]}, "properties": {"id": "Pakistan_123102132_214742", "height": 3.410265445709229, "hmax": 0.028, "ratio": 0.008, "vulnClass": "none"}}, {"type": "Feature", "geometry": {"type": "MultiPolygon", "coordinates": [[[[72.13935544, 34.53751024], [72.13958, 34.53752096], [72.13958511, 34.53744829], [72.13952095, 34.53744523], [72.13951947, 34.53746628], [72.13939383, 34.53746029], [72.1393967, 34.53741941], [72.13936195, 34.53741776], [72.13935544, 34.53751024]]]]}, "properties": {"id": "Pakistan_123102132_196184", "height": 3.257712841033936, "hmax": 0.028, "ratio": 0.009, "vulnClass": "none"}}, {"type": "Feature", "geometry": {"type": "MultiPolygon", "coordinates": [[[[72.13985358, 34.5375402], [72.13960053, 34.5375324], [72.13959722, 34.53760521], [72.13985028, 34.53761301], [72.13985358, 34.5375402]]]]}, "properties": {"id": "Pakistan_123102132_273148", "height": 3.302077293395996, "hmax": 0.029, "ratio": 0.009, "vulnClass": "none"}}, {"type": "Feature", "geometry": {"type": "MultiPolygon", "coordinates": [[[[72.13927681, 34.53711785], [72.13927732, 34.53715195], [72.13933095, 34.5371514], [72.13933044, 34.5371173], [72.13927681, 34.53711785]]]]}, "properties": {"id": "Pakistan_123102132_183889", "height": 2.558636903762817, "hmax": 0.028, "ratio": 0.011, "vulnClass": "none"}}, {"type": "Feature", "geometry": {"type": "MultiPolygon", "coordinates": [[[[72.1399532, 34.53740766], [72.13986745, 34.53740551], [72.13986125, 34.53757327], [72.14013726, 34.53758019], [72.14014158, 34.5374632], [72.14005583, 34.53746105], [72.14005755, 34.53741469], [72.13995304, 34.53741207], [72.1399532, 34.53740766]]]]}, "properties": {"id": "Pakistan_123102132_411697", "height": 2.971166372299194, "hmax": 0.033, "ratio": 0.011, "vulnClass": "none"}}, {"type": "Feature", "geometry": {"type": "MultiPolygon", "coordinates": [[[[72.13980628, 34.53761652], [72.13980444, 34.53766066], [72.13985802, 34.53766218], [72.13985986, 34.53761804], [72.13980628, 34.53761652]]]]}, "properties": {"id": "Pakistan_123102132_611279", "height": 2.440399646759033, "hmax": 0.033, "ratio": 0.014, "vulnClass": "none"}}, {"type": "Feature", "geometry": {"type": "MultiPolygon", "coordinates": [[[[72.14011883, 34.53776373], [72.14012238, 34.53768208], [72.13985579, 34.53767421], [72.13985225, 34.53775586], [72.14011883, 34.53776373]]]]}, "properties": {"id": "Pakistan_123102132_346958", "height": 2.850692987442017, "hmax": 0.033, "ratio": 0.012, "vulnClass": "none"}}, {"type": "Feature", "geometry": {"type": "MultiPolygon", "coordinates": [[[[72.14052643, 34.53793587], [72.14044062, 34.53793476], [72.14043847, 34.53804741], [72.14052428, 34.53804853], [72.14052643, 34.53793587]]]]}, "properties": {"id": "Pakistan_123102132_81916", "height": 6.399627208709717, "hmax": 0.015, "ratio": 0.002, "vulnClass": "none"}}, {"type": "Feature", "geometry": {"type": "MultiPolygon", "coordinates": [[[[72.1394223, 34.53802321], [72.1394223, 34.53806077], [72.13947058, 34.53806077], [72.13947058, 34.53802321], [72.1394223, 34.53802321]]]]}, "properties": {"id": "Pakistan_123102132_325371", "height": 2.677035808563232, "hmax": 0.012, "ratio": 0.005, "vulnClass": "none"}}, {"type": "Feature", "geometry": {"type": "MultiPolygon", "coordinates": [[[[72.13942263, 34.53807455], [72.13942222, 34.53811431], [72.13945709, 34.53811456], [72.1394575, 34.53807479], [72.13942263, 34.53807455]]]]}, "properties": {"id": "Pakistan_123102132_17407", "height": 2.673501253128052, "hmax": 0.012, "ratio": 0.005, "vulnClass": "none"}}, {"type": "Feature", "geometry": {"type": "MultiPolygon", "coordinates": [[[[72.13941817, 34.53807058], [72.1393513, 34.5380677], [72.13934849, 34.53811176], [72.13941536, 34.53811465], [72.13941817, 34.53807058]]]]}, "properties": {"id": "Pakistan_123102132_340837", "height": 2.590106010437012, "hmax": 0.012, "ratio": 0.005, "vulnClass": "none"}}, {"type": "Feature", "geometry": {"type": "MultiPolygon", "coordinates": [[[[72.13927978, 34.53792872], [72.1393333, 34.53793088], [72.13933553, 34.53789341], [72.13928202, 34.53789125], [72.13927978, 34.53792872]]]]}, "properties": {"id": "Pakistan_123102132_531633", "height": 2.962259292602539, "hmax": 0.012, "ratio": 0.004, "vulnClass": "none"}}, {"type": "Feature", "geometry": {"type": "MultiPolygon", "coordinates": [[[[72.1397885, 34.53808589], [72.13982614, 34.53786262], [72.13953269, 34.53782907], [72.13949507, 34.53805234], [72.1397885, 34.53808589]]]]}, "properties": {"id": "Pakistan_123102132_328505", "height": 3.945073127746582, "hmax": 0.012, "ratio": 0.003, "vulnClass": "none"}}, {"type": "Feature", "geometry": {"type": "MultiPolygon", "coordinates": [[[[72.13971116, 34.53777943], [72.13957331, 34.53776289], [72.13956124, 34.53783116], [72.13969909, 34.5378477], [72.13971116, 34.53777943]]]]}, "properties": {"id": "Pakistan_123102132_525514", "height": 2.562916040420532, "hmax": 0.012, "ratio": 0.005, "vulnClass": "none"}}, {"type": "Feature", "geometry": {"type": "MultiPolygon", "coordinates": [[[[72.13959504, 34.53766479], [72.13966204, 34.53766637], [72.13966092, 34.5376985], [72.13984991, 34.53770295], [72.13985114, 34.53766763], [72.13980022, 34.53766643], [72.13980122, 34.53763773], [72.13959614, 34.53763291], [72.13959504, 34.53766479]]]]}, "properties": {"id": "Pakistan_123102132_134350", "height": 2.836184024810791, "hmax": 0.029, "ratio": 0.01, "vulnClass": "none"}}, {"type": "Feature", "geometry": {"type": "MultiPolygon", "coordinates": [[[[72.13949312, 34.53767762], [72.13953956, 34.53768523], [72.13954778, 34.53765123], [72.13950133, 34.53764362], [72.13949312, 34.53767762]]]]}, "properties": {"id": "Pakistan_123102132_118856", "height": 2.669579029083252, "hmax": 0.028, "ratio": 0.011, "vulnClass": "none"}}, {"type": "Feature", "geometry": {"type": "MultiPolygon", "coordinates": [[[[72.13911445, 34.53782762], [72.13911428, 34.53783203], [72.13903657, 34.53783005], [72.1390336, 34.53790952], [72.13915686, 34.53791265], [72.13916, 34.53782877], [72.13911445, 34.53782762]]]]}, "properties": {"id": "Pakistan_123102132_115728", "height": 2.819276332855225, "hmax": 0.012, "ratio": 0.004, "vulnClass": "none"}}, {"type": "Feature", "geometry": {"type": "MultiPolygon", "coordinates": [[[[72.13925793, 34.53765249], [72.13924542, 34.5377944], [72.13910935, 34.53778626], [72.13910605, 34.53782363], [72.1391861, 34.53782841], [72.13917816, 34.53791853], [72.13928222, 34.53792475], [72.13929054, 34.53783024], [72.13949599, 34.53784252], [72.13950742, 34.53771285], [72.13944209, 34.53770894], [72.13944608, 34.53766375], [72.13925793, 34.53765249]]]]}, "properties": {"id": "Pakistan_123102132_340836", "height": 3.213384628295898, "hmax": 0.017, "ratio": 0.005, "vulnClass": "none"}}, {"type": "Feature", "geometry": {"type": "MultiPolygon", "coordinates": [[[[72.1387805, 34.53764208], [72.13870403, 34.53764332], [72.13870543, 34.53770202], [72.13878189, 34.53770078], [72.1387805, 34.53764208]]]]}, "properties": {"id": "Pakistan_123102132_340833", "height": 3.872768402099609, "hmax": 0.028, "ratio": 0.007, "vulnClass": "none"}}, {"type": "Feature", "geometry": {"type": "MultiPolygon", "coordinates": [[[[72.1391216, 34.53822985], [72.13907789, 34.53822581], [72.13907237, 34.53826632], [72.13921673, 34.53827967], [72.13923118, 34.53817371], [72.13927885, 34.53817812], [72.13930368, 34.53799606], [72.1392666, 34.53799264], [72.13927255, 34.537949], [72.1391613, 34.53793871], [72.1391216, 34.53822985]]]]}, "properties": {"id": "Pakistan_123102132_291629", "height": 2.819276332855225, "hmax": 0.012, "ratio": 0.004, "vulnClass": "none"}}, {"type": "Feature", "geometry": {"type": "MultiPolygon", "coordinates": [[[[72.13906207, 34.53801957], [72.1390171, 34.53801517], [72.13900362, 34.53810887], [72.13912793, 34.53812101], [72.1391342, 34.53807743], [72.13905485, 34.53806968], [72.13906207, 34.53801957]]]]}, "properties": {"id": "Pakistan_123102132_470144", "height": 2.680602312088013, "hmax": 0.012, "ratio": 0.005, "vulnClass": "none"}}, {"type": "Feature", "geometry": {"type": "MultiPolygon", "coordinates": [[[[72.13899319, 34.53840258], [72.13914485, 34.53842262], [72.13915492, 34.53837092], [72.1390111, 34.53835192], [72.13902387, 34.53828637], [72.13896895, 34.53827912], [72.13900461, 34.53809602], [72.13893268, 34.53808652], [72.13889351, 34.53828777], [72.13893142, 34.53829278], [72.13892219, 34.53834017], [72.13888297, 34.53833498], [72.13887374, 34.53838237], [72.13881883, 34.53837512], [72.1388117, 34.53841174], [72.13885877, 34.53841796], [72.13884912, 34.5384675], [72.13894587, 34.53848028], [72.13893748, 34.53852336], [72.13896886, 34.53852751], [72.13899319, 34.53840258]]]]}, "properties": {"id": "Pakistan_123102132_601965", "height": 3.922975063323975, "hmax": 0.012, "ratio": 0.003, "vulnClass": "none"}}, {"type": "Feature", "geometry": {"type": "MultiPolygon", "coordinates": [[[[72.13882598, 34.53835655], [72.13887948, 34.53835886], [72.1388827, 34.53830818], [72.1388292, 34.53830587], [72.13882598, 34.53835655]]]]}, "properties": {"id": "Pakistan_123102132_279300", "height": 2.819799661636353, "hmax": 0.012, "ratio": 0.004, "vulnClass": "none"}}, {"type": "Feature", "geometry": {"type": "MultiPolygon", "coordinates": [[[[72.13867659, 34.53860369], [72.13882755, 34.53861122], [72.13882528, 34.53864204], [72.1389576, 34.53864864], [72.13896333, 34.53857065], [72.13886979, 34.53856599], [72.13886979, 34.53856599], [72.13878962, 34.53856199], [72.13879246, 34.5385233], [72.13868289, 34.53851784], [72.13867659, 34.53860369]]]]}, "properties": {"id": "Pakistan_123102132_20489", "height": 4.00851583480835, "hmax": 0.012, "ratio": 0.003, "vulnClass": "none"}}, {"type": "Feature", "geometry": {"type": "MultiPolygon", "coordinates": [[[[72.13902152, 34.53858347], [72.13908587, 34.53858462], [72.13908649, 34.53856128], [72.13902214, 34.53856012], [72.13902152, 34.53858347]]]]}, "properties": {"id": "Pakistan_123102132_310141", "height": 2.588618040084839, "hmax": 0.012, "ratio": 0.005, "vulnClass": "none"}}, {"type": "Feature", "geometry": {"type": "MultiPolygon", "coordinates": [[[[72.13925446, 34.53858251], [72.13925618, 34.53854279], [72.13911689, 34.5385387], [72.13911517, 34.53857842], [72.13925446, 34.53858251]]]]}, "properties": {"id": "Pakistan_123102132_297737", "height": 3.20681095123291, "hmax": 0.012, "ratio": 0.004, "vulnClass": "none"}}, {"type": "Feature", "geometry": {"type": "MultiPolygon", "coordinates": [[[[72.13935894, 34.53844598], [72.13916933, 34.53842921], [72.13915692, 34.53852438], [72.13939692, 34.53854559], [72.13941257, 34.53842545], [72.13936219, 34.538421], [72.13935894, 34.53844598]]]]}, "properties": {"id": "Pakistan_123102132_583559", "height": 3.515811920166016, "hmax": 0.012, "ratio": 0.003, "vulnClass": "none"}}, {"type": "Feature", "geometry": {"type": "MultiPolygon", "coordinates": [[[[72.13927578, 34.53860619], [72.13936081, 34.53861295], [72.13936635, 34.53856575], [72.13928131, 34.53855898], [72.13927578, 34.53860619]]]]}, "properties": {"id": "Pakistan_123102132_565073", "height": 3.092912912368774, "hmax": 0.012, "ratio": 0.004, "vulnClass": "none"}}, {"type": "Feature", "geometry": {"type": "MultiPolygon", "coordinates": [[[[72.13946865, 34.53851013], [72.13985876, 34.53851591], [72.1398606, 34.53843197], [72.13947048, 34.53842619], [72.13946865, 34.53851013]]]]}, "properties": {"id": "Pakistan_123102132_549865", "height": 2.451865911483765, "hmax": 0.013, "ratio": 0.005, "vulnClass": "none"}}, {"type": "Feature", "geometry": {"type": "MultiPolygon", "coordinates": [[[[72.13942364, 34.53831518], [72.1391897, 34.53830421], [72.13918169, 34.53841997], [72.13924051, 34.53842273], [72.13924538, 34.53835226], [72.13942051, 34.53836046], [72.13942364, 34.53831518]]]]}, "properties": {"id": "Pakistan_123102132_291632", "height": 3.574198722839355, "hmax": 0.012, "ratio": 0.003, "vulnClass": "none"}}, {"type": "Feature", "geometry": {"type": "MultiPolygon", "coordinates": [[[[72.13953904, 34.538169], [72.13953601, 34.53821969], [72.13964304, 34.53822402], [72.13964607, 34.53817333], [72.13953904, 34.538169]]]]}, "properties": {"id": "Pakistan_123102132_583561", "height": 2.847352981567383, "hmax": 0.012, "ratio": 0.004, "vulnClass": "none"}}, {"type": "Feature", "geometry": {"type": "MultiPolygon", "coordinates": [[[[72.13963121, 34.53824624], [72.13962803, 34.53833896], [72.13966287, 34.53833977], [72.13966545, 34.53826471], [72.13976193, 34.53826696], [72.1397645, 34.5381919], [72.13967606, 34.53818984], [72.13967409, 34.53824724], [72.13963121, 34.53824624]]]]}, "properties": {"id": "Pakistan_123102132_457945", "height": 4.089770317077637, "hmax": 0.012, "ratio": 0.003, "vulnClass": "none"}}, {"type": "Feature", "geometry": {"type": "MultiPolygon", "coordinates": [[[[72.13967073, 34.53827264], [72.13966855, 34.53834871], [72.13991786, 34.53835358], [72.13992004, 34.5382775], [72.13967073, 34.53827264]]]]}, "properties": {"id": "Pakistan_123102132_273147", "height": 4.089770317077637, "hmax": 0.014, "ratio": 0.003, "vulnClass": "none"}}, {"type": "Feature", "geometry": {"type": "MultiPolygon", "coordinates": [[[[72.14049755, 34.53830514], [72.14040921, 34.53830842], [72.14041399, 34.5383956], [72.14050232, 34.53839231], [72.14049755, 34.53830514]]]]}, "properties": {"id": "Pakistan_123102132_605011", "height": 3.24178409576416, "hmax": 0.015, "ratio": 0.005, "vulnClass": "none"}}, {"type": "Feature", "geometry": {"type": "MultiPolygon", "coordinates": [[[[72.14038883, 34.53821554], [72.14021336, 34.53821048], [72.1402081, 34.53833405], [72.14028579, 34.5383363], [72.14028903, 34.53826008], [72.14038681, 34.53826291], [72.14038883, 34.53821554]]]]}, "properties": {"id": "Pakistan_123102132_115731", "height": 2.5060875415802, "hmax": 0.015, "ratio": 0.006, "vulnClass": "none"}}, {"type": "Feature", "geometry": {"type": "MultiPolygon", "coordinates": [[[[72.14065226, 34.53840315], [72.14041773, 34.53840845], [72.14042019, 34.53848248], [72.14065473, 34.53847717], [72.14065226, 34.53840315]]]]}, "properties": {"id": "Pakistan_123102132_439448", "height": 3.599671125411987, "hmax": 0.015, "ratio": 0.004, "vulnClass": "none"}}, {"type": "Feature", "geometry": {"type": "MultiPolygon", "coordinates": [[[[72.14010166, 34.53838202], [72.14006279, 34.53838167], [72.14006154, 34.53847667], [72.1401004, 34.53847702], [72.14010166, 34.53838202]]]]}, "properties": {"id": "Pakistan_123102132_552963", "height": 3.118900299072266, "hmax": 0.015, "ratio": 0.005, "vulnClass": "none"}}, {"type": "Feature", "geometry": {"type": "MultiPolygon", "coordinates": [[[[72.13982253, 34.53836209], [72.13982082, 34.53842392], [72.13990125, 34.53842543], [72.13990295, 34.5383636], [72.13982253, 34.53836209]]]]}, "properties": {"id": "Pakistan_123102132_26563", "height": 2.451865911483765, "hmax": 0.015, "ratio": 0.006, "vulnClass": "none"}}, {"type": "Feature", "geometry": {"type": "MultiPolygon", "coordinates": [[[[72.13933214, 34.53948078], [72.13950616, 34.53950776], [72.13958064, 34.53949986], [72.13956027, 34.53936945], [72.13949958, 34.53937589], [72.13950799, 34.53942972], [72.13950351, 34.53944936], [72.13947977, 34.53945188], [72.13938432, 34.53943708], [72.13937272, 34.53936283], [72.13954159, 34.53934492], [72.13953446, 34.53929928], [72.13942152, 34.53931125], [72.13937057, 34.53930335], [72.13939953, 34.5391766], [72.13947924, 34.53916815], [72.13948664, 34.53913576], [72.13937349, 34.53911821], [72.13937066, 34.5391001], [72.13933218, 34.53909413], [72.13932538, 34.53905065], [72.13928517, 34.53905491], [72.13925672, 34.53917945], [72.13923588, 34.53918166], [72.13925273, 34.53928951], [72.13926226, 34.53929098], [72.13927181, 34.53935212], [72.13931304, 34.53935851], [72.13933214, 34.53948078]]]]}, "properties": {"id": "Pakistan_123102132_233031", "height": 2.55582332611084, "hmax": 0.008, "ratio": 0.003, "vulnClass": "none"}}, {"type": "Feature", "geometry": {"type": "MultiPolygon", "coordinates": [[[[72.13924443, 34.53900411], [72.13919756, 34.53900613], [72.13920064, 34.5390546], [72.13924752, 34.53905258], [72.13924443, 34.53900411]]]]}, "properties": {"id": "Pakistan_123102132_69644", "height": 3.309954643249512, "hmax": 0.008, "ratio": 0.002, "vulnClass": "none"}}, {"type": "Feature", "geometry": {"type": "MultiPolygon", "coordinates": [[[[72.13927805, 34.53892398], [72.139281, 34.53904545], [72.13939361, 34.5390436], [72.1393917, 34.53896533], [72.13950291, 34.53896349], [72.13950186, 34.5389203], [72.13927805, 34.53892398]]]]}, "properties": {"id": "Pakistan_123102132_470145", "height": 2.584124565124512, "hmax": 0.008, "ratio": 0.003, "vulnClass": "none"}}, {"type": "Feature", "geometry": {"type": "MultiPolygon", "coordinates": [[[[72.13938866, 34.53871682], [72.13943868, 34.5387081], [72.13943072, 34.53867715], [72.13935337, 34.53866842], [72.13934724, 34.53870529], [72.13923929, 34.53869312], [72.1392258, 34.53877431], [72.13928899, 34.53878144], [72.13928594, 34.53879979], [72.13923905, 34.53880797], [72.13923203, 34.53878068], [72.13917402, 34.53877414], [72.13916665, 34.53874548], [72.13912947, 34.53875196], [72.13917818, 34.53894136], [72.13956602, 34.53887367], [72.13957685, 34.53880852], [72.13951592, 34.53880165], [72.13951255, 34.53880223], [72.13950527, 34.53877393], [72.13948515, 34.53877166], [72.13943197, 34.53878094], [72.13943963, 34.53881072], [72.139412, 34.5388076], [72.13938866, 34.53871682]]]]}, "properties": {"id": "Pakistan_123102132_451727", "height": 4.023601055145264, "hmax": 0.008, "ratio": 0.002, "vulnClass": "none"}}, {"type": "Feature", "geometry": {"type": "MultiPolygon", "coordinates": [[[[72.13909159, 34.53860322], [72.13904067, 34.53859352], [72.13902418, 34.53865224], [72.13907509, 34.53866194], [72.13909159, 34.53860322]]]]}, "properties": {"id": "Pakistan_123102132_586542", "height": 2.888858795166016, "hmax": 0.011, "ratio": 0.004, "vulnClass": "none"}}, {"type": "Feature", "geometry": {"type": "MultiPolygon", "coordinates": [[[[72.13875952, 34.53881184], [72.13892844, 34.5388143], [72.13892906, 34.53878559], [72.13901218, 34.5387868], [72.1390119, 34.53880005], [72.13909373, 34.53880124], [72.13909472, 34.53875486], [72.13904377, 34.53875412], [72.139045, 34.53869669], [72.13891492, 34.53869479], [72.13891444, 34.53871688], [72.1388206, 34.53871551], [72.13882199, 34.53865052], [72.138763, 34.53864966], [72.13875952, 34.53881184]]]]}, "properties": {"id": "Pakistan_123102132_45048", "height": 4.465818405151367, "hmax": 0.008, "ratio": 0.002, "vulnClass": "none"}}, {"type": "Feature", "geometry": {"type": "MultiPolygon", "coordinates": [[[[72.13877161, 34.53883308], [72.13876993, 34.53886395], [72.13882475, 34.53886598], [72.13882644, 34.53883511], [72.13877161, 34.53883308]]]]}, "properties": {"id": "Pakistan_123102132_534702", "height": 3.049419164657593, "hmax": 0.008, "ratio": 0.003, "vulnClass": "none"}}, {"type": "Feature", "geometry": {"type": "MultiPolygon", "coordinates": [[[[72.13907234, 34.53896048], [72.1390702, 34.53889993], [72.13885313, 34.53890513], [72.13885527, 34.53896568], [72.13907234, 34.53896048]]]]}, "properties": {"id": "Pakistan_123102132_220780", "height": 3.16667652130127, "hmax": 0.008, "ratio": 0.003, "vulnClass": "none"}}, {"type": "Feature", "geometry": {"type": "MultiPolygon", "coordinates": [[[[72.13909162, 34.53885758], [72.1390985, 34.53890552], [72.13914612, 34.53890088], [72.13913923, 34.53885294], [72.13909162, 34.53885758]]]]}, "properties": {"id": "Pakistan_123102132_420966", "height": 3.00818943977356, "hmax": 0.008, "ratio": 0.003, "vulnClass": "none"}}, {"type": "Feature", "geometry": {"type": "MultiPolygon", "coordinates": [[[[72.13903379, 34.53906238], [72.13903423, 34.5390791], [72.13916023, 34.53907683], [72.13915877, 34.53902162], [72.13894557, 34.53902546], [72.13894658, 34.53906394], [72.13903379, 34.53906238]]]]}, "properties": {"id": "Pakistan_123102132_350086", "height": 3.903314590454102, "hmax": 0.008, "ratio": 0.002, "vulnClass": "none"}}, {"type": "Feature", "geometry": {"type": "MultiPolygon", "coordinates": [[[[72.13898598, 34.53910987], [72.13892554, 34.53909321], [72.13891838, 34.53900957], [72.13889327, 34.53897604], [72.13885012, 34.53896415], [72.13884564, 34.53891168], [72.13870151, 34.53892005], [72.13870486, 34.53895914], [72.1386797, 34.53897193], [72.13862758, 34.53890237], [72.13862614, 34.53888558], [72.13855803, 34.53888953], [72.13856638, 34.53898724], [72.13852219, 34.53892825], [72.13842998, 34.53893361], [72.13840044, 34.5390063], [72.13840164, 34.53902035], [72.13846757, 34.53903854], [72.13846221, 34.53897592], [72.13847815, 34.538975], [72.13852957, 34.53904364], [72.13856172, 34.53904177], [72.13855828, 34.53900148], [72.1386035, 34.53906185], [72.13871905, 34.53909371], [72.13871131, 34.5390032], [72.13884775, 34.53904082], [72.13879688, 34.53916599], [72.13863401, 34.53912108], [72.13859767, 34.53921048], [72.13891009, 34.53929663], [72.13898598, 34.53910987]]]]}, "properties": {"id": "Pakistan_123102132_202361", "height": 4.980228900909424, "hmax": 0.007, "ratio": 0.001, "vulnClass": "none"}}, {"type": "Feature", "geometry": {"type": "MultiPolygon", "coordinates": [[[[72.13834767, 34.53888742], [72.13828746, 34.53888545], [72.13828408, 34.53895604], [72.13821573, 34.53895381], [72.13821318, 34.53900676], [72.13839261, 34.53901261], [72.13839473, 34.53896849], [72.13834385, 34.53896683], [72.13834767, 34.53888742]]]]}, "properties": {"id": "Pakistan_123102132_461020", "height": 3.312095403671265, "hmax": 0.004, "ratio": 0.001, "vulnClass": "none"}}, {"type": "Feature", "geometry": {"type": "MultiPolygon", "coordinates": [[[[72.13860579, 34.53910039], [72.13847992, 34.53909629], [72.13848208, 34.53905126], [72.13843655, 34.53904978], [72.13843345, 34.53911466], [72.13818171, 34.53910646], [72.13817865, 34.53917044], [72.13860177, 34.53918422], [72.13860579, 34.53910039]]]]}, "properties": {"id": "Pakistan_123102132_356215", "height": 3.790471315383911, "hmax": 0.004, "ratio": 0.001, "vulnClass": "none"}}, {"type": "Feature", "geometry": {"type": "MultiPolygon", "coordinates": [[[[72.1377699, 34.53922265], [72.13793985, 34.53921687], [72.13794129, 34.53924555], [72.13814479, 34.53923862], [72.13813274, 34.5389982], [72.138019, 34.53900207], [72.1380215, 34.53905191], [72.1379719, 34.5390536], [72.13797024, 34.53902052], [72.13788991, 34.53902326], [72.13789555, 34.53913575], [72.13786483, 34.53913679], [72.13786262, 34.53909268], [72.13781174, 34.53909441], [72.13781533, 34.53916587], [72.13779391, 34.5391666], [72.13779225, 34.53913352], [72.13776547, 34.53913443], [72.1377699, 34.53922265]]]]}, "properties": {"id": "Pakistan_123102132_217688", "height": 3.892055749893188, "hmax": 0.004, "ratio": 0.001, "vulnClass": "none"}}, {"type": "Feature", "geometry": {"type": "MultiPolygon", "coordinates": [[[[72.13806673, 34.53876961], [72.13809342, 34.53889387], [72.13825342, 34.53887054], [72.13825177, 34.53886285], [72.13831159, 34.53885413], [72.13829363, 34.53877058], [72.1381792, 34.53878726], [72.13818592, 34.53881852], [72.13812735, 34.53882706], [72.13811355, 34.53876279], [72.13806673, 34.53876961]]]]}, "properties": {"id": "Pakistan_123102132_546857", "height": 3.886605739593506, "hmax": 0.004, "ratio": 0.001, "vulnClass": "none"}}, {"type": "Feature", "geometry": {"type": "MultiPolygon", "coordinates": [[[[72.13803253, 34.53867476], [72.13798157, 34.53866783], [72.1379708, 34.5387216], [72.13802176, 34.53872853], [72.13803253, 34.53867476]]]]}, "properties": {"id": "Pakistan_123102132_115726", "height": 2.691418886184692, "hmax": 0.004, "ratio": 0.002, "vulnClass": "none"}}, {"type": "Feature", "geometry": {"type": "MultiPolygon", "coordinates": [[[[72.13807254, 34.53866557], [72.13807075, 34.53875392], [72.13819946, 34.53875569], [72.13820125, 34.53866734], [72.13807254, 34.53866557]]]]}, "properties": {"id": "Pakistan_123102132_390145", "height": 3.209539413452148, "hmax": 0.004, "ratio": 0.001, "vulnClass": "none"}}, {"type": "Feature", "geometry": {"type": "MultiPolygon", "coordinates": [[[[72.13863959, 34.53841886], [72.13863869, 34.53846525], [72.13871109, 34.5384662], [72.13871199, 34.53841982], [72.13863959, 34.53841886]]]]}, "properties": {"id": "Pakistan_123102132_211677", "height": 3.223737716674805, "hmax": 0.011, "ratio": 0.003, "vulnClass": "none"}}, {"type": "Feature", "geometry": {"type": "MultiPolygon", "coordinates": [[[[72.1387534, 34.53835577], [72.13875113, 34.53840873], [72.13872435, 34.53840795], [72.13872623, 34.53836382], [72.13868873, 34.53836273], [72.13868722, 34.53839804], [72.13863765, 34.5383966], [72.13863689, 34.53841425], [72.13871861, 34.53841662], [72.13871672, 34.53846076], [72.13875959, 34.538462], [72.13876157, 34.53841566], [72.13879103, 34.53841651], [72.13879358, 34.53835693], [72.1387534, 34.53835577]]]]}, "properties": {"id": "Pakistan_123102132_183887", "height": 3.223737716674805, "hmax": 0.012, "ratio": 0.004, "vulnClass": "none"}}, {"type": "Feature", "geometry": {"type": "MultiPolygon", "coordinates": [[[[72.1386393, 34.53834299], [72.13874096, 34.53834723], [72.13874281, 34.53831731], [72.13864115, 34.53831306], [72.1386393, 34.53834299]]]]}, "properties": {"id": "Pakistan_123102132_190031", "height": 2.532440900802612, "hmax": 0.011, "ratio": 0.004, "vulnClass": "none"}}, {"type": "Feature", "geometry": {"type": "MultiPolygon", "coordinates": [[[[72.13855432, 34.53831129], [72.13855122, 34.53838853], [72.13851506, 34.53838755], [72.13851214, 34.53846038], [72.13860723, 34.53846297], [72.13861326, 34.53831289], [72.13855432, 34.53831129]]]]}, "properties": {"id": "Pakistan_123102132_87911", "height": 2.920280933380127, "hmax": 0.006, "ratio": 0.002, "vulnClass": "none"}}, {"type": "Feature", "geometry": {"type": "MultiPolygon", "coordinates": [[[[72.13851122, 34.53829637], [72.13859161, 34.53829432], [72.13858837, 34.53820823], [72.13850798, 34.53821029], [72.13851122, 34.53829637]]]]}, "properties": {"id": "Pakistan_123102132_291628", "height": 3.097290515899658, "hmax": 0.006, "ratio": 0.002, "vulnClass": "none"}}, {"type": "Feature", "geometry": {"type": "MultiPolygon", "coordinates": [[[[72.13866277, 34.53815963], [72.13865896, 34.53829305], [72.13875682, 34.53829495], [72.13876061, 34.53816152], [72.13866277, 34.53815963]]]]}, "properties": {"id": "Pakistan_123102132_464093", "height": 3.136846542358398, "hmax": 0.012, "ratio": 0.004, "vulnClass": "none"}}, {"type": "Feature", "geometry": {"type": "MultiPolygon", "coordinates": [[[[72.13853038, 34.53816032], [72.13848913, 34.53816716], [72.13850158, 34.53821812], [72.13854283, 34.53821128], [72.13853038, 34.53816032]]]]}, "properties": {"id": "Pakistan_123102132_589653", "height": 2.875371217727661, "hmax": 0.006, "ratio": 0.002, "vulnClass": "none"}}, {"type": "Feature", "geometry": {"type": "MultiPolygon", "coordinates": [[[[72.13848599, 34.53814966], [72.13842456, 34.53815294], [72.13842709, 34.53818503], [72.13848852, 34.53818175], [72.13848599, 34.53814966]]]]}, "properties": {"id": "Pakistan_123102132_601961", "height": 2.633911848068237, "hmax": 0.006, "ratio": 0.002, "vulnClass": "none"}}, {"type": "Feature", "geometry": {"type": "MultiPolygon", "coordinates": [[[[72.13830938, 34.53818014], [72.1382638, 34.53817931], [72.13826271, 34.53821997], [72.13821714, 34.53821914], [72.13821595, 34.53826331], [72.13830711, 34.53826496], [72.13830938, 34.53818014]]]]}, "properties": {"id": "Pakistan_123102132_601960", "height": 3.866054773330688, "hmax": 0.006, "ratio": 0.002, "vulnClass": "none"}}, {"type": "Feature", "geometry": {"type": "MultiPolygon", "coordinates": [[[[72.13820525, 34.53826785], [72.13820095, 34.53846312], [72.13841546, 34.53846633], [72.13841667, 34.53841111], [72.13832283, 34.53840971], [72.13832328, 34.53838892], [72.13824821, 34.5383878], [72.13824986, 34.5383127], [72.1383008, 34.53831346], [72.13830178, 34.53826929], [72.13820525, 34.53826785]]]]}, "properties": {"id": "Pakistan_123102132_476458", "height": 2.800499439239502, "hmax": 0.006, "ratio": 0.002, "vulnClass": "none"}}, {"type": "Feature", "geometry": {"type": "MultiPolygon", "coordinates": [[[[72.1384728, 34.53844152], [72.13847047, 34.53837087], [72.13840883, 34.53837225], [72.13840684, 34.53831172], [72.13836798, 34.53831259], [72.13837107, 34.53840623], [72.13842064, 34.53840512], [72.13842187, 34.53844266], [72.1384728, 34.53844152]]]]}, "properties": {"id": "Pakistan_123102132_531629", "height": 3.376931667327881, "hmax": 0.006, "ratio": 0.002, "vulnClass": "none"}}, {"type": "Feature", "geometry": {"type": "MultiPolygon", "coordinates": [[[[72.13846445, 34.53836515], [72.13846135, 34.53830339], [72.13841048, 34.53830512], [72.13841358, 34.53836688], [72.13846445, 34.53836515]]]]}, "properties": {"id": "Pakistan_123102132_522423", "height": 3.329746246337891, "hmax": 0.006, "ratio": 0.002, "vulnClass": "none"}}, {"type": "Feature", "geometry": {"type": "MultiPolygon", "coordinates": [[[[72.13806619, 34.5383284], [72.13819071, 34.53833238], [72.13819332, 34.53827722], [72.13806878, 34.53827325], [72.13806619, 34.5383284]]]]}, "properties": {"id": "Pakistan_123102132_2161", "height": 2.800499439239502, "hmax": 0.006, "ratio": 0.002, "vulnClass": "none"}}, {"type": "Feature", "geometry": {"type": "MultiPolygon", "coordinates": [[[[72.13792317, 34.53824576], [72.13792169, 34.53819276], [72.13787879, 34.53819358], [72.13788028, 34.53824657], [72.13792317, 34.53824576]]]]}, "properties": {"id": "Pakistan_123102132_571240", "height": 2.535332679748535, "hmax": 0.006, "ratio": 0.002, "vulnClass": "none"}}, {"type": "Feature", "geometry": {"type": "MultiPolygon", "coordinates": [[[[72.13786472, 34.53824658], [72.13781389, 34.53824446], [72.13781125, 34.53828721], [72.13786208, 34.53828933], [72.13786472, 34.53824658]]]]}, "properties": {"id": "Pakistan_123102132_546855", "height": 2.486888408660889, "hmax": 0.006, "ratio": 0.002, "vulnClass": "none"}}, {"type": "Feature", "geometry": {"type": "MultiPolygon", "coordinates": [[[[72.13817704, 34.5383617], [72.13793977, 34.5383573], [72.13793757, 34.53843768], [72.1381105, 34.5384409], [72.1381095, 34.53847755], [72.13790975, 34.53847384], [72.13791318, 34.53834885], [72.1378408, 34.5383475], [72.13783561, 34.53853654], [72.13817208, 34.53854278], [72.13817704, 34.5383617]]]]}, "properties": {"id": "Pakistan_123102132_467106", "height": 2.63257360458374, "hmax": 0.006, "ratio": 0.002, "vulnClass": "none"}}, {"type": "Feature", "geometry": {"type": "MultiPolygon", "coordinates": [[[[72.13845716, 34.53858663], [72.13845124, 34.53881817], [72.13831322, 34.53881577], [72.13831195, 34.53886566], [72.13836289, 34.53886654], [72.13836193, 34.53890409], [72.13853888, 34.53890715], [72.13853966, 34.53887623], [72.13865087, 34.53887815], [72.13865358, 34.53877241], [72.13860749, 34.53878813], [72.13855639, 34.5386865], [72.13859276, 34.53868713], [72.13859169, 34.53872909], [72.13866944, 34.53873044], [72.13867203, 34.53862885], [72.13860189, 34.53862764], [72.13858957, 34.53860312], [72.13847426, 34.53860112], [72.13847817, 34.53844745], [72.13842723, 34.53844656], [72.13842416, 34.53856712], [72.13833164, 34.53856552], [72.1383335, 34.53849264], [72.13819277, 34.5384902], [72.13819136, 34.53854541], [72.13807072, 34.53854333], [72.13806942, 34.53859412], [72.13831899, 34.53859844], [72.13833416, 34.5386286], [72.13845716, 34.53858663]]]]}, "properties": {"id": "Pakistan_123102132_81911", "height": 3.776221036911011, "hmax": 0.005, "ratio": 0.001, "vulnClass": "none"}}, {"type": "Feature", "geometry": {"type": "MultiPolygon", "coordinates": [[[[72.13791012, 34.53863077], [72.13796712, 34.53863599], [72.13797724, 34.5385609], [72.13784871, 34.53854914], [72.13784282, 34.53859279], [72.13791436, 34.53859934], [72.13791012, 34.53863077]]]]}, "properties": {"id": "Pakistan_123102132_476457", "height": 2.539776563644409, "hmax": 0.006, "ratio": 0.002, "vulnClass": "none"}}, {"type": "Feature", "geometry": {"type": "MultiPolygon", "coordinates": [[[[72.13798399, 34.5389627], [72.13798582, 34.53889866], [72.13777404, 34.53889456], [72.13777421, 34.53888881], [72.13769111, 34.53888719], [72.13769401, 34.53878562], [72.13757874, 34.53878338], [72.13757691, 34.53884742], [72.13764264, 34.53884869], [72.13763957, 34.53895603], [72.13798399, 34.5389627]]]]}, "properties": {"id": "Pakistan_123102132_479494", "height": 4.113748073577881, "hmax": 0.004, "ratio": 0.001, "vulnClass": "none"}}, {"type": "Feature", "geometry": {"type": "MultiPolygon", "coordinates": [[[[72.13770505, 34.5389682], [72.13759965, 34.53894333], [72.13758403, 34.53898825], [72.13768943, 34.53901312], [72.13770505, 34.5389682]]]]}, "properties": {"id": "Pakistan_123102132_482581", "height": 4.270679950714111, "hmax": 0.004, "ratio": 0.001, "vulnClass": "none"}}, {"type": "Feature", "geometry": {"type": "MultiPolygon", "coordinates": [[[[72.1377649, 34.53921956], [72.13775943, 34.53902081], [72.13767097, 34.53902246], [72.13767644, 34.53922121], [72.1377649, 34.53921956]]]]}, "properties": {"id": "Pakistan_123102132_205479", "height": 3.1090247631073, "hmax": 0.004, "ratio": 0.001, "vulnClass": "none"}}, {"type": "Feature", "geometry": {"type": "MultiPolygon", "coordinates": [[[[72.137938, 34.5397856], [72.13851889, 34.53989166], [72.13836205, 34.53990454], [72.13834242, 34.53997745], [72.13844842, 34.53999681], [72.13847624, 34.54022657], [72.13898428, 34.54018484], [72.13882836, 34.5399978], [72.13879009, 34.54001945], [72.13888674, 34.5401354], [72.13866854, 34.54015333], [72.13865951, 34.54007871], [72.13860552, 34.54005369], [72.13858921, 34.53991902], [72.13877777, 34.53990353], [72.1387725, 34.53986], [72.13873268, 34.53981223], [72.13854861, 34.53982735], [72.13853722, 34.53973328], [72.13844161, 34.53974114], [72.13843591, 34.53969404], [72.13832119, 34.53967309], [72.13823185, 34.5398039], [72.13814123, 34.53978735], [72.1381851, 34.53972311], [72.13812451, 34.53965042], [72.13801142, 34.53962977], [72.13811064, 34.53962161], [72.13809994, 34.53953325], [72.1378903, 34.53949496], [72.13787325, 34.53951993], [72.1376179, 34.5394016], [72.137938, 34.5397856]]]]}, "properties": {"id": "Pakistan_123102132_571242", "height": 3.560799598693848, "hmax": 0.004, "ratio": 0.001, "vulnClass": "none"}}, {"type": "Feature", "geometry": {"type": "MultiPolygon", "coordinates": [[[[72.13760527, 34.5394231], [72.13786802, 34.53938496], [72.13785546, 34.53932625], [72.13782303, 34.53933096], [72.13781083, 34.53927395], [72.13763515, 34.53929945], [72.13762167, 34.53923647], [72.13756704, 34.5392444], [72.13760527, 34.5394231]]]]}, "properties": {"id": "Pakistan_123102132_439442", "height": 2.73724365234375, "hmax": 0.004, "ratio": 0.002, "vulnClass": "none"}}, {"type": "Feature", "geometry": {"type": "MultiPolygon", "coordinates": [[[[72.13785928, 34.53929851], [72.13786288, 34.53938591], [72.13799684, 34.53938217], [72.13799324, 34.53929478], [72.13785928, 34.53929851]]]]}, "properties": {"id": "Pakistan_123102132_2160", "height": 3.326173782348633, "hmax": 0.004, "ratio": 0.001, "vulnClass": "none"}}, {"type": "Feature", "geometry": {"type": "MultiPolygon", "coordinates": [[[[72.13808077, 34.53935202], [72.13807824, 34.53929908], [72.13817322, 34.539296], [72.13817116, 34.53925278], [72.1380078, 34.53925806], [72.13801238, 34.53935424], [72.13808077, 34.53935202]]]]}, "properties": {"id": "Pakistan_123102132_595848", "height": 3.885671138763428, "hmax": 0.004, "ratio": 0.001, "vulnClass": "none"}}, {"type": "Feature", "geometry": {"type": "MultiPolygon", "coordinates": [[[[72.13851272, 34.53919235], [72.13817416, 34.53920613], [72.13817689, 34.53925151], [72.13824253, 34.53924884], [72.13824509, 34.53929162], [72.13837085, 34.5392865], [72.13837212, 34.53930763], [72.13851928, 34.53930163], [72.13851272, 34.53919235]]]]}, "properties": {"id": "Pakistan_123102132_60525", "height": 3.428476572036743, "hmax": 0.004, "ratio": 0.001, "vulnClass": "none"}}, {"type": "Feature", "geometry": {"type": "MultiPolygon", "coordinates": [[[[72.13857428, 34.53929029], [72.13858595, 34.53922637], [72.13853488, 34.53922005], [72.13852322, 34.53928396], [72.13857428, 34.53929029]]]]}, "properties": {"id": "Pakistan_123102132_137454", "height": 3.75789737701416, "hmax": 0.004, "ratio": 0.001, "vulnClass": "none"}}, {"type": "Feature", "geometry": {"type": "MultiPolygon", "coordinates": [[[[72.13871257, 34.5393189], [72.13871397, 34.53928137], [72.13868593, 34.53928066], [72.13868729, 34.53924406], [72.13859208, 34.53924164], [72.13859054, 34.53928266], [72.13863217, 34.53928372], [72.13863093, 34.53931683], [72.13871257, 34.5393189]]]]}, "properties": {"id": "Pakistan_123102132_69642", "height": 3.722284078598022, "hmax": 0.008, "ratio": 0.002, "vulnClass": "none"}}, {"type": "Feature", "geometry": {"type": "MultiPolygon", "coordinates": [[[[72.13847974, 34.5396203], [72.13866644, 34.53963183], [72.13866233, 34.53967704], [72.13876902, 34.53968362], [72.13880392, 34.53930006], [72.13873066, 34.53929554], [72.13872435, 34.53936492], [72.13854689, 34.53935397], [72.1385506, 34.53931314], [72.13850793, 34.53931051], [72.13847974, 34.5396203]]]]}, "properties": {"id": "Pakistan_123102132_436489", "height": 3.75789737701416, "hmax": 0.005, "ratio": 0.001, "vulnClass": "none"}}, {"type": "Feature", "geometry": {"type": "MultiPolygon", "coordinates": [[[[72.13845774, 34.53943167], [72.13848719, 34.53943065], [72.13848295, 34.53934813], [72.13845349, 34.53934916], [72.13845467, 34.53937213], [72.13839309, 34.53937427], [72.13839191, 34.5393513], [72.13827679, 34.53935532], [72.13828091, 34.53943562], [72.13836124, 34.53943282], [72.13836464, 34.53949899], [72.13840871, 34.53949745], [72.1384107, 34.53953624], [72.13846302, 34.53953442], [72.13845774, 34.53943167]]]]}, "properties": {"id": "Pakistan_123102132_94079", "height": 3.203909397125244, "hmax": 0.004, "ratio": 0.001, "vulnClass": "none"}}, {"type": "Feature", "geometry": {"type": "MultiPolygon", "coordinates": [[[[72.13847051, 34.53957803], [72.13846457, 34.53954337], [72.13843301, 34.53954704], [72.13843895, 34.5395817], [72.13847051, 34.53957803]]]]}, "properties": {"id": "Pakistan_123102132_270059", "height": 2.656739473342896, "hmax": 0.004, "ratio": 0.002, "vulnClass": "none"}}, {"type": "Feature", "geometry": {"type": "MultiPolygon", "coordinates": [[[[72.1383845, 34.53962896], [72.13838781, 34.53956279], [72.13826877, 34.53955876], [72.13827042, 34.53952567], [72.1381217, 34.53952063], [72.13811674, 34.53961989], [72.1383845, 34.53962896]]]]}, "properties": {"id": "Pakistan_123102132_595849", "height": 2.492250442504883, "hmax": 0.004, "ratio": 0.002, "vulnClass": "none"}}, {"type": "Feature", "geometry": {"type": "MultiPolygon", "coordinates": [[[[72.13797449, 34.53945458], [72.13797759, 34.53950527], [72.13824781, 34.53949407], [72.13824512, 34.53944999], [72.13826652, 34.5394491], [72.13826086, 34.53935654], [72.13814047, 34.53936153], [72.13814572, 34.53944748], [72.13797449, 34.53945458]]]]}, "properties": {"id": "Pakistan_123102132_436488", "height": 2.669759035110474, "hmax": 0.004, "ratio": 0.002, "vulnClass": "none"}}, {"type": "Feature", "geometry": {"type": "MultiPolygon", "coordinates": [[[[72.13797866, 34.53940819], [72.1379104, 34.5394095], [72.13791169, 34.53945498], [72.13797994, 34.53945368], [72.13797866, 34.53940819]]]]}, "properties": {"id": "Pakistan_123102132_134347", "height": 2.962766885757446, "hmax": 0.004, "ratio": 0.001, "vulnClass": "none"}}, {"type": "Feature", "geometry": {"type": "MultiPolygon", "coordinates": [[[[72.1382864, 34.53964259], [72.13828559, 34.53968105], [72.13858859, 34.53968536], [72.13858766, 34.53972954], [72.13864276, 34.53973032], [72.13864172, 34.5397802], [72.13868194, 34.53978077], [72.13868471, 34.53964824], [72.1382864, 34.53964259]]]]}, "properties": {"id": "Pakistan_123102132_51141", "height": 3.083051919937134, "hmax": 0.004, "ratio": 0.001, "vulnClass": "none"}}, {"type": "Feature", "geometry": {"type": "MultiPolygon", "coordinates": [[[[72.13869648, 34.54000493], [72.1388152, 34.53999866], [72.1388105, 34.53993831], [72.13864369, 34.53994714], [72.13865124, 34.54004396], [72.13869932, 34.54004141], [72.13869648, 34.54000493]]]]}, "properties": {"id": "Pakistan_123102132_236045", "height": 2.847920894622803, "hmax": 0.004, "ratio": 0.001, "vulnClass": "none"}}, {"type": "Feature", "geometry": {"type": "MultiPolygon", "coordinates": [[[[72.13946788, 34.54036355], [72.139336, 34.54037766], [72.13931273, 34.54023012], [72.13930439, 34.5402163], [72.13926412, 34.54022061], [72.13927151, 34.54026746], [72.13917312, 34.54027799], [72.13913751, 34.54029257], [72.1391307, 34.54024939], [72.1390331, 34.54025983], [72.13905175, 34.54037809], [72.1392232, 34.54035976], [72.13923984, 34.54046528], [72.13920555, 34.54046895], [72.13919596, 34.54040811], [72.13910214, 34.54041815], [72.13910476, 34.54043479], [72.13920087, 34.54059413], [72.13934121, 34.54057913], [72.13926566, 34.54061005], [72.13930156, 34.54066957], [72.13930449, 34.54068814], [72.1394032, 34.54067758], [72.13939665, 34.540636], [72.13941935, 34.54067364], [72.13949468, 34.54066558], [72.13951425, 34.54065757], [72.13946788, 34.54036355]]]]}, "properties": {"id": "Pakistan_123102132_236047", "height": 3.711627721786499, "hmax": 0.003, "ratio": 0.001, "vulnClass": "none"}}, {"type": "Feature", "geometry": {"type": "MultiPolygon", "coordinates": [[[[72.13902995, 34.5401559], [72.13903214, 34.54020539], [72.13916222, 34.54020147], [72.13916002, 34.54015197], [72.13902995, 34.5401559]]]]}, "properties": {"id": "Pakistan_123102132_165238", "height": 2.654696464538574, "hmax": 0.004, "ratio": 0.002, "vulnClass": "none"}}, {"type": "Feature", "geometry": {"type": "MultiPolygon", "coordinates": [[[[72.1391918, 34.54013776], [72.13923723, 34.54014714], [72.13924861, 34.54010972], [72.13920318, 34.54010034], [72.1391918, 34.54013776]]]]}, "properties": {"id": "Pakistan_123102132_377588", "height": 2.687380790710449, "hmax": 0.004, "ratio": 0.002, "vulnClass": "none"}}, {"type": "Feature", "geometry": {"type": "MultiPolygon", "coordinates": [[[[72.13926763, 34.54021467], [72.13926479, 34.54016396], [72.13917261, 34.54016747], [72.13917546, 34.54021818], [72.13926763, 34.54021467]]]]}, "properties": {"id": "Pakistan_123102132_598952", "height": 2.800079345703125, "hmax": 0.004, "ratio": 0.001, "vulnClass": "none"}}, {"type": "Feature", "geometry": {"type": "MultiPolygon", "coordinates": [[[[72.13896631, 34.54069778], [72.13905584, 34.54085993], [72.1392079, 34.54080295], [72.13911838, 34.54064081], [72.13896631, 34.54069778]]]]}, "properties": {"id": "Pakistan_123102132_510282", "height": 2.467586994171143, "hmax": 0.003, "ratio": 0.001, "vulnClass": "none"}}, {"type": "Feature", "geometry": {"type": "MultiPolygon", "coordinates": [[[[72.13955604, 34.54055319], [72.1395584, 34.54060615], [72.13966822, 34.54060284], [72.13966587, 34.54054988], [72.13955604, 34.54055319]]]]}, "properties": {"id": "Pakistan_123102132_248503", "height": 2.902993679046631, "hmax": 0.003, "ratio": 0.001, "vulnClass": "none"}}, {"type": "Feature", "geometry": {"type": "MultiPolygon", "coordinates": [[[[72.14015769, 34.5395893], [72.14016042, 34.53963559], [72.14021393, 34.53963345], [72.14021121, 34.53958717], [72.14015769, 34.5395893]]]]}, "properties": {"id": "Pakistan_123102132_51147", "height": 3.497864723205566, "hmax": 0.014, "ratio": 0.004, "vulnClass": "none"}}, {"type": "Feature", "geometry": {"type": "MultiPolygon", "coordinates": [[[[72.1395379, 34.53993033], [72.13953682, 34.54004645], [72.13958897, 34.54004678], [72.13959122, 34.53980817], [72.13931912, 34.53980645], [72.13931886, 34.53983393], [72.13929325, 34.53983376], [72.13929243, 34.53992117], [72.13924951, 34.5399209], [72.13924876, 34.54000043], [72.13932803, 34.54000093], [72.13932898, 34.53989931], [72.13942942, 34.53989994], [72.13942914, 34.53992964], [72.1395379, 34.53993033]]]]}, "properties": {"id": "Pakistan_123102132_516388", "height": 4.532347679138184, "hmax": 0.004, "ratio": 0.001, "vulnClass": "none"}}, {"type": "Feature", "geometry": {"type": "MultiPolygon", "coordinates": [[[[72.13917552, 34.53973228], [72.13904149, 34.53972966], [72.13904032, 34.53977036], [72.1389906, 34.53976939], [72.13898992, 34.53979273], [72.13878498, 34.53978874], [72.13877991, 34.53996539], [72.13887909, 34.53996733], [72.13887662, 34.54005344], [72.13895436, 34.54005496], [72.13895246, 34.5401212], [72.13910258, 34.54012413], [72.1391087, 34.53991089], [72.13917036, 34.5399121], [72.13917552, 34.53973228]]]]}, "properties": {"id": "Pakistan_123102132_168340", "height": 4.460721969604492, "hmax": 0.004, "ratio": 0.001, "vulnClass": "none"}}, {"type": "Feature", "geometry": {"type": "MultiPolygon", "coordinates": [[[[72.13968903, 34.53978528], [72.13962621, 34.53979872], [72.13963665, 34.53983184], [72.13969947, 34.5398184], [72.13968903, 34.53978528]]]]}, "properties": {"id": "Pakistan_123102132_254581", "height": 3.849674940109253, "hmax": 0.004, "ratio": 0.001, "vulnClass": "none"}}, {"type": "Feature", "geometry": {"type": "MultiPolygon", "coordinates": [[[[72.1399479, 34.5399089], [72.13992682, 34.53978315], [72.13987036, 34.53978957], [72.13986418, 34.53975272], [72.13990629, 34.53974792], [72.13990355, 34.53973156], [72.13969299, 34.53975551], [72.13970228, 34.53981091], [72.13986138, 34.5397928], [72.13986684, 34.53982533], [72.1397788, 34.53983534], [72.13977552, 34.53981583], [72.13967143, 34.53982768], [72.13967761, 34.53986454], [72.139608, 34.53987246], [72.13962598, 34.53997966], [72.14027989, 34.53990528], [72.14027209, 34.53985875], [72.14020774, 34.53986607], [72.14020992, 34.53987908], [72.1399479, 34.5399089]]]]}, "properties": {"id": "Pakistan_123102132_337735", "height": 3.695827484130859, "hmax": 0.012, "ratio": 0.003, "vulnClass": "none"}}, {"type": "Feature", "geometry": {"type": "MultiPolygon", "coordinates": [[[[72.14037664, 34.53971411], [72.1403683, 34.53962953], [72.13963552, 34.53967854], [72.13964106, 34.53973463], [72.14012456, 34.53970226], [72.14012737, 34.5397308], [72.14037664, 34.53971411]]]]}, "properties": {"id": "Pakistan_123102132_461024", "height": 3.621832847595215, "hmax": 0.013, "ratio": 0.004, "vulnClass": "none"}}, {"type": "Feature", "geometry": {"type": "MultiPolygon", "coordinates": [[[[72.13961804, 34.53961402], [72.13961974, 34.53967045], [72.13968676, 34.53966907], [72.13968506, 34.53961265], [72.13961804, 34.53961402]]]]}, "properties": {"id": "Pakistan_123102132_568145", "height": 2.88016676902771, "hmax": 0.004, "ratio": 0.001, "vulnClass": "none"}}, {"type": "Feature", "geometry": {"type": "MultiPolygon", "coordinates": [[[[72.1396152, 34.53977036], [72.13960334, 34.53963852], [72.13949809, 34.53964494], [72.13949543, 34.53961541], [72.13945809, 34.53961769], [72.1394472, 34.53949683], [72.13930438, 34.53950556], [72.13931099, 34.53957903], [72.13940169, 34.5395735], [72.13941445, 34.53971536], [72.13954662, 34.53970728], [72.13954948, 34.53973902], [72.13950534, 34.53974171], [72.13950446, 34.53973195], [72.13941376, 34.5397375], [72.1394178, 34.53978241], [72.1396152, 34.53977036]]]]}, "properties": {"id": "Pakistan_123102132_279303", "height": 3.407527446746826, "hmax": 0.004, "ratio": 0.001, "vulnClass": "none"}}, {"type": "Feature", "geometry": {"type": "MultiPolygon", "coordinates": [[[[72.13911717, 34.5395074], [72.13912584, 34.53965287], [72.13922484, 34.53964886], [72.13921617, 34.53950339], [72.13911717, 34.5395074]]]]}, "properties": {"id": "Pakistan_123102132_112650", "height": 4.163082122802734, "hmax": 0.005, "ratio": 0.001, "vulnClass": "none"}}, {"type": "Feature", "geometry": {"type": "MultiPolygon", "coordinates": [[[[72.13983187, 34.53946183], [72.13984844, 34.53965974], [72.13992852, 34.53965519], [72.139923, 34.53958922], [72.14010987, 34.53957861], [72.14011089, 34.5395908], [72.140215, 34.53958488], [72.14020919, 34.53951553], [72.14031864, 34.53950931], [72.14031478, 34.53946313], [72.14004927, 34.53947821], [72.14005074, 34.5394958], [72.13989714, 34.53950452], [72.13989327, 34.53945835], [72.13983187, 34.53946183]]]]}, "properties": {"id": "Pakistan_123102132_420968", "height": 3.322871685028076, "hmax": 0.012, "ratio": 0.004, "vulnClass": "none"}}, {"type": "Feature", "geometry": {"type": "MultiPolygon", "coordinates": [[[[72.14063775, 34.53966908], [72.14087696, 34.53970051], [72.14088928, 34.53963691], [72.14069977, 34.53961199], [72.14070497, 34.53958512], [72.14077156, 34.53959387], [72.14077971, 34.5395518], [72.14069862, 34.53954114], [72.14069757, 34.53954659], [72.14061387, 34.53953559], [72.14060073, 34.53960339], [72.14064923, 34.53960977], [72.14063775, 34.53966908]]]]}, "properties": {"id": "Pakistan_123102132_223743", "height": 3.143882513046265, "hmax": 0.012, "ratio": 0.004, "vulnClass": "none"}}, {"type": "Feature", "geometry": {"type": "MultiPolygon", "coordinates": [[[[72.14075455, 34.53918746], [72.1406336, 34.53921033], [72.140657, 34.53929429], [72.14096649, 34.53923576], [72.140939, 34.53913712], [72.14091996, 34.53914072], [72.14090183, 34.53907565], [72.14073232, 34.53910771], [72.14075455, 34.53918746]]]]}, "properties": {"id": "Pakistan_123102132_174516", "height": 3.275910377502441, "hmax": 0.019, "ratio": 0.006, "vulnClass": "none"}}, {"type": "Feature", "geometry": {"type": "MultiPolygon", "coordinates": [[[[72.14070062, 34.53942905], [72.14088375, 34.53944456], [72.14087679, 34.53950036], [72.14083433, 34.53949677], [72.14082084, 34.53960494], [72.14091373, 34.53961281], [72.14093991, 34.53940292], [72.14070634, 34.53938314], [72.14070062, 34.53942905]]]]}, "properties": {"id": "Pakistan_123102132_479503", "height": 2.576987266540527, "hmax": 0.021, "ratio": 0.008, "vulnClass": "none"}}, {"type": "Feature", "geometry": {"type": "MultiPolygon", "coordinates": [[[[72.14068657, 34.53944403], [72.14068316, 34.53949248], [72.14078597, 34.53949739], [72.14078939, 34.53944895], [72.14068657, 34.53944403]]]]}, "properties": {"id": "Pakistan_123102132_152833", "height": 2.561633586883545, "hmax": 0.011, "ratio": 0.004, "vulnClass": "none"}}, {"type": "Feature", "geometry": {"type": "MultiPolygon", "coordinates": [[[[72.14134254, 34.53925261], [72.14134189, 34.53930121], [72.14139016, 34.53930165], [72.14139082, 34.53925305], [72.14134254, 34.53925261]]]]}, "properties": {"id": "Pakistan_123102132_23591", "height": 2.48518967628479, "hmax": 0.025, "ratio": 0.01, "vulnClass": "none"}}, {"type": "Feature", "geometry": {"type": "MultiPolygon", "coordinates": [[[[72.14133739, 34.53925608], [72.14129448, 34.53925608], [72.14129448, 34.53929144], [72.14133739, 34.53929144], [72.14133739, 34.53925608]]]]}, "properties": {"id": "Pakistan_123102132_69649", "height": 2.48518967628479, "hmax": 0.025, "ratio": 0.01, "vulnClass": "none"}}, {"type": "Feature", "geometry": {"type": "MultiPolygon", "coordinates": [[[[72.14202663, 34.53963423], [72.14203367, 34.53932944], [72.14193179, 34.53932784], [72.14192582, 34.53958625], [72.14173545, 34.53958327], [72.14173438, 34.53962965], [72.14202663, 34.53963423]]]]}, "properties": {"id": "Pakistan_123102132_20501", "height": 3.243229866027832, "hmax": 0.012, "ratio": 0.004, "vulnClass": "none"}}, {"type": "Feature", "geometry": {"type": "MultiPolygon", "coordinates": [[[[72.14346373, 34.54070538], [72.14344853, 34.54064385], [72.14335323, 34.54065983], [72.14336843, 34.54072135], [72.14346373, 34.54070538]]]]}, "properties": {"id": "Pakistan_123102132_546868", "height": 4.054990768432617, "hmax": 0.049, "ratio": 0.012, "vulnClass": "none"}}, {"type": "Feature", "geometry": {"type": "MultiPolygon", "coordinates": [[[[72.15123805, 34.53934404], [72.15119668, 34.5393626], [72.15130093, 34.53952029], [72.15143635, 34.53945955], [72.15140984, 34.53941944], [72.15136751, 34.53943843], [72.15134723, 34.53940776], [72.15129551, 34.53943095], [72.15123805, 34.53934404]]]]}, "properties": {"id": "Pakistan_123102132_146658", "height": 2.486560821533203, "hmax": 0.006, "ratio": 0.002, "vulnClass": "none"}}, {"type": "Feature", "geometry": {"type": "MultiPolygon", "coordinates": [[[[72.14702209, 34.53815761], [72.14718912, 34.53817247], [72.14720057, 34.53808511], [72.14698581, 34.538066], [72.14697035, 34.53818394], [72.14701808, 34.53818819], [72.14702209, 34.53815761]]]]}, "properties": {"id": "Pakistan_123102132_125092", "height": 2.614850282669067, "hmax": 0.017, "ratio": 0.007, "vulnClass": "none"}}, {"type": "Feature", "geometry": {"type": "MultiPolygon", "coordinates": [[[[72.14195039, 34.53879014], [72.14204555, 34.53878746], [72.14204124, 34.53868374], [72.14194609, 34.53868642], [72.14195039, 34.53879014]]]]}, "properties": {"id": "Pakistan_123102132_368451", "height": 2.733195781707764, "hmax": 0.014, "ratio": 0.005, "vulnClass": "none"}}, {"type": "Feature", "geometry": {"type": "MultiPolygon", "coordinates": [[[[72.14192935, 34.53862721], [72.1418611, 34.5386295], [72.1418623, 34.53865377], [72.1418047, 34.5386557], [72.14180721, 34.53870644], [72.14193306, 34.53870221], [72.14192935, 34.53862721]]]]}, "properties": {"id": "Pakistan_123102132_41950", "height": 2.542723178863525, "hmax": 0.021, "ratio": 0.008, "vulnClass": "none"}}, {"type": "Feature", "geometry": {"type": "MultiPolygon", "coordinates": [[[[72.14204753, 34.5390258], [72.1422701, 34.5390285], [72.14227152, 34.53894898], [72.14223934, 34.53894859], [72.14224025, 34.53889778], [72.14221075, 34.53889742], [72.14220984, 34.53894823], [72.14204895, 34.53894628], [72.14204753, 34.5390258]]]]}, "properties": {"id": "Pakistan_123102132_205490", "height": 2.863859415054321, "hmax": 0.012, "ratio": 0.004, "vulnClass": "none"}}, {"type": "Feature", "geometry": {"type": "MultiPolygon", "coordinates": [[[[72.14209766, 34.53906605], [72.14210102, 34.53903092], [72.14204238, 34.53902711], [72.14203902, 34.53906224], [72.14209766, 34.53906605]]]]}, "properties": {"id": "Pakistan_123102132_310149", "height": 3.005473852157593, "hmax": 0.012, "ratio": 0.004, "vulnClass": "none"}}, {"type": "Feature", "geometry": {"type": "MultiPolygon", "coordinates": [[[[72.14179832, 34.53927401], [72.14178327, 34.53902496], [72.14170836, 34.53902803], [72.14171088, 34.53906991], [72.14162653, 34.53907337], [72.14163052, 34.53913949], [72.1415704, 34.53914195], [72.14157666, 34.53924554], [72.14139204, 34.53925311], [72.14139697, 34.53933465], [72.14160299, 34.53932621], [72.14160032, 34.53928213], [72.14179832, 34.53927401]]]]}, "properties": {"id": "Pakistan_123102132_81918", "height": 3.115552425384521, "hmax": 0.025, "ratio": 0.008, "vulnClass": "none"}}, {"type": "Feature", "geometry": {"type": "MultiPolygon", "coordinates": [[[[72.14227688, 34.53869208], [72.142276, 34.53857385], [72.14201584, 34.53857518], [72.14201428, 34.53836641], [72.14192308, 34.53836687], [72.14192531, 34.53866514], [72.14212248, 34.53866414], [72.1421227, 34.53869286], [72.14227688, 34.53869208]]]]}, "properties": {"id": "Pakistan_123102132_29693", "height": 2.454923868179321, "hmax": 0.024, "ratio": 0.01, "vulnClass": "none"}}, {"type": "Feature", "geometry": {"type": "MultiPolygon", "coordinates": [[[[72.14227196, 34.5381498], [72.1421969, 34.53814835], [72.14219501, 34.53821459], [72.14227007, 34.53821604], [72.14227196, 34.5381498]]]]}, "properties": {"id": "Pakistan_123102132_485691", "height": 3.463566303253174, "hmax": 0.024, "ratio": 0.007, "vulnClass": "none"}}, {"type": "Feature", "geometry": {"type": "MultiPolygon", "coordinates": [[[[72.14189483, 34.53786792], [72.14189932, 34.53800039], [72.1418484, 34.53800156], [72.14184953, 34.53803467], [72.1417222, 34.5380376], [72.14172378, 34.53808397], [72.14187254, 34.53808054], [72.14187351, 34.53810924], [72.14191103, 34.53810838], [72.14191477, 34.53821877], [72.14193622, 34.53821828], [72.14194056, 34.53834632], [72.1420022, 34.53834491], [72.14199569, 34.53815283], [72.14210557, 34.53815031], [72.1421031, 34.53807745], [72.14225587, 34.53807394], [72.14225392, 34.53801653], [72.14223248, 34.53801703], [72.1422308, 34.53796732], [72.14226832, 34.53796646], [72.14226469, 34.53785941], [72.14189483, 34.53786792]]]]}, "properties": {"id": "Pakistan_123102132_555989", "height": 3.626743316650391, "hmax": 0.023, "ratio": 0.006, "vulnClass": "none"}}, {"type": "Feature", "geometry": {"type": "MultiPolygon", "coordinates": [[[[72.14171779, 34.53808239], [72.1417083, 34.53802265], [72.14169642, 34.53802393], [72.14167624, 34.53789685], [72.14156155, 34.53790921], [72.1415912, 34.53809603], [72.14171779, 34.53808239]]]]}, "properties": {"id": "Pakistan_123102132_507269", "height": 2.496581077575684, "hmax": 0.02, "ratio": 0.008, "vulnClass": "none"}}, {"type": "Feature", "geometry": {"type": "MultiPolygon", "coordinates": [[[[72.14098697, 34.53830356], [72.14092136, 34.5378841], [72.14079735, 34.53789726], [72.1408684, 34.5383515], [72.1409779, 34.53833988], [72.14097246, 34.5383051], [72.14098697, 34.53830356]]]]}, "properties": {"id": "Pakistan_123102132_473303", "height": 3.468461036682129, "hmax": 0.019, "ratio": 0.006, "vulnClass": "none"}}, {"type": "Feature", "geometry": {"type": "MultiPolygon", "coordinates": [[[[72.14098971, 34.53795812], [72.14101154, 34.53805647], [72.14122437, 34.53802441], [72.14120253, 34.53792606], [72.14098971, 34.53795812]]]]}, "properties": {"id": "Pakistan_123102132_214747", "height": 2.576370000839233, "hmax": 0.02, "ratio": 0.008, "vulnClass": "none"}}, {"type": "Feature", "geometry": {"type": "MultiPolygon", "coordinates": [[[[72.14144776, 34.53745973], [72.14144506, 34.53755027], [72.14162734, 34.53755396], [72.14163133, 34.53742037], [72.14154555, 34.53741864], [72.14154611, 34.53739986], [72.14150322, 34.53739899], [72.14150137, 34.53746082], [72.14144776, 34.53745973]]]]}, "properties": {"id": "Pakistan_123102132_20497", "height": 2.464937448501587, "hmax": 0.022, "ratio": 0.009, "vulnClass": "none"}}, {"type": "Feature", "geometry": {"type": "MultiPolygon", "coordinates": [[[[72.14310892, 34.53804443], [72.14311111, 34.5379804], [72.14294763, 34.5379766], [72.14294543, 34.53804062], [72.14310892, 34.53804443]]]]}, "properties": {"id": "Pakistan_123102132_273153", "height": 3.89025354385376, "hmax": 0.024, "ratio": 0.006, "vulnClass": "none"}}, {"type": "Feature", "geometry": {"type": "MultiPolygon", "coordinates": [[[[72.14335043, 34.53778071], [72.14347912, 34.53778302], [72.14347994, 34.5377521], [72.14329495, 34.53774878], [72.14329393, 34.53778733], [72.1431572, 34.53778488], [72.14315448, 34.53788766], [72.14329121, 34.53789011], [72.14328763, 34.53802483], [72.14333857, 34.53802574], [72.14333957, 34.5379882], [72.14334493, 34.5379883], [72.14335043, 34.53778071]]]]}, "properties": {"id": "Pakistan_123102132_260798", "height": 2.855949640274048, "hmax": 0.022, "ratio": 0.008, "vulnClass": "none"}}, {"type": "Feature", "geometry": {"type": "MultiPolygon", "coordinates": [[[[72.14175854, 34.53567323], [72.14180794, 34.53567298], [72.14180737, 34.53559565], [72.14166142, 34.53559638], [72.14166307, 34.53582175], [72.14179026, 34.53582111], [72.14178952, 34.53572058], [72.14175889, 34.53572073], [72.14175854, 34.53567323]]]]}, "properties": {"id": "Pakistan_123102132_598958", "height": 2.492616415023804, "hmax": 0.015, "ratio": 0.006, "vulnClass": "none"}}, {"type": "Feature", "geometry": {"type": "MultiPolygon", "coordinates": [[[[72.14890421, 34.53517157], [72.14897776, 34.53518612], [72.1489875, 34.53515269], [72.14891395, 34.53513815], [72.14890421, 34.53517157]]]]}, "properties": {"id": "Pakistan_123102132_248520", "height": 2.889670848846436, "hmax": 0.038, "ratio": 0.013, "vulnClass": "none"}}, {"type": "Feature", "geometry": {"type": "MultiPolygon", "coordinates": [[[[72.14897165, 34.53510108], [72.14896565, 34.53500058], [72.14888538, 34.53500382], [72.14889138, 34.53510433], [72.14897165, 34.53510108]]]]}, "properties": {"id": "Pakistan_123102132_562054", "height": 3.110861778259277, "hmax": 0.038, "ratio": 0.012, "vulnClass": "none"}}]}