{"type": "FeatureCollection", "features": [{"type": "Feature", "geometry": {"type": "MultiPolygon", "coordinates": [[[[72.3912385, 34.32248368], [72.39125895, 34.32259179], [72.39134158, 34.32258113], [72.39132112, 34.32247301], [72.3912385, 34.32248368]]]]}, "properties": {"id": "Pakistan_123102132_359997", "height": 2.598531723022461, "hmax": 0.082, "ratio": 0.032, "vulnClass": "none"}}, {"type": "Feature", "geometry": {"type": "MultiPolygon", "coordinates": [[[[72.38918673, 34.31959903], [72.38919021, 34.31968452], [72.38936972, 34.31967952], [72.38936623, 34.31959404], [72.38918673, 34.31959903]]]]}, "properties": {"id": "Pakistan_123102132_110323", "height": 2.563721418380737, "hmax": 0.012, "ratio": 0.005, "vulnClass": "none"}}, {"type": "Feature", "geometry": {"type": "MultiPolygon", "coordinates": [[[[72.39052779, 34.31879191], [72.39052691, 34.31866564], [72.39039433, 34.31866626], [72.39039519, 34.31879253], [72.39052779, 34.31879191]]]]}, "properties": {"id": "Pakistan_123102132_310933", "height": 2.56755805015564, "hmax": 0.015, "ratio": 0.006, "vulnClass": "none"}}, {"type": "Feature", "geometry": {"type": "MultiPolygon", "coordinates": [[[[72.38825871, 34.31976909], [72.38830902, 34.31972423], [72.38822742, 34.3196618], [72.38817711, 34.31970665], [72.38825871, 34.31976909]]]]}, "properties": {"id": "Pakistan_123102132_608977", "height": 2.61185884475708, "hmax": 0.005, "ratio": 0.002, "vulnClass": "none"}}, {"type": "Feature", "geometry": {"type": "MultiPolygon", "coordinates": [[[[72.38868505, 34.32034367], [72.38868712, 34.32011551], [72.38862812, 34.32011515], [72.38862648, 34.32029538], [72.38857552, 34.32029507], [72.38857509, 34.32034299], [72.38868505, 34.32034367]]]]}, "properties": {"id": "Pakistan_123102132_532429", "height": 3.789177417755127, "hmax": 0.012, "ratio": 0.003, "vulnClass": "none"}}, {"type": "Feature", "geometry": {"type": "MultiPolygon", "coordinates": [[[[72.38817787, 34.32033056], [72.38830702, 34.32036773], [72.38832369, 34.32032822], [72.38827948, 34.3203155], [72.38828833, 34.32029451], [72.38825122, 34.32028383], [72.38823872, 34.32031346], [72.38819089, 34.3202997], [72.38817787, 34.32033056]]]]}, "properties": {"id": "Pakistan_123102132_427982", "height": 2.704142093658447, "hmax": 0.026, "ratio": 0.01, "vulnClass": "none"}}, {"type": "Feature", "geometry": {"type": "MultiPolygon", "coordinates": [[[[72.38582217, 34.32022628], [72.38570518, 34.32055342], [72.38578905, 34.32057389], [72.38584047, 34.32043012], [72.38589721, 34.32044396], [72.38590773, 34.32041455], [72.38596326, 34.3204281], [72.38598294, 34.32037309], [72.38603101, 34.32038482], [72.3860664, 34.32028586], [72.38582217, 34.32022628]]]]}, "properties": {"id": "Pakistan_123102132_67410", "height": 3.141864776611328, "hmax": 0.039, "ratio": 0.012, "vulnClass": "none"}}, {"type": "Feature", "geometry": {"type": "MultiPolygon", "coordinates": [[[[72.38380434, 34.31971267], [72.3838085, 34.31982998], [72.38387014, 34.3198285], [72.38386465, 34.31967356], [72.38381516, 34.31967475], [72.38381239, 34.31959616], [72.38375735, 34.31959749], [72.38375939, 34.31965503], [72.38374063, 34.31965549], [72.38374271, 34.31971416], [72.38380434, 34.31971267]]]]}, "properties": {"id": "Pakistan_123102132_480278", "height": 2.737937450408936, "hmax": 0.147, "ratio": 0.054, "vulnClass": "low"}}, {"type": "Feature", "geometry": {"type": "MultiPolygon", "coordinates": [[[[72.38339501, 34.3196321], [72.38323841, 34.31962557], [72.38323274, 34.31971838], [72.38338933, 34.3197249], [72.38339501, 34.3196321]]]]}, "properties": {"id": "Pakistan_123102132_110315", "height": 2.581748485565186, "hmax": 0.146, "ratio": 0.057, "vulnClass": "low"}}, {"type": "Feature", "geometry": {"type": "MultiPolygon", "coordinates": [[[[72.38392348, 34.31916747], [72.38380716, 34.31920209], [72.38385207, 34.319305], [72.38396839, 34.31927038], [72.38392348, 34.31916747]]]]}, "properties": {"id": "Pakistan_123102132_483341", "height": 2.631138563156128, "hmax": 0.006, "ratio": 0.002, "vulnClass": "none"}}, {"type": "Feature", "geometry": {"type": "MultiPolygon", "coordinates": [[[[72.38496475, 34.31927661], [72.38483171, 34.31926141], [72.38481606, 34.31935488], [72.38494909, 34.31937007], [72.38496475, 34.31927661]]]]}, "properties": {"id": "Pakistan_123102132_82674", "height": 3.336720943450928, "hmax": 0.045, "ratio": 0.014, "vulnClass": "none"}}, {"type": "Feature", "geometry": {"type": "MultiPolygon", "coordinates": [[[[72.38900752, 34.31392059], [72.38893899, 34.31391909], [72.38893623, 34.31400463], [72.38900477, 34.31400614], [72.38900752, 34.31392059]]]]}, "properties": {"id": "Pakistan_123102132_332398", "height": 2.61613917350769, "hmax": 0.001, "ratio": 0.0, "vulnClass": "none"}}, {"type": "Feature", "geometry": {"type": "MultiPolygon", "coordinates": [[[[72.3891223, 34.31398788], [72.38902689, 34.31398753], [72.38902661, 34.31403848], [72.38932051, 34.31403957], [72.38932076, 34.31399223], [72.38918934, 34.31399175], [72.38918955, 34.31395268], [72.38912249, 34.31395244], [72.3891223, 34.31398788]]]]}, "properties": {"id": "Pakistan_123102132_70447", "height": 3.384033203125, "hmax": 0.001, "ratio": 0.0, "vulnClass": "none"}}, {"type": "Feature", "geometry": {"type": "MultiPolygon", "coordinates": [[[[72.38907955, 34.3138267], [72.38907894, 34.31387544], [72.38919158, 34.3138764], [72.38919219, 34.31382767], [72.38907955, 34.3138267]]]]}, "properties": {"id": "Pakistan_123102132_64318", "height": 2.902190685272217, "hmax": 0.001, "ratio": 0.0, "vulnClass": "none"}}, {"type": "Feature", "geometry": {"type": "MultiPolygon", "coordinates": [[[[72.38851678, 34.31429647], [72.38839371, 34.31430155], [72.38839792, 34.31437088], [72.38856647, 34.3143639], [72.38856299, 34.31430645], [72.3885175, 34.31430833], [72.38851678, 34.31429647]]]]}, "properties": {"id": "Pakistan_123102132_150516", "height": 2.686440467834473, "hmax": 0.004, "ratio": 0.002, "vulnClass": "none"}}, {"type": "Feature", "geometry": {"type": "MultiPolygon", "coordinates": [[[[72.38443671, 34.31496848], [72.38444352, 34.31500528], [72.38453788, 34.31499338], [72.38453108, 34.31495658], [72.38443671, 34.31496848]]]]}, "properties": {"id": "Pakistan_123102132_415527", "height": 2.526297569274902, "hmax": 0.009, "ratio": 0.004, "vulnClass": "none"}}, {"type": "Feature", "geometry": {"type": "MultiPolygon", "coordinates": [[[[72.37924098, 34.32237657], [72.37899839, 34.32242622], [72.37902281, 34.32250762], [72.37926541, 34.32245796], [72.37924098, 34.32237657]]]]}, "properties": {"id": "Pakistan_123102132_575140", "height": 3.294050693511963, "hmax": 0.027, "ratio": 0.008, "vulnClass": "none"}}, {"type": "Feature", "geometry": {"type": "MultiPolygon", "coordinates": [[[[72.3791485, 34.32229278], [72.37915714, 34.32234045], [72.37921486, 34.32233331], [72.37920622, 34.32228564], [72.3791485, 34.32229278]]]]}, "properties": {"id": "Pakistan_123102132_523223", "height": 2.576790571212769, "hmax": 0.027, "ratio": 0.011, "vulnClass": "none"}}, {"type": "Feature", "geometry": {"type": "MultiPolygon", "coordinates": [[[[72.38093199, 34.32259612], [72.38087453, 34.32259471], [72.38087144, 34.32268103], [72.38092889, 34.32268243], [72.38093199, 34.32259612]]]]}, "properties": {"id": "Pakistan_123102132_356992", "height": 3.183592796325684, "hmax": 0.013, "ratio": 0.004, "vulnClass": "none"}}, {"type": "Feature", "geometry": {"type": "MultiPolygon", "coordinates": [[[[72.38177734, 34.32229557], [72.38163267, 34.32229145], [72.38162634, 34.32244291], [72.38177101, 34.32244704], [72.38177734, 34.32229557]]]]}, "properties": {"id": "Pakistan_123102132_135110", "height": 3.903695344924927, "hmax": 0.019, "ratio": 0.005, "vulnClass": "none"}}, {"type": "Feature", "geometry": {"type": "MultiPolygon", "coordinates": [[[[72.38262149, 34.3218764], [72.38278826, 34.32189225], [72.38280944, 34.32174035], [72.38276584, 34.3217362], [72.38275991, 34.3217788], [72.38263673, 34.32176709], [72.38262149, 34.3218764]]]]}, "properties": {"id": "Pakistan_123102132_332378", "height": 3.028148174285889, "hmax": 0.084, "ratio": 0.028, "vulnClass": "none"}}, {"type": "Feature", "geometry": {"type": "MultiPolygon", "coordinates": [[[[72.3826894, 34.32153863], [72.3828267, 34.32155289], [72.38284264, 34.32144821], [72.38270533, 34.32143396], [72.3826894, 34.32153863]]]]}, "properties": {"id": "Pakistan_123102132_477242", "height": 3.456871271133423, "hmax": 0.084, "ratio": 0.024, "vulnClass": "none"}}, {"type": "Feature", "geometry": {"type": "MultiPolygon", "coordinates": [[[[72.38135626, 34.32157605], [72.38124096, 34.32157439], [72.38123809, 34.32170947], [72.38123541, 34.32170943], [72.38123232, 34.32185559], [72.38123768, 34.32185567], [72.3812351, 34.32197747], [72.38134772, 34.32197909], [72.38135626, 34.32157605]]]]}, "properties": {"id": "Pakistan_123102132_520156", "height": 4.15047025680542, "hmax": 0.051, "ratio": 0.012, "vulnClass": "none"}}, {"type": "Feature", "geometry": {"type": "MultiPolygon", "coordinates": [[[[72.38161679, 34.32205574], [72.38175643, 34.32207123], [72.38179059, 34.32186116], [72.38172209, 34.32185356], [72.38170562, 34.32195483], [72.38163449, 34.32194694], [72.38161679, 34.32205574]]]]}, "properties": {"id": "Pakistan_123102132_474099", "height": 2.480972528457642, "hmax": 0.051, "ratio": 0.021, "vulnClass": "none"}}, {"type": "Feature", "geometry": {"type": "MultiPolygon", "coordinates": [[[[72.3867301, 34.32194858], [72.38669733, 34.32190595], [72.38647264, 34.32202376], [72.38650541, 34.32206639], [72.3867301, 34.32194858]]]]}, "properties": {"id": "Pakistan_123102132_363155", "height": 2.570149421691895, "hmax": 0.301, "ratio": 0.117, "vulnClass": "low"}}, {"type": "Feature", "geometry": {"type": "MultiPolygon", "coordinates": [[[[72.38680079, 34.32189129], [72.38671111, 34.3218124], [72.38665056, 34.32185934], [72.38674024, 34.32193823], [72.38680079, 34.32189129]]]]}, "properties": {"id": "Pakistan_123102132_107169", "height": 2.464657306671143, "hmax": 0.301, "ratio": 0.122, "vulnClass": "low"}}, {"type": "Feature", "geometry": {"type": "MultiPolygon", "coordinates": [[[[72.38652884, 34.3210313], [72.38662451, 34.32106712], [72.38667697, 34.32097158], [72.3865813, 34.32093575], [72.38652884, 34.3210313]]]]}, "properties": {"id": "Pakistan_123102132_187723", "height": 3.486856937408447, "hmax": 0.06, "ratio": 0.017, "vulnClass": "none"}}, {"type": "Feature", "geometry": {"type": "MultiPolygon", "coordinates": [[[[72.38629778, 34.32090364], [72.38642977, 34.32094701], [72.38644175, 34.32092215], [72.38650427, 34.3209427], [72.386526, 34.3208976], [72.38633148, 34.32083369], [72.38629778, 34.32090364]]]]}, "properties": {"id": "Pakistan_123102132_15128", "height": 2.832877397537231, "hmax": 0.06, "ratio": 0.021, "vulnClass": "none"}}, {"type": "Feature", "geometry": {"type": "MultiPolygon", "coordinates": [[[[72.38602213, 34.32087205], [72.38597987, 34.32085191], [72.38596129, 34.3208785], [72.38600355, 34.32089864], [72.38602213, 34.32087205]]]]}, "properties": {"id": "Pakistan_123102132_427972", "height": 3.482761859893799, "hmax": 0.152, "ratio": 0.044, "vulnClass": "none"}}, {"type": "Feature", "geometry": {"type": "MultiPolygon", "coordinates": [[[[72.38557689, 34.3207397], [72.38564927, 34.32077018], [72.38566338, 34.32074732], [72.38573576, 34.3207778], [72.38582694, 34.32063011], [72.3857801, 34.32061039], [72.38578445, 34.32060336], [72.38568652, 34.32056212], [72.38557689, 34.3207397]]]]}, "properties": {"id": "Pakistan_123102132_172244", "height": 2.597628831863403, "hmax": 0.143, "ratio": 0.055, "vulnClass": "low"}}, {"type": "Feature", "geometry": {"type": "MultiPolygon", "coordinates": [[[[72.38610286, 34.32063912], [72.38592645, 34.32058166], [72.38589676, 34.32064384], [72.38607317, 34.32070129], [72.38610286, 34.32063912]]]]}, "properties": {"id": "Pakistan_123102132_125817", "height": 2.523430585861206, "hmax": 0.142, "ratio": 0.056, "vulnClass": "low"}}, {"type": "Feature", "geometry": {"type": "MultiPolygon", "coordinates": [[[[72.3878963, 34.32112228], [72.38770279, 34.32108786], [72.38768988, 34.32113738], [72.38778085, 34.32115355], [72.3877251, 34.32136738], [72.38782763, 34.32138561], [72.3878963, 34.32112228]]]]}, "properties": {"id": "Pakistan_123102132_397198", "height": 2.694617986679077, "hmax": 0.061, "ratio": 0.023, "vulnClass": "none"}}, {"type": "Feature", "geometry": {"type": "MultiPolygon", "coordinates": [[[[72.39023373, 34.32149137], [72.38999909, 34.32167844], [72.38998569, 34.32166697], [72.38992877, 34.32171235], [72.39001052, 34.3217823], [72.39030208, 34.32154985], [72.39023373, 34.32149137]]]]}, "properties": {"id": "Pakistan_123102132_36581", "height": 3.215752124786377, "hmax": 0.031, "ratio": 0.01, "vulnClass": "none"}}, {"type": "Feature", "geometry": {"type": "MultiPolygon", "coordinates": [[[[72.38997254, 34.32166034], [72.38988827, 34.32158558], [72.38983511, 34.32162646], [72.38991938, 34.32170121], [72.38997254, 34.32166034]]]]}, "properties": {"id": "Pakistan_123102132_599725", "height": 3.388510227203369, "hmax": 0.038, "ratio": 0.011, "vulnClass": "none"}}, {"type": "Feature", "geometry": {"type": "MultiPolygon", "coordinates": [[[[72.39001371, 34.32228163], [72.389832, 34.32226121], [72.38982412, 34.32230906], [72.39000583, 34.32232947], [72.39001371, 34.32228163]]]]}, "properties": {"id": "Pakistan_123102132_350865", "height": 2.633057117462158, "hmax": 0.038, "ratio": 0.014, "vulnClass": "none"}}, {"type": "Feature", "geometry": {"type": "MultiPolygon", "coordinates": [[[[72.38962665, 34.32225056], [72.38960786, 34.32232253], [72.3897232, 34.32234307], [72.38974199, 34.3222711], [72.38962665, 34.32225056]]]]}, "properties": {"id": "Pakistan_123102132_190849", "height": 2.878574371337891, "hmax": 0.038, "ratio": 0.013, "vulnClass": "none"}}, {"type": "Feature", "geometry": {"type": "MultiPolygon", "coordinates": [[[[72.38833524, 34.32216888], [72.38836647, 34.32226377], [72.38853631, 34.32222564], [72.38850508, 34.32213075], [72.38833524, 34.32216888]]]]}, "properties": {"id": "Pakistan_123102132_122756", "height": 2.617359161376953, "hmax": 0.087, "ratio": 0.033, "vulnClass": "none"}}, {"type": "Feature", "geometry": {"type": "MultiPolygon", "coordinates": [[[[72.3881184, 34.3223153], [72.38819936, 34.32251685], [72.38837069, 34.32246991], [72.3883689, 34.32243144], [72.3883822, 34.32246454], [72.3885006, 34.3224321], [72.3884653, 34.32234423], [72.38846372, 34.32231017], [72.38838701, 34.3223126], [72.38840705, 34.32236248], [72.38837431, 34.32237145], [72.38833472, 34.32227288], [72.38833437, 34.32226553], [72.38827934, 34.32226727], [72.38827957, 34.32227216], [72.38825621, 34.32221401], [72.38823498, 34.32221468], [72.38819745, 34.32222497], [72.38822405, 34.32229118], [72.38820413, 34.32229181], [72.3881184, 34.3223153]]]]}, "properties": {"id": "Pakistan_123102132_431002", "height": 3.233959674835205, "hmax": 0.258, "ratio": 0.08, "vulnClass": "low"}}, {"type": "Feature", "geometry": {"type": "MultiPolygon", "coordinates": [[[[72.38823734, 34.32192319], [72.38799124, 34.32189542], [72.38798154, 34.32195414], [72.38822763, 34.3219819], [72.38823734, 34.32192319]]]]}, "properties": {"id": "Pakistan_123102132_258473", "height": 3.656205177307129, "hmax": 0.392, "ratio": 0.107, "vulnClass": "low"}}, {"type": "Feature", "geometry": {"type": "MultiPolygon", "coordinates": [[[[72.38832333, 34.32137753], [72.38829116, 34.32151328], [72.38839191, 34.32152956], [72.38843235, 34.32135888], [72.38829027, 34.32133592], [72.388282, 34.32137085], [72.38832333, 34.32137753]]]]}, "properties": {"id": "Pakistan_123102132_559770", "height": 2.746587753295898, "hmax": 0.067, "ratio": 0.024, "vulnClass": "none"}}, {"type": "Feature", "geometry": {"type": "MultiPolygon", "coordinates": [[[[72.38746605, 34.32172005], [72.38747802, 34.32167574], [72.38755723, 34.32169032], [72.38758571, 34.3215848], [72.38769814, 34.3216055], [72.38766374, 34.32173294], [72.38771365, 34.32174213], [72.38777116, 34.32152898], [72.3875424, 34.32148688], [72.3875449, 34.32147761], [72.38746058, 34.32146208], [72.3874059, 34.32166467], [72.38732413, 34.32164962], [72.38731274, 34.32169183], [72.38746605, 34.32172005]]]]}, "properties": {"id": "Pakistan_123102132_520168", "height": 3.456660032272339, "hmax": 0.307, "ratio": 0.089, "vulnClass": "low"}}, {"type": "Feature", "geometry": {"type": "MultiPolygon", "coordinates": [[[[72.38719493, 34.32142942], [72.3871606, 34.32151031], [72.38725137, 34.32153658], [72.3872857, 34.32145569], [72.38719493, 34.32142942]]]]}, "properties": {"id": "Pakistan_123102132_366139", "height": 2.870872497558594, "hmax": 0.06, "ratio": 0.021, "vulnClass": "none"}}, {"type": "Feature", "geometry": {"type": "MultiPolygon", "coordinates": [[[[72.38719985, 34.32162661], [72.38719362, 34.32166129], [72.38728146, 34.32167204], [72.38728769, 34.32163736], [72.38719985, 34.32162661]]]]}, "properties": {"id": "Pakistan_123102132_153616", "height": 3.098636865615845, "hmax": 0.346, "ratio": 0.112, "vulnClass": "low"}}, {"type": "Feature", "geometry": {"type": "MultiPolygon", "coordinates": [[[[72.38761352, 34.32196831], [72.38768456, 34.32197094], [72.38768737, 34.32191923], [72.38761634, 34.3219166], [72.38761352, 34.32196831]]]]}, "properties": {"id": "Pakistan_123102132_67417", "height": 4.384260654449463, "hmax": 0.392, "ratio": 0.089, "vulnClass": "low"}}, {"type": "Feature", "geometry": {"type": "MultiPolygon", "coordinates": [[[[72.38721443, 34.32217743], [72.38711409, 34.3222374], [72.38723129, 34.32237115], [72.38734395, 34.32230381], [72.38731847, 34.32227474], [72.38734664, 34.3222579], [72.3873097, 34.32221574], [72.38726921, 34.32223994], [72.38721443, 34.32217743]]]]}, "properties": {"id": "Pakistan_123102132_42723", "height": 2.572153806686401, "hmax": 0.353, "ratio": 0.137, "vulnClass": "low"}}, {"type": "Feature", "geometry": {"type": "MultiPolygon", "coordinates": [[[[72.38721868, 34.32274519], [72.38746562, 34.32261777], [72.38742223, 34.32256042], [72.3871753, 34.32268784], [72.38721868, 34.32274519]]]]}, "properties": {"id": "Pakistan_123102132_584321", "height": 3.007684946060181, "hmax": 0.261, "ratio": 0.087, "vulnClass": "low"}}, {"type": "Feature", "geometry": {"type": "MultiPolygon", "coordinates": [[[[72.38833919, 34.32251004], [72.38837052, 34.32261822], [72.38857602, 34.32257764], [72.38855843, 34.32251688], [72.38852291, 34.32252389], [72.38850918, 34.32247647], [72.38833919, 34.32251004]]]]}, "properties": {"id": "Pakistan_123102132_474114", "height": 3.56147575378418, "hmax": 0.232, "ratio": 0.065, "vulnClass": "low"}}, {"type": "Feature", "geometry": {"type": "MultiPolygon", "coordinates": [[[[72.38929604, 34.32248815], [72.38899423, 34.32257442], [72.38901856, 34.3226325], [72.38932038, 34.32254625], [72.38929604, 34.32248815]]]]}, "properties": {"id": "Pakistan_123102132_559772", "height": 2.479745388031006, "hmax": 0.232, "ratio": 0.094, "vulnClass": "low"}}, {"type": "Feature", "geometry": {"type": "MultiPolygon", "coordinates": [[[[72.38976814, 34.32245081], [72.38969329, 34.32245438], [72.38969653, 34.32250074], [72.38977138, 34.32249717], [72.38976814, 34.32245081]]]]}, "properties": {"id": "Pakistan_123102132_353911", "height": 3.316478729248047, "hmax": 0.057, "ratio": 0.017, "vulnClass": "none"}}, {"type": "Feature", "geometry": {"type": "MultiPolygon", "coordinates": [[[[72.38979965, 34.32245062], [72.38980278, 34.32250144], [72.38984291, 34.32249975], [72.3898453, 34.32253868], [72.38982123, 34.32253969], [72.38982858, 34.322659], [72.38990199, 34.32265592], [72.38989973, 34.3226192], [72.38992648, 34.32261808], [72.38991588, 34.32244574], [72.38979965, 34.32245062]]]]}, "properties": {"id": "Pakistan_123102132_504923", "height": 3.029060125350952, "hmax": 0.114, "ratio": 0.038, "vulnClass": "none"}}, {"type": "Feature", "geometry": {"type": "MultiPolygon", "coordinates": [[[[72.39009572, 34.32253509], [72.39013762, 34.32254048], [72.39014904, 34.32247992], [72.39010714, 34.32247453], [72.39009572, 34.32253509]]]]}, "properties": {"id": "Pakistan_123102132_18240", "height": 2.447692632675171, "hmax": 0.104, "ratio": 0.043, "vulnClass": "none"}}, {"type": "Feature", "geometry": {"type": "MultiPolygon", "coordinates": [[[[72.39016521, 34.3222841], [72.39014759, 34.32235418], [72.3901413, 34.32235311], [72.39011515, 34.32245717], [72.39022572, 34.32247612], [72.39026948, 34.32230197], [72.39016521, 34.3222841]]]]}, "properties": {"id": "Pakistan_123102132_572042", "height": 2.983185291290283, "hmax": 0.038, "ratio": 0.013, "vulnClass": "none"}}, {"type": "Feature", "geometry": {"type": "MultiPolygon", "coordinates": [[[[72.38647302, 34.32233981], [72.38646789, 34.32231165], [72.38637085, 34.32232372], [72.38638309, 34.32239087], [72.38643554, 34.32238434], [72.38642843, 34.32234535], [72.38647302, 34.32233981]]]]}, "properties": {"id": "Pakistan_123102132_320111", "height": 3.183668851852417, "hmax": 0.301, "ratio": 0.094, "vulnClass": "low"}}, {"type": "Feature", "geometry": {"type": "MultiPolygon", "coordinates": [[[[72.38634531, 34.32245297], [72.38632071, 34.3223693], [72.38627398, 34.32237867], [72.38629859, 34.32246234], [72.38634531, 34.32245297]]]]}, "properties": {"id": "Pakistan_123102132_135118", "height": 3.489520788192749, "hmax": 0.231, "ratio": 0.066, "vulnClass": "low"}}, {"type": "Feature", "geometry": {"type": "MultiPolygon", "coordinates": [[[[72.38685891, 34.32258121], [72.38682115, 34.32253651], [72.38674718, 34.32257913], [72.38667795, 34.32249718], [72.38662664, 34.32252674], [72.38659769, 34.32249247], [72.3865606, 34.32251384], [72.38659836, 34.32255854], [72.3865298, 34.32259804], [72.3864782, 34.32253695], [72.38643129, 34.32256398], [72.38658107, 34.32274129], [72.38685891, 34.32258121]]]]}, "properties": {"id": "Pakistan_123102132_344666", "height": 2.614013910293579, "hmax": 0.154, "ratio": 0.059, "vulnClass": "low"}}, {"type": "Feature", "geometry": {"type": "MultiPolygon", "coordinates": [[[[72.38311704, 34.32258777], [72.38291655, 34.32265202], [72.38289484, 34.32260581], [72.3828319, 34.32262598], [72.38287713, 34.32272225], [72.38293541, 34.32270357], [72.38294445, 34.32272283], [72.3831496, 34.32265709], [72.38311704, 34.32258777]]]]}, "properties": {"id": "Pakistan_123102132_203156", "height": 2.600196361541748, "hmax": 0.006, "ratio": 0.002, "vulnClass": "none"}}, {"type": "Feature", "geometry": {"type": "MultiPolygon", "coordinates": [[[[72.3818289, 34.3091241], [72.38173516, 34.30912707], [72.38173721, 34.30917132], [72.38183095, 34.30916835], [72.3818289, 34.3091241]]]]}, "properties": {"id": "Pakistan_123102132_107158", "height": 2.892108201980591, "hmax": 0.002, "ratio": 0.001, "vulnClass": "none"}}, {"type": "Feature", "geometry": {"type": "MultiPolygon", "coordinates": [[[[72.38908092, 34.31100279], [72.38907613, 34.31093736], [72.38902536, 34.3109399], [72.38903015, 34.31100532], [72.38908092, 34.31100279]]]]}, "properties": {"id": "Pakistan_123102132_378387", "height": 2.471634387969971, "hmax": 0.006, "ratio": 0.002, "vulnClass": "none"}}, {"type": "Feature", "geometry": {"type": "MultiPolygon", "coordinates": [[[[72.38601189, 34.30820237], [72.38598055, 34.30819811], [72.38596576, 34.30827239], [72.38604411, 34.30828303], [72.38605202, 34.30824327], [72.38600502, 34.30823688], [72.38601189, 34.30820237]]]]}, "properties": {"id": "Pakistan_123102310_761868", "height": 2.587644577026367, "hmax": 0.055, "ratio": 0.021, "vulnClass": "none"}}, {"type": "Feature", "geometry": {"type": "MultiPolygon", "coordinates": [[[[72.38621338, 34.3078284], [72.38618866, 34.30787079], [72.38624009, 34.30789125], [72.38626481, 34.30784885], [72.38621338, 34.3078284]]]]}, "properties": {"id": "Pakistan_123102310_505367", "height": 2.553808689117432, "hmax": 0.127, "ratio": 0.05, "vulnClass": "none"}}, {"type": "Feature", "geometry": {"type": "MultiPolygon", "coordinates": [[[[72.38622331, 34.307944], [72.3862165, 34.30796115], [72.38620439, 34.30795786], [72.38617783, 34.30802472], [72.38623501, 34.30804023], [72.38626839, 34.30795622], [72.38622331, 34.307944]]]]}, "properties": {"id": "Pakistan_123102310_235907", "height": 2.737260580062866, "hmax": 0.09, "ratio": 0.033, "vulnClass": "none"}}, {"type": "Feature", "geometry": {"type": "MultiPolygon", "coordinates": [[[[72.38458538, 34.3083617], [72.38451728, 34.30833773], [72.38449503, 34.30838086], [72.38456314, 34.30840483], [72.38458538, 34.3083617]]]]}, "properties": {"id": "Pakistan_123102132_169125", "height": 2.797566413879395, "hmax": 0.003, "ratio": 0.001, "vulnClass": "none"}}]}