{"type": "FeatureCollection", "features": [{"type": "Feature", "geometry": {"type": "MultiPolygon", "coordinates": [[[[71.93115973, 34.50068414], [71.9311295, 34.50074191], [71.93116342, 34.50075397], [71.93119366, 34.50069619], [71.93115973, 34.50068414]]]]}, "properties": {"id": "Pakistan_123102132_456887", "height": 2.645428657531738, "hmax": 0.016, "ratio": 0.006, "vulnClass": "none"}}, {"type": "Feature", "geometry": {"type": "MultiPolygon", "coordinates": [[[[71.93155709, 34.5006789], [71.93144833, 34.50062181], [71.93141252, 34.50066814], [71.93132475, 34.50062207], [71.93124818, 34.50072114], [71.93131878, 34.5007582], [71.93136861, 34.50069372], [71.93149455, 34.50075983], [71.93155709, 34.5006789]]]]}, "properties": {"id": "Pakistan_123102132_382697", "height": 2.501693725585938, "hmax": 0.016, "ratio": 0.006, "vulnClass": "none"}}, {"type": "Feature", "geometry": {"type": "MultiPolygon", "coordinates": [[[[71.93328784, 34.5000793], [71.93347419, 34.50019513], [71.9335838, 34.50007537], [71.93351883, 34.50003498], [71.93348788, 34.5000688], [71.93337921, 34.50000125], [71.93333279, 34.50005198], [71.93332007, 34.50004408], [71.93328784, 34.5000793]]]]}, "properties": {"id": "Pakistan_123102132_59409", "height": 3.167844772338867, "hmax": 0.003, "ratio": 0.001, "vulnClass": "none"}}, {"type": "Feature", "geometry": {"type": "MultiPolygon", "coordinates": [[[[71.93402042, 34.50029391], [71.93381017, 34.5001977], [71.9337151, 34.5003388], [71.93379823, 34.50037685], [71.93386372, 34.50027967], [71.93399082, 34.50033784], [71.93402042, 34.50029391]]]]}, "properties": {"id": "Pakistan_123102132_92956", "height": 4.157063484191895, "hmax": 0.01, "ratio": 0.002, "vulnClass": "none"}}, {"type": "Feature", "geometry": {"type": "MultiPolygon", "coordinates": [[[[71.93390896, 34.50016122], [71.93388301, 34.50014602], [71.93384122, 34.5001945], [71.93402047, 34.50029945], [71.93407239, 34.50023922], [71.93403318, 34.50021626], [71.93406104, 34.50018394], [71.93394696, 34.50011715], [71.93390896, 34.50016122]]]]}, "properties": {"id": "Pakistan_123102132_201253", "height": 3.014108419418335, "hmax": 0.003, "ratio": 0.001, "vulnClass": "none"}}, {"type": "Feature", "geometry": {"type": "MultiPolygon", "coordinates": [[[[71.93429132, 34.50032803], [71.9343321, 34.5001844], [71.93419366, 34.5001577], [71.93415287, 34.50030132], [71.93429132, 34.50032803]]]]}, "properties": {"id": "Pakistan_123102132_284286", "height": 2.454061269760132, "hmax": 0.087, "ratio": 0.035, "vulnClass": "none"}}, {"type": "Feature", "geometry": {"type": "MultiPolygon", "coordinates": [[[[71.93416275, 34.50038998], [71.93418352, 34.50035239], [71.93412452, 34.50033026], [71.9341523, 34.50027995], [71.93405898, 34.50024495], [71.93400086, 34.50035019], [71.93410529, 34.50038936], [71.93411487, 34.50037202], [71.93416275, 34.50038998]]]]}, "properties": {"id": "Pakistan_123102132_469000", "height": 2.44774866104126, "hmax": 0.017, "ratio": 0.007, "vulnClass": "none"}}, {"type": "Feature", "geometry": {"type": "MultiPolygon", "coordinates": [[[[71.93379907, 34.50037949], [71.93400602, 34.50049077], [71.9340557, 34.50042802], [71.93384875, 34.50031673], [71.93379907, 34.50037949]]]]}, "properties": {"id": "Pakistan_123102132_151717", "height": 4.280526638031006, "hmax": 0.024, "ratio": 0.006, "vulnClass": "none"}}, {"type": "Feature", "geometry": {"type": "MultiPolygon", "coordinates": [[[[71.94140985, 34.49174222], [71.94140644, 34.49170485], [71.94135843, 34.49170783], [71.94136184, 34.4917452], [71.94140985, 34.49174222]]]]}, "properties": {"id": "Pakistan_123102132_576379", "height": 2.48900032043457, "hmax": 0.002, "ratio": 0.001, "vulnClass": "none"}}, {"type": "Feature", "geometry": {"type": "MultiPolygon", "coordinates": [[[[71.9339618, 34.49899619], [71.93392064, 34.4990387], [71.93405239, 34.49912535], [71.93412039, 34.49905513], [71.93403944, 34.49900188], [71.93401259, 34.4990296], [71.9339618, 34.49899619]]]]}, "properties": {"id": "Pakistan_123102132_487668", "height": 2.756321430206299, "hmax": 0.008, "ratio": 0.003, "vulnClass": "none"}}, {"type": "Feature", "geometry": {"type": "MultiPolygon", "coordinates": [[[[71.93386126, 34.49876194], [71.93379337, 34.49873542], [71.93372119, 34.4988609], [71.93378908, 34.49888742], [71.93386126, 34.49876194]]]]}, "properties": {"id": "Pakistan_123102132_123983", "height": 3.612196445465088, "hmax": 0.008, "ratio": 0.002, "vulnClass": "none"}}, {"type": "Feature", "geometry": {"type": "MultiPolygon", "coordinates": [[[[71.93524843, 34.498214], [71.93523895, 34.49825321], [71.93533957, 34.49826972], [71.93534904, 34.49823052], [71.93524843, 34.498214]]]]}, "properties": {"id": "Pakistan_123102132_25538", "height": 3.452140808105469, "hmax": 0.005, "ratio": 0.001, "vulnClass": "none"}}, {"type": "Feature", "geometry": {"type": "MultiPolygon", "coordinates": [[[[71.93391598, 34.49706191], [71.93395624, 34.49720451], [71.93404182, 34.49718809], [71.93400154, 34.4970455], [71.93391598, 34.49706191]]]]}, "properties": {"id": "Pakistan_123102132_468993", "height": 3.116820096969604, "hmax": 0.008, "ratio": 0.003, "vulnClass": "none"}}, {"type": "Feature", "geometry": {"type": "MultiPolygon", "coordinates": [[[[71.93380425, 34.49718245], [71.9337618, 34.49719198], [71.93377473, 34.49723108], [71.93381717, 34.49722155], [71.93380425, 34.49718245]]]]}, "properties": {"id": "Pakistan_123102132_278183", "height": 2.856726408004761, "hmax": 0.008, "ratio": 0.003, "vulnClass": "none"}}, {"type": "Feature", "geometry": {"type": "MultiPolygon", "coordinates": [[[[71.934198, 34.49728631], [71.93407915, 34.49723599], [71.93401484, 34.49733919], [71.93413368, 34.4973895], [71.934198, 34.49728631]]]]}, "properties": {"id": "Pakistan_123102132_554925", "height": 2.67203426361084, "hmax": 0.008, "ratio": 0.003, "vulnClass": "none"}}, {"type": "Feature", "geometry": {"type": "MultiPolygon", "coordinates": [[[[71.93381258, 34.49731746], [71.93379729, 34.49735773], [71.9339561, 34.49739867], [71.93397138, 34.4973584], [71.93381258, 34.49731746]]]]}, "properties": {"id": "Pakistan_123102132_19412", "height": 2.7511305809021, "hmax": 0.008, "ratio": 0.003, "vulnClass": "none"}}, {"type": "Feature", "geometry": {"type": "MultiPolygon", "coordinates": [[[[71.9339546, 34.497409], [71.93393233, 34.49745328], [71.93406051, 34.49749707], [71.93408278, 34.49745279], [71.9339546, 34.497409]]]]}, "properties": {"id": "Pakistan_123102132_120848", "height": 2.941276550292969, "hmax": 0.008, "ratio": 0.003, "vulnClass": "none"}}, {"type": "Feature", "geometry": {"type": "MultiPolygon", "coordinates": [[[[71.93469991, 34.4982371], [71.93482118, 34.4982683], [71.93494588, 34.49793906], [71.93493213, 34.49793552], [71.93495162, 34.49788405], [71.93484407, 34.49785639], [71.93469991, 34.4982371]]]]}, "properties": {"id": "Pakistan_123102132_367299", "height": 3.300828218460083, "hmax": 0.005, "ratio": 0.002, "vulnClass": "none"}}, {"type": "Feature", "geometry": {"type": "MultiPolygon", "coordinates": [[[[71.93387419, 34.49779495], [71.93374581, 34.49774392], [71.93372062, 34.49778695], [71.933849, 34.49783799], [71.93387419, 34.49779495]]]]}, "properties": {"id": "Pakistan_123102132_105269", "height": 2.535168647766113, "hmax": 0.016, "ratio": 0.006, "vulnClass": "none"}}, {"type": "Feature", "geometry": {"type": "MultiPolygon", "coordinates": [[[[71.93265323, 34.49744547], [71.93261437, 34.49731872], [71.93249839, 34.49734287], [71.93253725, 34.49746962], [71.93265323, 34.49744547]]]]}, "properties": {"id": "Pakistan_123102132_603920", "height": 2.74521017074585, "hmax": 0.009, "ratio": 0.003, "vulnClass": "none"}}, {"type": "Feature", "geometry": {"type": "MultiPolygon", "coordinates": [[[[71.93346255, 34.49730545], [71.93344001, 34.4972561], [71.93334988, 34.49728406], [71.93337242, 34.49733341], [71.93346255, 34.49730545]]]]}, "properties": {"id": "Pakistan_123102132_345866", "height": 2.655489921569824, "hmax": 0.008, "ratio": 0.003, "vulnClass": "none"}}, {"type": "Feature", "geometry": {"type": "MultiPolygon", "coordinates": [[[[71.93359114, 34.49732477], [71.93362029, 34.49740851], [71.93370297, 34.49738896], [71.93365781, 34.49725923], [71.93345955, 34.49730611], [71.93347556, 34.49735209], [71.93359114, 34.49732477]]]]}, "properties": {"id": "Pakistan_123102132_466002", "height": 3.057624816894531, "hmax": 0.008, "ratio": 0.003, "vulnClass": "none"}}, {"type": "Feature", "geometry": {"type": "MultiPolygon", "coordinates": [[[[71.93330208, 34.49720858], [71.93333189, 34.49727967], [71.93349634, 34.49723283], [71.93346652, 34.49716174], [71.93330208, 34.49720858]]]]}, "properties": {"id": "Pakistan_123102132_1107", "height": 2.555233716964722, "hmax": 0.008, "ratio": 0.003, "vulnClass": "none"}}, {"type": "Feature", "geometry": {"type": "MultiPolygon", "coordinates": [[[[71.93367142, 34.49724429], [71.93363453, 34.49713804], [71.93354032, 34.49716026], [71.93357721, 34.49726651], [71.93367142, 34.49724429]]]]}, "properties": {"id": "Pakistan_123102132_472183", "height": 3.595692157745361, "hmax": 0.008, "ratio": 0.002, "vulnClass": "none"}}, {"type": "Feature", "geometry": {"type": "MultiPolygon", "coordinates": [[[[71.93349281, 34.49715005], [71.93372993, 34.49711657], [71.93371008, 34.49702104], [71.9336596, 34.49702817], [71.93364107, 34.49693901], [71.93345443, 34.49696536], [71.93349281, 34.49715005]]]]}, "properties": {"id": "Pakistan_123102132_441452", "height": 3.003868818283081, "hmax": 0.008, "ratio": 0.003, "vulnClass": "none"}}, {"type": "Feature", "geometry": {"type": "MultiPolygon", "coordinates": [[[[71.93286972, 34.49700496], [71.93290284, 34.49707371], [71.93305808, 34.49702291], [71.93302497, 34.49695417], [71.93286972, 34.49700496]]]]}, "properties": {"id": "Pakistan_123102132_410639", "height": 3.086801528930664, "hmax": 0.009, "ratio": 0.003, "vulnClass": "none"}}, {"type": "Feature", "geometry": {"type": "MultiPolygon", "coordinates": [[[[71.93158849, 34.49624069], [71.93155111, 34.49619526], [71.93148496, 34.49623222], [71.93152234, 34.49627766], [71.93158849, 34.49624069]]]]}, "properties": {"id": "Pakistan_123102132_348913", "height": 2.848497629165649, "hmax": 0.011, "ratio": 0.004, "vulnClass": "none"}}, {"type": "Feature", "geometry": {"type": "MultiPolygon", "coordinates": [[[[71.9307899, 34.49623567], [71.9307693, 34.4961706], [71.93071657, 34.49618194], [71.93073716, 34.49624701], [71.9307899, 34.49623567]]]]}, "properties": {"id": "Pakistan_123102132_167200", "height": 2.703049182891846, "hmax": 0.006, "ratio": 0.002, "vulnClass": "none"}}, {"type": "Feature", "geometry": {"type": "MultiPolygon", "coordinates": [[[[71.93051902, 34.49656062], [71.93059474, 34.49666116], [71.93066831, 34.49662352], [71.93060942, 34.49654533], [71.93057651, 34.49656216], [71.93055968, 34.49653982], [71.93051902, 34.49656062]]]]}, "properties": {"id": "Pakistan_123102132_493781", "height": 3.180222272872925, "hmax": 0.012, "ratio": 0.004, "vulnClass": "none"}}, {"type": "Feature", "geometry": {"type": "MultiPolygon", "coordinates": [[[[71.93039768, 34.49652981], [71.93043036, 34.49646603], [71.93031199, 34.49642483], [71.93027931, 34.49648861], [71.93039768, 34.49652981]]]]}, "properties": {"id": "Pakistan_123102132_281254", "height": 2.623151779174805, "hmax": 0.006, "ratio": 0.002, "vulnClass": "none"}}, {"type": "Feature", "geometry": {"type": "MultiPolygon", "coordinates": [[[[71.93073837, 34.49634908], [71.9307121, 34.4962759], [71.9306618, 34.49628817], [71.93068807, 34.49636134], [71.93073837, 34.49634908]]]]}, "properties": {"id": "Pakistan_123102132_345852", "height": 3.162178516387939, "hmax": 0.006, "ratio": 0.002, "vulnClass": "none"}}, {"type": "Feature", "geometry": {"type": "MultiPolygon", "coordinates": [[[[71.92993802, 34.4967467], [71.92981687, 34.49673316], [71.92980472, 34.49680696], [71.92992588, 34.49682051], [71.92993802, 34.4967467]]]]}, "properties": {"id": "Pakistan_123102132_496794", "height": 2.922574996948242, "hmax": 0.02, "ratio": 0.007, "vulnClass": "none"}}, {"type": "Feature", "geometry": {"type": "MultiPolygon", "coordinates": [[[[71.93025963, 34.49757381], [71.93021649, 34.49775143], [71.93034965, 34.4977734], [71.93039332, 34.49759366], [71.93033751, 34.49758445], [71.93034496, 34.49755378], [71.93029339, 34.49754527], [71.93028542, 34.49757807], [71.93025963, 34.49757381]]]]}, "properties": {"id": "Pakistan_123102132_25515", "height": 3.376030206680298, "hmax": 0.029, "ratio": 0.009, "vulnClass": "none"}}, {"type": "Feature", "geometry": {"type": "MultiPolygon", "coordinates": [[[[71.93064016, 34.49711688], [71.93060004, 34.49709264], [71.93053097, 34.49717028], [71.93057109, 34.49719452], [71.93064016, 34.49711688]]]]}, "properties": {"id": "Pakistan_123102132_551795", "height": 2.496664047241211, "hmax": 0.028, "ratio": 0.011, "vulnClass": "none"}}, {"type": "Feature", "geometry": {"type": "MultiPolygon", "coordinates": [[[[71.93130266, 34.49786563], [71.93124997, 34.49785182], [71.93120933, 34.49795711], [71.93126201, 34.49797093], [71.93130266, 34.49786563]]]]}, "properties": {"id": "Pakistan_123102132_247344", "height": 2.683123588562012, "hmax": 0.013, "ratio": 0.005, "vulnClass": "none"}}, {"type": "Feature", "geometry": {"type": "MultiPolygon", "coordinates": [[[[71.93121162, 34.49800166], [71.93114536, 34.49795869], [71.93111146, 34.49799419], [71.9310595, 34.49796048], [71.93102169, 34.49800007], [71.93113992, 34.49807675], [71.93121162, 34.49800166]]]]}, "properties": {"id": "Pakistan_123102132_594709", "height": 2.79891300201416, "hmax": 0.013, "ratio": 0.005, "vulnClass": "none"}}, {"type": "Feature", "geometry": {"type": "MultiPolygon", "coordinates": [[[[71.92974886, 34.49810451], [71.92980187, 34.49808284], [71.92986104, 34.49818115], [71.92990658, 34.49816253], [71.92992374, 34.49817541], [71.92986955, 34.49819756], [71.92984858, 34.49818182], [71.92979863, 34.49820224], [71.92984409, 34.49827778], [71.92999047, 34.49821794], [71.92989059, 34.49805198], [71.92979275, 34.49797856], [71.92971526, 34.49804869], [71.92974886, 34.49810451]]]]}, "properties": {"id": "Pakistan_123102132_228797", "height": 3.722251892089844, "hmax": 0.017, "ratio": 0.005, "vulnClass": "none"}}, {"type": "Feature", "geometry": {"type": "MultiPolygon", "coordinates": [[[[71.9297448, 34.4982888], [71.92971075, 34.49831408], [71.92974009, 34.49834093], [71.92977415, 34.49831565], [71.9297448, 34.4982888]]]]}, "properties": {"id": "Pakistan_123102132_327312", "height": 2.724908590316772, "hmax": 0.013, "ratio": 0.005, "vulnClass": "none"}}, {"type": "Feature", "geometry": {"type": "MultiPolygon", "coordinates": [[[[71.92988907, 34.49830794], [71.92986828, 34.49827608], [71.92982667, 34.49829451], [71.92984745, 34.49832638], [71.92988907, 34.49830794]]]]}, "properties": {"id": "Pakistan_123102132_468963", "height": 3.630546092987061, "hmax": 0.013, "ratio": 0.004, "vulnClass": "none"}}, {"type": "Feature", "geometry": {"type": "MultiPolygon", "coordinates": [[[[71.92971964, 34.49815885], [71.92964079, 34.49818159], [71.92968678, 34.4982899], [71.92976564, 34.49826716], [71.92971964, 34.49815885]]]]}, "properties": {"id": "Pakistan_123102132_490721", "height": 3.207029819488525, "hmax": 0.013, "ratio": 0.004, "vulnClass": "none"}}, {"type": "Feature", "geometry": {"type": "MultiPolygon", "coordinates": [[[[71.92853527, 34.49852092], [71.92845592, 34.49852298], [71.9284571, 34.4985539], [71.92853645, 34.49855184], [71.92853527, 34.49852092]]]]}, "properties": {"id": "Pakistan_123102132_53153", "height": 2.965515613555908, "hmax": 0.01, "ratio": 0.003, "vulnClass": "none"}}, {"type": "Feature", "geometry": {"type": "MultiPolygon", "coordinates": [[[[71.92801521, 34.49814005], [71.9280008, 34.49805325], [71.92793234, 34.49806097], [71.92794014, 34.49810791], [71.92789439, 34.49811307], [71.927901, 34.49815292], [71.92801521, 34.49814005]]]]}, "properties": {"id": "Pakistan_123102132_573189", "height": 2.96985387802124, "hmax": 0.021, "ratio": 0.007, "vulnClass": "none"}}, {"type": "Feature", "geometry": {"type": "MultiPolygon", "coordinates": [[[[71.92778936, 34.49833952], [71.92779099, 34.49838369], [71.92786602, 34.49838182], [71.9278644, 34.49833765], [71.92778936, 34.49833952]]]]}, "properties": {"id": "Pakistan_123102132_512217", "height": 3.889175415039062, "hmax": 0.012, "ratio": 0.003, "vulnClass": "none"}}, {"type": "Feature", "geometry": {"type": "MultiPolygon", "coordinates": [[[[71.92785948, 34.49856837], [71.92779886, 34.49858081], [71.92787746, 34.498841], [71.92811992, 34.49879125], [71.92807866, 34.49865464], [71.92801804, 34.49866708], [71.92803793, 34.49873292], [71.92791669, 34.49875779], [71.92785948, 34.49856837]]]]}, "properties": {"id": "Pakistan_123102132_145465", "height": 3.265491962432861, "hmax": 0.01, "ratio": 0.003, "vulnClass": "none"}}, {"type": "Feature", "geometry": {"type": "MultiPolygon", "coordinates": [[[[71.92836645, 34.49878106], [71.92833947, 34.49869625], [71.92829931, 34.49870493], [71.92832629, 34.49878973], [71.92836645, 34.49878106]]]]}, "properties": {"id": "Pakistan_123102132_585451", "height": 2.951819896697998, "hmax": 0.01, "ratio": 0.003, "vulnClass": "none"}}, {"type": "Feature", "geometry": {"type": "MultiPolygon", "coordinates": [[[[71.92764245, 34.49840989], [71.9276599, 34.49848678], [71.92773923, 34.49847455], [71.92772179, 34.49839766], [71.92764245, 34.49840989]]]]}, "properties": {"id": "Pakistan_123102132_315196", "height": 5.922358512878418, "hmax": 0.048, "ratio": 0.008, "vulnClass": "none"}}, {"type": "Feature", "geometry": {"type": "MultiPolygon", "coordinates": [[[[71.92779443, 34.49844237], [71.92777232, 34.49825991], [71.92784832, 34.49825366], [71.92784365, 34.49821506], [71.92771617, 34.49822555], [71.92774294, 34.49844661], [71.92779443, 34.49844237]]]]}, "properties": {"id": "Pakistan_123102132_56246", "height": 3.727652311325073, "hmax": 0.017, "ratio": 0.005, "vulnClass": "none"}}, {"type": "Feature", "geometry": {"type": "MultiPolygon", "coordinates": [[[[71.9277477, 34.49641183], [71.92770729, 34.49638988], [71.92767446, 34.49643095], [71.92771488, 34.49645289], [71.9277477, 34.49641183]]]]}, "properties": {"id": "Pakistan_123102132_179664", "height": 2.768577098846436, "hmax": 0.014, "ratio": 0.005, "vulnClass": "none"}}, {"type": "Feature", "geometry": {"type": "MultiPolygon", "coordinates": [[[[71.92778878, 34.49764029], [71.92773881, 34.49750958], [71.92766317, 34.49752922], [71.92771314, 34.49765993], [71.92778878, 34.49764029]]]]}, "properties": {"id": "Pakistan_123102132_351956", "height": 3.788749217987061, "hmax": 0.02, "ratio": 0.005, "vulnClass": "none"}}, {"type": "Feature", "geometry": {"type": "MultiPolygon", "coordinates": [[[[71.92772006, 34.49716906], [71.92774996, 34.49723243], [71.92781753, 34.49721078], [71.92778763, 34.49714741], [71.92772006, 34.49716906]]]]}, "properties": {"id": "Pakistan_123102132_475264", "height": 4.040360450744629, "hmax": 0.022, "ratio": 0.005, "vulnClass": "none"}}, {"type": "Feature", "geometry": {"type": "MultiPolygon", "coordinates": [[[[71.92824445, 34.49734609], [71.92828056, 34.49728447], [71.92813918, 34.49722821], [71.92810308, 34.49728982], [71.92824445, 34.49734609]]]]}, "properties": {"id": "Pakistan_123102132_19367", "height": 3.827006578445435, "hmax": 0.025, "ratio": 0.007, "vulnClass": "none"}}, {"type": "Feature", "geometry": {"type": "MultiPolygon", "coordinates": [[[[71.92875478, 34.49711021], [71.92869065, 34.49715744], [71.92863919, 34.49710998], [71.92860639, 34.49713415], [71.92870767, 34.49722756], [71.9288046, 34.49715617], [71.92875478, 34.49711021]]]]}, "properties": {"id": "Pakistan_123102132_250470", "height": 2.683215141296387, "hmax": 0.025, "ratio": 0.009, "vulnClass": "none"}}, {"type": "Feature", "geometry": {"type": "MultiPolygon", "coordinates": [[[[71.92841509, 34.49726912], [71.92831922, 34.49724186], [71.92827259, 34.49735322], [71.92836846, 34.49738049], [71.92841509, 34.49726912]]]]}, "properties": {"id": "Pakistan_123102132_373347", "height": 2.79593563079834, "hmax": 0.025, "ratio": 0.009, "vulnClass": "none"}}, {"type": "Feature", "geometry": {"type": "MultiPolygon", "coordinates": [[[[71.92872329, 34.49752391], [71.92871348, 34.49751618], [71.92876037, 34.49747574], [71.92861368, 34.4973602], [71.92856545, 34.49740179], [71.92866498, 34.49748018], [71.92860871, 34.49752871], [71.92854563, 34.49747902], [71.92849791, 34.49752017], [71.92861798, 34.49761473], [71.92872329, 34.49752391]]]]}, "properties": {"id": "Pakistan_123102132_579362", "height": 4.025062561035156, "hmax": 0.023, "ratio": 0.006, "vulnClass": "none"}}, {"type": "Feature", "geometry": {"type": "MultiPolygon", "coordinates": [[[[71.92842254, 34.4976589], [71.92846139, 34.49772809], [71.9285365, 34.49769946], [71.92851095, 34.49765394], [71.92854108, 34.49764245], [71.92851042, 34.49758782], [71.9284353, 34.49761646], [71.92845268, 34.49764742], [71.92842254, 34.4976589]]]]}, "properties": {"id": "Pakistan_123102132_225667", "height": 3.347853183746338, "hmax": 0.021, "ratio": 0.006, "vulnClass": "none"}}, {"type": "Feature", "geometry": {"type": "MultiPolygon", "coordinates": [[[[71.92864475, 34.49765467], [71.92856122, 34.49768186], [71.92858927, 34.4977404], [71.9286728, 34.49771321], [71.92864475, 34.49765467]]]]}, "properties": {"id": "Pakistan_123102132_533564", "height": 3.16950511932373, "hmax": 0.021, "ratio": 0.007, "vulnClass": "none"}}, {"type": "Feature", "geometry": {"type": "MultiPolygon", "coordinates": [[[[71.92926695, 34.49721649], [71.92928054, 34.49717295], [71.92914218, 34.49714361], [71.92912884, 34.49718632], [71.92918922, 34.49719912], [71.92917278, 34.49725179], [71.92921715, 34.49726119], [71.92922232, 34.49724461], [71.92935154, 34.49727201], [71.92934313, 34.49729896], [71.92942111, 34.4973155], [71.92942629, 34.49729891], [71.92950588, 34.49731579], [71.92952012, 34.49727017], [71.92926695, 34.49721649]]]]}, "properties": {"id": "Pakistan_123102132_83805", "height": 2.984233379364014, "hmax": 0.02, "ratio": 0.007, "vulnClass": "none"}}, {"type": "Feature", "geometry": {"type": "MultiPolygon", "coordinates": [[[[71.92984044, 34.49694102], [71.92978552, 34.49692868], [71.92976849, 34.49698011], [71.9296187, 34.49694644], [71.92960441, 34.49698965], [71.92980912, 34.49703567], [71.92984044, 34.49694102]]]]}, "properties": {"id": "Pakistan_123102132_478426", "height": 2.541748523712158, "hmax": 0.02, "ratio": 0.008, "vulnClass": "none"}}, {"type": "Feature", "geometry": {"type": "MultiPolygon", "coordinates": [[[[71.92900093, 34.49676193], [71.92902213, 34.4967207], [71.92893258, 34.49668943], [71.92891138, 34.49673066], [71.92900093, 34.49676193]]]]}, "properties": {"id": "Pakistan_123102132_207456", "height": 2.454492092132568, "hmax": 0.02, "ratio": 0.008, "vulnClass": "none"}}, {"type": "Feature", "geometry": {"type": "MultiPolygon", "coordinates": [[[[71.92887663, 34.49707441], [71.9286323, 34.49695641], [71.9285918, 34.49701337], [71.92854987, 34.49699312], [71.92852647, 34.49702603], [71.92868695, 34.49710352], [71.92873609, 34.49703441], [71.92881521, 34.49707262], [71.92877615, 34.49712757], [71.92882281, 34.4971501], [71.92887663, 34.49707441]]]]}, "properties": {"id": "Pakistan_123102132_120829", "height": 3.379524230957031, "hmax": 0.025, "ratio": 0.007, "vulnClass": "none"}}, {"type": "Feature", "geometry": {"type": "MultiPolygon", "coordinates": [[[[71.92782263, 34.49671478], [71.92783361, 34.49678209], [71.92792319, 34.49677217], [71.92793014, 34.4968148], [71.92802862, 34.49680388], [71.92804384, 34.49689725], [71.92809291, 34.49689181], [71.92805324, 34.49664863], [71.92800055, 34.49665447], [71.92800705, 34.49669435], [71.92782263, 34.49671478]]]]}, "properties": {"id": "Pakistan_123102132_80733", "height": 3.221924781799316, "hmax": 0.025, "ratio": 0.008, "vulnClass": "none"}}, {"type": "Feature", "geometry": {"type": "MultiPolygon", "coordinates": [[[[71.92850356, 34.49673325], [71.92844781, 34.49671702], [71.92842085, 34.49677991], [71.9284766, 34.49679614], [71.92850356, 34.49673325]]]]}, "properties": {"id": "Pakistan_123102132_102120", "height": 3.959450721740723, "hmax": 0.025, "ratio": 0.006, "vulnClass": "none"}}, {"type": "Feature", "geometry": {"type": "MultiPolygon", "coordinates": [[[[71.92862765, 34.49641155], [71.928615, 34.49644503], [71.92867272, 34.49645985], [71.92868537, 34.49642638], [71.92862765, 34.49641155]]]]}, "properties": {"id": "Pakistan_123102132_74673", "height": 2.538364171981812, "hmax": 0.017, "ratio": 0.007, "vulnClass": "none"}}, {"type": "Feature", "geometry": {"type": "MultiPolygon", "coordinates": [[[[71.92858456, 34.49647571], [71.92863949, 34.49650658], [71.92866772, 34.49647245], [71.92861279, 34.49644159], [71.92858456, 34.49647571]]]]}, "properties": {"id": "Pakistan_123102132_379562", "height": 2.815991878509521, "hmax": 0.017, "ratio": 0.006, "vulnClass": "none"}}, {"type": "Feature", "geometry": {"type": "MultiPolygon", "coordinates": [[[[71.92813668, 34.49633551], [71.92804684, 34.49627901], [71.9279964, 34.49633349], [71.92808623, 34.49638999], [71.92813668, 34.49633551]]]]}, "properties": {"id": "Pakistan_123102132_315199", "height": 3.593328714370728, "hmax": 0.017, "ratio": 0.005, "vulnClass": "none"}}, {"type": "Feature", "geometry": {"type": "MultiPolygon", "coordinates": [[[[71.9285451, 34.49610434], [71.92850523, 34.49616015], [71.92856898, 34.49619108], [71.92860884, 34.49613526], [71.9285451, 34.49610434]]]]}, "properties": {"id": "Pakistan_123102132_585452", "height": 2.566487312316895, "hmax": 0.017, "ratio": 0.007, "vulnClass": "none"}}, {"type": "Feature", "geometry": {"type": "MultiPolygon", "coordinates": [[[[71.92924565, 34.49623967], [71.92919985, 34.49622251], [71.92915034, 34.49631229], [71.92919614, 34.49632944], [71.92924565, 34.49623967]]]]}, "properties": {"id": "Pakistan_123102132_80741", "height": 3.381122827529907, "hmax": 0.033, "ratio": 0.01, "vulnClass": "none"}}, {"type": "Feature", "geometry": {"type": "MultiPolygon", "coordinates": [[[[71.92922928, 34.49630794], [71.92920398, 34.49636689], [71.92935656, 34.49641136], [71.92938186, 34.49635241], [71.92922928, 34.49630794]]]]}, "properties": {"id": "Pakistan_123102132_456874", "height": 2.65098237991333, "hmax": 0.033, "ratio": 0.012, "vulnClass": "none"}}, {"type": "Feature", "geometry": {"type": "MultiPolygon", "coordinates": [[[[71.9293991, 34.49621755], [71.92961713, 34.49631126], [71.92963033, 34.49629041], [71.92972228, 34.49632993], [71.92974821, 34.49628894], [71.92962675, 34.49623673], [71.92961135, 34.49626106], [71.92953544, 34.49622843], [71.92955569, 34.49619643], [71.92944308, 34.49614804], [71.9293991, 34.49621755]]]]}, "properties": {"id": "Pakistan_123102132_56258", "height": 2.887793779373169, "hmax": 0.033, "ratio": 0.011, "vulnClass": "none"}}, {"type": "Feature", "geometry": {"type": "MultiPolygon", "coordinates": [[[[71.92967554, 34.49614506], [71.92966336, 34.49617974], [71.92970296, 34.49618919], [71.92971514, 34.49615451], [71.92967554, 34.49614506]]]]}, "properties": {"id": "Pakistan_123102132_447581", "height": 3.157825708389282, "hmax": 0.033, "ratio": 0.011, "vulnClass": "none"}}, {"type": "Feature", "geometry": {"type": "MultiPolygon", "coordinates": [[[[71.92908596, 34.49588637], [71.92911275, 34.49590947], [71.92908696, 34.49592979], [71.92914457, 34.49597945], [71.92920539, 34.49593152], [71.92912099, 34.49585876], [71.92908596, 34.49588637]]]]}, "properties": {"id": "Pakistan_123102132_123946", "height": 2.596846580505371, "hmax": 0.033, "ratio": 0.013, "vulnClass": "none"}}, {"type": "Feature", "geometry": {"type": "MultiPolygon", "coordinates": [[[[71.9283172, 34.49592979], [71.92835137, 34.49596648], [71.92840132, 34.49593488], [71.92836714, 34.49589819], [71.9283172, 34.49592979]]]]}, "properties": {"id": "Pakistan_123102132_515211", "height": 3.510663747787476, "hmax": 0.017, "ratio": 0.005, "vulnClass": "none"}}, {"type": "Feature", "geometry": {"type": "MultiPolygon", "coordinates": [[[[71.92829965, 34.49586495], [71.9283253, 34.49591038], [71.92835707, 34.49589819], [71.92833142, 34.49585276], [71.92829965, 34.49586495]]]]}, "properties": {"id": "Pakistan_123102132_16314", "height": 3.510663747787476, "hmax": 0.017, "ratio": 0.005, "vulnClass": "none"}}, {"type": "Feature", "geometry": {"type": "MultiPolygon", "coordinates": [[[[71.92826808, 34.49597427], [71.9283375, 34.49603726], [71.92838453, 34.49600206], [71.92835383, 34.49597419], [71.92835383, 34.49597419], [71.92831512, 34.49593906], [71.92826808, 34.49597427]]]]}, "properties": {"id": "Pakistan_123102132_367261", "height": 2.7281813621521, "hmax": 0.017, "ratio": 0.006, "vulnClass": "none"}}, {"type": "Feature", "geometry": {"type": "MultiPolygon", "coordinates": [[[[71.92860798, 34.49584805], [71.92855119, 34.49575022], [71.92849007, 34.49577433], [71.92855208, 34.49588114], [71.92848006, 34.49590955], [71.92849846, 34.49594124], [71.92864032, 34.49588529], [71.92863968, 34.49588418], [71.9286999, 34.49586044], [71.92867692, 34.49582087], [71.92860798, 34.49584805]]]]}, "properties": {"id": "Pakistan_123102132_278157", "height": 3.263201713562012, "hmax": 0.017, "ratio": 0.005, "vulnClass": "none"}}, {"type": "Feature", "geometry": {"type": "MultiPolygon", "coordinates": [[[[71.92809273, 34.49544198], [71.92815774, 34.49556885], [71.92835123, 34.49550152], [71.92831314, 34.49542718], [71.92830631, 34.49542956], [71.9282794, 34.49537703], [71.92809273, 34.49544198]]]]}, "properties": {"id": "Pakistan_123102132_130126", "height": 2.837892532348633, "hmax": 0.018, "ratio": 0.006, "vulnClass": "none"}}, {"type": "Feature", "geometry": {"type": "MultiPolygon", "coordinates": [[[[71.92843279, 34.49531947], [71.92841173, 34.49527812], [71.92831692, 34.49531091], [71.92833797, 34.49535226], [71.92843279, 34.49531947]]]]}, "properties": {"id": "Pakistan_123102132_345836", "height": 3.696133852005005, "hmax": 0.018, "ratio": 0.005, "vulnClass": "none"}}, {"type": "Feature", "geometry": {"type": "MultiPolygon", "coordinates": [[[[71.92843483, 34.49531594], [71.92839934, 34.49533686], [71.92846152, 34.49540853], [71.92849702, 34.49538761], [71.92843483, 34.49531594]]]]}, "properties": {"id": "Pakistan_123102132_238004", "height": 3.696133852005005, "hmax": 0.018, "ratio": 0.005, "vulnClass": "none"}}, {"type": "Feature", "geometry": {"type": "MultiPolygon", "coordinates": [[[[71.92875117, 34.495236], [71.92868836, 34.49526432], [71.92871886, 34.49531025], [71.92878166, 34.49528193], [71.92875117, 34.495236]]]]}, "properties": {"id": "Pakistan_123102132_487636", "height": 3.861321449279785, "hmax": 0.018, "ratio": 0.005, "vulnClass": "none"}}, {"type": "Feature", "geometry": {"type": "MultiPolygon", "coordinates": [[[[71.92881787, 34.49517039], [71.92886042, 34.49517978], [71.9288698, 34.4951509], [71.92882726, 34.49514151], [71.92881787, 34.49517039]]]]}, "properties": {"id": "Pakistan_123102132_25505", "height": 2.999122858047485, "hmax": 0.018, "ratio": 0.006, "vulnClass": "none"}}, {"type": "Feature", "geometry": {"type": "MultiPolygon", "coordinates": [[[[71.92878188, 34.49510266], [71.9287126, 34.49514186], [71.92874013, 34.49517491], [71.92880941, 34.49513572], [71.92878188, 34.49510266]]]]}, "properties": {"id": "Pakistan_123102132_133245", "height": 3.560678958892822, "hmax": 0.018, "ratio": 0.005, "vulnClass": "none"}}, {"type": "Feature", "geometry": {"type": "MultiPolygon", "coordinates": [[[[71.9289573, 34.4946514], [71.9288554, 34.49465018], [71.92885439, 34.49470764], [71.92895629, 34.49470886], [71.9289573, 34.4946514]]]]}, "properties": {"id": "Pakistan_123102132_10136", "height": 3.052846431732178, "hmax": 0.015, "ratio": 0.005, "vulnClass": "none"}}, {"type": "Feature", "geometry": {"type": "MultiPolygon", "coordinates": [[[[71.92907498, 34.49437033], [71.92901671, 34.49436153], [71.9290013, 34.49443082], [71.92905957, 34.49443962], [71.92907498, 34.49437033]]]]}, "properties": {"id": "Pakistan_123102132_533565", "height": 2.930600166320801, "hmax": 0.005, "ratio": 0.002, "vulnClass": "none"}}, {"type": "Feature", "geometry": {"type": "MultiPolygon", "coordinates": [[[[71.9281993, 34.49432483], [71.92813237, 34.49428578], [71.92809569, 34.49432849], [71.92825651, 34.49442231], [71.92833746, 34.49432806], [71.92824358, 34.49427329], [71.9281993, 34.49432483]]]]}, "properties": {"id": "Pakistan_123102132_603888", "height": 3.061815977096558, "hmax": 0.016, "ratio": 0.005, "vulnClass": "none"}}, {"type": "Feature", "geometry": {"type": "MultiPolygon", "coordinates": [[[[71.92791666, 34.4943229], [71.92800939, 34.49441232], [71.92812874, 34.49432825], [71.92805936, 34.49426135], [71.92802836, 34.49428319], [71.92800501, 34.49426067], [71.92791666, 34.4943229]]]]}, "properties": {"id": "Pakistan_123102132_195052", "height": 3.165554046630859, "hmax": 0.016, "ratio": 0.005, "vulnClass": "none"}}, {"type": "Feature", "geometry": {"type": "MultiPolygon", "coordinates": [[[[71.92790867, 34.49476076], [71.92789429, 34.49476485], [71.92791499, 34.49481422], [71.92795812, 34.49480194], [71.92798544, 34.49486711], [71.92801419, 34.49485893], [71.9279281, 34.49465354], [71.92787059, 34.49466991], [71.92790867, 34.49476076]]]]}, "properties": {"id": "Pakistan_123102132_548750", "height": 2.739314317703247, "hmax": 0.018, "ratio": 0.007, "vulnClass": "none"}}, {"type": "Feature", "geometry": {"type": "MultiPolygon", "coordinates": [[[[71.92868682, 34.49500758], [71.92863123, 34.49498446], [71.92860102, 34.4950338], [71.92865661, 34.49505692], [71.92868682, 34.49500758]]]]}, "properties": {"id": "Pakistan_123102132_176525", "height": 2.807957410812378, "hmax": 0.018, "ratio": 0.006, "vulnClass": "none"}}, {"type": "Feature", "geometry": {"type": "MultiPolygon", "coordinates": [[[[71.92759709, 34.49510533], [71.9276253, 34.4952084], [71.92778354, 34.49517898], [71.927768, 34.49512219], [71.92780118, 34.49511602], [71.92778851, 34.49506974], [71.92759709, 34.49510533]]]]}, "properties": {"id": "Pakistan_123102132_201208", "height": 2.944843053817749, "hmax": 0.034, "ratio": 0.011, "vulnClass": "none"}}, {"type": "Feature", "geometry": {"type": "MultiPolygon", "coordinates": [[[[71.92765345, 34.49485482], [71.92759066, 34.49487773], [71.92765817, 34.49500342], [71.92772096, 34.49498051], [71.92765345, 34.49485482]]]]}, "properties": {"id": "Pakistan_123102132_216592", "height": 5.790273666381836, "hmax": 0.034, "ratio": 0.006, "vulnClass": "none"}}, {"type": "Feature", "geometry": {"type": "MultiPolygon", "coordinates": [[[[71.92774158, 34.49442131], [71.92768136, 34.49438001], [71.92757765, 34.49448272], [71.92763787, 34.49452402], [71.92774158, 34.49442131]]]]}, "properties": {"id": "Pakistan_123102132_395155", "height": 2.884507417678833, "hmax": 0.035, "ratio": 0.012, "vulnClass": "none"}}, {"type": "Feature", "geometry": {"type": "MultiPolygon", "coordinates": [[[[71.92778219, 34.49536766], [71.92777689, 34.49532835], [71.92764177, 34.49534074], [71.92766239, 34.49549359], [71.92771803, 34.49548849], [71.92770271, 34.49537494], [71.92778219, 34.49536766]]]]}, "properties": {"id": "Pakistan_123102132_53147", "height": 2.533807277679443, "hmax": 0.034, "ratio": 0.013, "vulnClass": "none"}}, {"type": "Feature", "geometry": {"type": "MultiPolygon", "coordinates": [[[[71.92763883, 34.49550297], [71.92760349, 34.4955138], [71.92762453, 34.49556041], [71.92765987, 34.49554957], [71.92763883, 34.49550297]]]]}, "properties": {"id": "Pakistan_123102132_105230", "height": 3.426579236984253, "hmax": 0.034, "ratio": 0.01, "vulnClass": "none"}}, {"type": "Feature", "geometry": {"type": "MultiPolygon", "coordinates": [[[[71.92868048, 34.49404825], [71.92857591, 34.49407768], [71.92854114, 34.49399377], [71.92846668, 34.49401473], [71.92848554, 34.49406027], [71.92852397, 34.49404945], [71.9285735, 34.494169], [71.92865277, 34.49414669], [71.92866066, 34.49416572], [71.928722, 34.49414845], [71.92868048, 34.49404825]]]]}, "properties": {"id": "Pakistan_123102132_351961", "height": 3.743574619293213, "hmax": 0.016, "ratio": 0.004, "vulnClass": "none"}}, {"type": "Feature", "geometry": {"type": "MultiPolygon", "coordinates": [[[[71.92886243, 34.494119], [71.92884148, 34.49408308], [71.92875868, 34.49411587], [71.92877962, 34.49415179], [71.92886243, 34.494119]]]]}, "properties": {"id": "Pakistan_123102132_447577", "height": 4.13281774520874, "hmax": 0.016, "ratio": 0.004, "vulnClass": "none"}}, {"type": "Feature", "geometry": {"type": "MultiPolygon", "coordinates": [[[[71.92966553, 34.49446777], [71.92970909, 34.49439331], [71.92975144, 34.49437592], [71.92983959, 34.49422524], [71.92980734, 34.49421242], [71.92984743, 34.49419597], [71.92987972, 34.49414078], [71.92985387, 34.49413051], [71.92982103, 34.49414399], [71.92978486, 34.49412962], [71.92973372, 34.49404497], [71.92971437, 34.49405291], [71.9297443, 34.49410245], [71.92971785, 34.49409194], [71.92970003, 34.4941224], [71.92970611, 34.49413246], [71.92968244, 34.49417293], [71.92964587, 34.4941584], [71.92961029, 34.494173], [71.92956869, 34.49415647], [71.92949943, 34.49427485], [71.92943097, 34.49424765], [71.92940641, 34.49428964], [71.92944875, 34.49430646], [71.92943443, 34.49433095], [71.92945079, 34.49435801], [71.92941296, 34.49442267], [71.92953366, 34.49447063], [71.92954262, 34.49446696], [71.92956542, 34.49442798], [71.92966553, 34.49446777]]]]}, "properties": {"id": "Pakistan_123102132_348891", "height": 2.908636331558228, "hmax": 0.005, "ratio": 0.002, "vulnClass": "none"}}, {"type": "Feature", "geometry": {"type": "MultiPolygon", "coordinates": [[[[71.92835387, 34.49264374], [71.92838023, 34.49288496], [71.92860638, 34.49286817], [71.92858745, 34.49269493], [71.928787, 34.49268011], [71.92877957, 34.49261214], [71.92835387, 34.49264374]]]]}, "properties": {"id": "Pakistan_123102132_164007", "height": 2.607897043228149, "hmax": 0.012, "ratio": 0.005, "vulnClass": "none"}}, {"type": "Feature", "geometry": {"type": "MultiPolygon", "coordinates": [[[[71.93221578, 34.49226947], [71.93216836, 34.49236909], [71.93221837, 34.49238526], [71.93226581, 34.49228565], [71.93221578, 34.49226947]]]]}, "properties": {"id": "Pakistan_123102132_463006", "height": 3.54872465133667, "hmax": 0.003, "ratio": 0.001, "vulnClass": "none"}}, {"type": "Feature", "geometry": {"type": "MultiPolygon", "coordinates": [[[[71.93223781, 34.49285829], [71.93232983, 34.49286906], [71.93235616, 34.49271626], [71.93226413, 34.49270548], [71.93223781, 34.49285829]]]]}, "properties": {"id": "Pakistan_123102132_86817", "height": 2.503565311431885, "hmax": 0.006, "ratio": 0.002, "vulnClass": "none"}}, {"type": "Feature", "geometry": {"type": "MultiPolygon", "coordinates": [[[[71.92980886, 34.49440256], [71.92986328, 34.49443515], [71.92989134, 34.49440332], [71.92983692, 34.49437073], [71.92980886, 34.49440256]]]]}, "properties": {"id": "Pakistan_123102132_563947", "height": 3.060444593429565, "hmax": 0.005, "ratio": 0.002, "vulnClass": "none"}}, {"type": "Feature", "geometry": {"type": "MultiPolygon", "coordinates": [[[[71.93108699, 34.4952485], [71.93109508, 34.4950874], [71.93103081, 34.49508521], [71.93102273, 34.49524631], [71.93108699, 34.4952485]]]]}, "properties": {"id": "Pakistan_123102132_490731", "height": 3.783822536468506, "hmax": 0.007, "ratio": 0.002, "vulnClass": "none"}}, {"type": "Feature", "geometry": {"type": "MultiPolygon", "coordinates": [[[[71.92982965, 34.49593488], [71.92980503, 34.49614737], [71.92994325, 34.49615825], [71.92996786, 34.49594576], [71.92982965, 34.49593488]]]]}, "properties": {"id": "Pakistan_123102132_342760", "height": 3.256534337997437, "hmax": 0.033, "ratio": 0.01, "vulnClass": "none"}}, {"type": "Feature", "geometry": {"type": "MultiPolygon", "coordinates": [[[[71.93015735, 34.49605718], [71.9303384, 34.49607941], [71.93034544, 34.49604048], [71.93029033, 34.49603372], [71.93030089, 34.49597532], [71.93021429, 34.4959647], [71.9302053, 34.49601444], [71.93016594, 34.4960096], [71.93015735, 34.49605718]]]]}, "properties": {"id": "Pakistan_123102132_413648", "height": 2.444676160812378, "hmax": 0.006, "ratio": 0.003, "vulnClass": "none"}}, {"type": "Feature", "geometry": {"type": "MultiPolygon", "coordinates": [[[[71.93039636, 34.49597193], [71.93032753, 34.49594972], [71.93030295, 34.49600148], [71.93037179, 34.49602369], [71.93039636, 34.49597193]]]]}, "properties": {"id": "Pakistan_123102132_435317", "height": 2.444676160812378, "hmax": 0.006, "ratio": 0.003, "vulnClass": "none"}}, {"type": "Feature", "geometry": {"type": "MultiPolygon", "coordinates": [[[[71.93127731, 34.49592116], [71.93135015, 34.495975], [71.93139948, 34.49592967], [71.93132664, 34.49587583], [71.93127731, 34.49592116]]]]}, "properties": {"id": "Pakistan_123102132_493787", "height": 3.785149812698364, "hmax": 0.011, "ratio": 0.003, "vulnClass": "none"}}, {"type": "Feature", "geometry": {"type": "MultiPolygon", "coordinates": [[[[71.93168752, 34.49603656], [71.93173434, 34.49603311], [71.93173053, 34.49599802], [71.93160547, 34.49600725], [71.93161237, 34.49607084], [71.93169061, 34.49606507], [71.93168752, 34.49603656]]]]}, "properties": {"id": "Pakistan_123102132_459945", "height": 2.55251932144165, "hmax": 0.011, "ratio": 0.004, "vulnClass": "none"}}, {"type": "Feature", "geometry": {"type": "MultiPolygon", "coordinates": [[[[71.93181583, 34.49435349], [71.93201061, 34.49448039], [71.93215154, 34.49433346], [71.93195676, 34.49420656], [71.93181583, 34.49435349]]]]}, "properties": {"id": "Pakistan_123102132_475284", "height": 4.171815872192383, "hmax": 0.009, "ratio": 0.002, "vulnClass": "none"}}, {"type": "Feature", "geometry": {"type": "MultiPolygon", "coordinates": [[[[71.93219364, 34.49211911], [71.93216254, 34.49215707], [71.93227588, 34.49222015], [71.93233559, 34.49214727], [71.93218454, 34.4920632], [71.93215592, 34.49209812], [71.93219364, 34.49211911]]]]}, "properties": {"id": "Pakistan_123102132_154763", "height": 3.625711679458618, "hmax": 0.004, "ratio": 0.001, "vulnClass": "none"}}]}