{"type": "FeatureCollection", "features": [{"type": "Feature", "geometry": {"type": "MultiPolygon", "coordinates": [[[[72.13451153, 34.13170426], [72.13446404, 34.13170253], [72.13446037, 34.13177221], [72.13450786, 34.13177394], [72.13451153, 34.13170426]]]]}, "properties": {"id": "8J6J44JM+MQXG", "height": 2.779294967651367, "hmax": 0.026, "ratio": 0.009, "vulnClass": "none"}}, {"type": "Feature", "geometry": {"type": "MultiPolygon", "coordinates": [[[[72.1365328, 34.13092266], [72.13650111, 34.13083125], [72.13645688, 34.13084185], [72.13647603, 34.13089708], [72.13631219, 34.13093636], [72.13632473, 34.13097254], [72.1365328, 34.13092266]]]]}, "properties": {"id": "8J6J44JP+9H8C", "height": 2.699548721313477, "hmax": 0.015, "ratio": 0.006, "vulnClass": "none"}}, {"type": "Feature", "geometry": {"type": "MultiPolygon", "coordinates": [[[[72.13393629, 34.13013878], [72.13385669, 34.13013239], [72.13385211, 34.1301718], [72.13389636, 34.13017535], [72.13389864, 34.13015569], [72.133934, 34.13015853], [72.13393629, 34.13013878]]]]}, "properties": {"id": "8J6J44JM+3H63", "height": 4.300816059112549, "hmax": 0.031, "ratio": 0.007, "vulnClass": "none"}}, {"type": "Feature", "geometry": {"type": "MultiPolygon", "coordinates": [[[[72.13399111, 34.13014319], [72.13393629, 34.13013878], [72.13393171, 34.13017819], [72.13398653, 34.1301826], [72.13399111, 34.13014319]]]]}, "properties": {"id": "8J6J44JM+3H8H", "height": 4.300816059112549, "hmax": 0.031, "ratio": 0.007, "vulnClass": "none"}}, {"type": "Feature", "geometry": {"type": "MultiPolygon", "coordinates": [[[[72.13536456, 34.12961696], [72.13526465, 34.12961027], [72.13526088, 34.12964919], [72.13536079, 34.12965588], [72.13536456, 34.12961696]]]]}, "properties": {"id": "8J6J44HP+V446", "height": 2.598322629928589, "hmax": 0.013, "ratio": 0.005, "vulnClass": "none"}}, {"type": "Feature", "geometry": {"type": "MultiPolygon", "coordinates": [[[[72.13726368, 34.12922984], [72.13716976, 34.12923357], [72.13717703, 34.12935998], [72.13727095, 34.12935625], [72.13726368, 34.12922984]]]]}, "properties": {"id": "8J6J44HP+PV9J", "height": 3.011021375656128, "hmax": 0.021, "ratio": 0.007, "vulnClass": "none"}}, {"type": "Feature", "geometry": {"type": "MultiPolygon", "coordinates": [[[[72.13733214, 34.12933891], [72.13725922, 34.12934062], [72.1372609, 34.12939035], [72.13733382, 34.12938865], [72.13733214, 34.12933891]]]]}, "properties": {"id": "8J6J44HP+PWVF", "height": 3.239329099655151, "hmax": 0.021, "ratio": 0.007, "vulnClass": "none"}}, {"type": "Feature", "geometry": {"type": "MultiPolygon", "coordinates": [[[[72.13737726, 34.12933786], [72.13733214, 34.12933891], [72.13733382, 34.12938865], [72.13737894, 34.12938759], [72.13737726, 34.12933786]]]]}, "properties": {"id": "8J6J44HP+PWXF", "height": 3.239329099655151, "hmax": 0.029, "ratio": 0.009, "vulnClass": "none"}}, {"type": "Feature", "geometry": {"type": "MultiPolygon", "coordinates": [[[[72.13743163, 34.12929857], [72.13733086, 34.12930092], [72.13733214, 34.12933891], [72.13743292, 34.12933656], [72.13743163, 34.12929857]]]]}, "properties": {"id": "8J6J44HP+PXCJ", "height": 3.241197347640991, "hmax": 0.029, "ratio": 0.009, "vulnClass": "none"}}, {"type": "Feature", "geometry": {"type": "MultiPolygon", "coordinates": [[[[72.13757123, 34.12965009], [72.13750419, 34.12964853], [72.13750291, 34.12968645], [72.13756995, 34.12968802], [72.13757123, 34.12965009]]]]}, "properties": {"id": "8J6J44HQ+V27J", "height": 3.050887107849121, "hmax": 0.031, "ratio": 0.01, "vulnClass": "none"}}, {"type": "Feature", "geometry": {"type": "MultiPolygon", "coordinates": [[[[72.13730097, 34.13008994], [72.13715971, 34.13005879], [72.13713821, 34.13012619], [72.1372797, 34.13015663], [72.13730097, 34.13008994]]]]}, "properties": {"id": "8J6J44JP+2VX6", "height": 2.875815868377686, "hmax": 0.02, "ratio": 0.007, "vulnClass": "none"}}, {"type": "Feature", "geometry": {"type": "MultiPolygon", "coordinates": [[[[72.13740756, 34.13003772], [72.13733266, 34.13003057], [72.13731589, 34.13015191], [72.13739079, 34.13015907], [72.13740756, 34.13003772]]]]}, "properties": {"id": "8J6J44JP+2WQP", "height": 3.087735891342163, "hmax": 0.031, "ratio": 0.01, "vulnClass": "none"}}, {"type": "Feature", "geometry": {"type": "MultiPolygon", "coordinates": [[[[72.13713445, 34.1285142], [72.1369864, 34.12850433], [72.13698255, 34.12854425], [72.1371306, 34.12855413], [72.13713445, 34.1285142]]]]}, "properties": {"id": "8J6J44HP+CR75", "height": 2.810781478881836, "hmax": 0.021, "ratio": 0.007, "vulnClass": "none"}}, {"type": "Feature", "geometry": {"type": "MultiPolygon", "coordinates": [[[[72.13623419, 34.12773003], [72.13613191, 34.12772322], [72.1361123, 34.12792668], [72.13621458, 34.12793349], [72.13623419, 34.12773003]]]]}, "properties": {"id": "8J6J44HP+4FM4", "height": 3.040224313735962, "hmax": 0.017, "ratio": 0.006, "vulnClass": "none"}}, {"type": "Feature", "geometry": {"type": "MultiPolygon", "coordinates": [[[[72.13621797, 34.12870208], [72.13615357, 34.1286988], [72.1361434, 34.12883691], [72.1362078, 34.12884019], [72.13621797, 34.12870208]]]]}, "properties": {"id": "8J6J44HP+GF3Q", "height": 2.561869621276855, "hmax": 0.014, "ratio": 0.006, "vulnClass": "none"}}, {"type": "Feature", "geometry": {"type": "MultiPolygon", "coordinates": [[[[72.13509625, 34.12861862], [72.13509386, 34.12858724], [72.13504058, 34.12859003], [72.13504296, 34.12862142], [72.13509625, 34.12861862]]]]}, "properties": {"id": "8J6J44HP+C2W2", "height": 2.705663919448853, "hmax": 0.017, "ratio": 0.006, "vulnClass": "none"}}, {"type": "Feature", "geometry": {"type": "MultiPolygon", "coordinates": [[[[72.12853267, 34.12919269], [72.128487, 34.12918898], [72.12848078, 34.12924207], [72.12852644, 34.12924577], [72.12853267, 34.12919269]]]]}, "properties": {"id": "8J6J44HH+MCJJ", "height": 2.970760345458984, "hmax": 0.024, "ratio": 0.008, "vulnClass": "none"}}, {"type": "Feature", "geometry": {"type": "MultiPolygon", "coordinates": [[[[72.12852644, 34.12924577], [72.12848078, 34.12924207], [72.12847459, 34.12929481], [72.12852026, 34.12929852], [72.12852644, 34.12924577]]]]}, "properties": {"id": "8J6J44HH+PC2R", "height": 2.970760345458984, "hmax": 0.024, "ratio": 0.008, "vulnClass": "none"}}]}