{"type": "FeatureCollection", "features": [{"type": "Feature", "geometry": {"type": "MultiPolygon", "coordinates": [[[[72.45041132008971, 34.32477709291127], [72.45039591007642, 34.32471898467596], [72.45028326285895, 34.32473935621651], [72.45029867279636, 34.324797464462534], [72.45041132008971, 34.32477709291127]]]]}, "properties": {"id": "Pakistan_123102133_30609", "height": 2.813181638717651, "hmax": 0.0, "ratio": 0.0, "vulnClass": "none"}}, {"type": "Feature", "geometry": {"type": "MultiPolygon", "coordinates": [[[[72.45012977537348, 34.325631544840235], [72.45005743982615, 34.32563400444644], [72.45005972758074, 34.32568048021073], [72.45013206316811, 34.325678020605], [72.45012977537348, 34.325631544840235]]]]}, "properties": {"id": "Pakistan_123102133_319335", "height": 3.553877353668213, "hmax": 0.0, "ratio": 0.0, "vulnClass": "none"}}, {"type": "Feature", "geometry": {"type": "MultiPolygon", "coordinates": [[[[72.44935884649912, 34.32644857200153], [72.44936285734774, 34.32651708067134], [72.44947785326164, 34.326512535527215], [72.44947384231916, 34.32644402685695], [72.44935884649912, 34.32644857200153]]]]}, "properties": {"id": "Pakistan_123102133_249989", "height": 5.354031562805176, "hmax": 0.0, "ratio": 0.0, "vulnClass": "none"}}, {"type": "Feature", "geometry": {"type": "MultiPolygon", "coordinates": [[[[72.4525111268076, 34.326619884663984], [72.45262831754808, 34.326708058189574], [72.45268384561781, 34.32665773731171], [72.45256665488233, 34.326569563839215], [72.4525111268076, 34.326619884663984]]]]}, "properties": {"id": "Pakistan_123102133_196291", "height": 16.57774543762207, "hmax": 0.0, "ratio": 0.0, "vulnClass": "none"}}, {"type": "Feature", "geometry": {"type": "MultiPolygon", "coordinates": [[[[72.44977765048783, 34.32729886487027], [72.44970991975109, 34.32728915956736], [72.44969313276717, 34.327369856066234], [72.44976086629332, 34.32737947128637], [72.44977765048783, 34.32729886487027]]]]}, "properties": {"id": "Pakistan_123102133_146342", "height": 4.688555240631104, "hmax": 0.0, "ratio": 0.0, "vulnClass": "none"}}, {"type": "Feature", "geometry": {"type": "MultiPolygon", "coordinates": [[[[72.4453666089857, 34.326409840979494], [72.44525206076877, 34.32637454462532], [72.44521816158964, 34.32644965442772], [72.44533270989045, 34.326484950817175], [72.4453666089857, 34.326409840979494]]]]}, "properties": {"id": "Pakistan_123102133_186555", "height": 2.553940773010254, "hmax": 0.0, "ratio": 0.0, "vulnClass": "none"}}, {"type": "Feature", "geometry": {"type": "MultiPolygon", "coordinates": [[[[72.45018954468264, 34.33441166287503], [72.45014525485512, 34.33437413851218], [72.45009568664501, 34.33441403448046], [72.45013997919703, 34.33445146876628], [72.45018954468264, 34.33441166287503]]]]}, "properties": {"id": "Pakistan_123102133_84295", "height": 3.055765628814697, "hmax": 0.0, "ratio": 0.0, "vulnClass": "none"}}]}