{"type": "FeatureCollection", "features": [{"type": "Feature", "geometry": {"type": "MultiPolygon", "coordinates": [[[[72.02642119935362, 34.429697164450154], [72.02633745855462, 34.42966889613153], [72.02630791696414, 34.429728930703696], [72.02639176650052, 34.42975720169005], [72.02642119935362, 34.429697164450154]]]]}, "properties": {"id": "8J6JC2HG+VGQG", "height": 2.790287017822266, "hmax": 0.0, "ratio": 0.0, "vulnClass": "none"}}, {"type": "Feature", "geometry": {"type": "MultiPolygon", "coordinates": [[[[72.0260977389044, 34.42966161970582], [72.0260543868928, 34.42964785500777], [72.02592716776034, 34.42992238587919], [72.0261003557814, 34.42997752955724], [72.0261335669827, 34.4299060465969], [72.02600361929335, 34.42986475512318], [72.0260977389044, 34.42966161970582]]]]}, "properties": {"id": "8J6JC2HG+WCJX", "height": 2.454532623291016, "hmax": 0.0, "ratio": 0.0, "vulnClass": "none"}}, {"type": "Feature", "geometry": {"type": "MultiPolygon", "coordinates": [[[[72.02591697372057, 34.42964532168645], [72.02582683002697, 34.429616626759554], [72.0257589753181, 34.429763163183715], [72.0259247398757, 34.429815963072635], [72.02589093719727, 34.42988878365719], [72.0259361146892, 34.429903223819075], [72.02601256769917, 34.42973814771206], [72.02589176641573, 34.42969969276735], [72.02591697372057, 34.42964532168645]]]]}, "properties": {"id": "8J6JC2HG+V9RV", "height": 2.858442068099976, "hmax": 0.0, "ratio": 0.0, "vulnClass": "none"}}, {"type": "Feature", "geometry": {"type": "MultiPolygon", "coordinates": [[[[72.024192924213, 34.42827253828576], [72.0242694345139, 34.42815803250448], [72.0241863703081, 34.4281199541229], [72.02410985993633, 34.42823445984864], [72.024192924213, 34.42827253828576]]]]}, "properties": {"id": "8J6JC2HF+7MGR", "height": 4.449461936950684, "hmax": 0.0, "ratio": 0.0, "vulnClass": "none"}}, {"type": "Feature", "geometry": {"type": "MultiPolygon", "coordinates": [[[[72.023719425281, 34.42800492186147], [72.02368041254849, 34.427994597176244], [72.02366232331795, 34.42804147937271], [72.02370133287424, 34.428051894125545], [72.023719425281, 34.42800492186147]]]]}, "properties": {"id": "8J6JC2HF+6F4R", "height": 3.848157167434692, "hmax": 0.0, "ratio": 0.0, "vulnClass": "none"}}, {"type": "Feature", "geometry": {"type": "MultiPolygon", "coordinates": [[[[72.02401098186297, 34.428068720363825], [72.02393091640948, 34.42803197679027], [72.02388841124666, 34.4280955709804], [72.02396858862078, 34.428132227169954], [72.02401098186297, 34.428068720363825]]]]}, "properties": {"id": "8J6JC2HF+6HP7", "height": 2.722358703613281, "hmax": 0.0, "ratio": 0.0, "vulnClass": "none"}}, {"type": "Feature", "geometry": {"type": "MultiPolygon", "coordinates": [[[[72.02384795835124, 34.42831290161408], [72.02364168872694, 34.42821836969412], [72.02359193969838, 34.4282929645195], [72.02379810074905, 34.42838749388183], [72.02384795835124, 34.42831290161408]]]]}, "properties": {"id": "8J6JC2HF+8FH2", "height": 2.984805583953857, "hmax": 0.0, "ratio": 0.0, "vulnClass": "none"}}, {"type": "Feature", "geometry": {"type": "MultiPolygon", "coordinates": [[[[72.02404258630455, 34.42841976908159], [72.02414555195264, 34.4282648044583], [72.02409887945458, 34.42824347671104], [72.02399591055769, 34.42839853135321], [72.02404258630455, 34.42841976908159]]]]}, "properties": {"id": "8J6JC2HF+8JP7", "height": 2.608696937561035, "hmax": 0.0, "ratio": 0.0, "vulnClass": "none"}}, {"type": "Feature", "geometry": {"type": "MultiPolygon", "coordinates": [[[[72.0242611415988, 34.42850225054136], [72.02405230081897, 34.42840657501253], [72.02402726180037, 34.428443913577446], [72.02405284540748, 34.428455623728034], [72.02404376704476, 34.428469283983915], [72.02422702109975, 34.428553339483294], [72.0242611415988, 34.42850225054136]]]]}, "properties": {"id": "8J6JC2HF+9MR8", "height": 2.804988384246826, "hmax": 0.0, "ratio": 0.0, "vulnClass": "none"}}, {"type": "Feature", "geometry": {"type": "MultiPolygon", "coordinates": [[[[72.02441285884979, 34.428650437608546], [72.02434718773537, 34.4286218868894], [72.02432736886554, 34.428653133070505], [72.0243930368018, 34.42868177386202], [72.02441285884979, 34.428650437608546]]]]}, "properties": {"id": "8J6JC2HF+FP95", "height": 2.769260406494141, "hmax": 0.0, "ratio": 0.0, "vulnClass": "none"}}, {"type": "Feature", "geometry": {"type": "MultiPolygon", "coordinates": [[[[72.02439218965124, 34.42868112226104], [72.02433060077958, 34.42865402302492], [72.02430975578046, 34.42868659629411], [72.02437134466773, 34.42871369554151], [72.02439218965124, 34.42868112226104]]]]}, "properties": {"id": "8J6JC2HF+FPH6", "height": 2.769260406494141, "hmax": 0.0, "ratio": 0.0, "vulnClass": "none"}}, {"type": "Feature", "geometry": {"type": "MultiPolygon", "coordinates": [[[[72.02417472162664, 34.42863850880657], [72.02413627122307, 34.42863072183694], [72.02412589868707, 34.42866553317388], [72.02416434910516, 34.42867332014752], [72.02417472162664, 34.42863850880657]]]]}, "properties": {"id": "8J6JC2HF+FM65", "height": 2.597920656204224, "hmax": 0.0, "ratio": 0.0, "vulnClass": "none"}}, {"type": "Feature", "geometry": {"type": "MultiPolygon", "coordinates": [[[[72.0243268011398, 34.42894516864193], [72.02425728091612, 34.42891472135886], [72.02421155657501, 34.42898625959535], [72.02436634128978, 34.429054117717136], [72.02442945825638, 34.42895533038585], [72.02434419386975, 34.4289179196224], [72.0243268011398, 34.42894516864193]]]]}, "properties": {"id": "8J6JC2HF+HPW3", "height": 3.0230393409729, "hmax": 0.0, "ratio": 0.0, "vulnClass": "none"}}, {"type": "Feature", "geometry": {"type": "MultiPolygon", "coordinates": [[[[72.02312815955914, 34.42897167806956], [72.02301439368811, 34.428931228409226], [72.02297912480385, 34.42899932520133], [72.0231182409901, 34.42904886553877], [72.02316436884556, 34.42895985066904], [72.02313890673652, 34.42895084745178], [72.02312815955914, 34.42897167806956]]]]}, "properties": {"id": "8J6JC2HF+H6WF", "height": 2.53988242149353, "hmax": 0.0, "ratio": 0.0, "vulnClass": "none"}}, {"type": "Feature", "geometry": {"type": "MultiPolygon", "coordinates": [[[[72.02282950803067, 34.42826781017215], [72.0227785556742, 34.42826593773963], [72.02279464182806, 34.428303106257985], [72.022839053604, 34.42829003658323], [72.02282950803067, 34.42826781017215]]]]}, "properties": {"id": "8J6JC2HF+8479", "height": 2.652372121810913, "hmax": 0.0, "ratio": 0.0, "vulnClass": "none"}}, {"type": "Feature", "geometry": {"type": "MultiPolygon", "coordinates": [[[[72.02364820837478, 34.42990502320148], [72.02351932655023, 34.429858256616534], [72.02348620896342, 34.429920907495024], [72.02361519955093, 34.429967676766154], [72.02364820837478, 34.42990502320148]]]]}, "properties": {"id": "8J6JC2HF+XC8C", "height": 3.19115424156189, "hmax": 0.0, "ratio": 0.0, "vulnClass": "none"}}, {"type": "Feature", "geometry": {"type": "MultiPolygon", "coordinates": [[[[72.02601125039224, 34.430226397204216], [72.02578685654194, 34.43018875583817], [72.02576878502899, 34.43026277054343], [72.02584989139551, 34.430276372663094], [72.02583817403101, 34.43032458208962], [72.0259814617768, 34.4303486213964], [72.02601125039224, 34.430226397204216]]]]}, "properties": {"id": "8J6JC2JG+492G", "height": 2.745407819747925, "hmax": 0.0, "ratio": 0.0, "vulnClass": "none"}}, {"type": "Feature", "geometry": {"type": "MultiPolygon", "coordinates": [[[[72.02650397970646, 34.43013310692955], [72.02631039958912, 34.43009468403024], [72.02628917971478, 34.4301685320663], [72.02648265448907, 34.43020686230106], [72.02650397970646, 34.43013310692955]]]]}, "properties": {"id": "8J6JC2JG+3H64", "height": 2.667347192764282, "hmax": 0.0, "ratio": 0.0, "vulnClass": "none"}}, {"type": "Feature", "geometry": {"type": "MultiPolygon", "coordinates": [[[[72.02616349573468, 34.430120493973185], [72.02606091073358, 34.43011745636216], [72.02605891475784, 34.4301614856257], [72.02616149981252, 34.43016452324118], [72.02616349573468, 34.430120493973185]]]]}, "properties": {"id": "8J6JC2JG+3C5P", "height": 2.456000804901123, "hmax": 0.0, "ratio": 0.0, "vulnClass": "none"}}, {"type": "Feature", "geometry": {"type": "MultiPolygon", "coordinates": [[[[72.02628785384032, 34.42985607889813], [72.026286614746, 34.42988182842448], [72.02636398007807, 34.42988434222096], [72.02636511045823, 34.429858590047445], [72.02628785384032, 34.42985607889813]]]]}, "properties": {"id": "8J6JC2HG+WGWV", "height": 3.55695629119873, "hmax": 0.0, "ratio": 0.0, "vulnClass": "none"}}, {"type": "Feature", "geometry": {"type": "MultiPolygon", "coordinates": [[[[72.02698813871613, 34.42978126838972], [72.0268481509051, 34.42976235835049], [72.02682266698756, 34.42989207891608], [72.02696265819677, 34.42991089893401], [72.02698813871613, 34.42978126838972]]]]}, "properties": {"id": "8J6JC2HG+WQJH", "height": 2.4788498878479, "hmax": 0.0, "ratio": 0.0, "vulnClass": "none"}}, {"type": "Feature", "geometry": {"type": "MultiPolygon", "coordinates": [[[[72.02996428923582, 34.43836473279628], [72.029899270421, 34.43833593028212], [72.02986864612525, 34.4383835001712], [72.029933664964, 34.43841230270285], [72.02996428923582, 34.43836473279628]]]]}, "properties": {"id": "8J6JC2QH+8XVV", "height": 4.513433933258057, "hmax": 0.0, "ratio": 0.0, "vulnClass": "none"}}]}