{"type": "FeatureCollection", "features": [{"type": "Feature", "geometry": {"type": "MultiPolygon", "coordinates": [[[[72.23595924724837, 34.0664186601517], [72.23592479639343, 34.06641545076078], [72.23591083073745, 34.06651853717113], [72.23595586322973, 34.06652279606308], [72.23595373898607, 34.0665381637074], [72.23597490803873, 34.066540082529556], [72.23598685763264, 34.06645236619022], [72.23601331892355, 34.066454764708986], [72.23601843053896, 34.0664174679763], [72.23596011040952, 34.0664120987121], [72.23595924724837, 34.0664186601517]]]]}, "properties": {"id": "Pakistan_123102310_864741", "height": 3.657539129257202, "hmax": 0.0, "ratio": 0.0, "vulnClass": "none"}}, {"type": "Feature", "geometry": {"type": "MultiPolygon", "coordinates": [[[[72.24159764504284, 34.06601950169219], [72.24160416058206, 34.06596555862217], [72.24146609629805, 34.065954073722196], [72.2414595835946, 34.06600792669732], [72.24159764504284, 34.06601950169219]]]]}, "properties": {"id": "Pakistan_123102310_504408", "height": 3.053413152694702, "hmax": 0.0, "ratio": 0.0, "vulnClass": "none"}}, {"type": "Feature", "geometry": {"type": "MultiPolygon", "coordinates": [[[[72.23806749735625, 34.065669535473084], [72.2382324544773, 34.06567008987713], [72.23823263550845, 34.06562114308087], [72.23807168348682, 34.065620678750314], [72.2380716806145, 34.06563077536503], [72.23800333517046, 34.06563059055953], [72.23800301662992, 34.06570711982876], [72.23806735420193, 34.06570730465184], [72.23806749735625, 34.065669535473084]]]]}, "properties": {"id": "Pakistan_123102310_888458", "height": 2.859754085540771, "hmax": 0.0, "ratio": 0.0, "vulnClass": "none"}}]}