{"type": "FeatureCollection", "features": [{"type": "Feature", "geometry": {"type": "MultiPolygon", "coordinates": [[[[71.94257592, 34.18755813], [71.94241991, 34.18750366], [71.94238314, 34.18757641], [71.94253915, 34.18763087], [71.94257592, 34.18755813]]]]}, "properties": {"id": "8J6H5WQR+2XHM", "height": 5.625267028808594, "hmax": 0.039, "ratio": 0.007, "vulnClass": "none"}}, {"type": "Feature", "geometry": {"type": "MultiPolygon", "coordinates": [[[[71.94253821, 34.18769106], [71.94259502, 34.18758276], [71.94256027, 34.18757017], [71.94250346, 34.18767847], [71.94253821, 34.18769106]]]]}, "properties": {"id": "8J6H5WQV+3238", "height": 4.7471604347229, "hmax": 0.039, "ratio": 0.008, "vulnClass": "none"}}, {"type": "Feature", "geometry": {"type": "MultiPolygon", "coordinates": [[[[71.94232102, 34.1876263], [71.94229398, 34.18761686], [71.94227542, 34.18765358], [71.94230246, 34.18766302], [71.94232102, 34.1876263]]]]}, "properties": {"id": "8J6H5WQR+3W3G", "height": 3.79349946975708, "hmax": 0.044, "ratio": 0.012, "vulnClass": "none"}}, {"type": "Feature", "geometry": {"type": "MultiPolygon", "coordinates": [[[[71.94222189, 34.1876395], [71.94217921, 34.18762189], [71.94214048, 34.18768671], [71.94218317, 34.18770432], [71.94222189, 34.1876395]]]]}, "properties": {"id": "8J6H5WQR+3V7H", "height": 3.459039211273193, "hmax": 0.059, "ratio": 0.017, "vulnClass": "none"}}, {"type": "Feature", "geometry": {"type": "MultiPolygon", "coordinates": [[[[71.94215064, 34.1876495], [71.94208875, 34.18764169], [71.94208345, 34.1876707], [71.94214534, 34.18767851], [71.94215064, 34.1876495]]]]}, "properties": {"id": "8J6H5WQR+3R9G", "height": 3.35362982749939, "hmax": 0.059, "ratio": 0.018, "vulnClass": "none"}}, {"type": "Feature", "geometry": {"type": "MultiPolygon", "coordinates": [[[[71.94176479, 34.18765039], [71.9417115, 34.18764055], [71.94170178, 34.18767693], [71.94175507, 34.18768677], [71.94176479, 34.18765039]]]]}, "properties": {"id": "8J6H5WQR+3M9F", "height": 4.884217262268066, "hmax": 0.059, "ratio": 0.012, "vulnClass": "none"}}, {"type": "Feature", "geometry": {"type": "MultiPolygon", "coordinates": [[[[71.941698, 34.18765001], [71.94165417, 34.18763434], [71.94163424, 34.18767283], [71.94167808, 34.1876885], [71.941698, 34.18765001]]]]}, "properties": {"id": "8J6H5WQR+3M7F", "height": 4.01715612411499, "hmax": 0.059, "ratio": 0.015, "vulnClass": "none"}}, {"type": "Feature", "geometry": {"type": "MultiPolygon", "coordinates": [[[[71.94144263, 34.18763069], [71.94139818, 34.18762148], [71.94138355, 34.18767025], [71.941428, 34.18767945], [71.94144263, 34.18763069]]]]}, "properties": {"id": "8J6H5WQR+3H72", "height": 16.221271514892578, "hmax": 0.059, "ratio": 0.004, "vulnClass": "none"}}, {"type": "Feature", "geometry": {"type": "MultiPolygon", "coordinates": [[[[71.94137522, 34.17401413], [71.94140331, 34.17377812], [71.94134875, 34.17377364], [71.94132066, 34.17400964], [71.94137522, 34.17401413]]]]}, "properties": {"id": "8J6H5WFR+HG5P", "height": 2.711762666702271, "hmax": 0.085, "ratio": 0.031, "vulnClass": "none"}}, {"type": "Feature", "geometry": {"type": "MultiPolygon", "coordinates": [[[[71.94026731, 34.17483824], [71.94018121, 34.17483099], [71.94015415, 34.17505296], [71.94024025, 34.17506021], [71.94026731, 34.17483824]]]]}, "properties": {"id": "8J6H5WFR+X3GW", "height": 12.818073272705078, "hmax": 0.104, "ratio": 0.008, "vulnClass": "none"}}, {"type": "Feature", "geometry": {"type": "MultiPolygon", "coordinates": [[[[71.94055541, 34.17486115], [71.94042015, 34.17485353], [71.94041693, 34.17489304], [71.94048435, 34.17489684], [71.94048253, 34.17491914], [71.94055036, 34.17492296], [71.94055541, 34.17486115]]]]}, "properties": {"id": "8J6H5WFR+X559", "height": 10.257217407226562, "hmax": 0.104, "ratio": 0.01, "vulnClass": "none"}}, {"type": "Feature", "geometry": {"type": "MultiPolygon", "coordinates": [[[[71.940235, 34.1750196], [71.9402313, 34.1750194], [71.9402123, 34.1752169], [71.9401842, 34.1754623], [71.9401887, 34.1754626], [71.9401886, 34.1754638], [71.9402836, 34.1754701], [71.9403041, 34.1752573], [71.9403309, 34.1750236], [71.9402354, 34.1750161], [71.940235, 34.1750196]]]]}, "properties": {"id": "8J6H5WGR+34RJ", "height": 18.665361404418945, "hmax": 0.036, "ratio": 0.002, "vulnClass": "none"}}, {"type": "Feature", "geometry": {"type": "MultiPolygon", "coordinates": [[[[71.94038985, 34.17520453], [71.94031986, 34.17519863], [71.94028871, 34.17545407], [71.94040545, 34.17546391], [71.94042009, 34.17534385], [71.94037334, 34.17533991], [71.94038985, 34.17520453]]]]}, "properties": {"id": "8J6H5WGR+44QR", "height": 14.903631210327148, "hmax": 0.027, "ratio": 0.002, "vulnClass": "none"}}, {"type": "Feature", "geometry": {"type": "MultiPolygon", "coordinates": [[[[71.94102515, 34.17573393], [71.94079235, 34.17563764], [71.94074799, 34.17571173], [71.94098079, 34.17580801], [71.94102515, 34.17573393]]]]}, "properties": {"id": "8J6H5WGR+79JV", "height": 7.301553249359131, "hmax": 0.061, "ratio": 0.008, "vulnClass": "none"}}, {"type": "Feature", "geometry": {"type": "MultiPolygon", "coordinates": [[[[71.94128755, 34.1756311], [71.94120447, 34.17561682], [71.94117775, 34.17572425], [71.94126082, 34.17573852], [71.94128755, 34.1756311]]]]}, "properties": {"id": "8J6H5WGR+7FH3", "height": 3.920436859130859, "hmax": 0.061, "ratio": 0.016, "vulnClass": "none"}}, {"type": "Feature", "geometry": {"type": "MultiPolygon", "coordinates": [[[[71.9413863, 34.17527998], [71.94130344, 34.17526585], [71.94121637, 34.17561837], [71.94129923, 34.17563251], [71.9413863, 34.17527998]]]]}, "properties": {"id": "8J6H5WGR+5GFW", "height": 6.532530784606934, "hmax": 0.061, "ratio": 0.009, "vulnClass": "none"}}, {"type": "Feature", "geometry": {"type": "MultiPolygon", "coordinates": [[[[71.94141043, 34.17515836], [71.94133311, 34.17514425], [71.94130467, 34.17525194], [71.94138199, 34.17526604], [71.94141043, 34.17515836]]]]}, "properties": {"id": "8J6H5WGR+3GQ7", "height": 5.893587112426758, "hmax": 0.061, "ratio": 0.01, "vulnClass": "none"}}, {"type": "Feature", "geometry": {"type": "MultiPolygon", "coordinates": [[[[71.9406107, 34.1750514], [71.9405091, 34.1750458], [71.9404872, 34.17532], [71.9405888, 34.1753256], [71.9406107, 34.1750514]]]]}, "properties": {"id": "8J6H5WGR+36FG", "height": 12.65969181060791, "hmax": 0.044, "ratio": 0.003, "vulnClass": "none"}}, {"type": "Feature", "geometry": {"type": "MultiPolygon", "coordinates": [[[[71.94072288, 34.17499851], [71.94073103, 34.17489771], [71.94064465, 34.17489289], [71.9406365, 34.17499369], [71.94072288, 34.17499851]]]]}, "properties": {"id": "8J6H5WFR+X7FX", "height": 10.53747844696045, "hmax": 0.156, "ratio": 0.015, "vulnClass": "none"}}, {"type": "Feature", "geometry": {"type": "MultiPolygon", "coordinates": [[[[71.94071018, 34.17482157], [71.94055884, 34.17481312], [71.94054116, 34.17503194], [71.94071938, 34.17504189], [71.94072288, 34.17499851], [71.9406365, 34.17499369], [71.94064665, 34.17486814], [71.94070615, 34.17487147], [71.94071018, 34.17482157]]]]}, "properties": {"id": "8J6H5WFR+X6H4", "height": 12.65969181060791, "hmax": 0.142, "ratio": 0.011, "vulnClass": "none"}}, {"type": "Feature", "geometry": {"type": "MultiPolygon", "coordinates": [[[[71.94076087, 34.17482426], [71.94071148, 34.17482803], [71.94071579, 34.17486702], [71.94076518, 34.17486325], [71.94076087, 34.17482426]]]]}, "properties": {"id": "8J6H5WFR+W7QW", "height": 8.973540306091309, "hmax": 0.156, "ratio": 0.017, "vulnClass": "none"}}, {"type": "Feature", "geometry": {"type": "MultiPolygon", "coordinates": [[[[71.94079659, 34.17483802], [71.94076321, 34.17483615], [71.94075812, 34.17489923], [71.94079149, 34.17490109], [71.94079659, 34.17483802]]]]}, "properties": {"id": "8J6H5WFR+W8RQ", "height": 7.582816123962402, "hmax": 0.156, "ratio": 0.021, "vulnClass": "none"}}, {"type": "Feature", "geometry": {"type": "MultiPolygon", "coordinates": [[[[71.94090845, 34.17491225], [71.94081992, 34.17491105], [71.94081899, 34.1749586], [71.94090752, 34.1749598], [71.94090845, 34.17491225]]]]}, "properties": {"id": "8J6H5WFR+X8HG", "height": 5.238210678100586, "hmax": 0.156, "ratio": 0.03, "vulnClass": "none"}}, {"type": "Feature", "geometry": {"type": "MultiPolygon", "coordinates": [[[[71.94132105, 34.17488767], [71.94107421, 34.17488717], [71.941074, 34.17495808], [71.94132084, 34.17495859], [71.94132105, 34.17488767]]]]}, "properties": {"id": "8J6H5WFR+XF8V", "height": 3.032994031906128, "hmax": 0.156, "ratio": 0.051, "vulnClass": "low"}}, {"type": "Feature", "geometry": {"type": "MultiPolygon", "coordinates": [[[[71.94137649, 34.17500911], [71.94134371, 34.17500816], [71.94134262, 34.17503429], [71.9413754, 34.17503524], [71.94137649, 34.17500911]]]]}, "properties": {"id": "8J6H5WGR+2G5W", "height": 3.249993562698364, "hmax": 0.156, "ratio": 0.048, "vulnClass": "none"}}, {"type": "Feature", "geometry": {"type": "MultiPolygon", "coordinates": [[[[71.94133125, 34.17487111], [71.94130782, 34.17487934], [71.94133409, 34.17493102], [71.94135753, 34.17492279], [71.94133125, 34.17487111]]]]}, "properties": {"id": "8J6H5WFR+XG84", "height": 2.69593334197998, "hmax": 0.156, "ratio": 0.058, "vulnClass": "low"}}, {"type": "Feature", "geometry": {"type": "MultiPolygon", "coordinates": [[[[71.94121669, 34.17475401], [71.94107369, 34.17474909], [71.94107213, 34.17478065], [71.94121512, 34.17478556], [71.94121669, 34.17475401]]]]}, "properties": {"id": "8J6H5WFR+WF2P", "height": 3.682027101516724, "hmax": 0.156, "ratio": 0.042, "vulnClass": "none"}}, {"type": "Feature", "geometry": {"type": "MultiPolygon", "coordinates": [[[[71.9410271, 34.17469914], [71.94093776, 34.17469607], [71.94093615, 34.1747285], [71.94102548, 34.17473157], [71.9410271, 34.17469914]]]]}, "properties": {"id": "8J6H5WFR+V9QF", "height": 3.485114574432373, "hmax": 0.156, "ratio": 0.045, "vulnClass": "none"}}, {"type": "Feature", "geometry": {"type": "MultiPolygon", "coordinates": [[[[71.94107716, 34.17467945], [71.94102816, 34.17467777], [71.9410247, 34.17474741], [71.94107369, 34.17474909], [71.94107716, 34.17467945]]]]}, "properties": {"id": "8J6H5WFR+VCMG", "height": 2.565417289733887, "hmax": 0.156, "ratio": 0.061, "vulnClass": "low"}}, {"type": "Feature", "geometry": {"type": "MultiPolygon", "coordinates": [[[[71.94108464, 34.17459869], [71.94103881, 34.17458148], [71.94102027, 34.17461559], [71.9410661, 34.1746328], [71.94108464, 34.17459869]]]]}, "properties": {"id": "8J6H5WFR+RCV8", "height": 3.991608142852783, "hmax": 0.156, "ratio": 0.039, "vulnClass": "none"}}, {"type": "Feature", "geometry": {"type": "MultiPolygon", "coordinates": [[[[71.94101979, 34.17439051], [71.94088279, 34.17438848], [71.9408814, 34.17445316], [71.94101841, 34.17445519], [71.94101979, 34.17439051]]]]}, "properties": {"id": "8J6H5WFR+Q98V", "height": 8.505609512329102, "hmax": 0.156, "ratio": 0.018, "vulnClass": "none"}}, {"type": "Feature", "geometry": {"type": "MultiPolygon", "coordinates": [[[[71.94075226, 34.17436585], [71.94065427, 34.17435963], [71.94064239, 34.17448903], [71.94074037, 34.17449525], [71.94075226, 34.17436585]]]]}, "properties": {"id": "8J6H5WFR+Q7G3", "height": 6.23808765411377, "hmax": 0.156, "ratio": 0.025, "vulnClass": "none"}}, {"type": "Feature", "geometry": {"type": "MultiPolygon", "coordinates": [[[[71.94064525, 34.17434915], [71.94050009, 34.17432688], [71.94047716, 34.17443011], [71.94062232, 34.17445239], [71.94064525, 34.17434915]]]]}, "properties": {"id": "8J6H5WFR+Q63H", "height": 5.237729072570801, "hmax": 0.116, "ratio": 0.022, "vulnClass": "none"}}, {"type": "Feature", "geometry": {"type": "MultiPolygon", "coordinates": [[[[71.94064577, 34.17445225], [71.94047079, 34.17444115], [71.94046577, 34.17449583], [71.94064074, 34.17450693], [71.94064577, 34.17445225]]]]}, "properties": {"id": "8J6H5WFR+Q6MX", "height": 5.415201187133789, "hmax": 0.117, "ratio": 0.022, "vulnClass": "none"}}, {"type": "Feature", "geometry": {"type": "MultiPolygon", "coordinates": [[[[71.94074037, 34.17449525], [71.94064239, 34.17448903], [71.9406229, 34.17470125], [71.94072088, 34.17470747], [71.94074037, 34.17449525]]]]}, "properties": {"id": "8J6H5WFR+R7MX", "height": 6.319984912872314, "hmax": 0.156, "ratio": 0.025, "vulnClass": "none"}}, {"type": "Feature", "geometry": {"type": "MultiPolygon", "coordinates": [[[[71.94058833, 34.17469906], [71.94059701, 34.17460451], [71.94053766, 34.17460075], [71.94052898, 34.17469529], [71.94058833, 34.17469906]]]]}, "properties": {"id": "8J6H5WFR+V64R", "height": 5.903597831726074, "hmax": 0.105, "ratio": 0.018, "vulnClass": "none"}}, {"type": "Feature", "geometry": {"type": "MultiPolygon", "coordinates": [[[[71.94090001, 34.17460779], [71.94084839, 34.17460601], [71.94084245, 34.17472528], [71.94089408, 34.17472706], [71.94090001, 34.17460779]]]]}, "properties": {"id": "8J6H5WFR+V89Q", "height": 7.773740291595459, "hmax": 0.156, "ratio": 0.02, "vulnClass": "none"}}, {"type": "Feature", "geometry": {"type": "MultiPolygon", "coordinates": [[[[71.94081046, 34.17468495], [71.94075086, 34.17468489], [71.94075081, 34.17471865], [71.94081041, 34.17471871], [71.94081046, 34.17468495]]]]}, "properties": {"id": "8J6H5WFR+V8J5", "height": 7.736579418182373, "hmax": 0.156, "ratio": 0.02, "vulnClass": "none"}}, {"type": "Feature", "geometry": {"type": "MultiPolygon", "coordinates": [[[[71.94093615, 34.1747285], [71.94084245, 34.17472528], [71.9408367, 34.17484085], [71.9409304, 34.17484407], [71.94093615, 34.1747285]]]]}, "properties": {"id": "8J6H5WFR+W967", "height": 6.953667640686035, "hmax": 0.156, "ratio": 0.022, "vulnClass": "none"}}, {"type": "Feature", "geometry": {"type": "MultiPolygon", "coordinates": [[[[71.94062978, 34.17478094], [71.94056175, 34.17477714], [71.94055884, 34.17481312], [71.94062687, 34.17481692], [71.94062978, 34.17478094]]]]}, "properties": {"id": "8J6H5WFR+W69R", "height": 7.896612167358398, "hmax": 0.136, "ratio": 0.017, "vulnClass": "none"}}, {"type": "Feature", "geometry": {"type": "MultiPolygon", "coordinates": [[[[71.94079753, 34.17482645], [71.94080576, 34.17472456], [71.94077238, 34.17472269], [71.94077063, 34.17474438], [71.94065716, 34.17473805], [71.94065068, 34.17481825], [71.94079753, 34.17482645]]]]}, "properties": {"id": "8J6H5WFR+W793", "height": 7.917011260986328, "hmax": 0.156, "ratio": 0.02, "vulnClass": "none"}}, {"type": "Feature", "geometry": {"type": "MultiPolygon", "coordinates": [[[[71.94037858, 34.17420757], [71.9402845, 34.17419678], [71.94027575, 34.17424951], [71.94036982, 34.1742603], [71.94037858, 34.17420757]]]]}, "properties": {"id": "8J6H5WFR+M4W3", "height": 5.120715618133545, "hmax": 0.104, "ratio": 0.02, "vulnClass": "none"}}, {"type": "Feature", "geometry": {"type": "MultiPolygon", "coordinates": [[[[71.94044122, 34.1742188], [71.94036972, 34.17421536], [71.94036643, 34.17426247], [71.94043793, 34.17426592], [71.94044122, 34.1742188]]]]}, "properties": {"id": "8J6H5WFR+M5RQ", "height": 4.832282543182373, "hmax": 0.104, "ratio": 0.021, "vulnClass": "none"}}, {"type": "Feature", "geometry": {"type": "MultiPolygon", "coordinates": [[[[71.94047748, 34.17417374], [71.94042667, 34.17416795], [71.94041891, 34.17421502], [71.94046972, 34.1742208], [71.94047748, 34.17417374]]]]}, "properties": {"id": "8J6H5WFR+M5GM", "height": 3.741103172302246, "hmax": 0.105, "ratio": 0.028, "vulnClass": "none"}}, {"type": "Feature", "geometry": {"type": "MultiPolygon", "coordinates": [[[[71.94029275, 34.1740868], [71.94024701, 34.17407818], [71.94021996, 34.17417727], [71.94026571, 34.1741859], [71.94029275, 34.1740868]]]]}, "properties": {"id": "8J6H5WFR+M426", "height": 2.590282201766968, "hmax": 0.132, "ratio": 0.051, "vulnClass": "low"}}, {"type": "Feature", "geometry": {"type": "MultiPolygon", "coordinates": [[[[71.9402845, 34.17419678], [71.9402161, 34.17418894], [71.94020734, 34.17424167], [71.94027575, 34.17424951], [71.9402845, 34.17419678]]]]}, "properties": {"id": "8J6H5WFR+M3QQ", "height": 5.265934944152832, "hmax": 0.104, "ratio": 0.02, "vulnClass": "none"}}, {"type": "Feature", "geometry": {"type": "MultiPolygon", "coordinates": [[[[71.94041568, 34.17404543], [71.94027995, 34.17400887], [71.94025114, 34.17408276], [71.94038687, 34.17411932], [71.94041568, 34.17404543]]]]}, "properties": {"id": "8J6H5WFR+J4GG", "height": 4.921485900878906, "hmax": 0.137, "ratio": 0.028, "vulnClass": "none"}}, {"type": "Feature", "geometry": {"type": "MultiPolygon", "coordinates": [[[[71.94049948, 34.1740407], [71.94040803, 34.17403021], [71.94038602, 34.17416276], [71.94047747, 34.17417325], [71.94049948, 34.1740407]]]]}, "properties": {"id": "8J6H5WFR+J5W2", "height": 4.796107292175293, "hmax": 0.137, "ratio": 0.029, "vulnClass": "none"}}, {"type": "Feature", "geometry": {"type": "MultiPolygon", "coordinates": [[[[71.94064558, 34.17390781], [71.94062716, 34.17388507], [71.94057461, 34.17391446], [71.94059302, 34.1739372], [71.94064558, 34.17390781]]]]}, "properties": {"id": "8J6H5WFR+H69G", "height": 3.882362604141235, "hmax": 0.12, "ratio": 0.031, "vulnClass": "none"}}, {"type": "Feature", "geometry": {"type": "MultiPolygon", "coordinates": [[[[71.94068217, 34.17407674], [71.94066478, 34.17404727], [71.94061434, 34.17406783], [71.94063172, 34.1740973], [71.94068217, 34.17407674]]]]}, "properties": {"id": "8J6H5WFR+J7CW", "height": 5.199728012084961, "hmax": 0.085, "ratio": 0.016, "vulnClass": "none"}}, {"type": "Feature", "geometry": {"type": "MultiPolygon", "coordinates": [[[[71.94071429, 34.17400555], [71.94067247, 34.17395266], [71.94061663, 34.17398315], [71.94065845, 34.17403605], [71.94071429, 34.17400555]]]]}, "properties": {"id": "8J6H5WFR+H7VM", "height": 5.199728012084961, "hmax": 0.085, "ratio": 0.016, "vulnClass": "none"}}, {"type": "Feature", "geometry": {"type": "MultiPolygon", "coordinates": [[[[71.94063892, 34.17425875], [71.94068395, 34.17412919], [71.94064231, 34.1741192], [71.94059728, 34.17424876], [71.94063892, 34.17425875]]]]}, "properties": {"id": "8J6H5WFR+M7CF", "height": 4.895580291748047, "hmax": 0.126, "ratio": 0.026, "vulnClass": "none"}}, {"type": "Feature", "geometry": {"type": "MultiPolygon", "coordinates": [[[[71.9406154, 34.17415904], [71.94049996, 34.17415879], [71.94049982, 34.17420394], [71.94061526, 34.17420419], [71.9406154, 34.17415904]]]]}, "properties": {"id": "8J6H5WFR+M6F9", "height": 5.871757984161377, "hmax": 0.117, "ratio": 0.02, "vulnClass": "none"}}, {"type": "Feature", "geometry": {"type": "MultiPolygon", "coordinates": [[[[71.94065183, 34.17427549], [71.94057588, 34.17426891], [71.94057208, 34.17429923], [71.94064803, 34.1743058], [71.94065183, 34.17427549]]]]}, "properties": {"id": "8J6H5WFR+P69G", "height": 5.224928855895996, "hmax": 0.135, "ratio": 0.026, "vulnClass": "none"}}, {"type": "Feature", "geometry": {"type": "MultiPolygon", "coordinates": [[[[71.94079304, 34.17424938], [71.94071333, 34.17423505], [71.94069442, 34.17430772], [71.94077413, 34.17432205], [71.94079304, 34.17424938]]]]}, "properties": {"id": "8J6H5WFR+P795", "height": 7.339513778686523, "hmax": 0.156, "ratio": 0.021, "vulnClass": "none"}}, {"type": "Feature", "geometry": {"type": "MultiPolygon", "coordinates": [[[[71.94088813, 34.17429636], [71.94084221, 34.17429499], [71.94084007, 34.1743442], [71.94088599, 34.17434558], [71.94088813, 34.17429636]]]]}, "properties": {"id": "8J6H5WFR+P8HW", "height": 8.056707382202148, "hmax": 0.156, "ratio": 0.019, "vulnClass": "none"}}, {"type": "Feature", "geometry": {"type": "MultiPolygon", "coordinates": [[[[71.94215737, 34.1735803], [71.94203915, 34.17358855], [71.94205374, 34.17373301], [71.94217196, 34.17372477], [71.94215737, 34.1735803]]]]}, "properties": {"id": "8J6H5WFR+FR97", "height": 2.57198429107666, "hmax": 0.008, "ratio": 0.003, "vulnClass": "none"}}, {"type": "Feature", "geometry": {"type": "MultiPolygon", "coordinates": [[[[71.94119137, 34.17590153], [71.94114089, 34.17588899], [71.94113197, 34.1759138], [71.94118245, 34.17592634], [71.94119137, 34.17590153]]]]}, "properties": {"id": "8J6H5WGR+9F76", "height": 3.197194576263428, "hmax": 0.061, "ratio": 0.019, "vulnClass": "none"}}, {"type": "Feature", "geometry": {"type": "MultiPolygon", "coordinates": [[[[71.94085567, 34.18709486], [71.94076861, 34.18706541], [71.94074477, 34.18711409], [71.94083183, 34.18714354], [71.94085567, 34.18709486]]]]}, "properties": {"id": "8J6H5WPR+R8V4", "height": 6.435870170593262, "hmax": 0.039, "ratio": 0.006, "vulnClass": "none"}}, {"type": "Feature", "geometry": {"type": "MultiPolygon", "coordinates": [[[[71.94097195, 34.18715885], [71.94087854, 34.18712758], [71.94083981, 34.18720747], [71.94093322, 34.18723874], [71.94097195, 34.18715885]]]]}, "properties": {"id": "8J6H5WPR+V9C9", "height": 4.882117748260498, "hmax": 0.039, "ratio": 0.008, "vulnClass": "none"}}, {"type": "Feature", "geometry": {"type": "MultiPolygon", "coordinates": [[[[71.94076651, 34.18714055], [71.94074082, 34.18713862], [71.94073855, 34.18715938], [71.94076397, 34.18716151], [71.94076651, 34.18714055]]]]}, "properties": {"id": "8J6H5WPR+V862", "height": 4.717856407165527, "hmax": 0.039, "ratio": 0.008, "vulnClass": "none"}}, {"type": "Feature", "geometry": {"type": "MultiPolygon", "coordinates": [[[[71.94093322, 34.18723874], [71.94083981, 34.18720747], [71.94080508, 34.18727913], [71.94092753, 34.18732012], [71.94094044, 34.18729347], [71.94091141, 34.18728375], [71.94093322, 34.18723874]]]]}, "properties": {"id": "8J6H5WPR+W85H", "height": 4.812873840332031, "hmax": 0.039, "ratio": 0.008, "vulnClass": "none"}}, {"type": "Feature", "geometry": {"type": "MultiPolygon", "coordinates": [[[[71.94116792, 34.18728582], [71.94110942, 34.18727905], [71.94110318, 34.18731633], [71.94116168, 34.18732309], [71.94116792, 34.18728582]]]]}, "properties": {"id": "8J6H5WPR+WFC3", "height": 9.237483978271484, "hmax": 0.039, "ratio": 0.004, "vulnClass": "none"}}, {"type": "Feature", "geometry": {"type": "MultiPolygon", "coordinates": [[[[71.94146068, 34.18729245], [71.94141762, 34.1872769], [71.94139179, 34.1873263], [71.94148891, 34.18736138], [71.94150477, 34.18733104], [71.94145071, 34.18731151], [71.94146068, 34.18729245]]]]}, "properties": {"id": "8J6H5WPR+WHGR", "height": 13.071898460388184, "hmax": 0.059, "ratio": 0.005, "vulnClass": "none"}}, {"type": "Feature", "geometry": {"type": "MultiPolygon", "coordinates": [[[[71.94145145, 34.18721068], [71.94141312, 34.18719753], [71.941393, 34.18723805], [71.94143133, 34.18725119], [71.94145145, 34.18721068]]]]}, "properties": {"id": "8J6H5WPR+VHMW", "height": 6.712169647216797, "hmax": 0.059, "ratio": 0.009, "vulnClass": "none"}}, {"type": "Feature", "geometry": {"type": "MultiPolygon", "coordinates": [[[[71.94133605, 34.18728925], [71.94135276, 34.18718695], [71.94132125, 34.1871834], [71.94130454, 34.18728569], [71.94133605, 34.18728925]]]]}, "properties": {"id": "8J6H5WPR+VGWG", "height": 9.022272109985352, "hmax": 0.059, "ratio": 0.007, "vulnClass": "none"}}, {"type": "Feature", "geometry": {"type": "MultiPolygon", "coordinates": [[[[71.9409543, 34.18724735], [71.94092261, 34.18724646], [71.94092152, 34.18727291], [71.94095322, 34.18727381], [71.9409543, 34.18724735]]]]}, "properties": {"id": "8J6H5WPR+W94C", "height": 3.729207038879395, "hmax": 0.039, "ratio": 0.011, "vulnClass": "none"}}, {"type": "Feature", "geometry": {"type": "MultiPolygon", "coordinates": [[[[71.9411305, 34.1871539], [71.9411126, 34.187264], [71.9412169, 34.1872758], [71.9412135, 34.1872965], [71.9413327, 34.18731], [71.9413361, 34.1872892], [71.9412687, 34.1872816], [71.9412866, 34.1871715], [71.9411305, 34.1871539]]]]}, "properties": {"id": "8J6H5WPR+VFW4", "height": 10.364208221435547, "hmax": 0.047, "ratio": 0.005, "vulnClass": "none"}}, {"type": "Feature", "geometry": {"type": "MultiPolygon", "coordinates": [[[[71.94145822, 34.18710457], [71.94136475, 34.18705278], [71.94131961, 34.18710904], [71.94141307, 34.18716083], [71.94145822, 34.18710457]]]]}, "properties": {"id": "8J6H5WPR+RHR7", "height": 5.189742565155029, "hmax": 0.059, "ratio": 0.011, "vulnClass": "none"}}, {"type": "Feature", "geometry": {"type": "MultiPolygon", "coordinates": [[[[71.9421816, 34.1868809], [71.9422005, 34.1868226], [71.9421444, 34.18681], [71.9421133, 34.1869059], [71.9421694, 34.1869185], [71.9421816, 34.1868809]]]]}, "properties": {"id": "8J6H5WPR+PVVC", "height": 4.152956485748291, "hmax": 0.067, "ratio": 0.016, "vulnClass": "none"}}, {"type": "Feature", "geometry": {"type": "MultiPolygon", "coordinates": [[[[71.94224928, 34.18680904], [71.94219992, 34.18681263], [71.94220367, 34.1868482], [71.94225303, 34.1868446], [71.94224928, 34.18680904]]]]}, "properties": {"id": "8J6H5WPR+PVQ2", "height": 3.770353555679321, "hmax": 0.091, "ratio": 0.024, "vulnClass": "none"}}, {"type": "Feature", "geometry": {"type": "MultiPolygon", "coordinates": [[[[71.94233019, 34.18679869], [71.94225439, 34.18680413], [71.94225886, 34.18684715], [71.94233466, 34.18684171], [71.94233019, 34.18679869]]]]}, "properties": {"id": "8J6H5WPR+PWFV", "height": 4.543683052062988, "hmax": 0.092, "ratio": 0.02, "vulnClass": "none"}}, {"type": "Feature", "geometry": {"type": "MultiPolygon", "coordinates": [[[[71.94233894, 34.18685256], [71.94231127, 34.18687454], [71.94237102, 34.18692648], [71.94239869, 34.1869045], [71.94233894, 34.18685256]]]]}, "properties": {"id": "8J6H5WPR+QW5F", "height": 5.07670259475708, "hmax": 0.039, "ratio": 0.008, "vulnClass": "none"}}, {"type": "Feature", "geometry": {"type": "MultiPolygon", "coordinates": [[[[71.94239817, 34.18699572], [71.94244084, 34.18692923], [71.94239771, 34.18691011], [71.94235504, 34.1869766], [71.94239817, 34.18699572]]]]}, "properties": {"id": "8J6H5WPR+QXJ4", "height": 5.362905025482178, "hmax": 0.039, "ratio": 0.007, "vulnClass": "none"}}, {"type": "Feature", "geometry": {"type": "MultiPolygon", "coordinates": [[[[71.94230917, 34.1870365], [71.94229743, 34.18699549], [71.94225814, 34.18700326], [71.94226988, 34.18704427], [71.94230917, 34.1870365]]]]}, "properties": {"id": "8J6H5WPR+RW3J", "height": 5.681540489196777, "hmax": 0.059, "ratio": 0.01, "vulnClass": "none"}}, {"type": "Feature", "geometry": {"type": "MultiPolygon", "coordinates": [[[[71.94228744, 34.18696058], [71.94224815, 34.18696835], [71.94225814, 34.18700326], [71.94229743, 34.18699549], [71.94228744, 34.18696058]]]]}, "properties": {"id": "8J6H5WPR+QWR8", "height": 5.681540489196777, "hmax": 0.059, "ratio": 0.01, "vulnClass": "none"}}, {"type": "Feature", "geometry": {"type": "MultiPolygon", "coordinates": [[[[71.94215014, 34.18691419], [71.94211328, 34.18690594], [71.94210171, 34.18694164], [71.94213857, 34.18694989], [71.94215014, 34.18691419]]]]}, "properties": {"id": "8J6H5WPR+QVC2", "height": 3.712327003479004, "hmax": 0.059, "ratio": 0.016, "vulnClass": "none"}}, {"type": "Feature", "geometry": {"type": "MultiPolygon", "coordinates": [[[[71.94219226, 34.18696191], [71.94210171, 34.18694164], [71.94207037, 34.18703828], [71.94216093, 34.18705856], [71.94219226, 34.18696191]]]]}, "properties": {"id": "8J6H5WPR+RV22", "height": 5.090002536773682, "hmax": 0.059, "ratio": 0.012, "vulnClass": "none"}}, {"type": "Feature", "geometry": {"type": "MultiPolygon", "coordinates": [[[[71.94149654, 34.18703811], [71.94144482, 34.18702286], [71.9414268, 34.18706508], [71.94147852, 34.18708033], [71.94149654, 34.18703811]]]]}, "properties": {"id": "8J6H5WPR+RHG5", "height": 4.660621643066406, "hmax": 0.059, "ratio": 0.013, "vulnClass": "none"}}, {"type": "Feature", "geometry": {"type": "MultiPolygon", "coordinates": [[[[71.94149654, 34.18703811], [71.94145138, 34.1871439], [71.94152354, 34.18716517], [71.94154187, 34.18712221], [71.94160691, 34.18714138], [71.94163373, 34.18707855], [71.94149654, 34.18703811]]]]}, "properties": {"id": "8J6H5WPR+RJV2", "height": 4.720026969909668, "hmax": 0.059, "ratio": 0.013, "vulnClass": "none"}}, {"type": "Feature", "geometry": {"type": "MultiPolygon", "coordinates": [[[[71.94182, 34.1870554], [71.9417338, 34.1870132], [71.9417187, 34.1870346], [71.9416645, 34.187111], [71.94171, 34.1871333], [71.9416659, 34.1871955], [71.9416963, 34.1872104], [71.9417916, 34.1872065], [71.9418091, 34.1871818], [71.9417506, 34.1871532], [71.94182, 34.1870554]]]]}, "properties": {"id": "8J6H5WPR+RMXP", "height": 2.896880388259888, "hmax": 0.059, "ratio": 0.02, "vulnClass": "none"}}, {"type": "Feature", "geometry": {"type": "MultiPolygon", "coordinates": [[[[71.94196208, 34.18704231], [71.94190017, 34.18702406], [71.94187301, 34.18708767], [71.94193492, 34.18710592], [71.94196208, 34.18704231]]]]}, "properties": {"id": "8J6H5WPR+RQFF", "height": 3.253141403198242, "hmax": 0.059, "ratio": 0.018, "vulnClass": "none"}}, {"type": "Feature", "geometry": {"type": "MultiPolygon", "coordinates": [[[[71.94203746, 34.18729412], [71.94186839, 34.18722119], [71.94177682, 34.18736777], [71.9419459, 34.18744071], [71.94203746, 34.18729412]]]]}, "properties": {"id": "8J6H5WPR+WQM6", "height": 3.763772964477539, "hmax": 0.059, "ratio": 0.016, "vulnClass": "none"}}, {"type": "Feature", "geometry": {"type": "MultiPolygon", "coordinates": [[[[71.9416533, 34.18733109], [71.94166934, 34.18725253], [71.94162751, 34.18724663], [71.94161147, 34.1873252], [71.9416533, 34.18733109]]]]}, "properties": {"id": "8J6H5WPR+WM6F", "height": 3.388813734054565, "hmax": 0.059, "ratio": 0.017, "vulnClass": "none"}}, {"type": "Feature", "geometry": {"type": "MultiPolygon", "coordinates": [[[[71.94167183, 34.18714509], [71.94164106, 34.18714459], [71.94164052, 34.18716739], [71.94167129, 34.18716789], [71.94167183, 34.18714509]]]]}, "properties": {"id": "8J6H5WPR+VM69", "height": 2.656631946563721, "hmax": 0.059, "ratio": 0.022, "vulnClass": "none"}}, {"type": "Feature", "geometry": {"type": "MultiPolygon", "coordinates": [[[[71.94148714, 34.18721992], [71.94144668, 34.18720928], [71.94142271, 34.18727227], [71.94146317, 34.18728291], [71.94148714, 34.18721992]]]]}, "properties": {"id": "8J6H5WPR+VHWW", "height": 8.669377326965332, "hmax": 0.059, "ratio": 0.007, "vulnClass": "none"}}, {"type": "Feature", "geometry": {"type": "MultiPolygon", "coordinates": [[[[71.9415847, 34.18727265], [71.94154764, 34.18726686], [71.94153827, 34.1873083], [71.94157533, 34.18731409], [71.9415847, 34.18727265]]]]}, "properties": {"id": "8J6H5WPR+WJ7Q", "height": 3.491526126861572, "hmax": 0.059, "ratio": 0.017, "vulnClass": "none"}}, {"type": "Feature", "geometry": {"type": "MultiPolygon", "coordinates": [[[[71.94160844, 34.18733571], [71.94155691, 34.18732549], [71.94154313, 34.18737349], [71.94159466, 34.18738371], [71.94160844, 34.18733571]]]]}, "properties": {"id": "8J6H5WPR+WJW3", "height": 3.58085823059082, "hmax": 0.059, "ratio": 0.017, "vulnClass": "none"}}, {"type": "Feature", "geometry": {"type": "MultiPolygon", "coordinates": [[[[71.94166127, 34.18735974], [71.94163187, 34.18735269], [71.94162621, 34.18736898], [71.94165561, 34.18737603], [71.94166127, 34.18735974]]]]}, "properties": {"id": "8J6H5WPR+WMRG", "height": 3.482181310653687, "hmax": 0.059, "ratio": 0.017, "vulnClass": "none"}}, {"type": "Feature", "geometry": {"type": "MultiPolygon", "coordinates": [[[[71.9417215, 34.18737418], [71.94166127, 34.18735974], [71.94164836, 34.18739691], [71.94170859, 34.18741135], [71.9417215, 34.18737418]]]]}, "properties": {"id": "8J6H5WPR+XM3H", "height": 3.487518072128296, "hmax": 0.059, "ratio": 0.017, "vulnClass": "none"}}, {"type": "Feature", "geometry": {"type": "MultiPolygon", "coordinates": [[[[71.94155057, 34.18734758], [71.94150477, 34.18733104], [71.94148891, 34.18736138], [71.94151657, 34.18737137], [71.94149005, 34.18742206], [71.94160413, 34.18746327], [71.94161861, 34.18743557], [71.94156671, 34.18741683], [71.94157874, 34.18739383], [71.9415347, 34.18737792], [71.94155057, 34.18734758]]]]}, "properties": {"id": "8J6H5WPR+XJ73", "height": 7.72020149230957, "hmax": 0.059, "ratio": 0.008, "vulnClass": "none"}}, {"type": "Feature", "geometry": {"type": "MultiPolygon", "coordinates": [[[[71.941576, 34.187517], [71.9414801, 34.1874823], [71.941445, 34.1875494], [71.9416198, 34.1876126], [71.941683, 34.1874917], [71.9416577, 34.1874826], [71.9416414, 34.1875139], [71.9415878, 34.1874946], [71.941576, 34.187517]]]]}, "properties": {"id": "8J6H5WQR+2J8J", "height": 6.937836170196533, "hmax": 0.059, "ratio": 0.009, "vulnClass": "none"}}, {"type": "Feature", "geometry": {"type": "MultiPolygon", "coordinates": [[[[71.9415906, 34.18746378], [71.94153153, 34.18745438], [71.94152464, 34.18748451], [71.94158373, 34.18749384], [71.9415906, 34.18746378]]]]}, "properties": {"id": "8J6H5WPR+XJMX", "height": 4.328785419464111, "hmax": 0.059, "ratio": 0.014, "vulnClass": "none"}}, {"type": "Feature", "geometry": {"type": "MultiPolygon", "coordinates": [[[[71.94169076, 34.18745493], [71.94163051, 34.18743874], [71.94161894, 34.18746851], [71.94167918, 34.18748469], [71.94169076, 34.18745493]]]]}, "properties": {"id": "8J6H5WPR+XMJH", "height": 3.710769414901733, "hmax": 0.059, "ratio": 0.016, "vulnClass": "none"}}, {"type": "Feature", "geometry": {"type": "MultiPolygon", "coordinates": [[[[71.94181112, 34.18755957], [71.94187294, 34.18744136], [71.94182908, 34.18742552], [71.94176725, 34.18754372], [71.94181112, 34.18755957]]]]}, "properties": {"id": "8J6H5WPR+XPWJ", "height": 4.645946979522705, "hmax": 0.059, "ratio": 0.013, "vulnClass": "none"}}, {"type": "Feature", "geometry": {"type": "MultiPolygon", "coordinates": [[[[71.94174792, 34.18751097], [71.94168726, 34.18749558], [71.9416744, 34.18753058], [71.94173507, 34.18754597], [71.94174792, 34.18751097]]]]}, "properties": {"id": "8J6H5WQR+2M4X", "height": 4.570111751556396, "hmax": 0.059, "ratio": 0.013, "vulnClass": "none"}}, {"type": "Feature", "geometry": {"type": "MultiPolygon", "coordinates": [[[[71.94192098, 34.18749993], [71.94185467, 34.18749145], [71.94184991, 34.18751715], [71.94191622, 34.18752563], [71.94192098, 34.18749993]]]]}, "properties": {"id": "8J6H5WQR+2Q27", "height": 3.873158931732178, "hmax": 0.059, "ratio": 0.015, "vulnClass": "none"}}, {"type": "Feature", "geometry": {"type": "MultiPolygon", "coordinates": [[[[71.94180324, 34.18747491], [71.94182908, 34.18742552], [71.94180122, 34.18741545], [71.94177538, 34.18746485], [71.94180324, 34.18747491]]]]}, "properties": {"id": "8J6H5WPR+XPFW", "height": 4.271089553833008, "hmax": 0.059, "ratio": 0.014, "vulnClass": "none"}}, {"type": "Feature", "geometry": {"type": "MultiPolygon", "coordinates": [[[[71.94188964, 34.18740943], [71.94175203, 34.18735973], [71.94173534, 34.18739166], [71.94187294, 34.18744136], [71.94188964, 34.18740943]]]]}, "properties": {"id": "8J6H5WPR+XP75", "height": 3.533020734786987, "hmax": 0.059, "ratio": 0.017, "vulnClass": "none"}}, {"type": "Feature", "geometry": {"type": "MultiPolygon", "coordinates": [[[[71.94224459, 34.18731308], [71.94212658, 34.18727077], [71.94210562, 34.18731115], [71.9421309, 34.18732021], [71.94209979, 34.18738013], [71.94219251, 34.18741338], [71.94224459, 34.18731308]]]]}, "properties": {"id": "8J6H5WPR+WVMM", "height": 4.658748149871826, "hmax": 0.059, "ratio": 0.013, "vulnClass": "none"}}, {"type": "Feature", "geometry": {"type": "MultiPolygon", "coordinates": [[[[71.94228183, 34.18744538], [71.94207497, 34.18737044], [71.94202318, 34.18746917], [71.94223004, 34.18754411], [71.94228183, 34.18744538]]]]}, "properties": {"id": "8J6H5WPR+XVJ9", "height": 5.298413276672363, "hmax": 0.059, "ratio": 0.011, "vulnClass": "none"}}, {"type": "Feature", "geometry": {"type": "MultiPolygon", "coordinates": [[[[71.94200647, 34.18754006], [71.94201971, 34.18750055], [71.94199418, 34.18749465], [71.94198095, 34.18753416], [71.94200647, 34.18754006]]]]}, "properties": {"id": "8J6H5WQR+2R2J", "height": 3.259944677352905, "hmax": 0.059, "ratio": 0.018, "vulnClass": "none"}}, {"type": "Feature", "geometry": {"type": "MultiPolygon", "coordinates": [[[[71.94238928, 34.18751477], [71.94225733, 34.18746957], [71.94219636, 34.18759247], [71.94228087, 34.18762142], [71.94230491, 34.18757294], [71.94235237, 34.1875892], [71.94238928, 34.18751477]]]]}, "properties": {"id": "8J6H5WQR+2W7R", "height": 5.398832321166992, "hmax": 0.051, "ratio": 0.009, "vulnClass": "none"}}, {"type": "Feature", "geometry": {"type": "MultiPolygon", "coordinates": [[[[71.9423091, 34.18738574], [71.94228644, 34.18743247], [71.94241865, 34.18747675], [71.94244131, 34.18743002], [71.9423091, 34.18738574]]]]}, "properties": {"id": "8J6H5WPR+XWH8", "height": 3.246314525604248, "hmax": 0.039, "ratio": 0.012, "vulnClass": "none"}}, {"type": "Feature", "geometry": {"type": "MultiPolygon", "coordinates": [[[[71.94245852, 34.18739454], [71.94236709, 34.18736391], [71.94235172, 34.1873956], [71.94244315, 34.18742622], [71.94245852, 34.18739454]]]]}, "properties": {"id": "8J6H5WPR+XX2X", "height": 2.646147489547729, "hmax": 0.039, "ratio": 0.015, "vulnClass": "none"}}, {"type": "Feature", "geometry": {"type": "MultiPolygon", "coordinates": [[[[71.94234691, 34.18740271], [71.94236727, 34.18733742], [71.94233593, 34.18733066], [71.94231556, 34.18739596], [71.94234691, 34.18740271]]]]}, "properties": {"id": "8J6H5WPR+WWWQ", "height": 2.924715995788574, "hmax": 0.039, "ratio": 0.013, "vulnClass": "none"}}, {"type": "Feature", "geometry": {"type": "MultiPolygon", "coordinates": [[[[71.94228644, 34.18743247], [71.94234362, 34.18731456], [71.94227915, 34.18729296], [71.94222196, 34.18741087], [71.94228644, 34.18743247]]]]}, "properties": {"id": "8J6H5WPR+WWVC", "height": 3.82628059387207, "hmax": 0.054, "ratio": 0.014, "vulnClass": "none"}}, {"type": "Feature", "geometry": {"type": "MultiPolygon", "coordinates": [[[[71.94246199, 34.18718714], [71.94237645, 34.1871564], [71.9423416, 34.18722336], [71.94247303, 34.1872706], [71.94249083, 34.18723638], [71.94244495, 34.18721989], [71.94246199, 34.18718714]]]]}, "properties": {"id": "8J6H5WPR+VXMF", "height": 7.615940570831299, "hmax": 0.039, "ratio": 0.005, "vulnClass": "none"}}, {"type": "Feature", "geometry": {"type": "MultiPolygon", "coordinates": [[[[71.94236412, 34.18717912], [71.94231972, 34.18716422], [71.94228264, 34.18724052], [71.94232705, 34.18725542], [71.94236412, 34.18717912]]]]}, "properties": {"id": "8J6H5WPR+VWP7", "height": 7.615940570831299, "hmax": 0.042, "ratio": 0.006, "vulnClass": "none"}}, {"type": "Feature", "geometry": {"type": "MultiPolygon", "coordinates": [[[[71.94228601, 34.1872333], [71.94219329, 34.18720005], [71.94215186, 34.18727983], [71.94224459, 34.18731308], [71.94228601, 34.1872333]]]]}, "properties": {"id": "8J6H5WPR+WV56", "height": 6.03315258026123, "hmax": 0.059, "ratio": 0.01, "vulnClass": "none"}}, {"type": "Feature", "geometry": {"type": "MultiPolygon", "coordinates": [[[[71.94249138, 34.18713066], [71.94240585, 34.18709992], [71.94237645, 34.1871564], [71.94246199, 34.18718714], [71.94249138, 34.18713066]]]]}, "properties": {"id": "8J6H5WPR+VX3Q", "height": 7.094928741455078, "hmax": 0.039, "ratio": 0.006, "vulnClass": "none"}}, {"type": "Feature", "geometry": {"type": "MultiPolygon", "coordinates": [[[[71.94237645, 34.1871564], [71.94243255, 34.1870486], [71.94239019, 34.18703338], [71.94233409, 34.18714117], [71.94237645, 34.1871564]]]]}, "properties": {"id": "8J6H5WPR+RXJM", "height": 7.079985618591309, "hmax": 0.039, "ratio": 0.006, "vulnClass": "none"}}, {"type": "Feature", "geometry": {"type": "MultiPolygon", "coordinates": [[[[71.94252277, 34.18708453], [71.94247889, 34.18706845], [71.94246414, 34.18709625], [71.94250802, 34.18711233], [71.94252277, 34.18708453]]]]}, "properties": {"id": "8J6H5WPR+RXQQ", "height": 3.448318243026733, "hmax": 0.039, "ratio": 0.011, "vulnClass": "none"}}, {"type": "Feature", "geometry": {"type": "MultiPolygon", "coordinates": [[[[71.94255077, 34.18712074], [71.94250933, 34.18711114], [71.94249857, 34.18714324], [71.94254001, 34.18715283], [71.94255077, 34.18712074]]]]}, "properties": {"id": "8J6H5WPV+V229", "height": 4.248665809631348, "hmax": 0.039, "ratio": 0.009, "vulnClass": "none"}}, {"type": "Feature", "geometry": {"type": "MultiPolygon", "coordinates": [[[[71.94264791, 34.1871478], [71.94266882, 34.18711034], [71.94258786, 34.18707913], [71.94252826, 34.18718591], [71.94257481, 34.18720385], [71.9426135, 34.18713454], [71.94264791, 34.1871478]]]]}, "properties": {"id": "8J6H5WPV+V24H", "height": 6.025463581085205, "hmax": 0.039, "ratio": 0.007, "vulnClass": "none"}}, {"type": "Feature", "geometry": {"type": "MultiPolygon", "coordinates": [[[[71.94258786, 34.18707913], [71.9425334, 34.18705814], [71.94251249, 34.1870956], [71.94256695, 34.18711659], [71.94258786, 34.18707913]]]]}, "properties": {"id": "8J6H5WPV+R2MG", "height": 5.671759605407715, "hmax": 0.039, "ratio": 0.007, "vulnClass": "none"}}, {"type": "Feature", "geometry": {"type": "MultiPolygon", "coordinates": [[[[71.94264633, 34.18748495], [71.94261315, 34.18747292], [71.94257238, 34.18755064], [71.94260557, 34.18756266], [71.94264633, 34.18748495]]]]}, "properties": {"id": "8J6H5WQV+225M", "height": 4.993083953857422, "hmax": 0.039, "ratio": 0.008, "vulnClass": "none"}}, {"type": "Feature", "geometry": {"type": "MultiPolygon", "coordinates": [[[[71.94264213, 34.18700718], [71.94257712, 34.18699169], [71.94256364, 34.18703075], [71.94262821, 34.18704613], [71.94264213, 34.18700718]]]]}, "properties": {"id": "8J6H5WPV+R25M", "height": 6.248160839080811, "hmax": 0.039, "ratio": 0.006, "vulnClass": "none"}}, {"type": "Feature", "geometry": {"type": "MultiPolygon", "coordinates": [[[[71.94261105, 34.18688548], [71.94254225, 34.18685409], [71.94252593, 34.1868788], [71.94259472, 34.18691018], [71.94261105, 34.18688548]]]]}, "properties": {"id": "8J6H5WPV+Q246", "height": 4.041280746459961, "hmax": 0.039, "ratio": 0.01, "vulnClass": "none"}}, {"type": "Feature", "geometry": {"type": "MultiPolygon", "coordinates": [[[[71.94259322, 34.18691292], [71.94251565, 34.18688732], [71.94247693, 34.18696836], [71.9425545, 34.18699396], [71.94259322, 34.18691292]]]]}, "properties": {"id": "8J6H5WPV+Q2FJ", "height": 5.951521873474121, "hmax": 0.039, "ratio": 0.007, "vulnClass": "none"}}, {"type": "Feature", "geometry": {"type": "MultiPolygon", "coordinates": [[[[71.94254544, 34.18682497], [71.94242879, 34.18678648], [71.94239215, 34.18686317], [71.9425088, 34.18690166], [71.94254544, 34.18682497]]]]}, "properties": {"id": "8J6H5WPR+PXQJ", "height": 5.449438571929932, "hmax": 0.05, "ratio": 0.009, "vulnClass": "none"}}, {"type": "Feature", "geometry": {"type": "MultiPolygon", "coordinates": [[[[71.94263534, 34.18682477], [71.94255777, 34.18679917], [71.94253453, 34.1868478], [71.9426121, 34.1868734], [71.94263534, 34.18682477]]]]}, "properties": {"id": "8J6H5WPV+P2PG", "height": 3.932461977005005, "hmax": 0.055, "ratio": 0.014, "vulnClass": "none"}}]}