{"type": "FeatureCollection", "features": [{"type": "Feature", "geometry": {"type": "MultiPolygon", "coordinates": [[[[71.91166965, 34.22871795], [71.91147426, 34.22867896], [71.91144694, 34.22877338], [71.91153546, 34.22879105], [71.91154165, 34.22876963], [71.91164853, 34.22879096], [71.91166965, 34.22871795]]]]}, "properties": {"id": "8J6H6WH6+FJVG", "height": 2.655687093734741, "hmax": 0.0, "ratio": 0.0, "vulnClass": "none"}}, {"type": "Feature", "geometry": {"type": "MultiPolygon", "coordinates": [[[[71.90923807, 34.23221853], [71.90917891, 34.2323111], [71.9092519, 34.23234328], [71.90929368, 34.23227791], [71.90936572, 34.23230967], [71.9093831, 34.23228248], [71.90923807, 34.23221853]]]]}, "properties": {"id": "8J6H6WJ5+WP68", "height": 2.597804307937622, "hmax": 0.0, "ratio": 0.0, "vulnClass": "none"}}, {"type": "Feature", "geometry": {"type": "MultiPolygon", "coordinates": [[[[71.90938751, 34.2324163], [71.90933886, 34.23240156], [71.90931267, 34.23246117], [71.90936132, 34.23247592], [71.90938751, 34.2324163]]]]}, "properties": {"id": "8J6H6WJ5+XPHC", "height": 3.169025421142578, "hmax": 0.0, "ratio": 0.0, "vulnClass": "none"}}, {"type": "Feature", "geometry": {"type": "MultiPolygon", "coordinates": [[[[71.90988535, 34.23201259], [71.90984108, 34.23200074], [71.90981983, 34.2320555], [71.9098641, 34.23206735], [71.90988535, 34.23201259]]]]}, "properties": {"id": "8J6H6WJ5+RW97", "height": 2.612308979034424, "hmax": 0.0, "ratio": 0.0, "vulnClass": "none"}}, {"type": "Feature", "geometry": {"type": "MultiPolygon", "coordinates": [[[[71.91009327, 34.23202175], [71.91001528, 34.23199462], [71.90997354, 34.23207741], [71.91016391, 34.23214362], [71.91020565, 34.23206083], [71.91016085, 34.23204525], [71.9101496, 34.23206755], [71.91008202, 34.23204404], [71.91009327, 34.23202175]]]]}, "properties": {"id": "8J6H6WJ6+R2GX", "height": 2.948646545410156, "hmax": 0.0, "ratio": 0.0, "vulnClass": "none"}}, {"type": "Feature", "geometry": {"type": "MultiPolygon", "coordinates": [[[[71.9102753, 34.23188227], [71.91015729, 34.23184752], [71.9101289, 34.23191404], [71.91024691, 34.23194878], [71.9102753, 34.23188227]]]]}, "properties": {"id": "8J6H6WJ6+Q34V", "height": 3.664368629455566, "hmax": 0.0, "ratio": 0.0, "vulnClass": "none"}}, {"type": "Feature", "geometry": {"type": "MultiPolygon", "coordinates": [[[[71.91019305, 34.23175026], [71.91014225, 34.23171949], [71.91010103, 34.23176642], [71.91015183, 34.23179719], [71.91019305, 34.23175026]]]]}, "properties": {"id": "8J6H6WJ6+P328", "height": 4.438496112823486, "hmax": 0.0, "ratio": 0.0, "vulnClass": "none"}}, {"type": "Feature", "geometry": {"type": "MultiPolygon", "coordinates": [[[[71.91005829, 34.23193912], [71.90995102, 34.23189241], [71.90991192, 34.23195643], [71.90999275, 34.23199049], [71.90998215, 34.23200785], [71.91000933, 34.2320193], [71.91005829, 34.23193912]]]]}, "properties": {"id": "8J6H6WJ5+QXQ4", "height": 2.597558498382568, "hmax": 0.0, "ratio": 0.0, "vulnClass": "none"}}, {"type": "Feature", "geometry": {"type": "MultiPolygon", "coordinates": [[[[71.91035507, 34.23156854], [71.91019284, 34.23144357], [71.9101313, 34.23149869], [71.91029353, 34.23162365], [71.91035507, 34.23156854]]]]}, "properties": {"id": "8J6H6WJ6+J399", "height": 3.780227899551392, "hmax": 0.003, "ratio": 0.001, "vulnClass": "none"}}, {"type": "Feature", "geometry": {"type": "MultiPolygon", "coordinates": [[[[71.91035591, 34.23146006], [71.91029751, 34.23141519], [71.91023409, 34.23147213], [71.91029249, 34.231517], [71.91035591, 34.23146006]]]]}, "properties": {"id": "8J6H6WJ6+H4MM", "height": 4.860301971435547, "hmax": 0.006, "ratio": 0.001, "vulnClass": "none"}}, {"type": "Feature", "geometry": {"type": "MultiPolygon", "coordinates": [[[[71.91056131, 34.2314422], [71.91053126, 34.23138786], [71.91044515, 34.23142071], [71.91047521, 34.23147505], [71.91056131, 34.2314422]]]]}, "properties": {"id": "8J6H6WJ6+H6C6", "height": 6.240464210510254, "hmax": 0.037, "ratio": 0.006, "vulnClass": "none"}}, {"type": "Feature", "geometry": {"type": "MultiPolygon", "coordinates": [[[[71.91035305, 34.23156354], [71.91045217, 34.23147455], [71.91042589, 34.23145436], [71.9103902, 34.2314864], [71.91035591, 34.23146006], [71.91029249, 34.231517], [71.91035305, 34.23156354]]]]}, "properties": {"id": "8J6H6WJ6+J459", "height": 5.051228046417236, "hmax": 0.035, "ratio": 0.007, "vulnClass": "none"}}, {"type": "Feature", "geometry": {"type": "MultiPolygon", "coordinates": [[[[71.91042205, 34.23166315], [71.9102718, 34.23161744], [71.91023787, 34.23169439], [71.91038811, 34.2317401], [71.91042205, 34.23166315]]]]}, "properties": {"id": "8J6H6WJ6+M4G4", "height": 3.249671936035156, "hmax": 0.023, "ratio": 0.007, "vulnClass": "none"}}, {"type": "Feature", "geometry": {"type": "MultiPolygon", "coordinates": [[[[71.91038669, 34.2317828], [71.91033066, 34.23176565], [71.91031869, 34.23179264], [71.91037471, 34.23180979], [71.91038669, 34.2317828]]]]}, "properties": {"id": "8J6H6WJ6+P49F", "height": 2.523821353912354, "hmax": 0.037, "ratio": 0.015, "vulnClass": "none"}}, {"type": "Feature", "geometry": {"type": "MultiPolygon", "coordinates": [[[[71.91049907, 34.23181677], [71.9103982, 34.23177544], [71.91037729, 34.23181064], [71.91047816, 34.23185198], [71.91049907, 34.23181677]]]]}, "properties": {"id": "8J6H6WJ6+P5GC", "height": 2.507988929748535, "hmax": 0.037, "ratio": 0.015, "vulnClass": "none"}}, {"type": "Feature", "geometry": {"type": "MultiPolygon", "coordinates": [[[[71.91063273, 34.2318581], [71.91057898, 34.23184165], [71.91054885, 34.23190956], [71.91060261, 34.23192601], [71.91063273, 34.2318581]]]]}, "properties": {"id": "8J6H6WJ6+Q649", "height": 2.752563714981079, "hmax": 0.037, "ratio": 0.013, "vulnClass": "none"}}, {"type": "Feature", "geometry": {"type": "MultiPolygon", "coordinates": [[[[71.91059883, 34.23192374], [71.91055978, 34.23191664], [71.91055027, 34.23195275], [71.91058931, 34.23195985], [71.91059883, 34.23192374]]]]}, "properties": {"id": "8J6H6WJ6+Q6GF", "height": 2.482909917831421, "hmax": 0.037, "ratio": 0.015, "vulnClass": "none"}}, {"type": "Feature", "geometry": {"type": "MultiPolygon", "coordinates": [[[[71.91054885, 34.23190956], [71.91047133, 34.23188583], [71.9104434, 34.23194878], [71.91052093, 34.23197251], [71.91054885, 34.23190956]]]]}, "properties": {"id": "8J6H6WJ6+Q5H5", "height": 3.166159391403198, "hmax": 0.037, "ratio": 0.012, "vulnClass": "none"}}, {"type": "Feature", "geometry": {"type": "MultiPolygon", "coordinates": [[[[71.91043627, 34.23191798], [71.91027491, 34.23187286], [71.91026075, 34.23190779], [71.91032954, 34.23192703], [71.91031649, 34.23195923], [71.91040906, 34.23198511], [71.91043627, 34.23191798]]]]}, "properties": {"id": "8J6H6WJ6+Q4H3", "height": 3.141684532165527, "hmax": 0.032, "ratio": 0.01, "vulnClass": "none"}}, {"type": "Feature", "geometry": {"type": "MultiPolygon", "coordinates": [[[[71.91026757, 34.23198386], [71.91022851, 34.23197181], [71.91021005, 34.23201308], [71.91024911, 34.23202513], [71.91026757, 34.23198386]]]]}, "properties": {"id": "8J6H6WJ6+Q3XW", "height": 3.760517597198486, "hmax": 0.0, "ratio": 0.0, "vulnClass": "none"}}, {"type": "Feature", "geometry": {"type": "MultiPolygon", "coordinates": [[[[71.91024169, 34.23201602], [71.9101992, 34.2320078], [71.91019036, 34.2320393], [71.91023285, 34.23204753], [71.91024169, 34.23201602]]]]}, "properties": {"id": "8J6H6WJ6+R385", "height": 3.889228343963623, "hmax": 0.0, "ratio": 0.0, "vulnClass": "none"}}, {"type": "Feature", "geometry": {"type": "MultiPolygon", "coordinates": [[[[71.91038517, 34.23218751], [71.91040467, 34.23211553], [71.91037313, 34.23210963], [71.91035363, 34.23218161], [71.91038517, 34.23218751]]]]}, "properties": {"id": "8J6H6WJ6+V52R", "height": 3.054634571075439, "hmax": 0.016, "ratio": 0.005, "vulnClass": "none"}}, {"type": "Feature", "geometry": {"type": "MultiPolygon", "coordinates": [[[[71.91061661, 34.23219217], [71.91051484, 34.23216307], [71.91048844, 34.23222675], [71.91059022, 34.23225585], [71.91061661, 34.23219217]]]]}, "properties": {"id": "8J6H6WJ6+V6M8", "height": 2.495789527893066, "hmax": 0.016, "ratio": 0.006, "vulnClass": "none"}}, {"type": "Feature", "geometry": {"type": "MultiPolygon", "coordinates": [[[[71.91060457, 34.23215289], [71.91052909, 34.23213878], [71.91052126, 34.23216816], [71.9105968, 34.23218205], [71.91060457, 34.23215289]]]]}, "properties": {"id": "8J6H6WJ6+V68C", "height": 2.495789527893066, "hmax": 0.016, "ratio": 0.006, "vulnClass": "none"}}, {"type": "Feature", "geometry": {"type": "MultiPolygon", "coordinates": [[[[71.91068398, 34.23221143], [71.91061661, 34.23219217], [71.91059022, 34.23225585], [71.91068178, 34.23228203], [71.9106958, 34.2322482], [71.9106716, 34.23224128], [71.91068398, 34.23221143]]]]}, "properties": {"id": "8J6H6WJ6+V7RG", "height": 2.495789527893066, "hmax": 0.016, "ratio": 0.006, "vulnClass": "none"}}, {"type": "Feature", "geometry": {"type": "MultiPolygon", "coordinates": [[[[71.9105402, 34.2323838], [71.9104386, 34.2323496], [71.9103361, 34.2325596], [71.9104378, 34.2325938], [71.9105402, 34.2323838]]]]}, "properties": {"id": "8J6H6WJ6+X5PR", "height": 4.518813610076904, "hmax": 0.016, "ratio": 0.003, "vulnClass": "none"}}, {"type": "Feature", "geometry": {"type": "MultiPolygon", "coordinates": [[[[71.90993141, 34.23264212], [71.90979134, 34.23259412], [71.90975117, 34.232675], [71.90982893, 34.23270165], [71.90984118, 34.23267699], [71.90990348, 34.23269834], [71.90993141, 34.23264212]]]]}, "properties": {"id": "8J6H6WM5+3W85", "height": 2.519040584564209, "hmax": 0.0, "ratio": 0.0, "vulnClass": "none"}}, {"type": "Feature", "geometry": {"type": "MultiPolygon", "coordinates": [[[[71.90922027, 34.23243316], [71.90920035, 34.23247851], [71.9093718, 34.23253048], [71.90939172, 34.23248513], [71.90922027, 34.23243316]]]]}, "properties": {"id": "8J6H6WJ5+XPV7", "height": 3.738429307937622, "hmax": 0.0, "ratio": 0.0, "vulnClass": "none"}}]}