{"type": "FeatureCollection", "features": [{"type": "Feature", "geometry": {"type": "MultiPolygon", "coordinates": [[[[72.22582845, 34.23820843], [72.22581773, 34.23814401], [72.22577561, 34.2381488], [72.22578633, 34.23821322], [72.22582845, 34.23820843]]]]}, "properties": {"id": "Pakistan_123102310_100258", "height": 3.825164794921875, "hmax": 0.004, "ratio": 0.001, "vulnClass": "none"}}, {"type": "Feature", "geometry": {"type": "MultiPolygon", "coordinates": [[[[72.21899056, 34.24218241], [72.21899597, 34.2422013], [72.21906709, 34.2421874], [72.21905657, 34.24215063], [72.21917698, 34.24212709], [72.21916798, 34.24209559], [72.21885959, 34.24215588], [72.21887371, 34.24220524], [72.21899056, 34.24218241]]]]}, "properties": {"id": "Pakistan_123102310_490090", "height": 2.960672855377197, "hmax": 0.008, "ratio": 0.003, "vulnClass": "none"}}, {"type": "Feature", "geometry": {"type": "MultiPolygon", "coordinates": [[[[72.21884611, 34.24202056], [72.2188493, 34.24208253], [72.21889481, 34.24208094], [72.21889163, 34.24201896], [72.21884611, 34.24202056]]]]}, "properties": {"id": "Pakistan_123102310_147732", "height": 4.16032886505127, "hmax": 0.016, "ratio": 0.004, "vulnClass": "none"}}, {"type": "Feature", "geometry": {"type": "MultiPolygon", "coordinates": [[[[72.21916653, 34.24194358], [72.21916269, 34.24186059], [72.21899664, 34.24186582], [72.21900334, 34.24201082], [72.21910244, 34.24200769], [72.21909957, 34.2419457], [72.21916653, 34.24194358]]]]}, "properties": {"id": "Pakistan_123102310_684615", "height": 2.898132801055908, "hmax": 0.016, "ratio": 0.006, "vulnClass": "none"}}, {"type": "Feature", "geometry": {"type": "MultiPolygon", "coordinates": [[[[72.21899353, 34.24195572], [72.21899047, 34.24187376], [72.21893152, 34.24187526], [72.21893032, 34.24184312], [72.2188285, 34.24184572], [72.21883275, 34.24195982], [72.21899353, 34.24195572]]]]}, "properties": {"id": "Pakistan_123102310_822087", "height": 3.778609037399292, "hmax": 0.016, "ratio": 0.004, "vulnClass": "none"}}, {"type": "Feature", "geometry": {"type": "MultiPolygon", "coordinates": [[[[72.2188317, 34.2418042], [72.21890235, 34.24179495], [72.21888743, 34.24171709], [72.21881678, 34.24172634], [72.2188317, 34.2418042]]]]}, "properties": {"id": "Pakistan_123102310_485429", "height": 2.493882179260254, "hmax": 0.016, "ratio": 0.006, "vulnClass": "none"}}, {"type": "Feature", "geometry": {"type": "MultiPolygon", "coordinates": [[[[72.22042092, 34.24073618], [72.22039985, 34.24066376], [72.22026407, 34.24069076], [72.22025066, 34.24064464], [72.22019234, 34.24065623], [72.22022681, 34.24077475], [72.22042092, 34.24073618]]]]}, "properties": {"id": "Pakistan_123102310_148785", "height": 3.645709037780762, "hmax": 0.012, "ratio": 0.003, "vulnClass": "none"}}, {"type": "Feature", "geometry": {"type": "MultiPolygon", "coordinates": [[[[72.22018727, 34.24060429], [72.22019164, 34.24064834], [72.22025291, 34.24064419], [72.22024854, 34.24060014], [72.22018727, 34.24060429]]]]}, "properties": {"id": "Pakistan_123102310_793713", "height": 3.733188152313232, "hmax": 0.012, "ratio": 0.003, "vulnClass": "none"}}, {"type": "Feature", "geometry": {"type": "MultiPolygon", "coordinates": [[[[72.22022981, 34.24058061], [72.22020979, 34.24051721], [72.22016208, 34.2405275], [72.2201821, 34.2405909], [72.22022981, 34.24058061]]]]}, "properties": {"id": "Pakistan_123102310_71406", "height": 3.44948673248291, "hmax": 0.012, "ratio": 0.003, "vulnClass": "none"}}, {"type": "Feature", "geometry": {"type": "MultiPolygon", "coordinates": [[[[72.22051439, 34.24048038], [72.22037707, 34.2405017], [72.2203868, 34.24054453], [72.22052412, 34.24052322], [72.22051439, 34.24048038]]]]}, "properties": {"id": "Pakistan_123102310_204266", "height": 2.447682857513428, "hmax": 0.007, "ratio": 0.003, "vulnClass": "none"}}, {"type": "Feature", "geometry": {"type": "MultiPolygon", "coordinates": [[[[72.22042327, 34.24061827], [72.22044083, 34.24066226], [72.22049646, 34.24064708], [72.2204789, 34.24060309], [72.22042327, 34.24061827]]]]}, "properties": {"id": "Pakistan_123102310_727488", "height": 2.633002281188965, "hmax": 0.005, "ratio": 0.002, "vulnClass": "none"}}, {"type": "Feature", "geometry": {"type": "MultiPolygon", "coordinates": [[[[72.22047467, 34.24041847], [72.2204786, 34.24047816], [72.22051459, 34.24047654], [72.22051066, 34.24041685], [72.22047467, 34.24041847]]]]}, "properties": {"id": "Pakistan_123102310_71412", "height": 2.458920478820801, "hmax": 0.005, "ratio": 0.002, "vulnClass": "none"}}, {"type": "Feature", "geometry": {"type": "MultiPolygon", "coordinates": [[[[72.22241735, 34.23715735], [72.22236646, 34.23715894], [72.22236813, 34.23719569], [72.22246991, 34.23719253], [72.22246441, 34.23707163], [72.22241352, 34.23707321], [72.22241735, 34.23715735]]]]}, "properties": {"id": "Pakistan_123102310_608476", "height": 5.640491485595703, "hmax": 0.02, "ratio": 0.003, "vulnClass": "none"}}, {"type": "Feature", "geometry": {"type": "MultiPolygon", "coordinates": [[[[72.22014368, 34.23572136], [72.21995202, 34.23573953], [72.21993867, 34.23564323], [72.21988941, 34.2356479], [72.21989593, 34.23569488], [72.21986151, 34.23569814], [72.21987123, 34.23576818], [72.2198024, 34.23577471], [72.21981197, 34.23584372], [72.22015613, 34.2358111], [72.22014368, 34.23572136]]]]}, "properties": {"id": "Pakistan_123102310_252577", "height": 2.539742469787598, "hmax": 0.022, "ratio": 0.009, "vulnClass": "none"}}, {"type": "Feature", "geometry": {"type": "MultiPolygon", "coordinates": [[[[72.21900979, 34.23517862], [72.21885854, 34.23519974], [72.21890258, 34.23541534], [72.21899386, 34.23540259], [72.21895686, 34.23522149], [72.21901684, 34.23521312], [72.21900979, 34.23517862]]]]}, "properties": {"id": "Pakistan_123102310_43394", "height": 3.089703798294067, "hmax": 0.015, "ratio": 0.005, "vulnClass": "none"}}, {"type": "Feature", "geometry": {"type": "MultiPolygon", "coordinates": [[[[72.21901064, 34.23505831], [72.21905799, 34.23525219], [72.21914046, 34.23523843], [72.21910612, 34.23509781], [72.21919117, 34.23508362], [72.21917816, 34.23503035], [72.21901064, 34.23505831]]]]}, "properties": {"id": "Pakistan_123102310_803169", "height": 3.291504144668579, "hmax": 0.015, "ratio": 0.005, "vulnClass": "none"}}, {"type": "Feature", "geometry": {"type": "MultiPolygon", "coordinates": [[[[72.21923334, 34.23489886], [72.21923025, 34.23510506], [72.21930802, 34.23510585], [72.2193092, 34.2350271], [72.21930383, 34.23502705], [72.21930574, 34.2348996], [72.21923334, 34.23489886]]]]}, "properties": {"id": "Pakistan_123102310_722749", "height": 2.656142234802246, "hmax": 0.015, "ratio": 0.006, "vulnClass": "none"}}, {"type": "Feature", "geometry": {"type": "MultiPolygon", "coordinates": [[[[72.21938299, 34.23476455], [72.21927043, 34.23476728], [72.21927166, 34.23480159], [72.21922342, 34.23480276], [72.2192265, 34.23488917], [72.21938729, 34.23488525], [72.21938299, 34.23476455]]]]}, "properties": {"id": "Pakistan_123102310_575501", "height": 5.042867183685303, "hmax": 0.009, "ratio": 0.002, "vulnClass": "none"}}, {"type": "Feature", "geometry": {"type": "MultiPolygon", "coordinates": [[[[72.21913186, 34.2348118], [72.21903558, 34.23481602], [72.21904815, 34.23501169], [72.21921398, 34.23500441], [72.21921064, 34.23495248], [72.2191411, 34.23495553], [72.21913186, 34.2348118]]]]}, "properties": {"id": "Pakistan_123102310_157202", "height": 2.92901873588562, "hmax": 0.013, "ratio": 0.004, "vulnClass": "none"}}, {"type": "Feature", "geometry": {"type": "MultiPolygon", "coordinates": [[[[72.21996997, 34.23450647], [72.21981999, 34.23451122], [72.21982651, 34.23465176], [72.21988543, 34.23464989], [72.21988183, 34.23457239], [72.2199729, 34.2345695], [72.21996997, 34.23450647]]]]}, "properties": {"id": "Pakistan_123102310_138296", "height": 2.623129844665527, "hmax": 0.015, "ratio": 0.006, "vulnClass": "none"}}, {"type": "Feature", "geometry": {"type": "MultiPolygon", "coordinates": [[[[72.22079631, 34.23538698], [72.22078243, 34.23531565], [72.22073537, 34.23532191], [72.22074925, 34.23539324], [72.22079631, 34.23538698]]]]}, "properties": {"id": "Pakistan_123102310_128926", "height": 2.705715179443359, "hmax": 0.008, "ratio": 0.003, "vulnClass": "none"}}, {"type": "Feature", "geometry": {"type": "MultiPolygon", "coordinates": [[[[72.22306467, 34.23514202], [72.22301708, 34.23514675], [72.22302673, 34.23521317], [72.22307432, 34.23520844], [72.22306467, 34.23514202]]]]}, "properties": {"id": "Pakistan_123102310_16357", "height": 3.332799434661865, "hmax": 0.018, "ratio": 0.005, "vulnClass": "none"}}, {"type": "Feature", "geometry": {"type": "MultiPolygon", "coordinates": [[[[72.22165247, 34.23294379], [72.22199922, 34.2329348], [72.22200018, 34.23296008], [72.22201894, 34.23295959], [72.22201395, 34.23282798], [72.22164843, 34.23283745], [72.22165247, 34.23294379]]]]}, "properties": {"id": "Pakistan_123102310_35383", "height": 2.811689853668213, "hmax": 0.014, "ratio": 0.005, "vulnClass": "none"}}, {"type": "Feature", "geometry": {"type": "MultiPolygon", "coordinates": [[[[72.2214075, 34.23337972], [72.2214343, 34.23376112], [72.22153753, 34.23375616], [72.22151406, 34.23342244], [72.22164609, 34.2334161], [72.22164274, 34.23336841], [72.2214075, 34.23337972]]]]}, "properties": {"id": "Pakistan_123102310_698867", "height": 2.634703636169434, "hmax": 0.011, "ratio": 0.004, "vulnClass": "none"}}, {"type": "Feature", "geometry": {"type": "MultiPolygon", "coordinates": [[[[72.22013866, 34.23426689], [72.21992362, 34.23428494], [72.21993305, 34.23436176], [72.22008703, 34.23434883], [72.22009338, 34.2344005], [72.21997391, 34.23441052], [72.21996972, 34.23437642], [72.21992459, 34.23438021], [72.21992581, 34.23439016], [72.21981431, 34.23439952], [72.21982765, 34.2345081], [72.21996835, 34.23449628], [72.21996754, 34.2344897], [72.220164, 34.2344732], [72.22013866, 34.23426689]]]]}, "properties": {"id": "Pakistan_123102310_912047", "height": 2.623129844665527, "hmax": 0.015, "ratio": 0.006, "vulnClass": "none"}}, {"type": "Feature", "geometry": {"type": "MultiPolygon", "coordinates": [[[[72.21767739, 34.23275901], [72.21767903, 34.23270361], [72.21756913, 34.23270138], [72.21756748, 34.23275679], [72.21767739, 34.23275901]]]]}, "properties": {"id": "Pakistan_123102310_43370", "height": 2.51844334602356, "hmax": 0.012, "ratio": 0.005, "vulnClass": "none"}}, {"type": "Feature", "geometry": {"type": "MultiPolygon", "coordinates": [[[[72.21809323, 34.23292616], [72.21809591, 34.23300371], [72.21844164, 34.23299555], [72.21843895, 34.232918], [72.21809323, 34.23292616]]]]}, "properties": {"id": "Pakistan_123102310_334054", "height": 3.180896043777466, "hmax": 0.012, "ratio": 0.004, "vulnClass": "none"}}, {"type": "Feature", "geometry": {"type": "MultiPolygon", "coordinates": [[[[72.21859788, 34.23324016], [72.21860381, 34.23342631], [72.21872978, 34.23342357], [72.21872858, 34.2333859], [72.21868838, 34.23338677], [72.21868365, 34.2332383], [72.21859788, 34.23324016]]]]}, "properties": {"id": "Pakistan_123102310_16283", "height": 2.778635740280151, "hmax": 0.017, "ratio": 0.006, "vulnClass": "none"}}, {"type": "Feature", "geometry": {"type": "MultiPolygon", "coordinates": [[[[72.21813332, 34.23290843], [72.21812578, 34.23285146], [72.21808867, 34.23285482], [72.21809622, 34.23291179], [72.21813332, 34.23290843]]]]}, "properties": {"id": "Pakistan_123102310_907258", "height": 3.180896043777466, "hmax": 0.012, "ratio": 0.004, "vulnClass": "none"}}, {"type": "Feature", "geometry": {"type": "MultiPolygon", "coordinates": [[[[72.21488632, 34.23635467], [72.21488374, 34.23631843], [72.21475277, 34.23632478], [72.21475534, 34.23636102], [72.21488632, 34.23635467]]]]}, "properties": {"id": "Pakistan_123102310_315041", "height": 2.708727359771729, "hmax": 0.01, "ratio": 0.004, "vulnClass": "none"}}, {"type": "Feature", "geometry": {"type": "MultiPolygon", "coordinates": [[[[72.21488676, 34.23631185], [72.21488516, 34.23627065], [72.21484339, 34.23627176], [72.214845, 34.23631296], [72.21488676, 34.23631185]]]]}, "properties": {"id": "Pakistan_123102310_646362", "height": 3.083022117614746, "hmax": 0.01, "ratio": 0.003, "vulnClass": "none"}}, {"type": "Feature", "geometry": {"type": "MultiPolygon", "coordinates": [[[[72.21582313, 34.2372039], [72.21587661, 34.23727691], [72.21610033, 34.2371649], [72.21607418, 34.23712921], [72.21590737, 34.23721272], [72.21588004, 34.23717541], [72.21582313, 34.2372039]]]]}, "properties": {"id": "Pakistan_123102310_897807", "height": 3.41063928604126, "hmax": 0.014, "ratio": 0.004, "vulnClass": "none"}}, {"type": "Feature", "geometry": {"type": "MultiPolygon", "coordinates": [[[[72.21506584, 34.23770286], [72.21508639, 34.23773929], [72.21522619, 34.23768539], [72.21515881, 34.23756593], [72.21511254, 34.23758376], [72.21515938, 34.2376668], [72.21506584, 34.23770286]]]]}, "properties": {"id": "Pakistan_123102310_452142", "height": 2.44518518447876, "hmax": 0.006, "ratio": 0.003, "vulnClass": "none"}}, {"type": "Feature", "geometry": {"type": "MultiPolygon", "coordinates": [[[[72.21516905, 34.23824226], [72.21516183, 34.23820326], [72.21511465, 34.23820923], [72.21512188, 34.23824823], [72.21516905, 34.23824226]]]]}, "properties": {"id": "Pakistan_123102310_622652", "height": 2.47743034362793, "hmax": 0.006, "ratio": 0.002, "vulnClass": "none"}}, {"type": "Feature", "geometry": {"type": "MultiPolygon", "coordinates": [[[[72.21510472, 34.23804563], [72.21510876, 34.23814661], [72.21515431, 34.23814537], [72.21515026, 34.23804438], [72.21510472, 34.23804563]]]]}, "properties": {"id": "Pakistan_123102310_679890", "height": 3.998859643936157, "hmax": 0.006, "ratio": 0.002, "vulnClass": "none"}}, {"type": "Feature", "geometry": {"type": "MultiPolygon", "coordinates": [[[[72.21258884, 34.23959062], [72.21260789, 34.23965318], [72.21277567, 34.23961826], [72.21275661, 34.2395557], [72.21258884, 34.23959062]]]]}, "properties": {"id": "Pakistan_123102310_195747", "height": 2.976998329162598, "hmax": 0.019, "ratio": 0.006, "vulnClass": "none"}}, {"type": "Feature", "geometry": {"type": "MultiPolygon", "coordinates": [[[[72.2129884, 34.23957291], [72.21296687, 34.23949493], [72.21290314, 34.23950695], [72.21288219, 34.23943108], [72.21275217, 34.2394556], [72.21279464, 34.23960946], [72.2129884, 34.23957291]]]]}, "properties": {"id": "Pakistan_123102310_452133", "height": 3.829476118087769, "hmax": 0.018, "ratio": 0.005, "vulnClass": "none"}}, {"type": "Feature", "geometry": {"type": "MultiPolygon", "coordinates": [[[[72.21366664, 34.23863391], [72.213622, 34.23846224], [72.21352714, 34.2384791], [72.21357179, 34.23865077], [72.21366664, 34.23863391]]]]}, "properties": {"id": "Pakistan_123102310_305576", "height": 3.142521619796753, "hmax": 0.017, "ratio": 0.005, "vulnClass": "none"}}, {"type": "Feature", "geometry": {"type": "MultiPolygon", "coordinates": [[[[72.21858393, 34.24214803], [72.2185719, 34.2421156], [72.21852286, 34.24212804], [72.2185349, 34.24216046], [72.21858393, 34.24214803]]]]}, "properties": {"id": "Pakistan_123102310_329332", "height": 4.260247230529785, "hmax": 0.008, "ratio": 0.002, "vulnClass": "none"}}, {"type": "Feature", "geometry": {"type": "MultiPolygon", "coordinates": [[[[72.21869856, 34.24215076], [72.21866468, 34.24208511], [72.21862973, 34.24209743], [72.21866361, 34.24216309], [72.21869856, 34.24215076]]]]}, "properties": {"id": "Pakistan_123102310_310384", "height": 2.939567089080811, "hmax": 0.009, "ratio": 0.003, "vulnClass": "none"}}, {"type": "Feature", "geometry": {"type": "MultiPolygon", "coordinates": [[[[72.21620451, 34.24150424], [72.21619393, 34.24129174], [72.21614305, 34.24129347], [72.21615363, 34.24150597], [72.21620451, 34.24150424]]]]}, "properties": {"id": "Pakistan_123102310_120167", "height": 3.498886108398438, "hmax": 0.016, "ratio": 0.005, "vulnClass": "none"}}, {"type": "Feature", "geometry": {"type": "MultiPolygon", "coordinates": [[[[72.21651603, 34.24155777], [72.21651237, 34.24147362], [72.21641593, 34.24147649], [72.21641747, 34.24151192], [72.21617639, 34.24151909], [72.21617851, 34.24156781], [72.21651603, 34.24155777]]]]}, "properties": {"id": "Pakistan_123102310_746601", "height": 3.053253412246704, "hmax": 0.016, "ratio": 0.005, "vulnClass": "none"}}, {"type": "Feature", "geometry": {"type": "MultiPolygon", "coordinates": [[[[72.21453743, 34.24031566], [72.21448654, 34.24031721], [72.21449035, 34.2404027], [72.21454124, 34.24040115], [72.21453743, 34.24031566]]]]}, "properties": {"id": "Pakistan_123102310_523382", "height": 12.603181838989258, "hmax": 0.019, "ratio": 0.002, "vulnClass": "none"}}, {"type": "Feature", "geometry": {"type": "MultiPolygon", "coordinates": [[[[72.21454668, 34.24052957], [72.21453388, 34.24042732], [72.21435077, 34.24044299], [72.21436357, 34.24054525], [72.21454668, 34.24052957]]]]}, "properties": {"id": "Pakistan_123102310_423749", "height": 6.722091674804688, "hmax": 0.019, "ratio": 0.003, "vulnClass": "none"}}, {"type": "Feature", "geometry": {"type": "MultiPolygon", "coordinates": [[[[72.21873503, 34.24226863], [72.21871498, 34.24220296], [72.21857882, 34.24223138], [72.21859887, 34.24229704], [72.21873503, 34.24226863]]]]}, "properties": {"id": "Pakistan_123102310_679912", "height": 2.692153453826904, "hmax": 0.008, "ratio": 0.003, "vulnClass": "none"}}]}