{"type": "FeatureCollection", "features": [{"type": "Feature", "geometry": {"type": "MultiPolygon", "coordinates": [[[[72.29438651, 34.28127104], [72.29433376, 34.28126647], [72.29432766, 34.28131494], [72.29438041, 34.28131951], [72.29438651, 34.28127104]]]]}, "properties": {"id": "8J6J77JV+GP9M", "height": 3.196814298629761, "hmax": 0.005, "ratio": 0.002, "vulnClass": "none"}}, {"type": "Feature", "geometry": {"type": "MultiPolygon", "coordinates": [[[[72.2951418, 34.28182385], [72.29510328, 34.28182162], [72.29509916, 34.28187067], [72.29513768, 34.28187289], [72.2951418, 34.28182385]]]]}, "properties": {"id": "8J6J77JW+P2QX", "height": 3.025500059127808, "hmax": 0.002, "ratio": 0.001, "vulnClass": "none"}}, {"type": "Feature", "geometry": {"type": "MultiPolygon", "coordinates": [[[[72.29558694, 34.282901], [72.2954676, 34.28289449], [72.29546402, 34.28293972], [72.29558335, 34.28294624], [72.29558694, 34.282901]]]]}, "properties": {"id": "8J6J77MW+566X", "height": 3.405747413635254, "hmax": 0.033, "ratio": 0.01, "vulnClass": "none"}}, {"type": "Feature", "geometry": {"type": "MultiPolygon", "coordinates": [[[[72.29543857, 34.28281229], [72.29535186, 34.2828067], [72.29534528, 34.28287704], [72.29543199, 34.28288263], [72.29543857, 34.28281229]]]]}, "properties": {"id": "8J6J77MW+45JP", "height": 2.570588350296021, "hmax": 0.033, "ratio": 0.013, "vulnClass": "none"}}, {"type": "Feature", "geometry": {"type": "MultiPolygon", "coordinates": [[[[72.29544282, 34.28281373], [72.29544681, 34.28275096], [72.29541465, 34.28274955], [72.29541343, 34.28276865], [72.29536431, 34.2827665], [72.29536153, 34.28281016], [72.29544282, 34.28281373]]]]}, "properties": {"id": "8J6J77MW+457C", "height": 2.569977998733521, "hmax": 0.033, "ratio": 0.013, "vulnClass": "none"}}, {"type": "Feature", "geometry": {"type": "MultiPolygon", "coordinates": [[[[72.29051331, 34.28592178], [72.29036137, 34.28591841], [72.29035982, 34.28596656], [72.29051176, 34.28596992], [72.29051331, 34.28592178]]]]}, "properties": {"id": "8J6J77PR+95FQ", "height": 5.944525718688965, "hmax": 0.002, "ratio": 0.0, "vulnClass": "none"}}, {"type": "Feature", "geometry": {"type": "MultiPolygon", "coordinates": [[[[72.29964586, 34.2820425], [72.29939709, 34.28203784], [72.29939574, 34.2820877], [72.2996445, 34.28209236], [72.29964586, 34.2820425]]]]}, "properties": {"id": "8J6J77JX+RRCP", "height": 2.844088554382324, "hmax": 0.004, "ratio": 0.001, "vulnClass": "none"}}, {"type": "Feature", "geometry": {"type": "MultiPolygon", "coordinates": [[[[72.30193344, 34.28220408], [72.30177464, 34.2821864], [72.30176146, 34.28226791], [72.30192027, 34.2822856], [72.30193344, 34.28220408]]]]}, "properties": {"id": "8J6J78J2+VPXC", "height": 3.223420858383179, "hmax": 0.004, "ratio": 0.001, "vulnClass": "none"}}, {"type": "Feature", "geometry": {"type": "MultiPolygon", "coordinates": [[[[72.2965194, 34.28068252], [72.29649092, 34.28067895], [72.29648699, 34.28070059], [72.29651547, 34.28070416], [72.2965194, 34.28068252]]]]}, "properties": {"id": "8J6J77JW+7JCJ", "height": 3.113974809646606, "hmax": 0.014, "ratio": 0.005, "vulnClass": "none"}}, {"type": "Feature", "geometry": {"type": "MultiPolygon", "coordinates": [[[[72.29649245, 34.28079931], [72.2964885, 34.28075641], [72.29638342, 34.28076308], [72.29638737, 34.28080598], [72.29649245, 34.28079931]]]]}, "properties": {"id": "8J6J77JW+8H86", "height": 2.899265766143799, "hmax": 0.013, "ratio": 0.005, "vulnClass": "none"}}]}