{"type": "FeatureCollection", "features": [{"type": "Feature", "geometry": {"type": "MultiPolygon", "coordinates": [[[[71.89725743, 34.41398509], [71.89725585, 34.41403595], [71.89730409, 34.41403698], [71.89730568, 34.41398612], [71.89725743, 34.41398509]]]]}, "properties": {"id": "Pakistan_123102132_508942", "height": 3.266183853149414, "hmax": 0.019, "ratio": 0.006, "vulnClass": "none"}}, {"type": "Feature", "geometry": {"type": "MultiPolygon", "coordinates": [[[[71.89724383, 34.41403752], [71.89724987, 34.41385842], [71.89718019, 34.41385682], [71.89717414, 34.41403592], [71.89724383, 34.41403752]]]]}, "properties": {"id": "Pakistan_123102132_465786", "height": 2.875383853912354, "hmax": 0.019, "ratio": 0.007, "vulnClass": "none"}}, {"type": "Feature", "geometry": {"type": "MultiPolygon", "coordinates": [[[[71.89675283, 34.41378499], [71.89674807, 34.41386537], [71.8969113, 34.41387195], [71.89691606, 34.41379156], [71.89675283, 34.41378499]]]]}, "properties": {"id": "Pakistan_123102132_512005", "height": 2.600795030593872, "hmax": 0.018, "ratio": 0.007, "vulnClass": "none"}}, {"type": "Feature", "geometry": {"type": "MultiPolygon", "coordinates": [[[[71.89692708, 34.41372655], [71.89693418, 34.4136741], [71.89688535, 34.4136696], [71.89687826, 34.41372206], [71.89692708, 34.41372655]]]]}, "properties": {"id": "Pakistan_123102132_554669", "height": 2.44944953918457, "hmax": 0.013, "ratio": 0.005, "vulnClass": "none"}}, {"type": "Feature", "geometry": {"type": "MultiPolygon", "coordinates": [[[[71.89696422, 34.41344374], [71.89690584, 34.41395384], [71.89696698, 34.4139586], [71.89697602, 34.41387964], [71.8970068, 34.41388204], [71.89702561, 34.41371754], [71.89715588, 34.41372768], [71.89716516, 34.41364653], [71.8970254, 34.41363566], [71.89704286, 34.41348306], [71.89715984, 34.41349217], [71.89715392, 34.41354387], [71.8973028, 34.41355546], [71.89729692, 34.41360684], [71.89734477, 34.41361057], [71.89736033, 34.41347459], [71.89696422, 34.41344374]]]]}, "properties": {"id": "Pakistan_123102132_194852", "height": 4.159622192382812, "hmax": 0.012, "ratio": 0.003, "vulnClass": "none"}}, {"type": "Feature", "geometry": {"type": "MultiPolygon", "coordinates": [[[[71.88699351, 34.41275471], [71.88682368, 34.41268724], [71.88679013, 34.41274472], [71.88695995, 34.41281219], [71.88699351, 34.41275471]]]]}, "properties": {"id": "Pakistan_123102132_603619", "height": 3.31549334526062, "hmax": 0.007, "ratio": 0.002, "vulnClass": "none"}}, {"type": "Feature", "geometry": {"type": "MultiPolygon", "coordinates": [[[[71.88732607, 34.41278968], [71.88717736, 34.41278751], [71.88717564, 34.41286836], [71.88732433, 34.41287052], [71.88732607, 34.41278968]]]]}, "properties": {"id": "Pakistan_123102132_200923", "height": 3.306831359863281, "hmax": 0.007, "ratio": 0.002, "vulnClass": "none"}}, {"type": "Feature", "geometry": {"type": "MultiPolygon", "coordinates": [[[[71.88847802, 34.41264302], [71.88840834, 34.41264135], [71.88840635, 34.41269776], [71.88847603, 34.41269943], [71.88847802, 34.41264302]]]]}, "properties": {"id": "Pakistan_123102132_154484", "height": 2.772209882736206, "hmax": 0.003, "ratio": 0.001, "vulnClass": "none"}}, {"type": "Feature", "geometry": {"type": "MultiPolygon", "coordinates": [[[[71.88865819, 34.41263375], [71.88851351, 34.41262974], [71.88850702, 34.41278888], [71.88865169, 34.41279289], [71.88865819, 34.41263375]]]]}, "properties": {"id": "Pakistan_123102132_250204", "height": 4.751096725463867, "hmax": 0.003, "ratio": 0.001, "vulnClass": "none"}}, {"type": "Feature", "geometry": {"type": "MultiPolygon", "coordinates": [[[[71.88640231, 34.41934605], [71.88660576, 34.41935352], [71.88660773, 34.41931694], [71.8864953, 34.41931281], [71.88650174, 34.41919356], [71.88651245, 34.41919396], [71.88652143, 34.41902738], [71.88641971, 34.41902364], [71.88640231, 34.41934605]]]]}, "properties": {"id": "Pakistan_123102132_388691", "height": 2.889895915985107, "hmax": 0.012, "ratio": 0.004, "vulnClass": "none"}}, {"type": "Feature", "geometry": {"type": "MultiPolygon", "coordinates": [[[[71.88658602, 34.41914591], [71.88660203, 34.41909263], [71.88656413, 34.41908487], [71.88654811, 34.41913816], [71.88658602, 34.41914591]]]]}, "properties": {"id": "Pakistan_123102132_357848", "height": 2.975167274475098, "hmax": 0.012, "ratio": 0.004, "vulnClass": "none"}}, {"type": "Feature", "geometry": {"type": "MultiPolygon", "coordinates": [[[[71.88759847, 34.41850052], [71.88765595, 34.41850152], [71.8876599, 34.41834773], [71.88760244, 34.41834672], [71.88759847, 34.41850052]]]]}, "properties": {"id": "Pakistan_123102132_585168", "height": 3.116719007492065, "hmax": 0.004, "ratio": 0.001, "vulnClass": "none"}}, {"type": "Feature", "geometry": {"type": "MultiPolygon", "coordinates": [[[[71.88714168, 34.41855045], [71.88715285, 34.41845845], [71.88683418, 34.41843212], [71.88682301, 34.41852413], [71.88714168, 34.41855045]]]]}, "properties": {"id": "Pakistan_123102132_339408", "height": 3.682408571243286, "hmax": 0.005, "ratio": 0.001, "vulnClass": "none"}}, {"type": "Feature", "geometry": {"type": "MultiPolygon", "coordinates": [[[[71.88748486, 34.41741905], [71.88751357, 34.41728608], [71.88745638, 34.41727768], [71.88743786, 34.41736346], [71.88719348, 34.41732755], [71.88717033, 34.41743479], [71.88711158, 34.41742615], [71.88710001, 34.41747977], [71.88725494, 34.41750254], [71.88727948, 34.41738887], [71.88748486, 34.41741905]]]]}, "properties": {"id": "Pakistan_123102132_12935", "height": 2.831748962402344, "hmax": 0.004, "ratio": 0.001, "vulnClass": "none"}}, {"type": "Feature", "geometry": {"type": "MultiPolygon", "coordinates": [[[[71.88741222, 34.41747904], [71.88740569, 34.41751029], [71.88733381, 34.41750007], [71.88732483, 34.41754304], [71.88746443, 34.41756289], [71.88747995, 34.41748867], [71.88741222, 34.41747904]]]]}, "properties": {"id": "Pakistan_123102132_222372", "height": 3.252233266830444, "hmax": 0.004, "ratio": 0.001, "vulnClass": "none"}}, {"type": "Feature", "geometry": {"type": "MultiPolygon", "coordinates": [[[[71.89453052, 34.41586298], [71.89453158, 34.41592271], [71.89467811, 34.41592093], [71.89467704, 34.4158612], [71.89453052, 34.41586298]]]]}, "properties": {"id": "Pakistan_123102132_117476", "height": 2.752578258514404, "hmax": 0.004, "ratio": 0.002, "vulnClass": "none"}}, {"type": "Feature", "geometry": {"type": "MultiPolygon", "coordinates": [[[[71.89391846, 34.41536841], [71.89391708, 34.41541402], [71.89382594, 34.41541213], [71.89382356, 34.41549036], [71.89395223, 34.41549302], [71.89395599, 34.41536918], [71.89391846, 34.41536841]]]]}, "properties": {"id": "Pakistan_123102132_391779", "height": 2.508644580841064, "hmax": 0.007, "ratio": 0.003, "vulnClass": "none"}}, {"type": "Feature", "geometry": {"type": "MultiPolygon", "coordinates": [[[[71.89651877, 34.41506617], [71.89648658, 34.41506617], [71.89648658, 34.41499979], [71.89634711, 34.41499979], [71.89634711, 34.41515689], [71.89651877, 34.41515689], [71.89651877, 34.41506617]]]]}, "properties": {"id": "Pakistan_123102132_148337", "height": 4.455076694488525, "hmax": 0.02, "ratio": 0.005, "vulnClass": "none"}}, {"type": "Feature", "geometry": {"type": "MultiPolygon", "coordinates": [[[[71.89617157, 34.41432629], [71.89615981, 34.41445612], [71.89640094, 34.41447099], [71.89641471, 34.41431916], [71.89625092, 34.41430906], [71.89625969, 34.41421224], [71.89617167, 34.41420681], [71.89617466, 34.41417381], [71.89609464, 34.41416887], [71.89608088, 34.4143207], [71.89617157, 34.41432629]]]]}, "properties": {"id": "Pakistan_123102132_333317", "height": 2.478510856628418, "hmax": 0.018, "ratio": 0.007, "vulnClass": "none"}}, {"type": "Feature", "geometry": {"type": "MultiPolygon", "coordinates": [[[[71.89717949, 34.41509749], [71.89735262, 34.41513053], [71.89737735, 34.41504231], [71.89720422, 34.41500928], [71.89717949, 34.41509749]]]]}, "properties": {"id": "Pakistan_123102132_585239", "height": 2.939100742340088, "hmax": 0.014, "ratio": 0.005, "vulnClass": "none"}}, {"type": "Feature", "geometry": {"type": "MultiPolygon", "coordinates": [[[[71.89666112, 34.41515899], [71.89685654, 34.41516613], [71.89685915, 34.41511755], [71.89685915, 34.41511755], [71.89686028, 34.41509638], [71.89682548, 34.41509511], [71.89682281, 34.41514498], [71.89677462, 34.41514322], [71.89678067, 34.41503059], [71.89684224, 34.41503284], [71.89684437, 34.41499309], [71.8969043, 34.41499528], [71.89690651, 34.41495425], [71.89681445, 34.41495088], [71.8968183, 34.41487929], [71.89700569, 34.41488614], [71.89700865, 34.41483093], [71.89681056, 34.41482369], [71.8968121, 34.41479498], [71.89668093, 34.41479019], [71.89666112, 34.41515899]]]]}, "properties": {"id": "Pakistan_123102132_287156", "height": 3.098151206970215, "hmax": 0.02, "ratio": 0.007, "vulnClass": "none"}}, {"type": "Feature", "geometry": {"type": "MultiPolygon", "coordinates": [[[[71.89691557, 34.41529054], [71.89702659, 34.41530861], [71.89702943, 34.41529672], [71.89725404, 34.41533328], [71.89726066, 34.4153056], [71.89709899, 34.41527928], [71.89712242, 34.41518131], [71.89706562, 34.41517206], [71.8971015, 34.41502207], [71.89718828, 34.41503619], [71.89719948, 34.41498934], [71.89699552, 34.41495615], [71.89691557, 34.41529054]]]]}, "properties": {"id": "Pakistan_123102132_145253", "height": 3.29552698135376, "hmax": 0.017, "ratio": 0.005, "vulnClass": "none"}}, {"type": "Feature", "geometry": {"type": "MultiPolygon", "coordinates": [[[[71.89656207, 34.41491849], [71.89651415, 34.41492191], [71.89652222, 34.41499878], [71.89660475, 34.41499288], [71.89660096, 34.41495684], [71.89656636, 34.41495932], [71.89656207, 34.41491849]]]]}, "properties": {"id": "Pakistan_123102132_296342", "height": 2.754707813262939, "hmax": 0.02, "ratio": 0.007, "vulnClass": "none"}}, {"type": "Feature", "geometry": {"type": "MultiPolygon", "coordinates": [[[[71.89736753, 34.41517589], [71.89731736, 34.415346], [71.89741613, 34.41536583], [71.89746629, 34.41519571], [71.89736753, 34.41517589]]]]}, "properties": {"id": "Pakistan_123102132_557632", "height": 2.475620031356812, "hmax": 0.014, "ratio": 0.006, "vulnClass": "none"}}, {"type": "Feature", "geometry": {"type": "MultiPolygon", "coordinates": [[[[71.89523783, 34.41560297], [71.89510913, 34.415605], [71.89511082, 34.41567799], [71.89499392, 34.41567984], [71.89496807, 34.4157245], [71.89482764, 34.41572671], [71.89482528, 34.41562496], [71.89471365, 34.41562672], [71.89471876, 34.41584791], [71.89493862, 34.41584445], [71.89494158, 34.41597274], [71.89512563, 34.41596984], [71.89512488, 34.4159376], [71.89507345, 34.41591734], [71.89507252, 34.41587715], [71.89510555, 34.41589016], [71.89511806, 34.41586853], [71.8950719, 34.41585035], [71.89507151, 34.4158335], [71.89520021, 34.41583147], [71.89520128, 34.41587792], [71.89525855, 34.41587702], [71.89525978, 34.41593016], [71.89528956, 34.41594189], [71.8952922, 34.41605661], [71.89553852, 34.41615363], [71.89553394, 34.4159549], [71.89530115, 34.4158632], [71.89530048, 34.41583417], [71.89524266, 34.4158114], [71.89523783, 34.41560297]]]]}, "properties": {"id": "Pakistan_123102132_22244", "height": 3.779160499572754, "hmax": 0.014, "ratio": 0.004, "vulnClass": "none"}}, {"type": "Feature", "geometry": {"type": "MultiPolygon", "coordinates": [[[[71.89467266, 34.41605072], [71.89455749, 34.41604712], [71.89454725, 34.41627029], [71.89466242, 34.41627388], [71.89467266, 34.41605072]]]]}, "properties": {"id": "Pakistan_123102132_74441", "height": 3.276732683181763, "hmax": 0.004, "ratio": 0.001, "vulnClass": "none"}}, {"type": "Feature", "geometry": {"type": "MultiPolygon", "coordinates": [[[[71.89531553, 34.41650274], [71.89540759, 34.4164999], [71.89540448, 34.4164314], [71.89531242, 34.41643425], [71.89531553, 34.41650274]]]]}, "properties": {"id": "Pakistan_123102132_453487", "height": 2.918998956680298, "hmax": 0.015, "ratio": 0.005, "vulnClass": "none"}}, {"type": "Feature", "geometry": {"type": "MultiPolygon", "coordinates": [[[[71.89453331, 34.41658334], [71.89454469, 34.4168308], [71.89483931, 34.41682158], [71.89483138, 34.41664924], [71.89472157, 34.41665268], [71.89472503, 34.4167278], [71.89459277, 34.41673194], [71.89459135, 34.416701], [71.89455117, 34.41670226], [71.89454742, 34.41662051], [71.89460467, 34.41661872], [71.89460295, 34.41658116], [71.89453331, 34.41658334]]]]}, "properties": {"id": "Pakistan_123102132_606770", "height": 2.540027379989624, "hmax": 0.01, "ratio": 0.004, "vulnClass": "none"}}, {"type": "Feature", "geometry": {"type": "MultiPolygon", "coordinates": [[[[71.89501702, 34.41693656], [71.89515816, 34.41695791], [71.89519145, 34.41680805], [71.89505032, 34.41678671], [71.89501702, 34.41693656]]]]}, "properties": {"id": "Pakistan_123102132_502697", "height": 3.27503228187561, "hmax": 0.015, "ratio": 0.005, "vulnClass": "none"}}, {"type": "Feature", "geometry": {"type": "MultiPolygon", "coordinates": [[[[71.8955102, 34.41709868], [71.89552985, 34.41686219], [71.89519881, 34.41684347], [71.89517917, 34.41707995], [71.8955102, 34.41709868]]]]}, "properties": {"id": "Pakistan_123102132_388764", "height": 3.245722055435181, "hmax": 0.015, "ratio": 0.005, "vulnClass": "none"}}, {"type": "Feature", "geometry": {"type": "MultiPolygon", "coordinates": [[[[71.8950536, 34.41673599], [71.89510227, 34.41675008], [71.89514113, 34.41665872], [71.89509246, 34.41664463], [71.8950536, 34.41673599]]]]}, "properties": {"id": "Pakistan_123102132_265609", "height": 3.284267902374268, "hmax": 0.015, "ratio": 0.005, "vulnClass": "none"}}, {"type": "Feature", "geometry": {"type": "MultiPolygon", "coordinates": [[[[71.89523731, 34.41660712], [71.89532644, 34.4166241], [71.89534996, 34.41654007], [71.89526083, 34.4165231], [71.89523731, 34.41660712]]]]}, "properties": {"id": "Pakistan_123102132_515006", "height": 2.837884426116943, "hmax": 0.015, "ratio": 0.005, "vulnClass": "none"}}, {"type": "Feature", "geometry": {"type": "MultiPolygon", "coordinates": [[[[71.89700433, 34.41705563], [71.89723348, 34.41722249], [71.8972601, 34.41719762], [71.89720884, 34.4171603], [71.89723945, 34.41713169], [71.89728618, 34.41716572], [71.89733542, 34.41711971], [71.89717109, 34.41700005], [71.89722565, 34.41694906], [71.89716535, 34.41690515], [71.89700433, 34.41705563]]]]}, "properties": {"id": "Pakistan_123102132_284030", "height": 2.974800109863281, "hmax": 0.009, "ratio": 0.003, "vulnClass": "none"}}, {"type": "Feature", "geometry": {"type": "MultiPolygon", "coordinates": [[[[71.89720097, 34.41691945], [71.89743728, 34.41704796], [71.89749644, 34.41697392], [71.89733938, 34.41688851], [71.89738869, 34.41682682], [71.89744104, 34.41685529], [71.89746692, 34.4168229], [71.89733533, 34.41675134], [71.89720097, 34.41691945]]]]}, "properties": {"id": "Pakistan_123102132_357926", "height": 2.633147001266479, "hmax": 0.009, "ratio": 0.003, "vulnClass": "none"}}, {"type": "Feature", "geometry": {"type": "MultiPolygon", "coordinates": [[[[71.89742977, 34.41793407], [71.89743662, 34.41789739], [71.89744783, 34.41789531], [71.89742302, 34.41780479], [71.89746616, 34.41779674], [71.89747553, 34.41774665], [71.89757138, 34.41775885], [71.89756613, 34.41778695], [71.89761553, 34.41779323], [71.89764927, 34.41778694], [71.89766853, 34.41768395], [71.8974537, 34.41765662], [71.89747259, 34.41755562], [71.8975115, 34.41754836], [71.89751688, 34.41751959], [71.8974802, 34.41751492], [71.89748684, 34.4174794], [71.89731237, 34.41745721], [71.89729621, 34.41754366], [71.89740886, 34.41755799], [71.8973897, 34.41766054], [71.8972526, 34.4176861], [71.89723823, 34.41763364], [71.89719614, 34.41762829], [71.89716907, 34.41777309], [71.89725808, 34.41778442], [71.89724516, 34.41773725], [71.89737414, 34.41775367], [71.89740402, 34.41786269], [71.89716106, 34.417908], [71.8971463, 34.41798692], [71.89742977, 34.41793407]]]]}, "properties": {"id": "Pakistan_123102132_435113", "height": 3.639148473739624, "hmax": 0.007, "ratio": 0.002, "vulnClass": "none"}}, {"type": "Feature", "geometry": {"type": "MultiPolygon", "coordinates": [[[[71.89742839, 34.4182011], [71.89742079, 34.41797876], [71.8974277, 34.4179786], [71.89742714, 34.41796217], [71.89715377, 34.41796853], [71.89715634, 34.4180437], [71.89720458, 34.41804258], [71.89720363, 34.41801478], [71.89724496, 34.41801382], [71.89724874, 34.41812436], [71.89716988, 34.41812619], [71.89717626, 34.41831318], [71.89730338, 34.41831022], [71.89729975, 34.4182041], [71.89742839, 34.4182011]]]]}, "properties": {"id": "Pakistan_123102132_231690", "height": 4.288464546203613, "hmax": 0.007, "ratio": 0.002, "vulnClass": "none"}}, {"type": "Feature", "geometry": {"type": "MultiPolygon", "coordinates": [[[[71.89452744, 34.41650263], [71.89450062, 34.41650304], [71.89450246, 34.41658488], [71.89452927, 34.41658447], [71.89452744, 34.41650263]]]]}, "properties": {"id": "Pakistan_123102132_216373", "height": 3.681291103363037, "hmax": 0.009, "ratio": 0.002, "vulnClass": "none"}}, {"type": "Feature", "geometry": {"type": "MultiPolygon", "coordinates": [[[[71.89428892, 34.41969848], [71.89428719, 34.4196277], [71.89422821, 34.41962868], [71.89422994, 34.41969946], [71.89428892, 34.41969848]]]]}, "properties": {"id": "Pakistan_123102132_216370", "height": 2.512350559234619, "hmax": 0.06, "ratio": 0.024, "vulnClass": "none"}}, {"type": "Feature", "geometry": {"type": "MultiPolygon", "coordinates": [[[[71.89145831, 34.42030396], [71.89135594, 34.42027391], [71.89133391, 34.42032496], [71.89143627, 34.42035502], [71.89145831, 34.42030396]]]]}, "properties": {"id": "Pakistan_123102132_129862", "height": 2.828620195388794, "hmax": 0.003, "ratio": 0.001, "vulnClass": "none"}}, {"type": "Feature", "geometry": {"type": "MultiPolygon", "coordinates": [[[[71.89142809, 34.4207928], [71.89154659, 34.42089744], [71.89159099, 34.42086323], [71.89147249, 34.42075858], [71.89142809, 34.4207928]]]]}, "properties": {"id": "Pakistan_123102132_59131", "height": 4.003243446350098, "hmax": 0.002, "ratio": 0.001, "vulnClass": "none"}}, {"type": "Feature", "geometry": {"type": "MultiPolygon", "coordinates": [[[[71.89512796, 34.4199569], [71.89501289, 34.41997512], [71.89503175, 34.42005621], [71.89514683, 34.42003799], [71.89512796, 34.4199569]]]]}, "properties": {"id": "Pakistan_123102132_379342", "height": 4.188563823699951, "hmax": 0.027, "ratio": 0.006, "vulnClass": "none"}}, {"type": "Feature", "geometry": {"type": "MultiPolygon", "coordinates": [[[[71.89603202, 34.42016942], [71.89583581, 34.42020409], [71.89582064, 34.42014568], [71.89582577, 34.42014478], [71.89581017, 34.42008472], [71.89576145, 34.42009333], [71.89578089, 34.42016819], [71.89573347, 34.42017657], [71.89574754, 34.42023075], [71.89579753, 34.42022192], [71.89581532, 34.42029044], [71.89605256, 34.42024853], [71.89603202, 34.42016942]]]]}, "properties": {"id": "Pakistan_123102132_6893", "height": 3.456730365753174, "hmax": 0.018, "ratio": 0.005, "vulnClass": "none"}}, {"type": "Feature", "geometry": {"type": "MultiPolygon", "coordinates": [[[[71.89644187, 34.42001257], [71.89643762, 34.42010093], [71.89652063, 34.42010365], [71.89652489, 34.42001529], [71.89644187, 34.42001257]]]]}, "properties": {"id": "Pakistan_123102132_478182", "height": 2.471699476242065, "hmax": 0.014, "ratio": 0.006, "vulnClass": "none"}}, {"type": "Feature", "geometry": {"type": "MultiPolygon", "coordinates": [[[[71.896452, 34.4201793], [71.89644207, 34.42028311], [71.89646062, 34.4203558], [71.89645951, 34.4203673], [71.89649354, 34.42050062], [71.89695884, 34.42053092], [71.89696557, 34.42046056], [71.89686428, 34.42045396], [71.89686922, 34.42040233], [71.8968833, 34.42039988], [71.89695218, 34.42040437], [71.8969648, 34.42027244], [71.8968096, 34.42026233], [71.89678273, 34.42015702], [71.89676572, 34.4203347], [71.89670175, 34.42033053], [71.89669544, 34.4203965], [71.8965613, 34.42038776], [71.89653462, 34.42028322], [71.89653746, 34.42025346], [71.89665742, 34.42026127], [71.89666394, 34.4201931], [71.896452, 34.4201793]]]]}, "properties": {"id": "Pakistan_123102132_194848", "height": 3.865968704223633, "hmax": 0.017, "ratio": 0.004, "vulnClass": "none"}}, {"type": "Feature", "geometry": {"type": "MultiPolygon", "coordinates": [[[[71.89630623, 34.42033878], [71.89640807, 34.42033627], [71.8964045, 34.42023769], [71.89630267, 34.42024019], [71.89630623, 34.42033878]]]]}, "properties": {"id": "Pakistan_123102132_321049", "height": 3.935477256774902, "hmax": 0.017, "ratio": 0.004, "vulnClass": "none"}}, {"type": "Feature", "geometry": {"type": "MultiPolygon", "coordinates": [[[[71.89701153, 34.42052158], [71.89700768, 34.42060554], [71.8971416, 34.42060971], [71.89714545, 34.42052575], [71.89701153, 34.42052158]]]]}, "properties": {"id": "Pakistan_123102132_588255", "height": 3.646762132644653, "hmax": 0.019, "ratio": 0.005, "vulnClass": "none"}}, {"type": "Feature", "geometry": {"type": "MultiPolygon", "coordinates": [[[[71.89693306, 34.42010062], [71.89692291, 34.4201736], [71.89703015, 34.42018376], [71.89704031, 34.42011077], [71.89693306, 34.42010062]]]]}, "properties": {"id": "Pakistan_123102132_572980", "height": 2.593297958374023, "hmax": 0.019, "ratio": 0.007, "vulnClass": "none"}}, {"type": "Feature", "geometry": {"type": "MultiPolygon", "coordinates": [[[[71.89669227, 34.42022231], [71.89677793, 34.42022545], [71.89678097, 34.42016895], [71.89669531, 34.4201658], [71.89669227, 34.42022231]]]]}, "properties": {"id": "Pakistan_123102132_478183", "height": 2.457578182220459, "hmax": 0.017, "ratio": 0.007, "vulnClass": "none"}}, {"type": "Feature", "geometry": {"type": "MultiPolygon", "coordinates": [[[[71.89728031, 34.41997454], [71.89719597, 34.41997123], [71.89719438, 34.41999866], [71.89727873, 34.42000198], [71.89728031, 34.41997454]]]]}, "properties": {"id": "Pakistan_123102132_376189", "height": 2.596135854721069, "hmax": 0.009, "ratio": 0.003, "vulnClass": "none"}}, {"type": "Feature", "geometry": {"type": "MultiPolygon", "coordinates": [[[[71.89718502, 34.42004795], [71.89724917, 34.4200592], [71.89726172, 34.42001051], [71.89719756, 34.41999926], [71.89718502, 34.42004795]]]]}, "properties": {"id": "Pakistan_123102132_370135", "height": 2.464853763580322, "hmax": 0.009, "ratio": 0.004, "vulnClass": "none"}}, {"type": "Feature", "geometry": {"type": "MultiPolygon", "coordinates": [[[[71.89709243, 34.42028622], [71.89738722, 34.4202933], [71.89738574, 34.4203353], [71.89742326, 34.4203362], [71.89741928, 34.42044895], [71.89762028, 34.42045378], [71.89762605, 34.42029018], [71.89770513, 34.42029208], [71.89770814, 34.42020684], [71.89754866, 34.420203], [71.89754589, 34.42028162], [71.89741189, 34.4202784], [71.89741587, 34.42016566], [71.89738103, 34.42016482], [71.89738462, 34.42006313], [71.89733102, 34.42006184], [71.89733055, 34.4200751], [71.89718316, 34.42007156], [71.89718245, 34.42009146], [71.89709938, 34.42008946], [71.89709243, 34.42028622]]]]}, "properties": {"id": "Pakistan_123102132_376186", "height": 3.535653352737427, "hmax": 0.019, "ratio": 0.005, "vulnClass": "none"}}, {"type": "Feature", "geometry": {"type": "MultiPolygon", "coordinates": [[[[71.89744902, 34.4200078], [71.89777255, 34.42003078], [71.89778068, 34.41995294], [71.89745714, 34.41992998], [71.89744902, 34.4200078]]]]}, "properties": {"id": "Pakistan_123102132_92709", "height": 2.839711666107178, "hmax": 0.009, "ratio": 0.003, "vulnClass": "none"}}, {"type": "Feature", "geometry": {"type": "MultiPolygon", "coordinates": [[[[71.89752623, 34.41915225], [71.89753355, 34.41902103], [71.89726322, 34.41901079], [71.8972559, 34.419142], [71.89752623, 34.41915225]]]]}, "properties": {"id": "Pakistan_123102132_548569", "height": 3.726628541946411, "hmax": 0.009, "ratio": 0.002, "vulnClass": "none"}}, {"type": "Feature", "geometry": {"type": "MultiPolygon", "coordinates": [[[[71.89694538, 34.41984506], [71.89692935, 34.42008328], [71.89705502, 34.42008904], [71.89706512, 34.41993904], [71.89702501, 34.41993721], [71.89702806, 34.41989182], [71.89709491, 34.41989488], [71.8971061, 34.41972851], [71.89708471, 34.41972753], [71.8970908, 34.41963709], [71.89680735, 34.41962412], [71.89680581, 34.41964709], [71.89674037, 34.41964409], [71.8967275, 34.41983508], [71.89694538, 34.41984506]]]]}, "properties": {"id": "Pakistan_123102132_40546", "height": 3.348188161849976, "hmax": 0.009, "ratio": 0.003, "vulnClass": "none"}}, {"type": "Feature", "geometry": {"type": "MultiPolygon", "coordinates": [[[[71.89731625, 34.41954391], [71.8972005, 34.41952416], [71.89718827, 34.41957296], [71.89730402, 34.41959271], [71.89731625, 34.41954391]]]]}, "properties": {"id": "Pakistan_123102132_582196", "height": 2.612127065658569, "hmax": 0.009, "ratio": 0.003, "vulnClass": "none"}}, {"type": "Feature", "geometry": {"type": "MultiPolygon", "coordinates": [[[[71.89717362, 34.41971908], [71.89715085, 34.41988735], [71.89728595, 34.4198998], [71.89729069, 34.41986483], [71.89739665, 34.41987459], [71.89740139, 34.41983962], [71.89764246, 34.41986182], [71.89765548, 34.41976567], [71.89746738, 34.41974834], [71.89748572, 34.41961285], [71.89758374, 34.41962188], [71.89759054, 34.41957161], [71.89748722, 34.4195621], [71.89748338, 34.41959051], [71.89740655, 34.41958344], [71.89738555, 34.4197386], [71.89717362, 34.41971908]]]]}, "properties": {"id": "Pakistan_123102132_407241", "height": 3.037431716918945, "hmax": 0.009, "ratio": 0.003, "vulnClass": "none"}}, {"type": "Feature", "geometry": {"type": "MultiPolygon", "coordinates": [[[[71.89712072, 34.42008326], [71.89717953, 34.42008604], [71.89718787, 34.41996601], [71.89731085, 34.41997182], [71.89731391, 34.41992772], [71.89713212, 34.41991913], [71.89712072, 34.42008326]]]]}, "properties": {"id": "Pakistan_123102132_502716", "height": 2.992578029632568, "hmax": 0.01, "ratio": 0.003, "vulnClass": "none"}}, {"type": "Feature", "geometry": {"type": "MultiPolygon", "coordinates": [[[[71.89691279, 34.42003726], [71.89693041, 34.41987482], [71.89684664, 34.41986864], [71.89684164, 34.41991473], [71.89672722, 34.41990629], [71.89670174, 34.42014115], [71.89686139, 34.42015294], [71.89685686, 34.42019465], [71.89690742, 34.42019838], [71.89691814, 34.4200996], [71.8968729, 34.42009626], [71.89687586, 34.42006901], [71.89681329, 34.42006439], [71.896817, 34.42003018], [71.89691279, 34.42003726]]]]}, "properties": {"id": "Pakistan_123102132_576125", "height": 3.060271024703979, "hmax": 0.012, "ratio": 0.004, "vulnClass": "none"}}, {"type": "Feature", "geometry": {"type": "MultiPolygon", "coordinates": [[[[71.89652471, 34.41987686], [71.89651852, 34.41977533], [71.89644896, 34.41977822], [71.89645515, 34.41987974], [71.89652471, 34.41987686]]]]}, "properties": {"id": "Pakistan_123102132_213400", "height": 2.824336767196655, "hmax": 0.008, "ratio": 0.003, "vulnClass": "none"}}, {"type": "Feature", "geometry": {"type": "MultiPolygon", "coordinates": [[[[71.89622773, 34.41961822], [71.89622532, 34.41971774], [71.89644786, 34.41972141], [71.89644697, 34.41975811], [71.89653009, 34.41975947], [71.89652809, 34.41984221], [71.89670504, 34.41984512], [71.89671001, 34.41963943], [71.89643118, 34.41963484], [71.8964315, 34.41962157], [71.89622773, 34.41961822]]]]}, "properties": {"id": "Pakistan_123102132_129904", "height": 2.750313282012939, "hmax": 0.008, "ratio": 0.003, "vulnClass": "none"}}, {"type": "Feature", "geometry": {"type": "MultiPolygon", "coordinates": [[[[71.89594761, 34.41976362], [71.89603351, 34.42023896], [71.89613059, 34.42022702], [71.8960576, 34.41982311], [71.89611008, 34.41981666], [71.89611618, 34.41985043], [71.89616341, 34.41984463], [71.89615653, 34.41980653], [71.89620901, 34.41980008], [71.89617928, 34.41963558], [71.8961373, 34.41964074], [71.8961549, 34.41973814], [71.89594761, 34.41976362]]]]}, "properties": {"id": "Pakistan_123102132_594451", "height": 3.809307098388672, "hmax": 0.011, "ratio": 0.003, "vulnClass": "none"}}, {"type": "Feature", "geometry": {"type": "MultiPolygon", "coordinates": [[[[71.89586747, 34.41994198], [71.89577287, 34.41995925], [71.89574988, 34.41987359], [71.89565527, 34.41989086], [71.89568244, 34.41999211], [71.89573358, 34.41998277], [71.89574299, 34.42001781], [71.89588106, 34.4199926], [71.89586747, 34.41994198]]]]}, "properties": {"id": "Pakistan_123102132_185642", "height": 3.533675193786621, "hmax": 0.02, "ratio": 0.006, "vulnClass": "none"}}, {"type": "Feature", "geometry": {"type": "MultiPolygon", "coordinates": [[[[71.8954901, 34.41970728], [71.89543708, 34.41972347], [71.89548479, 34.41982975], [71.89553781, 34.41981355], [71.8954901, 34.41970728]]]]}, "properties": {"id": "Pakistan_123102132_71356", "height": 5.599260330200195, "hmax": 0.025, "ratio": 0.005, "vulnClass": "none"}}, {"type": "Feature", "geometry": {"type": "MultiPolygon", "coordinates": [[[[71.89522042, 34.41968183], [71.8951712, 34.41969401], [71.89520192, 34.41977851], [71.89525114, 34.41976633], [71.89522042, 34.41968183]]]]}, "properties": {"id": "Pakistan_123102132_290213", "height": 3.265338182449341, "hmax": 0.025, "ratio": 0.008, "vulnClass": "none"}}, {"type": "Feature", "geometry": {"type": "MultiPolygon", "coordinates": [[[[71.89557635, 34.41992373], [71.89553673, 34.41981886], [71.89549517, 34.41982955], [71.89550355, 34.41985173], [71.89520284, 34.41992904], [71.8951617, 34.41982014], [71.89519348, 34.41981197], [71.89512719, 34.41963651], [71.89488516, 34.41969874], [71.89494078, 34.41984596], [71.89507153, 34.41981234], [71.89515459, 34.42003216], [71.89557635, 34.41992373]]]]}, "properties": {"id": "Pakistan_123102132_22246", "height": 4.833582878112793, "hmax": 0.025, "ratio": 0.005, "vulnClass": "none"}}, {"type": "Feature", "geometry": {"type": "MultiPolygon", "coordinates": [[[[71.89491687, 34.41953957], [71.89491435, 34.41963245], [71.89510879, 34.41963605], [71.89511132, 34.41954317], [71.89491687, 34.41953957]]]]}, "properties": {"id": "Pakistan_123102132_431929", "height": 3.86272120475769, "hmax": 0.025, "ratio": 0.007, "vulnClass": "none"}}, {"type": "Feature", "geometry": {"type": "MultiPolygon", "coordinates": [[[[71.89771426, 34.41854391], [71.89717541, 34.41855383], [71.89717836, 34.41866314], [71.8972293, 34.4186622], [71.89722846, 34.41863124], [71.89739736, 34.41862814], [71.8974011, 34.41876651], [71.89775498, 34.41876], [71.89775411, 34.4187278], [71.89771926, 34.41872844], [71.89771426, 34.41854391]]]]}, "properties": {"id": "Pakistan_123102132_170111", "height": 4.155920505523682, "hmax": 0.009, "ratio": 0.002, "vulnClass": "none"}}, {"type": "Feature", "geometry": {"type": "MultiPolygon", "coordinates": [[[[71.89661752, 34.42502966], [71.89661837, 34.4249642], [71.89670419, 34.42496496], [71.89670485, 34.42491316], [71.89652343, 34.42491158], [71.89651873, 34.42527881], [71.89737425, 34.42528627], [71.89737547, 34.42519114], [71.89730306, 34.42519051], [71.89730377, 34.4251352], [71.89737618, 34.42513584], [71.89737746, 34.42503629], [71.89661752, 34.42502966]]]]}, "properties": {"id": "Pakistan_123102132_527300", "height": 6.763696670532227, "hmax": 0.013, "ratio": 0.002, "vulnClass": "none"}}, {"type": "Feature", "geometry": {"type": "MultiPolygon", "coordinates": [[[[71.89610626, 34.42540199], [71.89607762, 34.42533663], [71.8960263, 34.42535193], [71.89605494, 34.42541728], [71.89610626, 34.42540199]]]]}, "properties": {"id": "Pakistan_123102132_357919", "height": 2.698275327682495, "hmax": 0.008, "ratio": 0.003, "vulnClass": "none"}}, {"type": "Feature", "geometry": {"type": "MultiPolygon", "coordinates": [[[[71.8958113, 34.42569407], [71.89597961, 34.42568529], [71.89597562, 34.42563327], [71.89608782, 34.42562742], [71.896093, 34.42569486], [71.89618116, 34.42569026], [71.89617389, 34.4255955], [71.8962006, 34.42559411], [71.89621014, 34.42571839], [71.89646126, 34.4257053], [71.8964475, 34.42552591], [71.89647589, 34.42552443], [71.89646819, 34.42542396], [71.89637736, 34.4254287], [71.89638175, 34.42548599], [71.89586447, 34.42551296], [71.89586017, 34.425457], [71.89602047, 34.42544864], [71.89600982, 34.42530981], [71.89584151, 34.42531859], [71.89583779, 34.42527011], [71.89577902, 34.42527318], [71.8958113, 34.42569407]]]]}, "properties": {"id": "Pakistan_123102132_16056", "height": 3.467648506164551, "hmax": 0.008, "ratio": 0.002, "vulnClass": "none"}}, {"type": "Feature", "geometry": {"type": "MultiPolygon", "coordinates": [[[[71.89474366, 34.42398993], [71.89496217, 34.42399756], [71.89496655, 34.42391224], [71.89474805, 34.42390459], [71.89474366, 34.42398993]]]]}, "properties": {"id": "Pakistan_123102132_342515", "height": 3.058747291564941, "hmax": 0.004, "ratio": 0.001, "vulnClass": "none"}}, {"type": "Feature", "geometry": {"type": "MultiPolygon", "coordinates": [[[[71.89648043, 34.42398716], [71.89647643, 34.42403874], [71.89662869, 34.42404679], [71.8966327, 34.4239952], [71.89648043, 34.42398716]]]]}, "properties": {"id": "Pakistan_123102132_591317", "height": 4.664184093475342, "hmax": 0.009, "ratio": 0.002, "vulnClass": "none"}}, {"type": "Feature", "geometry": {"type": "MultiPolygon", "coordinates": [[[[71.89657082, 34.42386049], [71.89646447, 34.42384432], [71.89644199, 34.42394488], [71.89654835, 34.42396106], [71.89657082, 34.42386049]]]]}, "properties": {"id": "Pakistan_123102132_302595", "height": 3.465507030487061, "hmax": 0.009, "ratio": 0.003, "vulnClass": "none"}}, {"type": "Feature", "geometry": {"type": "MultiPolygon", "coordinates": [[[[71.89724184, 34.42193975], [71.89757396, 34.42195005], [71.89757669, 34.42189039], [71.89724456, 34.4218801], [71.89724184, 34.42193975]]]]}, "properties": {"id": "Pakistan_123102132_456664", "height": 3.684474945068359, "hmax": 0.007, "ratio": 0.002, "vulnClass": "none"}}, {"type": "Feature", "geometry": {"type": "MultiPolygon", "coordinates": [[[[71.8974725, 34.42194789], [71.89741352, 34.42194686], [71.89741332, 34.42195445], [71.89730998, 34.42195262], [71.89730774, 34.42203887], [71.89752637, 34.42204273], [71.89752786, 34.42198523], [71.89747156, 34.42198424], [71.8974725, 34.42194789]]]]}, "properties": {"id": "Pakistan_123102132_336373", "height": 3.570785999298096, "hmax": 0.007, "ratio": 0.002, "vulnClass": "none"}}, {"type": "Feature", "geometry": {"type": "MultiPolygon", "coordinates": [[[[71.89637885, 34.42309636], [71.89678614, 34.42316712], [71.89680182, 34.42310568], [71.8965923, 34.42306928], [71.8966201, 34.42296036], [71.89672175, 34.42297801], [71.89673072, 34.42294287], [71.89679602, 34.42295422], [71.89680683, 34.42291185], [71.89661935, 34.42287928], [71.89660745, 34.42292588], [71.89651499, 34.42290982], [71.8964952, 34.42298735], [71.89641044, 34.42297263], [71.89637885, 34.42309636]]]]}, "properties": {"id": "Pakistan_123102132_160704", "height": 2.589041471481323, "hmax": 0.018, "ratio": 0.007, "vulnClass": "none"}}, {"type": "Feature", "geometry": {"type": "MultiPolygon", "coordinates": [[[[71.89663703, 34.42378823], [71.8967434, 34.42379636], [71.89675276, 34.423713], [71.89669957, 34.42370894], [71.89670362, 34.42367293], [71.89653341, 34.42365993], [71.89654045, 34.42359721], [71.896491, 34.42359343], [71.89647483, 34.42373732], [71.89664132, 34.42375003], [71.89663703, 34.42378823]]]]}, "properties": {"id": "Pakistan_123102132_43643", "height": 3.808151006698608, "hmax": 0.01, "ratio": 0.003, "vulnClass": "none"}}, {"type": "Feature", "geometry": {"type": "MultiPolygon", "coordinates": [[[[71.89404389, 34.42376663], [71.89404141, 34.42381078], [71.89409494, 34.42381282], [71.89409742, 34.42376867], [71.89404389, 34.42376663]]]]}, "properties": {"id": "Pakistan_123102132_19138", "height": 2.484005451202393, "hmax": 0.018, "ratio": 0.007, "vulnClass": "none"}}, {"type": "Feature", "geometry": {"type": "MultiPolygon", "coordinates": [[[[71.89402998, 34.42394017], [71.8940353, 34.42405062], [71.89413974, 34.4240472], [71.89413719, 34.42399418], [71.89408899, 34.42399576], [71.89408622, 34.42393832], [71.89402998, 34.42394017]]]]}, "properties": {"id": "Pakistan_123102132_391780", "height": 3.904592990875244, "hmax": 0.018, "ratio": 0.005, "vulnClass": "none"}}, {"type": "Feature", "geometry": {"type": "MultiPolygon", "coordinates": [[[[71.89593739, 34.42693348], [71.89593612, 34.42709498], [71.89575105, 34.42709398], [71.89575086, 34.42711918], [71.89579109, 34.4271194], [71.89579085, 34.42714951], [71.89619853, 34.4271517], [71.89620024, 34.42693489], [71.89593739, 34.42693348]]]]}, "properties": {"id": "Pakistan_123102132_40532", "height": 2.451803207397461, "hmax": 0.01, "ratio": 0.004, "vulnClass": "none"}}, {"type": "Feature", "geometry": {"type": "MultiPolygon", "coordinates": [[[[71.89566035, 34.42693026], [71.89570656, 34.42692628], [71.89570434, 34.42690877], [71.89546555, 34.42692937], [71.89549662, 34.42717448], [71.89574337, 34.42715319], [71.89573432, 34.42708182], [71.89568014, 34.42708649], [71.89566035, 34.42693026]]]]}, "properties": {"id": "Pakistan_123102132_12990", "height": 3.109124660491943, "hmax": 0.009, "ratio": 0.003, "vulnClass": "none"}}, {"type": "Feature", "geometry": {"type": "MultiPolygon", "coordinates": [[[[71.8948193, 34.42718717], [71.89484608, 34.42726824], [71.89486999, 34.42726287], [71.89490851, 34.42737951], [71.89512074, 34.42733182], [71.89505545, 34.4271341], [71.8948193, 34.42718717]]]]}, "properties": {"id": "Pakistan_123102132_234723", "height": 2.487512588500977, "hmax": 0.01, "ratio": 0.004, "vulnClass": "none"}}, {"type": "Feature", "geometry": {"type": "MultiPolygon", "coordinates": [[[[71.88417897, 34.42690422], [71.8841611, 34.42699019], [71.88433307, 34.42701452], [71.88435094, 34.42692855], [71.88417897, 34.42690422]]]]}, "properties": {"id": "Pakistan_123102132_336262", "height": 3.521985769271851, "hmax": 0.656, "ratio": 0.186, "vulnClass": "low"}}, {"type": "Feature", "geometry": {"type": "MultiPolygon", "coordinates": [[[[71.88446318, 34.42664128], [71.88445959, 34.42656174], [71.88422497, 34.42656894], [71.88422856, 34.42664848], [71.88446318, 34.42664128]]]]}, "properties": {"id": "Pakistan_123102132_287049", "height": 3.365237236022949, "hmax": 0.528, "ratio": 0.157, "vulnClass": "low"}}, {"type": "Feature", "geometry": {"type": "MultiPolygon", "coordinates": [[[[71.88398553, 34.42673691], [71.88398654, 34.42679664], [71.88412709, 34.42679502], [71.88412608, 34.4267353], [71.88398553, 34.42673691]]]]}, "properties": {"id": "Pakistan_123102132_210273", "height": 3.776581048965454, "hmax": 0.528, "ratio": 0.14, "vulnClass": "low"}}, {"type": "Feature", "geometry": {"type": "MultiPolygon", "coordinates": [[[[71.88490387, 34.42672118], [71.88503234, 34.42672605], [71.88503566, 34.42666644], [71.88499284, 34.42666482], [71.88499616, 34.42660521], [71.88496672, 34.42660409], [71.88497103, 34.42652682], [71.88485058, 34.42652225], [71.88483655, 34.42677394], [71.88490079, 34.42677637], [71.88490387, 34.42672118]]]]}, "properties": {"id": "Pakistan_123102132_160607", "height": 2.992871522903442, "hmax": 0.004, "ratio": 0.001, "vulnClass": "none"}}, {"type": "Feature", "geometry": {"type": "MultiPolygon", "coordinates": [[[[71.88867071, 34.42707999], [71.88866566, 34.4272923], [71.88876104, 34.42729385], [71.8887661, 34.42708154], [71.88867071, 34.42707999]]]]}, "properties": {"id": "Pakistan_123102132_104960", "height": 2.489712715148926, "hmax": 0.005, "ratio": 0.002, "vulnClass": "none"}}, {"type": "Feature", "geometry": {"type": "MultiPolygon", "coordinates": [[[[71.88998207, 34.42773333], [71.88989812, 34.42750426], [71.88993499, 34.42749507], [71.8899762, 34.42760753], [71.89014577, 34.42756524], [71.89012017, 34.42749536], [71.89005242, 34.42751225], [71.8900331, 34.42745955], [71.88991407, 34.42748923], [71.88985128, 34.42731789], [71.88947035, 34.42741289], [71.88949302, 34.42747474], [71.88949302, 34.42747474], [71.88950936, 34.42751934], [71.88946267, 34.42753098], [71.88936943, 34.42727655], [71.88926866, 34.42730168], [71.88946591, 34.42783991], [71.88973734, 34.42777223], [71.88974477, 34.4277925], [71.88998207, 34.42773333]]]]}, "properties": {"id": "Pakistan_123102132_157585", "height": 4.039773941040039, "hmax": 0.005, "ratio": 0.001, "vulnClass": "none"}}, {"type": "Feature", "geometry": {"type": "MultiPolygon", "coordinates": [[[[71.89002081, 34.42742905], [71.89002979, 34.42745088], [71.89007652, 34.42743779], [71.89005366, 34.42738224], [71.89001895, 34.42739196], [71.88991689, 34.427144], [71.88980867, 34.42717432], [71.88992461, 34.427456], [71.89002081, 34.42742905]]]]}, "properties": {"id": "Pakistan_123102132_231631", "height": 3.22391414642334, "hmax": 0.005, "ratio": 0.002, "vulnClass": "none"}}]}