{"type": "FeatureCollection", "features": [{"type": "Feature", "geometry": {"type": "MultiPolygon", "coordinates": [[[[72.05016744, 34.04904217], [72.05033406, 34.04899622], [72.05024807, 34.04878214], [72.05008145, 34.04882809], [72.05016744, 34.04904217]]]]}, "properties": {"id": "Pakistan_123102310_769059", "height": 2.954426527023315, "hmax": 0.005, "ratio": 0.002, "vulnClass": "none"}}, {"type": "Feature", "geometry": {"type": "MultiPolygon", "coordinates": [[[[72.05077158, 34.04873303], [72.05077665, 34.04874975], [72.05070984, 34.04876366], [72.0507073, 34.0487553], [72.05065432, 34.04876632], [72.05067904, 34.04884785], [72.0508178, 34.04881897], [72.05081934, 34.04882403], [72.0510893, 34.04876786], [72.05106051, 34.04867289], [72.05077158, 34.04873303]]]]}, "properties": {"id": "Pakistan_123102310_202072", "height": 2.709944009780884, "hmax": 0.005, "ratio": 0.002, "vulnClass": "none"}}, {"type": "Feature", "geometry": {"type": "MultiPolygon", "coordinates": [[[[72.05069255, 34.04832841], [72.05067312, 34.04828301], [72.05046106, 34.0483453], [72.05041544, 34.0482387], [72.05037255, 34.0482513], [72.0504376, 34.04840331], [72.05069255, 34.04832841]]]]}, "properties": {"id": "Pakistan_123102310_891913", "height": 3.00316333770752, "hmax": 0.005, "ratio": 0.002, "vulnClass": "none"}}, {"type": "Feature", "geometry": {"type": "MultiPolygon", "coordinates": [[[[72.05093033, 34.049264], [72.05089787, 34.04915744], [72.05084862, 34.04916774], [72.05086553, 34.04922327], [72.05081258, 34.04923435], [72.05082812, 34.04928537], [72.05093033, 34.049264]]]]}, "properties": {"id": "Pakistan_123102310_323499", "height": 2.586811065673828, "hmax": 0.004, "ratio": 0.002, "vulnClass": "none"}}, {"type": "Feature", "geometry": {"type": "MultiPolygon", "coordinates": [[[[72.05099396, 34.04933149], [72.0510218, 34.04940664], [72.05094827, 34.04942534], [72.05096633, 34.04947408], [72.05106438, 34.04944914], [72.05107599, 34.04948047], [72.05101471, 34.04949606], [72.05106406, 34.04962923], [72.05133368, 34.04956064], [72.05131035, 34.04949768], [72.05123927, 34.04951577], [72.05122045, 34.04946499], [72.05113221, 34.04948744], [72.05109985, 34.04940011], [72.05118074, 34.04937954], [72.05116418, 34.04933486], [72.0512034, 34.04932488], [72.05118759, 34.04928223], [72.05099396, 34.04933149]]]]}, "properties": {"id": "Pakistan_123102310_446262", "height": 3.917646884918213, "hmax": 0.004, "ratio": 0.001, "vulnClass": "none"}}, {"type": "Feature", "geometry": {"type": "MultiPolygon", "coordinates": [[[[72.05116865, 34.049892], [72.05118322, 34.04994947], [72.05123203, 34.04994097], [72.0512018, 34.04982178], [72.05115813, 34.04982938], [72.05114518, 34.0497783], [72.05101275, 34.04980135], [72.05104134, 34.04991416], [72.05116865, 34.049892]]]]}, "properties": {"id": "Pakistan_123102310_13062", "height": 3.913969755172729, "hmax": 0.005, "ratio": 0.001, "vulnClass": "none"}}, {"type": "Feature", "geometry": {"type": "MultiPolygon", "coordinates": [[[[72.05099778, 34.04974418], [72.05097821, 34.04969887], [72.05092934, 34.04971335], [72.05094891, 34.04975867], [72.05099778, 34.04974418]]]]}, "properties": {"id": "Pakistan_123102310_126666", "height": 3.363055467605591, "hmax": 0.004, "ratio": 0.001, "vulnClass": "none"}}, {"type": "Feature", "geometry": {"type": "MultiPolygon", "coordinates": [[[[72.05114527, 34.04962597], [72.05110219, 34.04963974], [72.05112702, 34.04969307], [72.0511701, 34.04967931], [72.05114527, 34.04962597]]]]}, "properties": {"id": "Pakistan_123102310_41134", "height": 2.840873718261719, "hmax": 0.004, "ratio": 0.001, "vulnClass": "none"}}, {"type": "Feature", "geometry": {"type": "MultiPolygon", "coordinates": [[[[72.05358984, 34.05050171], [72.05363598, 34.05070777], [72.05373209, 34.05071776], [72.05379473, 34.05099747], [72.0542539, 34.05092689], [72.05426076, 34.05088159], [72.05416898, 34.05087205], [72.05411343, 34.05062402], [72.05414057, 34.05061985], [72.05414505, 34.05059027], [72.05417719, 34.05058533], [72.05410021, 34.05024156], [72.05403823, 34.05023511], [72.05408113, 34.05042675], [72.05398149, 34.05044207], [72.05401803, 34.05060524], [72.05398783, 34.0506021], [72.05396909, 34.05051843], [72.05392242, 34.05052561], [72.05392617, 34.05054236], [72.0538632, 34.05053582], [72.05385888, 34.05053648], [72.05379028, 34.05052935], [72.05378661, 34.05051297], [72.05379798, 34.05043792], [72.05372678, 34.05043053], [72.05370691, 34.05034179], [72.0536465, 34.05033551], [72.05367975, 34.05048401], [72.05359044, 34.05049774], [72.05358984, 34.05050171]]]]}, "properties": {"id": "Pakistan_123102310_564749", "height": 6.94115686416626, "hmax": 0.004, "ratio": 0.001, "vulnClass": "none"}}, {"type": "Feature", "geometry": {"type": "MultiPolygon", "coordinates": [[[[72.05453018, 34.05050867], [72.054639, 34.05084927], [72.05487859, 34.05079673], [72.05483744, 34.05066797], [72.05468308, 34.05070182], [72.05465222, 34.0506052], [72.05478256, 34.05057661], [72.0547975, 34.05062339], [72.05482758, 34.05061679], [72.05479374, 34.05051088], [72.05469599, 34.05053231], [72.05467807, 34.05047624], [72.05453018, 34.05050867]]]]}, "properties": {"id": "Pakistan_123102310_465409", "height": 7.271955013275146, "hmax": 0.009, "ratio": 0.001, "vulnClass": "none"}}, {"type": "Feature", "geometry": {"type": "MultiPolygon", "coordinates": [[[[72.05451558, 34.05063905], [72.05449361, 34.05058905], [72.05441209, 34.05061363], [72.05443406, 34.05066364], [72.05451558, 34.05063905]]]]}, "properties": {"id": "Pakistan_123102310_754944", "height": 4.126486778259277, "hmax": 0.009, "ratio": 0.002, "vulnClass": "none"}}, {"type": "Feature", "geometry": {"type": "MultiPolygon", "coordinates": [[[[72.05422421, 34.05070706], [72.05424483, 34.05074628], [72.05431923, 34.05071943], [72.05429861, 34.05068021], [72.05422421, 34.05070706]]]]}, "properties": {"id": "Pakistan_123102310_203401", "height": 4.45106029510498, "hmax": 0.003, "ratio": 0.001, "vulnClass": "none"}}, {"type": "Feature", "geometry": {"type": "MultiPolygon", "coordinates": [[[[72.05169104, 34.05023466], [72.05162687, 34.05024338], [72.05164999, 34.05036024], [72.0518485, 34.05033328], [72.05183418, 34.0502609], [72.05169984, 34.05027915], [72.05169104, 34.05023466]]]]}, "properties": {"id": "Pakistan_123102310_370798", "height": 2.858913898468018, "hmax": 0.016, "ratio": 0.006, "vulnClass": "none"}}, {"type": "Feature", "geometry": {"type": "MultiPolygon", "coordinates": [[[[72.05085464, 34.04984978], [72.05085253, 34.04981653], [72.05080706, 34.04981851], [72.05080917, 34.04985175], [72.05085464, 34.04984978]]]]}, "properties": {"id": "Pakistan_123102310_863523", "height": 2.622582674026489, "hmax": 0.004, "ratio": 0.002, "vulnClass": "none"}}, {"type": "Feature", "geometry": {"type": "MultiPolygon", "coordinates": [[[[72.05147423, 34.05063127], [72.05144934, 34.05053208], [72.05156761, 34.05051171], [72.05153369, 34.05037657], [72.05155022, 34.05037372], [72.05154006, 34.05033325], [72.05143869, 34.05035071], [72.05143946, 34.05035377], [72.05126572, 34.0503837], [72.05128153, 34.05044668], [72.05124296, 34.05045332], [72.05122342, 34.05037543], [72.05104491, 34.05040617], [72.05105377, 34.05044147], [72.05107544, 34.05043774], [72.05111766, 34.05060603], [72.05100345, 34.05062571], [72.0509687, 34.05048724], [72.05102012, 34.05047838], [72.05100836, 34.05043152], [72.05084638, 34.05045942], [72.05086295, 34.05052546], [72.05088866, 34.05052103], [72.05093945, 34.0507234], [72.05147423, 34.05063127]]]]}, "properties": {"id": "Pakistan_123102310_550469", "height": 5.599842548370361, "hmax": 0.011, "ratio": 0.002, "vulnClass": "none"}}, {"type": "Feature", "geometry": {"type": "MultiPolygon", "coordinates": [[[[72.05083938, 34.05037423], [72.05084714, 34.05042678], [72.05097927, 34.05041337], [72.0509715, 34.05036082], [72.05083938, 34.05037423]]]]}, "properties": {"id": "Pakistan_123102310_269279", "height": 2.906922101974487, "hmax": 0.004, "ratio": 0.001, "vulnClass": "none"}}, {"type": "Feature", "geometry": {"type": "MultiPolygon", "coordinates": [[[[72.0512621, 34.05029681], [72.05122485, 34.05029404], [72.05122017, 34.05033717], [72.05125742, 34.05033995], [72.0512621, 34.05029681]]]]}, "properties": {"id": "Pakistan_123102310_465376", "height": 3.077627658843994, "hmax": 0.016, "ratio": 0.005, "vulnClass": "none"}}, {"type": "Feature", "geometry": {"type": "MultiPolygon", "coordinates": [[[[72.05174184, 34.05047106], [72.05174941, 34.0505224], [72.05179058, 34.05051823], [72.05179225, 34.05052955], [72.05191606, 34.05067237], [72.05201393, 34.05061412], [72.05200366, 34.05054446], [72.05205058, 34.05059859], [72.05206936, 34.05059669], [72.05211325, 34.05057057], [72.05212221, 34.05063135], [72.05217506, 34.050626], [72.05216699, 34.05057126], [72.05223299, 34.05056458], [72.05217168, 34.05049385], [72.05217091, 34.05048864], [72.05201234, 34.05050468], [72.05201679, 34.05053486], [72.05199061, 34.05050466], [72.0519043, 34.05051339], [72.05188659, 34.05049296], [72.05182267, 34.05049943], [72.05181736, 34.05046341], [72.05174184, 34.05047106]]]]}, "properties": {"id": "Pakistan_123102310_531605", "height": 3.957004070281982, "hmax": 0.016, "ratio": 0.004, "vulnClass": "none"}}, {"type": "Feature", "geometry": {"type": "MultiPolygon", "coordinates": [[[[72.0516757, 34.05062638], [72.05166185, 34.05057798], [72.05156642, 34.05059673], [72.05158027, 34.05064512], [72.0516757, 34.05062638]]]]}, "properties": {"id": "Pakistan_123102310_536323", "height": 2.921729803085327, "hmax": 0.016, "ratio": 0.006, "vulnClass": "none"}}, {"type": "Feature", "geometry": {"type": "MultiPolygon", "coordinates": [[[[72.05164342, 34.05074015], [72.05166303, 34.05078401], [72.05172435, 34.05076519], [72.05170474, 34.05072133], [72.05164342, 34.05074015]]]]}, "properties": {"id": "Pakistan_123102310_211498", "height": 2.458170175552368, "hmax": 0.013, "ratio": 0.005, "vulnClass": "none"}}, {"type": "Feature", "geometry": {"type": "MultiPolygon", "coordinates": [[[[72.0515259, 34.05066841], [72.05148416, 34.05067892], [72.05161482, 34.05103491], [72.05171057, 34.05101078], [72.05163217, 34.05079719], [72.05157816, 34.0508108], [72.0515259, 34.05066841]]]]}, "properties": {"id": "Pakistan_123102310_465378", "height": 3.562920093536377, "hmax": 0.013, "ratio": 0.004, "vulnClass": "none"}}, {"type": "Feature", "geometry": {"type": "MultiPolygon", "coordinates": [[[[72.05148716, 34.05089026], [72.0514369, 34.05077295], [72.05128544, 34.0508175], [72.05133569, 34.05093481], [72.05148716, 34.05089026]]]]}, "properties": {"id": "Pakistan_123102310_593212", "height": 3.603242874145508, "hmax": 0.013, "ratio": 0.004, "vulnClass": "none"}}, {"type": "Feature", "geometry": {"type": "MultiPolygon", "coordinates": [[[[72.05061889, 34.05079121], [72.05058935, 34.0506976], [72.05049395, 34.05071827], [72.05052349, 34.05081187], [72.05061889, 34.05079121]]]]}, "properties": {"id": "Pakistan_123102310_906144", "height": 3.125438690185547, "hmax": 0.008, "ratio": 0.003, "vulnClass": "none"}}, {"type": "Feature", "geometry": {"type": "MultiPolygon", "coordinates": [[[[72.05079469, 34.05070486], [72.05062978, 34.0507291], [72.050651, 34.05082821], [72.05072489, 34.05081735], [72.05071493, 34.05077085], [72.05075134, 34.0507655], [72.05075872, 34.05079997], [72.05081073, 34.05079233], [72.05080131, 34.05074833], [72.05091313, 34.0507319], [72.05089672, 34.05065525], [72.0507875, 34.05067129], [72.05079469, 34.05070486]]]]}, "properties": {"id": "Pakistan_123102310_910959", "height": 6.121411323547363, "hmax": 0.008, "ratio": 0.001, "vulnClass": "none"}}, {"type": "Feature", "geometry": {"type": "MultiPolygon", "coordinates": [[[[72.05082458, 34.05044047], [72.05081723, 34.05039235], [72.05067996, 34.05040675], [72.05068731, 34.05045487], [72.05082458, 34.05044047]]]]}, "properties": {"id": "Pakistan_123102310_536310", "height": 2.703658580780029, "hmax": 0.004, "ratio": 0.002, "vulnClass": "none"}}, {"type": "Feature", "geometry": {"type": "MultiPolygon", "coordinates": [[[[72.04987943, 34.05073078], [72.04992131, 34.05090615], [72.05014071, 34.05087018], [72.05009883, 34.05069482], [72.04987943, 34.05073078]]]]}, "properties": {"id": "Pakistan_123102310_294867", "height": 4.008733749389648, "hmax": 0.006, "ratio": 0.002, "vulnClass": "none"}}, {"type": "Feature", "geometry": {"type": "MultiPolygon", "coordinates": [[[[72.04913846, 34.04997988], [72.04907447, 34.04998896], [72.04909186, 34.05007316], [72.04901255, 34.05008442], [72.04899871, 34.05001749], [72.04895442, 34.05002378], [72.04894906, 34.04999787], [72.04886161, 34.05001028], [72.04891709, 34.0502788], [72.04919218, 34.05023978], [72.04913846, 34.04997988]]]]}, "properties": {"id": "Pakistan_123102310_441439", "height": 2.782045841217041, "hmax": 0.005, "ratio": 0.002, "vulnClass": "none"}}, {"type": "Feature", "geometry": {"type": "MultiPolygon", "coordinates": [[[[72.05015202, 34.04981874], [72.05015395, 34.04987336], [72.05028378, 34.0498702], [72.05028185, 34.04981559], [72.05015202, 34.04981874]]]]}, "properties": {"id": "Pakistan_123102310_787929", "height": 2.675337076187134, "hmax": 0.004, "ratio": 0.002, "vulnClass": "none"}}, {"type": "Feature", "geometry": {"type": "MultiPolygon", "coordinates": [[[[72.05031986, 34.04986735], [72.05033806, 34.05000346], [72.05027977, 34.05000881], [72.05028711, 34.0500637], [72.05037985, 34.05005518], [72.05034873, 34.04982247], [72.05028514, 34.04982831], [72.05029072, 34.04987002], [72.05031986, 34.04986735]]]]}, "properties": {"id": "Pakistan_123102310_69176", "height": 4.531827449798584, "hmax": 0.004, "ratio": 0.001, "vulnClass": "none"}}, {"type": "Feature", "geometry": {"type": "MultiPolygon", "coordinates": [[[[72.05013666, 34.05020566], [72.05010025, 34.05003086], [72.05002992, 34.05004092], [72.05000879, 34.04993949], [72.04994107, 34.04994917], [72.04998153, 34.0501434], [72.05005967, 34.05013222], [72.05008114, 34.05023528], [72.05003676, 34.05030549], [72.05004867, 34.0503627], [72.05019193, 34.05034221], [72.05017484, 34.0502602], [72.05075046, 34.05017789], [72.05074912, 34.05017142], [72.05078558, 34.0501662], [72.05079626, 34.05021749], [72.05101533, 34.05025113], [72.05097871, 34.05025637], [72.05100883, 34.05040096], [72.05112343, 34.05038457], [72.05106903, 34.05012345], [72.05108206, 34.05012158], [72.0510648, 34.05003872], [72.05144324, 34.05009683], [72.05116583, 34.04997645], [72.0509329, 34.04994068], [72.05092573, 34.0499417], [72.050898, 34.05006568], [72.0503752, 34.05014044], [72.05038149, 34.05017065], [72.05013666, 34.05020566]]]]}, "properties": {"id": "Pakistan_123102310_107324", "height": 4.312089443206787, "hmax": 0.005, "ratio": 0.001, "vulnClass": "none"}}, {"type": "Feature", "geometry": {"type": "MultiPolygon", "coordinates": [[[[72.05077269, 34.05000532], [72.05076928, 34.04995659], [72.05069176, 34.04996032], [72.05069517, 34.05000905], [72.05077269, 34.05000532]]]]}, "properties": {"id": "Pakistan_123102310_526920", "height": 3.504826545715332, "hmax": 0.004, "ratio": 0.001, "vulnClass": "none"}}, {"type": "Feature", "geometry": {"type": "MultiPolygon", "coordinates": [[[[72.05060934, 34.04985596], [72.0505238, 34.04986011], [72.0505285, 34.04992656], [72.05061404, 34.0499224], [72.05060934, 34.04985596]]]]}, "properties": {"id": "Pakistan_123102310_183328", "height": 3.117710828781128, "hmax": 0.004, "ratio": 0.001, "vulnClass": "none"}}, {"type": "Feature", "geometry": {"type": "MultiPolygon", "coordinates": [[[[72.05060293, 34.04961557], [72.05055125, 34.0496284], [72.05061393, 34.04980174], [72.05066561, 34.04978891], [72.05060293, 34.04961557]]]]}, "properties": {"id": "Pakistan_123102310_929787", "height": 3.125276565551758, "hmax": 0.004, "ratio": 0.001, "vulnClass": "none"}}, {"type": "Feature", "geometry": {"type": "MultiPolygon", "coordinates": [[[[72.05057003, 34.04979338], [72.05055289, 34.04963016], [72.05039849, 34.04964129], [72.05041563, 34.04980451], [72.05057003, 34.04979338]]]]}, "properties": {"id": "Pakistan_123102310_294875", "height": 3.137537240982056, "hmax": 0.004, "ratio": 0.001, "vulnClass": "none"}}, {"type": "Feature", "geometry": {"type": "MultiPolygon", "coordinates": [[[[72.0503067, 34.04967155], [72.05031135, 34.04979052], [72.05038638, 34.04978851], [72.05038172, 34.04966954], [72.0503067, 34.04967155]]]]}, "properties": {"id": "Pakistan_123102310_906141", "height": 3.273343086242676, "hmax": 0.004, "ratio": 0.001, "vulnClass": "none"}}, {"type": "Feature", "geometry": {"type": "MultiPolygon", "coordinates": [[[[72.05028769, 34.0497831], [72.05028513, 34.04971427], [72.0502503, 34.04971516], [72.05024881, 34.04967519], [72.05011483, 34.04967861], [72.05011466, 34.04967417], [72.05001967, 34.04967659], [72.05001892, 34.04965661], [72.04996386, 34.04965802], [72.04996837, 34.04977924], [72.05001124, 34.04977815], [72.05001169, 34.04979014], [72.05028769, 34.0497831]]]]}, "properties": {"id": "Pakistan_123102310_943900", "height": 3.084687232971191, "hmax": 0.005, "ratio": 0.002, "vulnClass": "none"}}, {"type": "Feature", "geometry": {"type": "MultiPolygon", "coordinates": [[[[72.05025502, 34.04932664], [72.05013291, 34.04933697], [72.05014403, 34.04942715], [72.05020508, 34.04942198], [72.0502097, 34.04945937], [72.05015395, 34.04946409], [72.05015694, 34.04948828], [72.05007586, 34.04949515], [72.05008751, 34.04958972], [72.05015798, 34.04958376], [72.05016921, 34.04967482], [72.05022496, 34.0496701], [72.05022213, 34.04964722], [72.05038406, 34.04963351], [72.05037212, 34.04953673], [72.05028187, 34.04954438], [72.05025502, 34.04932664]]]]}, "properties": {"id": "Pakistan_123102310_342369", "height": 2.971877574920654, "hmax": 0.004, "ratio": 0.001, "vulnClass": "none"}}, {"type": "Feature", "geometry": {"type": "MultiPolygon", "coordinates": [[[[72.05080194, 34.04945001], [72.05074837, 34.0494621], [72.05078917, 34.04958623], [72.05086771, 34.04956851], [72.05090987, 34.04969678], [72.05096481, 34.04968438], [72.05093965, 34.04960783], [72.05101093, 34.04959174], [72.05098576, 34.0495152], [72.05083458, 34.04954932], [72.05080194, 34.04945001]]]]}, "properties": {"id": "Pakistan_123102310_455728", "height": 4.419363975524902, "hmax": 0.004, "ratio": 0.001, "vulnClass": "none"}}, {"type": "Feature", "geometry": {"type": "MultiPolygon", "coordinates": [[[[72.0507728, 34.0494034], [72.05075504, 34.04935944], [72.05057897, 34.04940826], [72.05059673, 34.04945223], [72.0507728, 34.0494034]]]]}, "properties": {"id": "Pakistan_123102310_678803", "height": 2.688033580780029, "hmax": 0.004, "ratio": 0.002, "vulnClass": "none"}}, {"type": "Feature", "geometry": {"type": "MultiPolygon", "coordinates": [[[[72.05039751, 34.04927928], [72.05052725, 34.04959114], [72.05058239, 34.04957539], [72.0505452, 34.049486], [72.05056678, 34.04947984], [72.05047423, 34.04925737], [72.05039751, 34.04927928]]]]}, "properties": {"id": "Pakistan_123102310_920379", "height": 2.70624041557312, "hmax": 0.004, "ratio": 0.002, "vulnClass": "none"}}, {"type": "Feature", "geometry": {"type": "MultiPolygon", "coordinates": [[[[72.04946387, 34.04989273], [72.0494387, 34.0497287], [72.04914015, 34.04976014], [72.04917291, 34.04978728], [72.04918385, 34.04985857], [72.04912111, 34.04980659], [72.04914186, 34.04980441], [72.04913918, 34.04978691], [72.04910223, 34.04979081], [72.04910482, 34.04980774], [72.04906404, 34.04984153], [72.04902503, 34.04980921], [72.0489454, 34.0498176], [72.04893064, 34.04972138], [72.04917876, 34.04969523], [72.04918325, 34.04972449], [72.0492243, 34.04972017], [72.04921288, 34.04964581], [72.04879847, 34.04968945], [72.04881291, 34.04978349], [72.04889328, 34.04977503], [72.04891106, 34.04989094], [72.04873322, 34.04990967], [72.04870194, 34.04988376], [72.04866707, 34.04991265], [72.04864293, 34.04989265], [72.048605, 34.04992407], [72.04861348, 34.04997936], [72.04862851, 34.04999181], [72.0492401, 34.04992741], [72.0492282, 34.04991755], [72.04946387, 34.04989273]]]]}, "properties": {"id": "Pakistan_123102310_688200", "height": 2.971908092498779, "hmax": 0.006, "ratio": 0.002, "vulnClass": "none"}}, {"type": "Feature", "geometry": {"type": "MultiPolygon", "coordinates": [[[[72.04793971, 34.05133391], [72.04833315, 34.05128491], [72.04831066, 34.05116104], [72.04832483, 34.05115927], [72.04832957, 34.05118535], [72.04855146, 34.05115771], [72.04858893, 34.05136416], [72.04875784, 34.05134312], [72.04870987, 34.05107875], [72.04837939, 34.05111993], [72.04832759, 34.05083447], [72.04825044, 34.05084408], [72.04827942, 34.05100373], [72.04820893, 34.05089617], [72.04824163, 34.0510763], [72.04817188, 34.05108498], [72.04818687, 34.05116757], [72.04825021, 34.05115968], [72.04804798, 34.05125065], [72.04798659, 34.0509125], [72.04819643, 34.05088636], [72.04817907, 34.05079074], [72.04804464, 34.05080749], [72.0478405, 34.05049594], [72.04802594, 34.05047283], [72.04801766, 34.0504272], [72.04778048, 34.05045675], [72.04793971, 34.05133391]]]]}, "properties": {"id": "Pakistan_123102310_498341", "height": 3.036530017852783, "hmax": 0.009, "ratio": 0.003, "vulnClass": "none"}}, {"type": "Feature", "geometry": {"type": "MultiPolygon", "coordinates": [[[[72.04885901, 34.05160079], [72.04882491, 34.05147608], [72.04845753, 34.05154504], [72.04849163, 34.05166975], [72.04885901, 34.05160079]]]]}, "properties": {"id": "Pakistan_123102310_441436", "height": 5.452296257019043, "hmax": 0.008, "ratio": 0.002, "vulnClass": "none"}}, {"type": "Feature", "geometry": {"type": "MultiPolygon", "coordinates": [[[[72.0505374, 34.05139949], [72.05054382, 34.0514365], [72.05064631, 34.0514243], [72.05063989, 34.05138729], [72.0505374, 34.05139949]]]]}, "properties": {"id": "Pakistan_123102310_750184", "height": 3.053468704223633, "hmax": 0.008, "ratio": 0.003, "vulnClass": "none"}}, {"type": "Feature", "geometry": {"type": "MultiPolygon", "coordinates": [[[[72.05198259, 34.05251451], [72.05197218, 34.05251914], [72.05192574, 34.05244746], [72.05177997, 34.05251227], [72.05187447, 34.05265815], [72.05203064, 34.0525887], [72.05198259, 34.05251451]]]]}, "properties": {"id": "Pakistan_123102310_33133", "height": 2.691349029541016, "hmax": 0.005, "ratio": 0.002, "vulnClass": "none"}}, {"type": "Feature", "geometry": {"type": "MultiPolygon", "coordinates": [[[[72.0526606, 34.0519069], [72.05263849, 34.05185181], [72.05232935, 34.05193698], [72.05227999, 34.051814], [72.05192014, 34.05191316], [72.05203337, 34.0521953], [72.05239806, 34.05209481], [72.0523563, 34.05199075], [72.0526606, 34.0519069]]]]}, "properties": {"id": "Pakistan_123102310_290072", "height": 4.17140007019043, "hmax": 0.005, "ratio": 0.001, "vulnClass": "none"}}, {"type": "Feature", "geometry": {"type": "MultiPolygon", "coordinates": [[[[72.05277722, 34.05184419], [72.0527276, 34.05185586], [72.05272793, 34.05185681], [72.05278452, 34.05193032], [72.0527455, 34.05193949], [72.05275718, 34.05197358], [72.05270095, 34.0520033], [72.05259494, 34.05202822], [72.05261411, 34.05201809], [72.05247863, 34.05204993], [72.05251833, 34.0521015], [72.05252932, 34.05213358], [72.05284123, 34.05206027], [72.05291102, 34.05202338], [72.05290635, 34.05200975], [72.05281459, 34.05189057], [72.05281592, 34.05189446], [72.05277722, 34.05184419]]]]}, "properties": {"id": "Pakistan_123102310_508019", "height": 3.231698751449585, "hmax": 0.007, "ratio": 0.002, "vulnClass": "none"}}, {"type": "Feature", "geometry": {"type": "MultiPolygon", "coordinates": [[[[72.05272517, 34.0517905], [72.05269884, 34.05173719], [72.05262762, 34.05176134], [72.0526295, 34.05176515], [72.05256517, 34.05178696], [72.05253603, 34.05172794], [72.05249697, 34.05174118], [72.05255055, 34.05184969], [72.05272517, 34.0517905]]]]}, "properties": {"id": "Pakistan_123102310_285369", "height": 2.711894512176514, "hmax": 0.007, "ratio": 0.003, "vulnClass": "none"}}, {"type": "Feature", "geometry": {"type": "MultiPolygon", "coordinates": [[[[72.05244595, 34.05169475], [72.05240292, 34.05171457], [72.05243822, 34.05176721], [72.05248126, 34.05174739], [72.05244595, 34.05169475]]]]}, "properties": {"id": "Pakistan_123102310_650001", "height": 2.586649179458618, "hmax": 0.007, "ratio": 0.003, "vulnClass": "none"}}, {"type": "Feature", "geometry": {"type": "MultiPolygon", "coordinates": [[[[72.05308939, 34.05132465], [72.05306598, 34.05127699], [72.05282669, 34.05135771], [72.05280559, 34.05131476], [72.05276877, 34.05132718], [72.05277301, 34.05133581], [72.0527247, 34.05135211], [72.05276498, 34.05143408], [72.05308939, 34.05132465]]]]}, "properties": {"id": "Pakistan_123102310_488975", "height": 2.668474435806274, "hmax": 0.008, "ratio": 0.003, "vulnClass": "none"}}, {"type": "Feature", "geometry": {"type": "MultiPolygon", "coordinates": [[[[72.0524933, 34.05135912], [72.05255399, 34.05148052], [72.05262358, 34.05145664], [72.05259039, 34.05139025], [72.05270486, 34.05135096], [72.05267736, 34.05129595], [72.0524933, 34.05135912]]]]}, "properties": {"id": "Pakistan_123102310_559952", "height": 3.255862951278687, "hmax": 0.008, "ratio": 0.003, "vulnClass": "none"}}, {"type": "Feature", "geometry": {"type": "MultiPolygon", "coordinates": [[[[72.05221355, 34.05161218], [72.05229391, 34.05174563], [72.05241847, 34.05169414], [72.05241583, 34.05168976], [72.05247728, 34.05166435], [72.05243062, 34.05158689], [72.05247227, 34.05156967], [72.05244119, 34.05151807], [72.05221355, 34.05161218]]]]}, "properties": {"id": "Pakistan_123102310_925053", "height": 3.726699590682983, "hmax": 0.007, "ratio": 0.002, "vulnClass": "none"}}, {"type": "Feature", "geometry": {"type": "MultiPolygon", "coordinates": [[[[72.05216492, 34.05161627], [72.0520458, 34.0516581], [72.05207235, 34.05171], [72.05219146, 34.05166816], [72.05216492, 34.05161627]]]]}, "properties": {"id": "Pakistan_123102310_107378", "height": 3.391777515411377, "hmax": 0.004, "ratio": 0.001, "vulnClass": "none"}}, {"type": "Feature", "geometry": {"type": "MultiPolygon", "coordinates": [[[[72.05198606, 34.05169327], [72.05197788, 34.05166846], [72.05192949, 34.05167942], [72.05193768, 34.05170423], [72.05198606, 34.05169327]]]]}, "properties": {"id": "Pakistan_123102310_202084", "height": 2.730035543441772, "hmax": 0.004, "ratio": 0.002, "vulnClass": "none"}}, {"type": "Feature", "geometry": {"type": "MultiPolygon", "coordinates": [[[[72.05205124, 34.05183483], [72.05199284, 34.05169476], [72.05193626, 34.05171095], [72.0519574, 34.05176168], [72.0518927, 34.05178019], [72.05191872, 34.05184264], [72.05199541, 34.0518207], [72.05200662, 34.0518476], [72.05205124, 34.05183483]]]]}, "properties": {"id": "Pakistan_123102310_906160", "height": 3.242809772491455, "hmax": 0.004, "ratio": 0.001, "vulnClass": "none"}}, {"type": "Feature", "geometry": {"type": "MultiPolygon", "coordinates": [[[[72.05169472, 34.0510316], [72.05164082, 34.05104107], [72.05169383, 34.05124831], [72.0517467, 34.05123903], [72.05173286, 34.05118491], [72.05179189, 34.05117454], [72.05178155, 34.05113413], [72.05172356, 34.05114432], [72.05169472, 34.0510316]]]]}, "properties": {"id": "Pakistan_123102310_877730", "height": 3.748641490936279, "hmax": 0.013, "ratio": 0.003, "vulnClass": "none"}}, {"type": "Feature", "geometry": {"type": "MultiPolygon", "coordinates": [[[[72.05102325, 34.05125471], [72.05103633, 34.05127988], [72.05109064, 34.05126052], [72.05107756, 34.05123534], [72.05102325, 34.05125471]]]]}, "properties": {"id": "Pakistan_123102310_631086", "height": 3.480177402496338, "hmax": 0.008, "ratio": 0.002, "vulnClass": "none"}}, {"type": "Feature", "geometry": {"type": "MultiPolygon", "coordinates": [[[[72.05109563, 34.0510727], [72.05107862, 34.05102688], [72.0509522, 34.0510591], [72.05096921, 34.05110493], [72.05109563, 34.0510727]]]]}, "properties": {"id": "Pakistan_123102310_70771", "height": 2.969888687133789, "hmax": 0.008, "ratio": 0.003, "vulnClass": "none"}}, {"type": "Feature", "geometry": {"type": "MultiPolygon", "coordinates": [[[[72.05123281, 34.05097186], [72.0513118, 34.05120939], [72.05142398, 34.05118378], [72.0514281, 34.05119617], [72.05158516, 34.05116032], [72.05151372, 34.0509455], [72.05154862, 34.05093754], [72.05153694, 34.05090242], [72.05123281, 34.05097186]]]]}, "properties": {"id": "Pakistan_123102310_337637", "height": 4.384145259857178, "hmax": 0.013, "ratio": 0.003, "vulnClass": "none"}}, {"type": "Feature", "geometry": {"type": "MultiPolygon", "coordinates": [[[[72.05198497, 34.05083936], [72.05193669, 34.05079936], [72.05190316, 34.05082714], [72.05195144, 34.05086714], [72.05198497, 34.05083936]]]]}, "properties": {"id": "Pakistan_123102310_156009", "height": 2.541192770004272, "hmax": 0.013, "ratio": 0.005, "vulnClass": "none"}}, {"type": "Feature", "geometry": {"type": "MultiPolygon", "coordinates": [[[[72.05204961, 34.05105829], [72.05198083, 34.05093032], [72.05193922, 34.05094566], [72.05200799, 34.05107364], [72.05204961, 34.05105829]]]]}, "properties": {"id": "Pakistan_123102310_52133", "height": 2.836032390594482, "hmax": 0.013, "ratio": 0.005, "vulnClass": "none"}}, {"type": "Feature", "geometry": {"type": "MultiPolygon", "coordinates": [[[[72.05208481, 34.05108455], [72.05181749, 34.05115925], [72.0518646, 34.05127498], [72.05213192, 34.05120028], [72.05208481, 34.05108455]]]]}, "properties": {"id": "Pakistan_123102310_872970", "height": 3.478305339813232, "hmax": 0.013, "ratio": 0.004, "vulnClass": "none"}}, {"type": "Feature", "geometry": {"type": "MultiPolygon", "coordinates": [[[[72.05255772, 34.05128295], [72.05248784, 34.05110256], [72.05243677, 34.05111614], [72.05250665, 34.05129653], [72.05255772, 34.05128295]]]]}, "properties": {"id": "Pakistan_123102310_564735", "height": 3.900160789489746, "hmax": 0.008, "ratio": 0.002, "vulnClass": "none"}}, {"type": "Feature", "geometry": {"type": "MultiPolygon", "coordinates": [[[[72.0525095, 34.05129402], [72.05248951, 34.051249], [72.05237848, 34.05128285], [72.05239847, 34.05132787], [72.0525095, 34.05129402]]]]}, "properties": {"id": "Pakistan_123102310_683539", "height": 3.054638147354126, "hmax": 0.008, "ratio": 0.003, "vulnClass": "none"}}, {"type": "Feature", "geometry": {"type": "MultiPolygon", "coordinates": [[[[72.05282129, 34.05131127], [72.0528039, 34.05126825], [72.0526891, 34.05130011], [72.05270649, 34.05134313], [72.05282129, 34.05131127]]]]}, "properties": {"id": "Pakistan_123102310_920402", "height": 2.917695760726929, "hmax": 0.008, "ratio": 0.003, "vulnClass": "none"}}, {"type": "Feature", "geometry": {"type": "MultiPolygon", "coordinates": [[[[72.05334751, 34.05114298], [72.0534787, 34.05158875], [72.05353693, 34.05157698], [72.05354002, 34.05158747], [72.05359319, 34.05157673], [72.05353084, 34.05136487], [72.05355362, 34.05136027], [72.0534817, 34.05111588], [72.05334751, 34.05114298]]]]}, "properties": {"id": "Pakistan_123102310_740754", "height": 6.358907699584961, "hmax": 0.005, "ratio": 0.001, "vulnClass": "none"}}, {"type": "Feature", "geometry": {"type": "MultiPolygon", "coordinates": [[[[72.05374508, 34.0510591], [72.05353358, 34.05110387], [72.05356831, 34.05121653], [72.05367809, 34.05119328], [72.05369771, 34.0512569], [72.05366598, 34.05126362], [72.05367885, 34.05130534], [72.0538123, 34.0512771], [72.05374508, 34.0510591]]]]}, "properties": {"id": "Pakistan_123102310_645376", "height": 7.172391891479492, "hmax": 0.005, "ratio": 0.001, "vulnClass": "none"}}, {"type": "Feature", "geometry": {"type": "MultiPolygon", "coordinates": [[[[72.05325714, 34.05131899], [72.05323699, 34.05126653], [72.05308598, 34.05130634], [72.05310613, 34.05135881], [72.05325714, 34.05131899]]]]}, "properties": {"id": "Pakistan_123102310_484355", "height": 2.917291641235352, "hmax": 0.008, "ratio": 0.003, "vulnClass": "none"}}, {"type": "Feature", "geometry": {"type": "MultiPolygon", "coordinates": [[[[72.05300256, 34.05107259], [72.05303577, 34.05117527], [72.05309732, 34.05116161], [72.05306411, 34.05105893], [72.05300256, 34.05107259]]]]}, "properties": {"id": "Pakistan_123102310_910983", "height": 3.658348560333252, "hmax": 0.008, "ratio": 0.002, "vulnClass": "none"}}, {"type": "Feature", "geometry": {"type": "MultiPolygon", "coordinates": [[[[72.05294097, 34.05114296], [72.05296045, 34.05119453], [72.05302152, 34.05117869], [72.05300204, 34.05112712], [72.05294097, 34.05114296]]]]}, "properties": {"id": "Pakistan_123102310_155134", "height": 3.046279430389404, "hmax": 0.008, "ratio": 0.003, "vulnClass": "none"}}, {"type": "Feature", "geometry": {"type": "MultiPolygon", "coordinates": [[[[72.05289111, 34.05108577], [72.0528987, 34.05110604], [72.0529809, 34.05108492], [72.05297332, 34.05106465], [72.05289111, 34.05108577]]]]}, "properties": {"id": "Pakistan_123102310_69222", "height": 3.554088592529297, "hmax": 0.008, "ratio": 0.002, "vulnClass": "none"}}, {"type": "Feature", "geometry": {"type": "MultiPolygon", "coordinates": [[[[72.05274312, 34.05111106], [72.052775, 34.05123196], [72.05284668, 34.05121899], [72.05283494, 34.05117444], [72.05286054, 34.05116981], [72.05287005, 34.05120587], [72.05291101, 34.05119846], [72.05288137, 34.05108604], [72.05274312, 34.05111106]]]]}, "properties": {"id": "Pakistan_123102310_417931", "height": 3.010510206222534, "hmax": 0.008, "ratio": 0.003, "vulnClass": "none"}}, {"type": "Feature", "geometry": {"type": "MultiPolygon", "coordinates": [[[[72.05311159, 34.05135697], [72.0531974, 34.05171162], [72.05332375, 34.05169063], [72.05330927, 34.05163081], [72.05327575, 34.05163638], [72.05325094, 34.05153383], [72.05324063, 34.05153554], [72.05321117, 34.05141377], [72.05326274, 34.0514052], [72.05324568, 34.0513347], [72.05311159, 34.05135697]]]]}, "properties": {"id": "Pakistan_123102310_184193", "height": 3.587194204330444, "hmax": 0.008, "ratio": 0.002, "vulnClass": "none"}}, {"type": "Feature", "geometry": {"type": "MultiPolygon", "coordinates": [[[[72.05302894, 34.05142499], [72.05304561, 34.05148866], [72.05313169, 34.05147319], [72.05311502, 34.05140952], [72.05302894, 34.05142499]]]]}, "properties": {"id": "Pakistan_123102310_541058", "height": 2.978369235992432, "hmax": 0.008, "ratio": 0.003, "vulnClass": "none"}}, {"type": "Feature", "geometry": {"type": "MultiPolygon", "coordinates": [[[[72.0531025, 34.0515198], [72.05309245, 34.05148632], [72.05304293, 34.05149652], [72.05305297, 34.05153], [72.0531025, 34.0515198]]]]}, "properties": {"id": "Pakistan_123102310_858753", "height": 3.269458770751953, "hmax": 0.008, "ratio": 0.002, "vulnClass": "none"}}, {"type": "Feature", "geometry": {"type": "MultiPolygon", "coordinates": [[[[72.05281734, 34.05173847], [72.05284593, 34.0517884], [72.05291161, 34.05176259], [72.05288303, 34.05171265], [72.05281734, 34.05173847]]]]}, "properties": {"id": "Pakistan_123102310_493795", "height": 2.745025634765625, "hmax": 0.007, "ratio": 0.003, "vulnClass": "none"}}, {"type": "Feature", "geometry": {"type": "MultiPolygon", "coordinates": [[[[72.05299437, 34.05173538], [72.05296653, 34.05167276], [72.05292402, 34.05168574], [72.05295186, 34.05174836], [72.05299437, 34.05173538]]]]}, "properties": {"id": "Pakistan_123102310_370815", "height": 2.648827314376831, "hmax": 0.007, "ratio": 0.003, "vulnClass": "none"}}, {"type": "Feature", "geometry": {"type": "MultiPolygon", "coordinates": [[[[72.05340903, 34.05143601], [72.05334991, 34.05144622], [72.05336439, 34.05150372], [72.05342351, 34.0514935], [72.05340903, 34.05143601]]]]}, "properties": {"id": "Pakistan_123102310_901504", "height": 5.403948783874512, "hmax": 0.005, "ratio": 0.001, "vulnClass": "none"}}, {"type": "Feature", "geometry": {"type": "MultiPolygon", "coordinates": [[[[72.05391806, 34.0516014], [72.05384035, 34.05138865], [72.05375532, 34.05140997], [72.05374751, 34.05138859], [72.0536335, 34.05141717], [72.05368333, 34.05155358], [72.05365876, 34.05155974], [72.05378145, 34.05189566], [72.05384874, 34.05187879], [72.05377328, 34.05167215], [72.05383471, 34.05165674], [72.05384065, 34.05167303], [72.05407067, 34.05161536], [72.0540532, 34.05156753], [72.05391806, 34.0516014]]]]}, "properties": {"id": "Pakistan_123102310_697782", "height": 4.92578649520874, "hmax": 0.005, "ratio": 0.001, "vulnClass": "none"}}, {"type": "Feature", "geometry": {"type": "MultiPolygon", "coordinates": [[[[72.05381679, 34.05131192], [72.05372957, 34.05133753], [72.05375828, 34.05140466], [72.0538455, 34.05137905], [72.05381679, 34.05131192]]]]}, "properties": {"id": "Pakistan_123102310_550487", "height": 4.81422758102417, "hmax": 0.005, "ratio": 0.001, "vulnClass": "none"}}, {"type": "Feature", "geometry": {"type": "MultiPolygon", "coordinates": [[[[72.05389821, 34.05129851], [72.05390643, 34.05132923], [72.05397035, 34.05131749], [72.05396213, 34.05128677], [72.05389821, 34.05129851]]]]}, "properties": {"id": "Pakistan_123102310_231587", "height": 4.583783149719238, "hmax": 0.005, "ratio": 0.001, "vulnClass": "none"}}, {"type": "Feature", "geometry": {"type": "MultiPolygon", "coordinates": [[[[72.05400308, 34.05141156], [72.05401709, 34.05146224], [72.0540859, 34.05144918], [72.05407189, 34.0513985], [72.05400308, 34.05141156]]]]}, "properties": {"id": "Pakistan_123102310_863557", "height": 3.067201137542725, "hmax": 0.005, "ratio": 0.002, "vulnClass": "none"}}, {"type": "Feature", "geometry": {"type": "MultiPolygon", "coordinates": [[[[72.0540623, 34.05156277], [72.05407066, 34.05160839], [72.05410838, 34.05160365], [72.05410003, 34.05155803], [72.0540623, 34.05156277]]]]}, "properties": {"id": "Pakistan_123102310_602620", "height": 3.892667770385742, "hmax": 0.005, "ratio": 0.001, "vulnClass": "none"}}, {"type": "Feature", "geometry": {"type": "MultiPolygon", "coordinates": [[[[72.05433464, 34.05107808], [72.05425057, 34.05108816], [72.05427226, 34.05121223], [72.05435633, 34.05120215], [72.05433464, 34.05107808]]]]}, "properties": {"id": "Pakistan_123102310_136941", "height": 3.592573165893555, "hmax": 0.005, "ratio": 0.001, "vulnClass": "none"}}, {"type": "Feature", "geometry": {"type": "MultiPolygon", "coordinates": [[[[72.05380071, 34.05124121], [72.05382412, 34.05131142], [72.05401351, 34.05126807], [72.05399011, 34.05119787], [72.05380071, 34.05124121]]]]}, "properties": {"id": "Pakistan_123102310_550486", "height": 5.699500560760498, "hmax": 0.005, "ratio": 0.001, "vulnClass": "none"}}, {"type": "Feature", "geometry": {"type": "MultiPolygon", "coordinates": [[[[72.05396319, 34.05106168], [72.05408026, 34.05141147], [72.05416396, 34.05139224], [72.05412389, 34.05127255], [72.05418964, 34.05125744], [72.05417514, 34.05121411], [72.05423142, 34.05120118], [72.05420725, 34.05112895], [72.05414996, 34.05114211], [72.05417102, 34.05120503], [72.0540988, 34.05122163], [72.05402178, 34.05099156], [72.05379762, 34.05104306], [72.05381523, 34.05109568], [72.05396319, 34.05106168]]]]}, "properties": {"id": "Pakistan_123102310_598015", "height": 5.306687355041504, "hmax": 0.005, "ratio": 0.001, "vulnClass": "none"}}, {"type": "Feature", "geometry": {"type": "MultiPolygon", "coordinates": [[[[72.05442295, 34.05083593], [72.05443336, 34.05088783], [72.05461238, 34.05086319], [72.05460197, 34.05081128], [72.05442295, 34.05083593]]]]}, "properties": {"id": "Pakistan_123102310_98024", "height": 4.150166034698486, "hmax": 0.005, "ratio": 0.001, "vulnClass": "none"}}, {"type": "Feature", "geometry": {"type": "MultiPolygon", "coordinates": [[[[72.05441452, 34.05084414], [72.05436346, 34.05085621], [72.0543822, 34.05091064], [72.05443326, 34.05089857], [72.05441452, 34.05084414]]]]}, "properties": {"id": "Pakistan_123102310_512784", "height": 2.835518360137939, "hmax": 0.005, "ratio": 0.002, "vulnClass": "none"}}, {"type": "Feature", "geometry": {"type": "MultiPolygon", "coordinates": [[[[72.05429444, 34.05096013], [72.05420353, 34.05096436], [72.05420729, 34.05101974], [72.05429819, 34.05101551], [72.05429444, 34.05096013]]]]}, "properties": {"id": "Pakistan_123102310_278785", "height": 2.692832708358765, "hmax": 0.005, "ratio": 0.002, "vulnClass": "none"}}, {"type": "Feature", "geometry": {"type": "MultiPolygon", "coordinates": [[[[72.0565059, 34.05084838], [72.05640944, 34.05085094], [72.05642, 34.051124], [72.05651646, 34.05112144], [72.0565059, 34.05084838]]]]}, "properties": {"id": "Pakistan_123102310_389642", "height": 2.722532272338867, "hmax": 0.007, "ratio": 0.003, "vulnClass": "none"}}, {"type": "Feature", "geometry": {"type": "MultiPolygon", "coordinates": [[[[72.06154493, 34.05192413], [72.06156713, 34.05228228], [72.06162599, 34.05227977], [72.06163258, 34.05238616], [72.06171284, 34.05238274], [72.06171641, 34.05244037], [72.06178596, 34.05243741], [72.06178088, 34.0523554], [72.061714, 34.05235825], [72.06171084, 34.05230727], [72.06171887, 34.05230693], [72.06171144, 34.05218724], [72.06174087, 34.05218599], [72.06174238, 34.05221037], [72.06181194, 34.05220741], [72.06180149, 34.05203896], [72.06175334, 34.05204101], [72.0617565, 34.05209199], [72.06161472, 34.05209802], [72.06160378, 34.05192163], [72.06154493, 34.05192413]]]]}, "properties": {"id": "Pakistan_123102310_441572", "height": 2.790194511413574, "hmax": 0.005, "ratio": 0.002, "vulnClass": "none"}}, {"type": "Feature", "geometry": {"type": "MultiPolygon", "coordinates": [[[[72.06170308, 34.05195842], [72.0617112, 34.0520244], [72.06181107, 34.05201596], [72.06180295, 34.05194997], [72.06170308, 34.05195842]]]]}, "properties": {"id": "Pakistan_123102310_370889", "height": 3.25895357131958, "hmax": 0.005, "ratio": 0.002, "vulnClass": "none"}}, {"type": "Feature", "geometry": {"type": "MultiPolygon", "coordinates": [[[[72.06068924, 34.05225063], [72.06066249, 34.05218981], [72.06062075, 34.05220241], [72.06064749, 34.05226323], [72.06068924, 34.05225063]]]]}, "properties": {"id": "Pakistan_123102310_607432", "height": 2.6712486743927, "hmax": 0.005, "ratio": 0.002, "vulnClass": "none"}}, {"type": "Feature", "geometry": {"type": "MultiPolygon", "coordinates": [[[[72.06055045, 34.05237236], [72.06057117, 34.05245548], [72.0607786, 34.05241998], [72.06075787, 34.05233686], [72.06055045, 34.05237236]]]]}, "properties": {"id": "Pakistan_123102310_290149", "height": 2.678739070892334, "hmax": 0.005, "ratio": 0.002, "vulnClass": "none"}}, {"type": "Feature", "geometry": {"type": "MultiPolygon", "coordinates": [[[[72.06099057, 34.05230792], [72.06108291, 34.05229804], [72.06107643, 34.05225651], [72.06089967, 34.05227542], [72.0609351, 34.05250275], [72.06101953, 34.05249371], [72.06099057, 34.05230792]]]]}, "properties": {"id": "Pakistan_123102310_323612", "height": 2.493964195251465, "hmax": 0.005, "ratio": 0.002, "vulnClass": "none"}}, {"type": "Feature", "geometry": {"type": "MultiPolygon", "coordinates": [[[[72.06060484, 34.05217379], [72.06041805, 34.05219994], [72.06042775, 34.05224747], [72.06061454, 34.05222132], [72.06060484, 34.05217379]]]]}, "properties": {"id": "Pakistan_123102310_906252", "height": 2.767617702484131, "hmax": 0.005, "ratio": 0.002, "vulnClass": "none"}}, {"type": "Feature", "geometry": {"type": "MultiPolygon", "coordinates": [[[[72.06065961, 34.0517031], [72.06064945, 34.05188271], [72.06139984, 34.05191191], [72.06140197, 34.05187421], [72.06119054, 34.05186599], [72.0611957, 34.05177507], [72.06125622, 34.05177743], [72.06125823, 34.05174195], [72.06115653, 34.05173799], [72.06115169, 34.05182357], [72.06082353, 34.05181082], [72.06082637, 34.0517607], [72.06092168, 34.05176441], [72.06092457, 34.05171341], [72.06065961, 34.0517031]]]]}, "properties": {"id": "Pakistan_123102310_868397", "height": 5.382129192352295, "hmax": 0.006, "ratio": 0.001, "vulnClass": "none"}}, {"type": "Feature", "geometry": {"type": "MultiPolygon", "coordinates": [[[[72.05797784, 34.05034758], [72.05795338, 34.05041482], [72.05788945, 34.05039885], [72.05786203, 34.05047423], [72.05810546, 34.05053502], [72.05811658, 34.05050446], [72.05808953, 34.0504977], [72.05813029, 34.05038565], [72.05797784, 34.05034758]]]]}, "properties": {"id": "Pakistan_123102310_911020", "height": 4.83129358291626, "hmax": 0.009, "ratio": 0.002, "vulnClass": "none"}}, {"type": "Feature", "geometry": {"type": "MultiPolygon", "coordinates": [[[[72.05579272, 34.05061444], [72.0556404, 34.05064445], [72.05570833, 34.05088118], [72.05586066, 34.05085119], [72.05579272, 34.05061444]]]]}, "properties": {"id": "Pakistan_123102310_117386", "height": 4.255650997161865, "hmax": 0.007, "ratio": 0.002, "vulnClass": "none"}}, {"type": "Feature", "geometry": {"type": "MultiPolygon", "coordinates": [[[[72.05553344, 34.05083985], [72.05548041, 34.0506713], [72.0553699, 34.05069517], [72.05547204, 34.05101978], [72.05562125, 34.05098755], [72.05559703, 34.05091056], [72.05555936, 34.0509187], [72.05555055, 34.0508907], [72.05567509, 34.0508638], [72.05565902, 34.05081272], [72.05553344, 34.05083985]]]]}, "properties": {"id": "Pakistan_123102310_108787", "height": 4.31586742401123, "hmax": 0.007, "ratio": 0.002, "vulnClass": "none"}}, {"type": "Feature", "geometry": {"type": "MultiPolygon", "coordinates": [[[[72.05509946, 34.05051196], [72.05497398, 34.05053922], [72.05499636, 34.05060992], [72.05512184, 34.05058265], [72.05509946, 34.05051196]]]]}, "properties": {"id": "Pakistan_123102310_70867", "height": 3.88950777053833, "hmax": 0.01, "ratio": 0.003, "vulnClass": "none"}}]}