{"type": "FeatureCollection", "features": [{"type": "Feature", "geometry": {"type": "MultiPolygon", "coordinates": [[[[72.37816926, 34.1437766], [72.37809528, 34.14375209], [72.37808477, 34.14377383], [72.37815874, 34.14379834], [72.37816926, 34.1437766]]]]}, "properties": {"id": "Pakistan_123102310_301833", "height": 3.025996208190918, "hmax": 0.004, "ratio": 0.001, "vulnClass": "none"}}, {"type": "Feature", "geometry": {"type": "MultiPolygon", "coordinates": [[[[72.37803137, 34.14375577], [72.37801961, 34.1437908], [72.37804949, 34.14379768], [72.37806125, 34.14376264], [72.37803137, 34.14375577]]]]}, "properties": {"id": "Pakistan_123102310_198065", "height": 2.707713842391968, "hmax": 0.004, "ratio": 0.002, "vulnClass": "none"}}, {"type": "Feature", "geometry": {"type": "MultiPolygon", "coordinates": [[[[72.37805981, 34.14365061], [72.37804147, 34.1437159], [72.37808218, 34.14372373], [72.37810052, 34.14365845], [72.37805981, 34.14365061]]]]}, "properties": {"id": "Pakistan_123102310_723847", "height": 7.336942672729492, "hmax": 0.009, "ratio": 0.001, "vulnClass": "none"}}, {"type": "Feature", "geometry": {"type": "MultiPolygon", "coordinates": [[[[72.37823974, 34.14360511], [72.37816863, 34.14358842], [72.37812755, 34.14370834], [72.37819865, 34.14372503], [72.37823974, 34.14360511]]]]}, "properties": {"id": "Pakistan_123102310_761827", "height": 9.298232078552246, "hmax": 0.009, "ratio": 0.001, "vulnClass": "none"}}, {"type": "Feature", "geometry": {"type": "MultiPolygon", "coordinates": [[[[72.37845618, 34.14359976], [72.37845419, 34.14355764], [72.37836849, 34.14356043], [72.37837048, 34.14360254], [72.37845618, 34.14359976]]]]}, "properties": {"id": "Pakistan_123102310_500559", "height": 3.482036828994751, "hmax": 0.009, "ratio": 0.003, "vulnClass": "none"}}, {"type": "Feature", "geometry": {"type": "MultiPolygon", "coordinates": [[[[72.37897072, 34.14383516], [72.37897437, 34.14374287], [72.37888864, 34.14374055], [72.37888498, 34.14383284], [72.37897072, 34.14383516]]]]}, "properties": {"id": "Pakistan_123102310_661932", "height": 3.679467678070068, "hmax": 0.005, "ratio": 0.001, "vulnClass": "none"}}, {"type": "Feature", "geometry": {"type": "MultiPolygon", "coordinates": [[[[72.37887864, 34.14363396], [72.37902247, 34.14363638], [72.37902443, 34.14355649], [72.37897445, 34.14355566], [72.37897341, 34.14359782], [72.37890542, 34.14359667], [72.37890608, 34.14357005], [72.37882296, 34.14356865], [72.37882071, 34.14366047], [72.37887797, 34.14366144], [72.37887864, 34.14363396]]]]}, "properties": {"id": "Pakistan_123102310_661930", "height": 5.433309078216553, "hmax": 0.007, "ratio": 0.001, "vulnClass": "none"}}, {"type": "Feature", "geometry": {"type": "MultiPolygon", "coordinates": [[[[72.37883782, 34.14356602], [72.37897446, 34.14356973], [72.37897718, 34.14350098], [72.37874236, 34.14349462], [72.37874078, 34.14353453], [72.37883895, 34.14353719], [72.37883782, 34.14356602]]]]}, "properties": {"id": "Pakistan_123102310_244316", "height": 2.715280532836914, "hmax": 0.007, "ratio": 0.003, "vulnClass": "none"}}, {"type": "Feature", "geometry": {"type": "MultiPolygon", "coordinates": [[[[72.37846203, 34.14355512], [72.37854562, 34.14356645], [72.37856102, 34.14348862], [72.37847743, 34.14347729], [72.37846203, 34.14355512]]]]}, "properties": {"id": "Pakistan_123102310_699924", "height": 2.467252492904663, "hmax": 0.009, "ratio": 0.004, "vulnClass": "none"}}, {"type": "Feature", "geometry": {"type": "MultiPolygon", "coordinates": [[[[72.37897109, 34.14347857], [72.37897442, 34.14339875], [72.37856819, 34.14338713], [72.37856485, 34.14346695], [72.37897109, 34.14347857]]]]}, "properties": {"id": "Pakistan_123102310_477123", "height": 8.350066184997559, "hmax": 0.008, "ratio": 0.001, "vulnClass": "none"}}, {"type": "Feature", "geometry": {"type": "MultiPolygon", "coordinates": [[[[72.37888803, 34.14333425], [72.37894055, 34.14333196], [72.37893908, 34.14330898], [72.37882772, 34.14331384], [72.37883111, 34.14336697], [72.37888995, 34.1433644], [72.37888803, 34.14333425]]]]}, "properties": {"id": "Pakistan_123102310_495916", "height": 2.502743244171143, "hmax": 0.007, "ratio": 0.003, "vulnClass": "none"}}, {"type": "Feature", "geometry": {"type": "MultiPolygon", "coordinates": [[[[72.37881773, 34.14336131], [72.37880672, 34.14316554], [72.3785471, 34.14317554], [72.37855201, 34.14326275], [72.37868315, 34.14325771], [72.37868049, 34.14321036], [72.37872698, 34.14320857], [72.37873573, 34.14336446], [72.37881773, 34.14336131]]]]}, "properties": {"id": "Pakistan_123102310_349351", "height": 6.289546966552734, "hmax": 0.008, "ratio": 0.001, "vulnClass": "none"}}, {"type": "Feature", "geometry": {"type": "MultiPolygon", "coordinates": [[[[72.37848148, 34.14316736], [72.37839889, 34.14314905], [72.37838481, 34.14319254], [72.3784674, 34.14321086], [72.37848148, 34.14316736]]]]}, "properties": {"id": "Pakistan_123102310_623745", "height": 2.912307977676392, "hmax": 0.009, "ratio": 0.003, "vulnClass": "none"}}, {"type": "Feature", "geometry": {"type": "MultiPolygon", "coordinates": [[[[72.37838855, 34.14316801], [72.37825398, 34.1431574], [72.37824664, 34.1432212], [72.37838122, 34.14323181], [72.37838855, 34.14316801]]]]}, "properties": {"id": "Pakistan_123102310_623744", "height": 4.288464546203613, "hmax": 0.009, "ratio": 0.002, "vulnClass": "none"}}, {"type": "Feature", "geometry": {"type": "MultiPolygon", "coordinates": [[[[72.37824658, 34.14319182], [72.37824543, 34.14314522], [72.37809162, 34.14314782], [72.37809277, 34.14319442], [72.37824658, 34.14319182]]]]}, "properties": {"id": "Pakistan_123102310_780691", "height": 4.006696224212646, "hmax": 0.009, "ratio": 0.002, "vulnClass": "none"}}, {"type": "Feature", "geometry": {"type": "MultiPolygon", "coordinates": [[[[72.37828152, 34.14308484], [72.37814111, 34.14308728], [72.37814203, 34.14312358], [72.37828244, 34.14312115], [72.37828152, 34.14308484]]]]}, "properties": {"id": "Pakistan_123102310_733324", "height": 3.024862289428711, "hmax": 0.009, "ratio": 0.003, "vulnClass": "none"}}, {"type": "Feature", "geometry": {"type": "MultiPolygon", "coordinates": [[[[72.37817447, 34.14322555], [72.37809507, 34.14322767], [72.37809781, 34.14329783], [72.37817721, 34.14329571], [72.37817447, 34.14322555]]]]}, "properties": {"id": "Pakistan_123102310_206386", "height": 5.388878345489502, "hmax": 0.009, "ratio": 0.002, "vulnClass": "none"}}, {"type": "Feature", "geometry": {"type": "MultiPolygon", "coordinates": [[[[72.37805542, 34.14340774], [72.37807666, 34.14335944], [72.37801831, 34.14334187], [72.37797552, 34.14343917], [72.37802676, 34.14345461], [72.37804831, 34.1434056], [72.37805542, 34.14340774]]]]}, "properties": {"id": "Pakistan_123102310_562126", "height": 9.572940826416016, "hmax": 0.009, "ratio": 0.001, "vulnClass": "none"}}, {"type": "Feature", "geometry": {"type": "MultiPolygon", "coordinates": [[[[72.37828433, 34.14339152], [72.37822975, 34.14345466], [72.3783599, 34.14353173], [72.37838655, 34.14350089], [72.37830963, 34.14345534], [72.37833755, 34.14342304], [72.37828433, 34.14339152]]]]}, "properties": {"id": "Pakistan_123102310_141347", "height": 6.093245983123779, "hmax": 0.009, "ratio": 0.002, "vulnClass": "none"}}, {"type": "Feature", "geometry": {"type": "MultiPolygon", "coordinates": [[[[72.37807931, 34.14356775], [72.37819205, 34.143586], [72.37820335, 34.14353818], [72.37809061, 34.14351994], [72.37807931, 34.14356775]]]]}, "properties": {"id": "Pakistan_123102310_486455", "height": 9.103221893310547, "hmax": 0.009, "ratio": 0.001, "vulnClass": "none"}}, {"type": "Feature", "geometry": {"type": "MultiPolygon", "coordinates": [[[[72.3777859, 34.14337125], [72.37778949, 34.14339755], [72.3778504, 34.14339187], [72.37784682, 34.14336557], [72.3777859, 34.14337125]]]]}, "properties": {"id": "Pakistan_123102310_898906", "height": 4.423685073852539, "hmax": 0.009, "ratio": 0.002, "vulnClass": "none"}}, {"type": "Feature", "geometry": {"type": "MultiPolygon", "coordinates": [[[[72.37757557, 34.14337757], [72.37759321, 34.14344079], [72.37777563, 34.14340593], [72.37775799, 34.14334271], [72.37757557, 34.14337757]]]]}, "properties": {"id": "Pakistan_123102310_401327", "height": 4.423685073852539, "hmax": 0.009, "ratio": 0.002, "vulnClass": "none"}}, {"type": "Feature", "geometry": {"type": "MultiPolygon", "coordinates": [[[[72.37780155, 34.14336315], [72.37777599, 34.14327114], [72.37773777, 34.14327842], [72.37776333, 34.14337043], [72.37780155, 34.14336315]]]]}, "properties": {"id": "Pakistan_123102310_837363", "height": 4.423685073852539, "hmax": 0.009, "ratio": 0.002, "vulnClass": "none"}}, {"type": "Feature", "geometry": {"type": "MultiPolygon", "coordinates": [[[[72.37798672, 34.14310236], [72.37798262, 34.14306717], [72.37786569, 34.14307652], [72.3778698, 34.14311171], [72.37798672, 34.14310236]]]]}, "properties": {"id": "Pakistan_123102310_264109", "height": 2.641679763793945, "hmax": 0.009, "ratio": 0.003, "vulnClass": "none"}}, {"type": "Feature", "geometry": {"type": "MultiPolygon", "coordinates": [[[[72.37804348, 34.14310248], [72.37795237, 34.1431001], [72.37795085, 34.14314002], [72.37785707, 34.14313757], [72.37785394, 34.14321962], [72.37795943, 34.14322238], [72.37795796, 34.14326087], [72.37803736, 34.14326295], [72.37804348, 34.14310248]]]]}, "properties": {"id": "Pakistan_123102310_320946", "height": 5.123575687408447, "hmax": 0.009, "ratio": 0.002, "vulnClass": "none"}}, {"type": "Feature", "geometry": {"type": "MultiPolygon", "coordinates": [[[[72.37791767, 34.1428224], [72.37783991, 34.14282355], [72.37784101, 34.14287459], [72.37791877, 34.14287344], [72.37791767, 34.1428224]]]]}, "properties": {"id": "Pakistan_123102310_18451", "height": 2.886142253875732, "hmax": 0.009, "ratio": 0.003, "vulnClass": "none"}}, {"type": "Feature", "geometry": {"type": "MultiPolygon", "coordinates": [[[[72.37781557, 34.14295009], [72.3777995, 34.14295064], [72.37779518, 34.14286421], [72.37773092, 34.14286641], [72.37773867, 34.14302154], [72.377819, 34.14301879], [72.37781557, 34.14295009]]]]}, "properties": {"id": "Pakistan_123102310_179059", "height": 3.587260246276855, "hmax": 0.009, "ratio": 0.003, "vulnClass": "none"}}, {"type": "Feature", "geometry": {"type": "MultiPolygon", "coordinates": [[[[72.3777002, 34.14291881], [72.37763587, 34.14292018], [72.37763822, 34.1429956], [72.37770255, 34.14299423], [72.3777002, 34.14291881]]]]}, "properties": {"id": "Pakistan_123102310_316139", "height": 2.845916748046875, "hmax": 0.009, "ratio": 0.003, "vulnClass": "none"}}, {"type": "Feature", "geometry": {"type": "MultiPolygon", "coordinates": [[[[72.37773161, 34.14281866], [72.37773112, 34.14286084], [72.37778744, 34.14286129], [72.37778794, 34.14281912], [72.37773161, 34.14281866]]]]}, "properties": {"id": "Pakistan_123102310_794782", "height": 2.464773893356323, "hmax": 0.009, "ratio": 0.004, "vulnClass": "none"}}, {"type": "Feature", "geometry": {"type": "MultiPolygon", "coordinates": [[[[72.37801067, 34.14270774], [72.3779261, 34.14270406], [72.37792742, 34.14268335], [72.37777928, 34.14267688], [72.37777345, 34.14276845], [72.37800616, 34.14277858], [72.37801067, 34.14270774]]]]}, "properties": {"id": "Pakistan_123102310_282820", "height": 4.130141735076904, "hmax": 0.009, "ratio": 0.002, "vulnClass": "none"}}, {"type": "Feature", "geometry": {"type": "MultiPolygon", "coordinates": [[[[72.37852069, 34.14289503], [72.37851592, 34.14267533], [72.37838557, 34.14267727], [72.37838682, 34.14273496], [72.37843941, 34.14273418], [72.37844294, 34.14289619], [72.37852069, 34.14289503]]]]}, "properties": {"id": "Pakistan_123102310_160343", "height": 3.340962648391724, "hmax": 0.009, "ratio": 0.003, "vulnClass": "none"}}, {"type": "Feature", "geometry": {"type": "MultiPolygon", "coordinates": [[[[72.37839665, 34.14301808], [72.37839378, 34.14308097], [72.37855817, 34.14308612], [72.37856104, 34.14302323], [72.37839665, 34.14301808]]]]}, "properties": {"id": "Pakistan_123102310_671398", "height": 2.967414379119873, "hmax": 0.009, "ratio": 0.003, "vulnClass": "none"}}, {"type": "Feature", "geometry": {"type": "MultiPolygon", "coordinates": [[[[72.37869391, 34.14297603], [72.37868394, 34.1429181], [72.37858568, 34.14292969], [72.37859565, 34.14298762], [72.37869391, 34.14297603]]]]}, "properties": {"id": "Pakistan_123102310_405994", "height": 5.362422943115234, "hmax": 0.008, "ratio": 0.002, "vulnClass": "none"}}, {"type": "Feature", "geometry": {"type": "MultiPolygon", "coordinates": [[[[72.37895479, 34.14295794], [72.37895161, 34.14289949], [72.37872778, 34.14290785], [72.37873096, 34.14296629], [72.37895479, 34.14295794]]]]}, "properties": {"id": "Pakistan_123102310_18459", "height": 8.843600273132324, "hmax": 0.007, "ratio": 0.001, "vulnClass": "none"}}, {"type": "Feature", "geometry": {"type": "MultiPolygon", "coordinates": [[[[72.37889637, 34.14276141], [72.37881195, 34.14278791], [72.37884041, 34.14285001], [72.37892482, 34.14282351], [72.37889637, 34.14276141]]]]}, "properties": {"id": "Pakistan_123102310_8803", "height": 8.643204689025879, "hmax": 0.003, "ratio": 0.0, "vulnClass": "none"}}, {"type": "Feature", "geometry": {"type": "MultiPolygon", "coordinates": [[[[72.37877534, 34.14270379], [72.37860284, 34.14274071], [72.37861389, 34.14277608], [72.3787864, 34.14273916], [72.37877534, 34.14270379]]]]}, "properties": {"id": "Pakistan_123102310_27889", "height": 5.079274654388428, "hmax": 0.005, "ratio": 0.001, "vulnClass": "none"}}, {"type": "Feature", "geometry": {"type": "MultiPolygon", "coordinates": [[[[72.37855107, 34.14266314], [72.37854951, 34.14272971], [72.37863963, 34.14273116], [72.37864119, 34.14266459], [72.37855107, 34.14266314]]]]}, "properties": {"id": "Pakistan_123102310_477121", "height": 3.719491243362427, "hmax": 0.009, "ratio": 0.002, "vulnClass": "none"}}, {"type": "Feature", "geometry": {"type": "MultiPolygon", "coordinates": [[[[72.37879439, 34.14274421], [72.37889449, 34.14271959], [72.37895676, 34.14289297], [72.37901837, 34.14287781], [72.37896241, 34.14272201], [72.37901265, 34.14270965], [72.37898364, 34.14262885], [72.37894421, 34.14263854], [72.3789508, 34.1426569], [72.37877828, 34.14269933], [72.37879439, 34.14274421]]]]}, "properties": {"id": "Pakistan_123102310_325678", "height": 5.193044185638428, "hmax": 0.003, "ratio": 0.001, "vulnClass": "none"}}, {"type": "Feature", "geometry": {"type": "MultiPolygon", "coordinates": [[[[72.37925766, 34.14258829], [72.37919331, 34.14258725], [72.37918759, 34.14282912], [72.37925193, 34.14283017], [72.37925766, 34.14258829]]]]}, "properties": {"id": "Pakistan_123102310_215864", "height": 7.081749439239502, "hmax": 0.003, "ratio": 0.0, "vulnClass": "none"}}, {"type": "Feature", "geometry": {"type": "MultiPolygon", "coordinates": [[[[72.37949491, 34.14279743], [72.37935071, 34.1428054], [72.3793566, 34.14287833], [72.37955954, 34.14286712], [72.37955198, 34.14277341], [72.37949323, 34.14277666], [72.37949491, 34.14279743]]]]}, "properties": {"id": "Pakistan_123102310_671407", "height": 4.673623561859131, "hmax": 0.003, "ratio": 0.001, "vulnClass": "none"}}, {"type": "Feature", "geometry": {"type": "MultiPolygon", "coordinates": [[[[72.37940362, 34.14314485], [72.37940893, 34.14303983], [72.37931522, 34.14303658], [72.37931298, 34.14308091], [72.37926478, 34.14307924], [72.37926171, 34.14313994], [72.37940362, 34.14314485]]]]}, "properties": {"id": "Pakistan_123102310_723856", "height": 2.877340793609619, "hmax": 0.007, "ratio": 0.002, "vulnClass": "none"}}, {"type": "Feature", "geometry": {"type": "MultiPolygon", "coordinates": [[[[72.37930508, 34.14303498], [72.37928381, 34.14291637], [72.3792077, 34.14292571], [72.37922897, 34.14304433], [72.37930508, 34.14303498]]]]}, "properties": {"id": "Pakistan_123102310_860912", "height": 6.101705551147461, "hmax": 0.007, "ratio": 0.001, "vulnClass": "none"}}, {"type": "Feature", "geometry": {"type": "MultiPolygon", "coordinates": [[[[72.37922097, 34.14289064], [72.37922348, 34.14283386], [72.37917794, 34.14283248], [72.37917543, 34.14288926], [72.37922097, 34.14289064]]]]}, "properties": {"id": "Pakistan_123102310_742935", "height": 7.419570922851562, "hmax": 0.005, "ratio": 0.001, "vulnClass": "none"}}, {"type": "Feature", "geometry": {"type": "MultiPolygon", "coordinates": [[[[72.37949081, 34.14289338], [72.3794869, 34.14309534], [72.37957003, 34.14309645], [72.37957394, 34.14289449], [72.37949081, 34.14289338]]]]}, "properties": {"id": "Pakistan_123102310_292307", "height": 4.152803421020508, "hmax": 0.007, "ratio": 0.002, "vulnClass": "none"}}, {"type": "Feature", "geometry": {"type": "MultiPolygon", "coordinates": [[[[72.37969267, 34.14303849], [72.37974894, 34.14303699], [72.37974966, 34.14305563], [72.3798488, 34.14305299], [72.37984518, 34.14295985], [72.37968977, 34.14296399], [72.37969267, 34.14303849]]]]}, "properties": {"id": "Pakistan_123102310_368183", "height": 5.069082736968994, "hmax": 0.005, "ratio": 0.001, "vulnClass": "none"}}, {"type": "Feature", "geometry": {"type": "MultiPolygon", "coordinates": [[[[72.37985227, 34.14295717], [72.37985114, 34.14305483], [72.37992087, 34.14305539], [72.379922, 34.14295772], [72.37985227, 34.14295717]]]]}, "properties": {"id": "Pakistan_123102310_131042", "height": 4.748504638671875, "hmax": 0.004, "ratio": 0.001, "vulnClass": "none"}}, {"type": "Feature", "geometry": {"type": "MultiPolygon", "coordinates": [[[[72.37991601, 34.14295418], [72.37991732, 34.14289426], [72.37985297, 34.1428933], [72.37985166, 34.14295322], [72.37991601, 34.14295418]]]]}, "properties": {"id": "Pakistan_123102310_234890", "height": 6.932929515838623, "hmax": 0.004, "ratio": 0.001, "vulnClass": "none"}}, {"type": "Feature", "geometry": {"type": "MultiPolygon", "coordinates": [[[[72.37965679, 34.1427823], [72.37965335, 34.14287412], [72.37973641, 34.14287626], [72.37973985, 34.14278444], [72.37965679, 34.1427823]]]]}, "properties": {"id": "Pakistan_123102310_543220", "height": 5.855663776397705, "hmax": 0.003, "ratio": 0.001, "vulnClass": "none"}}, {"type": "Feature", "geometry": {"type": "MultiPolygon", "coordinates": [[[[72.38005729, 34.14266045], [72.38006037, 34.14271492], [72.38010587, 34.14271316], [72.38010279, 34.1426587], [72.38005729, 34.14266045]]]]}, "properties": {"id": "Pakistan_123102310_349363", "height": 3.505891561508179, "hmax": 0.006, "ratio": 0.002, "vulnClass": "none"}}, {"type": "Feature", "geometry": {"type": "MultiPolygon", "coordinates": [[[[72.38016142, 34.14264962], [72.38019074, 34.14285769], [72.38040609, 34.14283691], [72.38039838, 34.14278216], [72.38034017, 34.14278778], [72.380334, 34.14274397], [72.38027313, 34.14274984], [72.38027085, 34.1427336], [72.38021263, 34.14273921], [72.38020443, 34.14268099], [72.38026, 34.14267563], [72.38025507, 34.14264059], [72.38016142, 34.14264962]]]]}, "properties": {"id": "Pakistan_123102310_557351", "height": 5.130831718444824, "hmax": 0.006, "ratio": 0.001, "vulnClass": "none"}}, {"type": "Feature", "geometry": {"type": "MultiPolygon", "coordinates": [[[[72.38043932, 34.14283007], [72.38052344, 34.14281139], [72.38047644, 34.14266643], [72.38044892, 34.14267254], [72.38043482, 34.14262906], [72.38037824, 34.14264162], [72.38043932, 34.14283007]]]]}, "properties": {"id": "Pakistan_123102310_623762", "height": 3.558336496353149, "hmax": 0.006, "ratio": 0.002, "vulnClass": "none"}}, {"type": "Feature", "geometry": {"type": "MultiPolygon", "coordinates": [[[[72.3805304, 34.14302105], [72.38054354, 34.1431175], [72.38059121, 34.14311306], [72.38057808, 34.14301661], [72.3805304, 34.14302105]]]]}, "properties": {"id": "Pakistan_123102310_842032", "height": 2.917210102081299, "hmax": 0.004, "ratio": 0.001, "vulnClass": "none"}}, {"type": "Feature", "geometry": {"type": "MultiPolygon", "coordinates": [[[[72.3804247, 34.14289695], [72.38044971, 34.14297826], [72.38035147, 34.14299896], [72.38036969, 34.14305821], [72.38052083, 34.14302637], [72.38051826, 34.14301803], [72.38071223, 34.14297717], [72.38068951, 34.14290331], [72.38064921, 34.1429118], [72.38063125, 34.14285343], [72.3804247, 34.14289695]]]]}, "properties": {"id": "Pakistan_123102310_47037", "height": 4.11277437210083, "hmax": 0.004, "ratio": 0.001, "vulnClass": "none"}}, {"type": "Feature", "geometry": {"type": "MultiPolygon", "coordinates": [[[[72.38010342, 34.14326794], [72.38008563, 34.14302241], [72.37997438, 34.14302794], [72.37998671, 34.14319826], [72.37995365, 34.1431999], [72.37995734, 34.14325077], [72.38001445, 34.14324794], [72.38001621, 34.14327227], [72.38010342, 34.14326794]]]]}, "properties": {"id": "Pakistan_123102310_112917", "height": 6.277655601501465, "hmax": 0.004, "ratio": 0.001, "vulnClass": "none"}}, {"type": "Feature", "geometry": {"type": "MultiPolygon", "coordinates": [[[[72.38030742, 34.14330292], [72.3803086, 34.1433584], [72.38043999, 34.14335648], [72.38043881, 34.143301], [72.38030742, 34.14330292]]]]}, "properties": {"id": "Pakistan_123102310_666689", "height": 4.158989429473877, "hmax": 0.004, "ratio": 0.001, "vulnClass": "none"}}, {"type": "Feature", "geometry": {"type": "MultiPolygon", "coordinates": [[[[72.38026038, 34.14319718], [72.38026123, 34.14325267], [72.38054113, 34.14324975], [72.38054028, 34.14319426], [72.38026038, 34.14319718]]]]}, "properties": {"id": "Pakistan_123102310_557353", "height": 4.544641017913818, "hmax": 0.004, "ratio": 0.001, "vulnClass": "none"}}, {"type": "Feature", "geometry": {"type": "MultiPolygon", "coordinates": [[[[72.38029487, 34.14311299], [72.38020652, 34.14311619], [72.38021092, 34.14319946], [72.38029927, 34.14319626], [72.38029487, 34.14311299]]]]}, "properties": {"id": "Pakistan_123102310_429519", "height": 4.700325012207031, "hmax": 0.004, "ratio": 0.001, "vulnClass": "none"}}, {"type": "Feature", "geometry": {"type": "MultiPolygon", "coordinates": [[[[72.38067393, 34.14317569], [72.38066545, 34.14310984], [72.38058854, 34.14311662], [72.38059702, 34.14318247], [72.38067393, 34.14317569]]]]}, "properties": {"id": "Pakistan_123102310_272510", "height": 2.482630014419556, "hmax": 0.004, "ratio": 0.002, "vulnClass": "none"}}, {"type": "Feature", "geometry": {"type": "MultiPolygon", "coordinates": [[[[72.38043504, 34.14343235], [72.38048941, 34.14345627], [72.38054008, 34.1433774], [72.38059236, 34.1434004], [72.38058124, 34.14341771], [72.38061394, 34.1434321], [72.38064665, 34.14338117], [72.38057137, 34.14334804], [72.38058869, 34.14332109], [72.38052463, 34.1432929], [72.38043504, 34.14343235]]]]}, "properties": {"id": "Pakistan_123102310_595373", "height": 4.477897167205811, "hmax": 0.004, "ratio": 0.001, "vulnClass": "none"}}, {"type": "Feature", "geometry": {"type": "MultiPolygon", "coordinates": [[[[72.38048964, 34.14351368], [72.38049323, 34.14354671], [72.38061562, 34.14353759], [72.38060652, 34.14345391], [72.3804123, 34.14346838], [72.3804178, 34.14351903], [72.38048964, 34.14351368]]]]}, "properties": {"id": "Pakistan_123102310_311437", "height": 5.090421676635742, "hmax": 0.004, "ratio": 0.001, "vulnClass": "none"}}, {"type": "Feature", "geometry": {"type": "MultiPolygon", "coordinates": [[[[72.3807916, 34.14372584], [72.3807916, 34.14358376], [72.38068968, 34.14358376], [72.38068968, 34.14352827], [72.38064945, 34.14352827], [72.38064945, 34.14358154], [72.38058507, 34.14358154], [72.38058507, 34.14356378], [72.38050193, 34.14356378], [72.38050193, 34.14363482], [72.38069236, 34.14363482], [72.38069236, 34.1436548], [72.3804751, 34.1436548], [72.3804751, 34.1436104], [72.38038659, 34.1436104], [72.38038659, 34.14372584], [72.3807916, 34.14372584]]]]}, "properties": {"id": "Pakistan_123102310_913142", "height": 6.341139793395996, "hmax": 0.004, "ratio": 0.001, "vulnClass": "none"}}, {"type": "Feature", "geometry": {"type": "MultiPolygon", "coordinates": [[[[72.38027797, 34.14346328], [72.38027494, 34.14350308], [72.38034344, 34.14350665], [72.38034646, 34.14346685], [72.38027797, 34.14346328]]]]}, "properties": {"id": "Pakistan_123102310_415370", "height": 5.200459003448486, "hmax": 0.004, "ratio": 0.001, "vulnClass": "none"}}, {"type": "Feature", "geometry": {"type": "MultiPolygon", "coordinates": [[[[72.3803279, 34.14344879], [72.38037079, 34.14346137], [72.38038261, 34.14343376], [72.38033972, 34.14342118], [72.3803279, 34.14344879]]]]}, "properties": {"id": "Pakistan_123102310_453233", "height": 2.521888494491577, "hmax": 0.004, "ratio": 0.002, "vulnClass": "none"}}, {"type": "Feature", "geometry": {"type": "MultiPolygon", "coordinates": [[[[72.38017335, 34.1435654], [72.38013478, 34.14337408], [72.38007737, 34.14338201], [72.3801196, 34.1435915], [72.38019695, 34.14358082], [72.38020044, 34.1435981], [72.38025095, 34.14359112], [72.38024381, 34.14355567], [72.38017335, 34.1435654]]]]}, "properties": {"id": "Pakistan_123102310_112919", "height": 5.648769855499268, "hmax": 0.004, "ratio": 0.001, "vulnClass": "none"}}, {"type": "Feature", "geometry": {"type": "MultiPolygon", "coordinates": [[[[72.37979928, 34.14351723], [72.3798314, 34.1435184], [72.37982923, 34.14355918], [72.37989883, 34.14356172], [72.37990225, 34.14349746], [72.37987184, 34.14349635], [72.3798742, 34.14345204], [72.37980289, 34.14344944], [72.37979928, 34.14351723]]]]}, "properties": {"id": "Pakistan_123102310_292310", "height": 4.78975248336792, "hmax": 0.004, "ratio": 0.001, "vulnClass": "none"}}, {"type": "Feature", "geometry": {"type": "MultiPolygon", "coordinates": [[[[72.37978537, 34.14359488], [72.37978408, 34.1435172], [72.37973849, 34.14351771], [72.37973757, 34.14346223], [72.37953376, 34.14346453], [72.37953479, 34.14352668], [72.37961621, 34.14352576], [72.37961738, 34.14359678], [72.37978537, 34.14359488]]]]}, "properties": {"id": "Pakistan_123102310_865708", "height": 5.027429580688477, "hmax": 0.007, "ratio": 0.001, "vulnClass": "none"}}, {"type": "Feature", "geometry": {"type": "MultiPolygon", "coordinates": [[[[72.37961842, 34.14333635], [72.37962162, 34.14344506], [72.37973957, 34.14344268], [72.37973637, 34.14333397], [72.37961842, 34.14333635]]]]}, "properties": {"id": "Pakistan_123102310_197122", "height": 9.051105499267578, "hmax": 0.007, "ratio": 0.001, "vulnClass": "none"}}, {"type": "Feature", "geometry": {"type": "MultiPolygon", "coordinates": [[[[72.37993156, 34.14328246], [72.37973865, 34.14328764], [72.37974095, 34.1433462], [72.37993386, 34.14334102], [72.37993156, 34.14328246]]]]}, "properties": {"id": "Pakistan_123102310_738089", "height": 10.06653118133545, "hmax": 0.004, "ratio": 0.0, "vulnClass": "none"}}, {"type": "Feature", "geometry": {"type": "MultiPolygon", "coordinates": [[[[72.37968873, 34.14326939], [72.37950392, 34.14326361], [72.37949977, 34.1433545], [72.37953727, 34.14335567], [72.37953859, 34.14332685], [72.3796859, 34.14333146], [72.37968873, 34.14326939]]]]}, "properties": {"id": "Pakistan_123102310_122361", "height": 9.402299880981445, "hmax": 0.007, "ratio": 0.001, "vulnClass": "none"}}, {"type": "Feature", "geometry": {"type": "MultiPolygon", "coordinates": [[[[72.37930422, 34.14332888], [72.37930774, 34.14327354], [72.37924186, 34.14327067], [72.37923833, 34.14332601], [72.37930422, 34.14332888]]]]}, "properties": {"id": "Pakistan_123102310_226477", "height": 4.779015064239502, "hmax": 0.007, "ratio": 0.002, "vulnClass": "none"}}, {"type": "Feature", "geometry": {"type": "MultiPolygon", "coordinates": [[[[72.37898205, 34.14312207], [72.3789847, 34.14318414], [72.37918026, 34.14317842], [72.3791776, 34.14311634], [72.37898205, 34.14312207]]]]}, "properties": {"id": "Pakistan_123102310_448533", "height": 5.476232528686523, "hmax": 0.007, "ratio": 0.001, "vulnClass": "none"}}, {"type": "Feature", "geometry": {"type": "MultiPolygon", "coordinates": [[[[72.37908135, 34.14318918], [72.37902406, 34.14319024], [72.379025, 34.14322489], [72.37908229, 34.14322382], [72.37908135, 34.14318918]]]]}, "properties": {"id": "Pakistan_123102310_894123", "height": 3.590607404708862, "hmax": 0.007, "ratio": 0.002, "vulnClass": "none"}}, {"type": "Feature", "geometry": {"type": "MultiPolygon", "coordinates": [[[[72.3791809, 34.14329572], [72.37910325, 34.14329843], [72.37910484, 34.14332946], [72.37918248, 34.14332674], [72.3791809, 34.14329572]]]]}, "properties": {"id": "Pakistan_123102310_600085", "height": 5.723928451538086, "hmax": 0.007, "ratio": 0.001, "vulnClass": "none"}}, {"type": "Feature", "geometry": {"type": "MultiPolygon", "coordinates": [[[[72.37899591, 34.14331428], [72.37899864, 34.14337857], [72.3790924, 34.14337584], [72.37908967, 34.14331155], [72.37899591, 34.14331428]]]]}, "properties": {"id": "Pakistan_123102310_405997", "height": 4.200568199157715, "hmax": 0.007, "ratio": 0.002, "vulnClass": "none"}}, {"type": "Feature", "geometry": {"type": "MultiPolygon", "coordinates": [[[[72.37917896, 34.14333461], [72.37910666, 34.14333226], [72.37910455, 34.14337659], [72.37917686, 34.14337894], [72.37917896, 34.14333461]]]]}, "properties": {"id": "Pakistan_123102310_875171", "height": 4.989565849304199, "hmax": 0.007, "ratio": 0.001, "vulnClass": "none"}}, {"type": "Feature", "geometry": {"type": "MultiPolygon", "coordinates": [[[[72.37923617, 34.14336367], [72.37935935, 34.1433678], [72.37936104, 34.14333321], [72.37923786, 34.14332908], [72.37923617, 34.14336367]]]]}, "properties": {"id": "Pakistan_123102310_623751", "height": 4.779015064239502, "hmax": 0.007, "ratio": 0.002, "vulnClass": "none"}}, {"type": "Feature", "geometry": {"type": "MultiPolygon", "coordinates": [[[[72.37935433, 34.14350191], [72.37935232, 34.14343313], [72.37924509, 34.14343527], [72.3792471, 34.14350405], [72.37935433, 34.14350191]]]]}, "properties": {"id": "Pakistan_123102310_472271", "height": 2.553006649017334, "hmax": 0.007, "ratio": 0.003, "vulnClass": "none"}}, {"type": "Feature", "geometry": {"type": "MultiPolygon", "coordinates": [[[[72.37951152, 34.14368185], [72.37951681, 34.14355458], [72.37937043, 34.14355041], [72.37936571, 34.14366349], [72.37943442, 34.14366545], [72.37943383, 34.14367963], [72.37951152, 34.14368185]]]]}, "properties": {"id": "Pakistan_123102310_823136", "height": 5.831916809082031, "hmax": 0.007, "ratio": 0.001, "vulnClass": "none"}}, {"type": "Feature", "geometry": {"type": "MultiPolygon", "coordinates": [[[[72.37971949, 34.1436086], [72.37956941, 34.14360501], [72.37956748, 34.14366047], [72.37971756, 34.14366405], [72.37971949, 34.1436086]]]]}, "properties": {"id": "Pakistan_123102310_292309", "height": 4.9126877784729, "hmax": 0.007, "ratio": 0.001, "vulnClass": "none"}}, {"type": "Feature", "geometry": {"type": "MultiPolygon", "coordinates": [[[[72.37984285, 34.14363461], [72.37984163, 34.14358447], [72.37979069, 34.14358532], [72.37979191, 34.14363546], [72.37984285, 34.14363461]]]]}, "properties": {"id": "Pakistan_123102310_429514", "height": 6.023424625396729, "hmax": 0.004, "ratio": 0.001, "vulnClass": "none"}}, {"type": "Feature", "geometry": {"type": "MultiPolygon", "coordinates": [[[[72.37995581, 34.14369176], [72.37994741, 34.14363715], [72.37986295, 34.14364606], [72.37987135, 34.14370067], [72.37995581, 34.14369176]]]]}, "properties": {"id": "Pakistan_123102310_576580", "height": 5.799004077911377, "hmax": 0.004, "ratio": 0.001, "vulnClass": "none"}}, {"type": "Feature", "geometry": {"type": "MultiPolygon", "coordinates": [[[[72.3796072, 34.1437735], [72.37976978, 34.14377076], [72.37976863, 34.14372417], [72.37960605, 34.14372691], [72.3796072, 34.1437735]]]]}, "properties": {"id": "Pakistan_123102310_434273", "height": 3.485979318618774, "hmax": 0.006, "ratio": 0.002, "vulnClass": "none"}}, {"type": "Feature", "geometry": {"type": "MultiPolygon", "coordinates": [[[[72.37946255, 34.14371849], [72.37948033, 34.14376976], [72.37952404, 34.14375938], [72.37950627, 34.14370811], [72.37946255, 34.14371849]]]]}, "properties": {"id": "Pakistan_123102310_898913", "height": 2.593436717987061, "hmax": 0.007, "ratio": 0.003, "vulnClass": "none"}}, {"type": "Feature", "geometry": {"type": "MultiPolygon", "coordinates": [[[[72.37989727, 34.1438072], [72.3798303, 34.14380921], [72.37983341, 34.14388015], [72.37990037, 34.14387815], [72.37989727, 34.1438072]]]]}, "properties": {"id": "Pakistan_123102310_500567", "height": 2.50550651550293, "hmax": 0.01, "ratio": 0.004, "vulnClass": "none"}}, {"type": "Feature", "geometry": {"type": "MultiPolygon", "coordinates": [[[[72.37927014, 34.14422867], [72.37930594, 34.14422999], [72.37930772, 34.14419675], [72.3791809, 34.14419211], [72.37917284, 34.14434277], [72.37926386, 34.1443461], [72.37927014, 34.14422867]]]]}, "properties": {"id": "Pakistan_123102310_368179", "height": 4.056535720825195, "hmax": 0.004, "ratio": 0.001, "vulnClass": "none"}}, {"type": "Feature", "geometry": {"type": "MultiPolygon", "coordinates": [[[[72.3794177, 34.14428963], [72.37936039, 34.14428858], [72.37935929, 34.14432939], [72.37953725, 34.14433266], [72.37953911, 34.14426299], [72.37941847, 34.14426078], [72.3794177, 34.14428963]]]]}, "properties": {"id": "Pakistan_123102310_83120", "height": 3.956526279449463, "hmax": 0.004, "ratio": 0.001, "vulnClass": "none"}}, {"type": "Feature", "geometry": {"type": "MultiPolygon", "coordinates": [[[[72.37931958, 34.1444967], [72.37936934, 34.14450964], [72.37939896, 34.14443165], [72.3793492, 34.14441871], [72.37931958, 34.1444967]]]]}, "properties": {"id": "Pakistan_123102310_83116", "height": 2.957217454910278, "hmax": 0.004, "ratio": 0.001, "vulnClass": "none"}}, {"type": "Feature", "geometry": {"type": "MultiPolygon", "coordinates": [[[[72.37920837, 34.14434989], [72.37916989, 34.14434835], [72.37916722, 34.144394], [72.37920571, 34.14439553], [72.37920837, 34.14434989]]]]}, "properties": {"id": "Pakistan_123102310_311430", "height": 2.644628047943115, "hmax": 0.004, "ratio": 0.002, "vulnClass": "none"}}, {"type": "Feature", "geometry": {"type": "MultiPolygon", "coordinates": [[[[72.37971973, 34.14437206], [72.3796289, 34.14437688], [72.37963165, 34.14441226], [72.37972247, 34.14440743], [72.37971973, 34.14437206]]]]}, "properties": {"id": "Pakistan_123102310_538519", "height": 2.701966047286987, "hmax": 0.006, "ratio": 0.002, "vulnClass": "none"}}, {"type": "Feature", "geometry": {"type": "MultiPolygon", "coordinates": [[[[72.37946237, 34.14438424], [72.37941675, 34.14457199], [72.37955081, 34.1445943], [72.37956895, 34.14451963], [72.37949934, 34.14450804], [72.37952682, 34.14439496], [72.37946237, 34.14438424]]]]}, "properties": {"id": "Pakistan_123102310_780699", "height": 2.803079128265381, "hmax": 0.004, "ratio": 0.001, "vulnClass": "none"}}, {"type": "Feature", "geometry": {"type": "MultiPolygon", "coordinates": [[[[72.37959449, 34.14460051], [72.37983588, 34.14463032], [72.37984136, 34.14459992], [72.37976527, 34.14459052], [72.37978406, 34.14448629], [72.37970535, 34.14447657], [72.37969791, 34.14451783], [72.37967429, 34.14451491], [72.3796692, 34.14454314], [72.37960623, 34.14453537], [72.37959449, 34.14460051]]]]}, "properties": {"id": "Pakistan_123102310_790079", "height": 2.962135314941406, "hmax": 0.008, "ratio": 0.003, "vulnClass": "none"}}, {"type": "Feature", "geometry": {"type": "MultiPolygon", "coordinates": [[[[72.37961581, 34.14446226], [72.37957901, 34.14445793], [72.37957153, 34.14450145], [72.37960834, 34.14450578], [72.37961581, 34.14446226]]]]}, "properties": {"id": "Pakistan_123102310_37535", "height": 2.767564058303833, "hmax": 0.004, "ratio": 0.001, "vulnClass": "none"}}, {"type": "Feature", "geometry": {"type": "MultiPolygon", "coordinates": [[[[72.37978912, 34.14442801], [72.37979248, 34.14448691], [72.37991291, 34.14448221], [72.37990955, 34.14442331], [72.37978912, 34.14442801]]]]}, "properties": {"id": "Pakistan_123102310_382377", "height": 4.826961994171143, "hmax": 0.01, "ratio": 0.002, "vulnClass": "none"}}, {"type": "Feature", "geometry": {"type": "MultiPolygon", "coordinates": [[[[72.37972839, 34.14441678], [72.37981052, 34.14441632], [72.3798099, 34.14433953], [72.3799182, 34.14433894], [72.37991763, 34.14426922], [72.37983181, 34.1442697], [72.37983161, 34.14424528], [72.37972432, 34.14424587], [72.37972512, 34.14434444], [72.37972781, 34.14434443], [72.37972839, 34.14441678]]]]}, "properties": {"id": "Pakistan_123102310_453231", "height": 6.14374303817749, "hmax": 0.01, "ratio": 0.002, "vulnClass": "none"}}, {"type": "Feature", "geometry": {"type": "MultiPolygon", "coordinates": [[[[72.37966323, 34.14414772], [72.37966122, 34.14410872], [72.37959964, 34.14411089], [72.37960165, 34.14414988], [72.37966323, 34.14414772]]]]}, "properties": {"id": "Pakistan_123102310_785404", "height": 3.087765693664551, "hmax": 0.004, "ratio": 0.001, "vulnClass": "none"}}, {"type": "Feature", "geometry": {"type": "MultiPolygon", "coordinates": [[[[72.37968884, 34.14411242], [72.37968636, 34.14415539], [72.379771, 34.14415874], [72.37977348, 34.14411576], [72.37968884, 34.14411242]]]]}, "properties": {"id": "Pakistan_123102310_477130", "height": 3.572427272796631, "hmax": 0.009, "ratio": 0.003, "vulnClass": "none"}}, {"type": "Feature", "geometry": {"type": "MultiPolygon", "coordinates": [[[[72.37982276, 34.14413261], [72.37981885, 34.14421906], [72.37989652, 34.14422147], [72.37989753, 34.1441993], [72.38004216, 34.14420379], [72.38004136, 34.14422152], [72.38009493, 34.14422318], [72.38009864, 34.14414116], [72.37982276, 34.14413261]]]]}, "properties": {"id": "Pakistan_123102310_510262", "height": 6.029039859771729, "hmax": 0.01, "ratio": 0.002, "vulnClass": "none"}}, {"type": "Feature", "geometry": {"type": "MultiPolygon", "coordinates": [[[[72.37981969, 34.14412808], [72.37978221, 34.1441267], [72.37977864, 34.14419317], [72.37981612, 34.14419455], [72.37981969, 34.14412808]]]]}, "properties": {"id": "Pakistan_123102310_8813", "height": 6.029039859771729, "hmax": 0.01, "ratio": 0.002, "vulnClass": "none"}}, {"type": "Feature", "geometry": {"type": "MultiPolygon", "coordinates": [[[[72.37993951, 34.14423449], [72.37994164, 34.14444758], [72.38000333, 34.14444716], [72.38000174, 34.14428865], [72.38008924, 34.14428805], [72.3800887, 34.14423347], [72.37993951, 34.14423449]]]]}, "properties": {"id": "Pakistan_123102310_140416", "height": 5.178896903991699, "hmax": 0.01, "ratio": 0.002, "vulnClass": "none"}}, {"type": "Feature", "geometry": {"type": "MultiPolygon", "coordinates": [[[[72.38004968, 34.14437644], [72.38004639, 34.14443717], [72.38010158, 34.14443922], [72.38010488, 34.14437849], [72.38004968, 34.14437644]]]]}, "properties": {"id": "Pakistan_123102310_500570", "height": 2.739842653274536, "hmax": 0.01, "ratio": 0.004, "vulnClass": "none"}}, {"type": "Feature", "geometry": {"type": "MultiPolygon", "coordinates": [[[[72.37994681, 34.144539], [72.37994563, 34.14451017], [72.37990009, 34.14451144], [72.37990126, 34.14454027], [72.37994681, 34.144539]]]]}, "properties": {"id": "Pakistan_123102310_112913", "height": 2.524687528610229, "hmax": 0.01, "ratio": 0.004, "vulnClass": "none"}}, {"type": "Feature", "geometry": {"type": "MultiPolygon", "coordinates": [[[[72.38048783, 34.144552], [72.38048603, 34.1445121], [72.38040836, 34.14451449], [72.38040527, 34.14444576], [72.38031152, 34.14444865], [72.3803164, 34.14455727], [72.38048783, 34.144552]]]]}, "properties": {"id": "Pakistan_123102310_870470", "height": 2.617774248123169, "hmax": 0.01, "ratio": 0.004, "vulnClass": "none"}}, {"type": "Feature", "geometry": {"type": "MultiPolygon", "coordinates": [[[[72.38055741, 34.1438654], [72.38055022, 34.14384493], [72.38050817, 34.14385504], [72.38051536, 34.14387551], [72.38055741, 34.1438654]]]]}, "properties": {"id": "Pakistan_123102310_349365", "height": 3.702481031417847, "hmax": 0.01, "ratio": 0.003, "vulnClass": "none"}}, {"type": "Feature", "geometry": {"type": "MultiPolygon", "coordinates": [[[[72.3806709, 34.14392901], [72.38065166, 34.14385009], [72.3804996, 34.14387548], [72.38051884, 34.1439544], [72.3806709, 34.14392901]]]]}, "properties": {"id": "Pakistan_123102310_140428", "height": 3.702481031417847, "hmax": 0.01, "ratio": 0.003, "vulnClass": "none"}}, {"type": "Feature", "geometry": {"type": "MultiPolygon", "coordinates": [[[[72.38039391, 34.14383805], [72.38040112, 34.14386463], [72.38044198, 34.14385704], [72.38043477, 34.14383046], [72.38039391, 34.14383805]]]]}, "properties": {"id": "Pakistan_123102310_695231", "height": 2.630936145782471, "hmax": 0.01, "ratio": 0.004, "vulnClass": "none"}}, {"type": "Feature", "geometry": {"type": "MultiPolygon", "coordinates": [[[[72.37993252, 34.14398684], [72.38000856, 34.14398841], [72.38001063, 34.14391964], [72.37993459, 34.14391807], [72.37993252, 34.14398684]]]]}, "properties": {"id": "Pakistan_123102310_216935", "height": 2.66278600692749, "hmax": 0.01, "ratio": 0.004, "vulnClass": "none"}}, {"type": "Feature", "geometry": {"type": "MultiPolygon", "coordinates": [[[[72.38030891, 34.14390348], [72.38030958, 34.14395675], [72.38044806, 34.14395557], [72.38044739, 34.1439023], [72.38030891, 34.14390348]]]]}, "properties": {"id": "Pakistan_123102310_557354", "height": 2.957077264785767, "hmax": 0.01, "ratio": 0.003, "vulnClass": "none"}}, {"type": "Feature", "geometry": {"type": "MultiPolygon", "coordinates": [[[[72.3803186, 34.14377557], [72.38033929, 34.14383501], [72.38043251, 34.14381278], [72.38041182, 34.14375334], [72.3803186, 34.14377557]]]]}, "properties": {"id": "Pakistan_123102310_45520", "height": 5.268819808959961, "hmax": 0.007, "ratio": 0.001, "vulnClass": "none"}}, {"type": "Feature", "geometry": {"type": "MultiPolygon", "coordinates": [[[[72.38032926, 34.14370505], [72.38032516, 34.14375811], [72.38038393, 34.14376123], [72.38038803, 34.14370817], [72.38032926, 34.14370505]]]]}, "properties": {"id": "Pakistan_123102310_215878", "height": 8.503544807434082, "hmax": 0.004, "ratio": 0.001, "vulnClass": "none"}}, {"type": "Feature", "geometry": {"type": "MultiPolygon", "coordinates": [[[[72.38051282, 34.14379303], [72.38060008, 34.14378439], [72.38059313, 34.14373625], [72.38050586, 34.14374488], [72.38051282, 34.14379303]]]]}, "properties": {"id": "Pakistan_123102310_889401", "height": 3.364290237426758, "hmax": 0.004, "ratio": 0.001, "vulnClass": "none"}}, {"type": "Feature", "geometry": {"type": "MultiPolygon", "coordinates": [[[[72.38095525, 34.14357188], [72.38096467, 34.14365327], [72.38104535, 34.14364687], [72.38103594, 34.14356548], [72.38095525, 34.14357188]]]]}, "properties": {"id": "Pakistan_123102310_889404", "height": 2.472739934921265, "hmax": 0.003, "ratio": 0.001, "vulnClass": "none"}}, {"type": "Feature", "geometry": {"type": "MultiPolygon", "coordinates": [[[[72.38219982, 34.14423484], [72.38196628, 34.14427905], [72.38196337, 34.1442685], [72.38197356, 34.14426657], [72.38194585, 34.14416629], [72.38187193, 34.14418027], [72.38188915, 34.14424259], [72.38187131, 34.14424597], [72.38189871, 34.14434511], [72.38197931, 34.14432986], [72.38198747, 34.14435939], [72.38205119, 34.14434733], [72.38205469, 34.14435999], [72.38222547, 34.14432766], [72.38219982, 34.14423484]]]]}, "properties": {"id": "Pakistan_123102310_301852", "height": 4.45547342300415, "hmax": 0.24, "ratio": 0.054, "vulnClass": "low"}}, {"type": "Feature", "geometry": {"type": "MultiPolygon", "coordinates": [[[[72.38419018, 34.14434195], [72.38418193, 34.14421133], [72.38403648, 34.14421762], [72.38403537, 34.14419991], [72.3832874, 34.14423228], [72.38329215, 34.14430755], [72.38317077, 34.1443128], [72.38317538, 34.14438586], [72.38419018, 34.14434195]]]]}, "properties": {"id": "Pakistan_123102310_92810", "height": 3.093459844589233, "hmax": 0.045, "ratio": 0.014, "vulnClass": "none"}}, {"type": "Feature", "geometry": {"type": "MultiPolygon", "coordinates": [[[[72.38386637, 34.14464274], [72.38385995, 34.14454981], [72.38330016, 34.1445763], [72.38330413, 34.14463383], [72.38334958, 34.14463168], [72.38335516, 34.14471244], [72.38348185, 34.14470645], [72.38347872, 34.14466109], [72.38386637, 34.14464274]]]]}, "properties": {"id": "Pakistan_123102310_856291", "height": 2.825565814971924, "hmax": 0.045, "ratio": 0.016, "vulnClass": "none"}}, {"type": "Feature", "geometry": {"type": "MultiPolygon", "coordinates": [[[[72.38367259, 34.14489515], [72.38367082, 34.14478639], [72.38332057, 34.14479029], [72.38332173, 34.14486131], [72.3833743, 34.14486073], [72.38337351, 34.1448119], [72.38351028, 34.14481038], [72.38351154, 34.14488806], [72.38356786, 34.14488743], [72.38356715, 34.14484415], [72.38361811, 34.14484358], [72.38361895, 34.14489574], [72.38367259, 34.14489515]]]]}, "properties": {"id": "Pakistan_123102310_870481", "height": 4.894683837890625, "hmax": 0.086, "ratio": 0.018, "vulnClass": "none"}}, {"type": "Feature", "geometry": {"type": "MultiPolygon", "coordinates": [[[[72.38417259, 34.14478957], [72.38392601, 34.14478396], [72.38392513, 34.14481058], [72.38406182, 34.14481369], [72.38405743, 34.14494571], [72.38398668, 34.14494409], [72.38398399, 34.14502477], [72.3839602, 34.1450144], [72.3839622, 34.14495426], [72.38390245, 34.14492822], [72.38390637, 34.14481015], [72.38382759, 34.14480836], [72.38382833, 34.14478617], [72.38377472, 34.14478495], [72.38376999, 34.14492692], [72.3835663, 34.14492228], [72.38356726, 34.14489344], [72.38350936, 34.14489213], [72.38350733, 34.14495313], [72.38347307, 34.14495235], [72.38345997, 34.14497293], [72.38342285, 34.14495675], [72.38339866, 34.1449562], [72.38345511, 34.1449808], [72.383367, 34.14497879], [72.3833617, 34.14513849], [72.38416039, 34.14515672], [72.38416412, 34.14504447], [72.38413239, 34.14503064], [72.38413378, 34.1449889], [72.38416774, 34.14493551], [72.38417259, 34.14478957]]]]}, "properties": {"id": "Pakistan_123102310_178314", "height": 5.931811332702637, "hmax": 0.074, "ratio": 0.013, "vulnClass": "none"}}, {"type": "Feature", "geometry": {"type": "MultiPolygon", "coordinates": [[[[72.38657269, 34.14624578], [72.38657891, 34.14638543], [72.38663784, 34.14638364], [72.38663557, 34.14633265], [72.38668646, 34.1463311], [72.38668251, 34.14624242], [72.38657269, 34.14624578]]]]}, "properties": {"id": "Pakistan_123102310_263314", "height": 3.551816463470459, "hmax": 0.009, "ratio": 0.003, "vulnClass": "none"}}, {"type": "Feature", "geometry": {"type": "MultiPolygon", "coordinates": [[[[72.38642574, 34.14613412], [72.38642179, 34.14623613], [72.3865638, 34.1462399], [72.38656664, 34.14616672], [72.38649312, 34.14616477], [72.38649424, 34.14613594], [72.38642574, 34.14613412]]]]}, "properties": {"id": "Pakistan_123102310_311468", "height": 4.272478580474854, "hmax": 0.009, "ratio": 0.002, "vulnClass": "none"}}, {"type": "Feature", "geometry": {"type": "MultiPolygon", "coordinates": [[[[72.38654828, 34.14609964], [72.38654985, 34.14606861], [72.38642133, 34.14606415], [72.38641976, 34.14609518], [72.38654828, 34.14609964]]]]}, "properties": {"id": "Pakistan_123102310_122431", "height": 3.505730628967285, "hmax": 0.009, "ratio": 0.003, "vulnClass": "none"}}, {"type": "Feature", "geometry": {"type": "MultiPolygon", "coordinates": [[[[72.38624935, 34.14622967], [72.38640483, 34.14623271], [72.38640635, 34.14617947], [72.38630181, 34.14617742], [72.38630491, 34.14606871], [72.38625398, 34.14606771], [72.38624935, 34.14622967]]]]}, "properties": {"id": "Pakistan_123102310_647480", "height": 3.440390825271606, "hmax": 0.009, "ratio": 0.003, "vulnClass": "none"}}, {"type": "Feature", "geometry": {"type": "MultiPolygon", "coordinates": [[[[72.38628305, 34.14605547], [72.38636233, 34.14606759], [72.38637239, 34.14602252], [72.38629311, 34.1460104], [72.38628305, 34.14605547]]]]}, "properties": {"id": "Pakistan_123102310_112012", "height": 3.839551448822021, "hmax": 0.009, "ratio": 0.002, "vulnClass": "none"}}, {"type": "Feature", "geometry": {"type": "MultiPolygon", "coordinates": [[[[72.38691871, 34.14601343], [72.38692246, 34.14592252], [72.38671617, 34.14591669], [72.38671242, 34.1460076], [72.38691871, 34.14601343]]]]}, "properties": {"id": "Pakistan_123102310_638068", "height": 4.327783107757568, "hmax": 0.009, "ratio": 0.002, "vulnClass": "none"}}, {"type": "Feature", "geometry": {"type": "MultiPolygon", "coordinates": [[[[72.38680866, 34.14608079], [72.38680196, 34.14601689], [72.38674339, 34.1460211], [72.3867501, 34.146085], [72.38680866, 34.14608079]]]]}, "properties": {"id": "Pakistan_123102310_818569", "height": 3.400479316711426, "hmax": 0.009, "ratio": 0.003, "vulnClass": "none"}}, {"type": "Feature", "geometry": {"type": "MultiPolygon", "coordinates": [[[[72.38675655, 34.14609076], [72.38676014, 34.14618076], [72.38682294, 34.14617904], [72.38681934, 34.14608904], [72.38675655, 34.14609076]]]]}, "properties": {"id": "Pakistan_123102310_292344", "height": 2.580904960632324, "hmax": 0.009, "ratio": 0.003, "vulnClass": "none"}}, {"type": "Feature", "geometry": {"type": "MultiPolygon", "coordinates": [[[[72.378999, 34.14822638], [72.37892135, 34.14822376], [72.37891954, 34.14826059], [72.37899719, 34.1482632], [72.378999, 34.14822638]]]]}, "properties": {"id": "Pakistan_123102310_477124", "height": 2.772982597351074, "hmax": 0.071, "ratio": 0.026, "vulnClass": "none"}}, {"type": "Feature", "geometry": {"type": "MultiPolygon", "coordinates": [[[[72.37900328, 34.14819204], [72.37900141, 34.14822441], [72.37907233, 34.14822721], [72.3790742, 34.14819484], [72.37900328, 34.14819204]]]]}, "properties": {"id": "Pakistan_123102310_316143", "height": 3.245164155960083, "hmax": 0.071, "ratio": 0.022, "vulnClass": "none"}}, {"type": "Feature", "geometry": {"type": "MultiPolygon", "coordinates": [[[[72.37905556, 34.14818712], [72.37906531, 34.14809683], [72.37900279, 34.1480922], [72.37899303, 34.14818249], [72.37905556, 34.14818712]]]]}, "properties": {"id": "Pakistan_123102310_609518", "height": 3.182289838790894, "hmax": 0.071, "ratio": 0.022, "vulnClass": "none"}}, {"type": "Feature", "geometry": {"type": "MultiPolygon", "coordinates": [[[[72.38042227, 34.14456204], [72.3803221, 34.1445648], [72.38032454, 34.1446256], [72.38042471, 34.14462285], [72.38042227, 34.14456204]]]]}, "properties": {"id": "Pakistan_123102310_17310", "height": 2.617774248123169, "hmax": 0.01, "ratio": 0.004, "vulnClass": "none"}}, {"type": "Feature", "geometry": {"type": "MultiPolygon", "coordinates": [[[[72.3798945, 34.14456988], [72.37984625, 34.14457086], [72.37984794, 34.14462764], [72.37989619, 34.14462666], [72.3798945, 34.14456988]]]]}, "properties": {"id": "Pakistan_123102310_898918", "height": 2.847057342529297, "hmax": 0.01, "ratio": 0.003, "vulnClass": "none"}}, {"type": "Feature", "geometry": {"type": "MultiPolygon", "coordinates": [[[[72.37982074, 34.14885013], [72.38003471, 34.14884071], [72.38002887, 34.14874996], [72.3798149, 34.14875938], [72.37982074, 34.14885013]]]]}, "properties": {"id": "Pakistan_123102310_438951", "height": 2.857929944992065, "hmax": 0.001, "ratio": 0.0, "vulnClass": "none"}}, {"type": "Feature", "geometry": {"type": "MultiPolygon", "coordinates": [[[[72.37986482, 34.14884587], [72.37986685, 34.14888798], [72.37993916, 34.14888559], [72.37993712, 34.14884348], [72.37986482, 34.14884587]]]]}, "properties": {"id": "Pakistan_123102310_846819", "height": 2.785206079483032, "hmax": 0.001, "ratio": 0.0, "vulnClass": "none"}}, {"type": "Feature", "geometry": {"type": "MultiPolygon", "coordinates": [[[[72.37965351, 34.14899958], [72.37964767, 34.14886435], [72.3793905, 34.14887196], [72.37939286, 34.14892651], [72.37954287, 34.14892206], [72.37954636, 34.14900275], [72.37965351, 34.14899958]]]]}, "properties": {"id": "Pakistan_123102310_719072", "height": 2.821600675582886, "hmax": 0.072, "ratio": 0.025, "vulnClass": "none"}}, {"type": "Feature", "geometry": {"type": "MultiPolygon", "coordinates": [[[[72.37982039, 34.14931122], [72.37981623, 34.14924481], [72.3795514, 34.14925617], [72.37954932, 34.14922297], [72.37949172, 34.14922544], [72.37949532, 34.149283], [72.3793482, 34.14928931], [72.37935152, 34.14934244], [72.37928197, 34.14934543], [72.3792871, 34.14942734], [72.37945172, 34.14942027], [72.37944589, 34.14932729], [72.37982039, 34.14931122]]]]}, "properties": {"id": "Pakistan_123102310_865709", "height": 2.561729907989502, "hmax": 0.131, "ratio": 0.051, "vulnClass": "low"}}, {"type": "Feature", "geometry": {"type": "MultiPolygon", "coordinates": [[[[72.37979961, 34.14939381], [72.37967469, 34.14940367], [72.37967266, 34.14938608], [72.37960886, 34.14939111], [72.37961942, 34.14948262], [72.37964334, 34.14948073], [72.37963827, 34.14943674], [72.37969674, 34.14943212], [72.37970207, 34.14947831], [72.37980839, 34.14946991], [72.37979961, 34.14939381]]]]}, "properties": {"id": "Pakistan_123102310_179083", "height": 2.993191719055176, "hmax": 0.004, "ratio": 0.001, "vulnClass": "none"}}, {"type": "Feature", "geometry": {"type": "MultiPolygon", "coordinates": [[[[72.37980187, 34.14943296], [72.37984747, 34.14943296], [72.37984747, 34.14932197], [72.37980187, 34.14932197], [72.37980187, 34.14943296]]]]}, "properties": {"id": "Pakistan_123102310_766608", "height": 2.804362058639526, "hmax": 0.004, "ratio": 0.001, "vulnClass": "none"}}, {"type": "Feature", "geometry": {"type": "MultiPolygon", "coordinates": [[[[72.37954304, 34.14902813], [72.37954119, 34.14907469], [72.37968193, 34.14907851], [72.37968377, 34.14903194], [72.37954304, 34.14902813]]]]}, "properties": {"id": "Pakistan_123102310_245211", "height": 2.74610710144043, "hmax": 0.019, "ratio": 0.007, "vulnClass": "none"}}, {"type": "Feature", "geometry": {"type": "MultiPolygon", "coordinates": [[[[72.37994965, 34.14901162], [72.38008368, 34.14901426], [72.3800847, 34.14897877], [72.37995067, 34.14897613], [72.37994965, 34.14901162]]]]}, "properties": {"id": "Pakistan_123102310_633293", "height": 2.751919746398926, "hmax": 0.001, "ratio": 0.0, "vulnClass": "none"}}, {"type": "Feature", "geometry": {"type": "MultiPolygon", "coordinates": [[[[72.38044253, 34.14908716], [72.3804352, 34.14897873], [72.38037229, 34.14898164], [72.38038201, 34.14912548], [72.38057862, 34.14911637], [72.38057622, 34.14908096], [72.38044253, 34.14908716]]]]}, "properties": {"id": "Pakistan_123102310_495924", "height": 2.74788498878479, "hmax": 0.001, "ratio": 0.0, "vulnClass": "none"}}, {"type": "Feature", "geometry": {"type": "MultiPolygon", "coordinates": [[[[72.38038539, 34.14873917], [72.3803966, 34.14880766], [72.3805323, 34.14879245], [72.38052108, 34.14872395], [72.38038539, 34.14873917]]]]}, "properties": {"id": "Pakistan_123102310_704661", "height": 2.789550065994263, "hmax": 0.001, "ratio": 0.0, "vulnClass": "none"}}, {"type": "Feature", "geometry": {"type": "MultiPolygon", "coordinates": [[[[72.3800201, 34.14887872], [72.37994244, 34.14888124], [72.37994692, 34.14897564], [72.38011424, 34.14897019], [72.38011281, 34.14894008], [72.38002316, 34.14894299], [72.3800201, 34.14887872]]]]}, "properties": {"id": "Pakistan_123102310_600093", "height": 2.75287914276123, "hmax": 0.001, "ratio": 0.0, "vulnClass": "none"}}, {"type": "Feature", "geometry": {"type": "MultiPolygon", "coordinates": [[[[72.38030545, 34.14895631], [72.38040733, 34.14894671], [72.38041197, 34.14898051], [72.38051789, 34.14897054], [72.38051355, 34.14893893], [72.38059967, 34.14893082], [72.38058761, 34.14884316], [72.38057829, 34.14884404], [72.38057197, 34.14879802], [72.38023833, 34.14882945], [72.38024405, 34.14887108], [72.38029309, 34.14886646], [72.38030545, 34.14895631]]]]}, "properties": {"id": "Pakistan_123102310_500572", "height": 2.746809244155884, "hmax": 0.001, "ratio": 0.0, "vulnClass": "none"}}, {"type": "Feature", "geometry": {"type": "MultiPolygon", "coordinates": [[[[72.38243265, 34.14890461], [72.38244797, 34.14903658], [72.38267387, 34.14901861], [72.38265957, 34.14889544], [72.38257984, 34.14890178], [72.38257422, 34.14885339], [72.38245994, 34.14886248], [72.38246454, 34.14890207], [72.38243265, 34.14890461]]]]}, "properties": {"id": "Pakistan_123102310_273531", "height": 3.109255313873291, "hmax": 0.006, "ratio": 0.002, "vulnClass": "none"}}, {"type": "Feature", "geometry": {"type": "MultiPolygon", "coordinates": [[[[72.38144549, 34.1491988], [72.38144871, 34.14926207], [72.38150761, 34.14926001], [72.3815044, 34.14919675], [72.38144549, 34.1491988]]]]}, "properties": {"id": "Pakistan_123102310_65669", "height": 2.877524137496948, "hmax": 0.005, "ratio": 0.002, "vulnClass": "none"}}, {"type": "Feature", "geometry": {"type": "MultiPolygon", "coordinates": [[[[72.38067568, 34.14952612], [72.38062744, 34.14952732], [72.38062893, 34.14956819], [72.38067717, 34.14956699], [72.38067568, 34.14952612]]]]}, "properties": {"id": "Pakistan_123102310_282140", "height": 3.200263500213623, "hmax": 0.005, "ratio": 0.002, "vulnClass": "none"}}, {"type": "Feature", "geometry": {"type": "MultiPolygon", "coordinates": [[[[72.38062222, 34.14953015], [72.38053517, 34.14953387], [72.38053773, 34.14957499], [72.38062479, 34.14957127], [72.38062222, 34.14953015]]]]}, "properties": {"id": "Pakistan_123102310_206408", "height": 2.79505729675293, "hmax": 0.004, "ratio": 0.001, "vulnClass": "none"}}, {"type": "Feature", "geometry": {"type": "MultiPolygon", "coordinates": [[[[72.38039071, 34.14954467], [72.38039009, 34.14957352], [72.38047857, 34.14957482], [72.3804792, 34.14954597], [72.38039071, 34.14954467]]]]}, "properties": {"id": "Pakistan_123102310_406003", "height": 2.519460916519165, "hmax": 0.004, "ratio": 0.002, "vulnClass": "none"}}, {"type": "Feature", "geometry": {"type": "MultiPolygon", "coordinates": [[[[72.37990929, 34.14949103], [72.37991148, 34.14953757], [72.38020462, 34.1495281], [72.38020243, 34.14948155], [72.37990929, 34.14949103]]]]}, "properties": {"id": "Pakistan_123102310_633292", "height": 2.798746347427368, "hmax": 0.004, "ratio": 0.001, "vulnClass": "none"}}, {"type": "Feature", "geometry": {"type": "MultiPolygon", "coordinates": [[[[72.38069137, 34.14976781], [72.38068451, 34.14968257], [72.38048811, 34.14969339], [72.38048377, 34.14963942], [72.38034103, 34.14964729], [72.38033658, 34.14959204], [72.38029507, 34.14959433], [72.38029994, 34.14965492], [72.38028659, 34.14965566], [72.3802938, 34.14974534], [72.38020835, 34.14975005], [72.38019278, 34.1495565], [72.38014739, 34.149559], [72.3801498, 34.14958902], [72.38010975, 34.14959123], [72.38011739, 34.14968626], [72.38010016, 34.14968721], [72.38010034, 34.14968942], [72.38000688, 34.14969457], [72.38000154, 34.14962827], [72.37992798, 34.14963233], [72.37993427, 34.14971058], [72.37992626, 34.14971102], [72.37993419, 34.14980957], [72.38069137, 34.14976781]]]]}, "properties": {"id": "Pakistan_123102310_879919", "height": 3.140013456344604, "hmax": 0.004, "ratio": 0.001, "vulnClass": "none"}}, {"type": "Feature", "geometry": {"type": "MultiPolygon", "coordinates": [[[[72.38000536, 34.14956985], [72.38000839, 34.14960965], [72.38010189, 34.14960478], [72.38009887, 34.14956498], [72.38000536, 34.14956985]]]]}, "properties": {"id": "Pakistan_123102310_903683", "height": 2.528404712677002, "hmax": 0.004, "ratio": 0.002, "vulnClass": "none"}}, {"type": "Feature", "geometry": {"type": "MultiPolygon", "coordinates": [[[[72.3798575, 34.14950052], [72.37961788, 34.14949328], [72.37961553, 34.14954648], [72.37985515, 34.14955372], [72.3798575, 34.14950052]]]]}, "properties": {"id": "Pakistan_123102310_823140", "height": 2.960629224777222, "hmax": 0.004, "ratio": 0.001, "vulnClass": "none"}}, {"type": "Feature", "geometry": {"type": "MultiPolygon", "coordinates": [[[[72.37978919, 34.1498218], [72.37979231, 34.1496256], [72.37963677, 34.14962391], [72.37963365, 34.14982011], [72.37978919, 34.1498218]]]]}, "properties": {"id": "Pakistan_123102310_614334", "height": 2.733221530914307, "hmax": 0.004, "ratio": 0.002, "vulnClass": "none"}}, {"type": "Feature", "geometry": {"type": "MultiPolygon", "coordinates": [[[[72.38229266, 34.15206867], [72.38249918, 34.15206749], [72.38249777, 34.1518988], [72.38229125, 34.15189999], [72.38229266, 34.15206867]]]]}, "properties": {"id": "Pakistan_123102310_941470", "height": 3.110780715942383, "hmax": 0.005, "ratio": 0.002, "vulnClass": "none"}}, {"type": "Feature", "geometry": {"type": "MultiPolygon", "coordinates": [[[[72.38084879, 34.15462449], [72.38096283, 34.15462077], [72.38095976, 34.1545565], [72.3807627, 34.15456294], [72.38077159, 34.15474909], [72.38085461, 34.15474638], [72.38084879, 34.15462449]]]]}, "properties": {"id": "Pakistan_123102310_273521", "height": 4.293902397155762, "hmax": 0.002, "ratio": 0.001, "vulnClass": "none"}}, {"type": "Feature", "geometry": {"type": "MultiPolygon", "coordinates": [[[[72.38075382, 34.15490091], [72.38063476, 34.15490372], [72.38063728, 34.15497691], [72.38089839, 34.15497074], [72.38089529, 34.15488106], [72.38075325, 34.15488443], [72.38075382, 34.15490091]]]]}, "properties": {"id": "Pakistan_123102310_685721", "height": 5.198173522949219, "hmax": 0.002, "ratio": 0.0, "vulnClass": "none"}}, {"type": "Feature", "geometry": {"type": "MultiPolygon", "coordinates": [[[[72.3796176, 34.15508582], [72.37957987, 34.15511388], [72.37965988, 34.15518754], [72.37969761, 34.15515947], [72.3796176, 34.15508582]]]]}, "properties": {"id": "Pakistan_123102310_699932", "height": 2.712443590164185, "hmax": 0.003, "ratio": 0.001, "vulnClass": "none"}}, {"type": "Feature", "geometry": {"type": "MultiPolygon", "coordinates": [[[[72.3823168, 34.15479193], [72.38265308, 34.15480319], [72.3826572, 34.15471898], [72.3825126, 34.15471414], [72.3825101, 34.15476511], [72.38241102, 34.15476179], [72.38241449, 34.15469088], [72.38246001, 34.15469241], [72.38246115, 34.15466919], [72.38232302, 34.15466458], [72.3823168, 34.15479193]]]]}, "properties": {"id": "Pakistan_123102310_188497", "height": 2.591604471206665, "hmax": 0.006, "ratio": 0.002, "vulnClass": "none"}}, {"type": "Feature", "geometry": {"type": "MultiPolygon", "coordinates": [[[[72.38236577, 34.15458187], [72.38241007, 34.15458423], [72.38240852, 34.15460412], [72.38246729, 34.15460724], [72.38247425, 34.15451767], [72.38241125, 34.15451431], [72.38240867, 34.15454747], [72.38236861, 34.15454534], [72.38236577, 34.15458187]]]]}, "properties": {"id": "Pakistan_123102310_600104", "height": 3.458533525466919, "hmax": 0.043, "ratio": 0.012, "vulnClass": "none"}}, {"type": "Feature", "geometry": {"type": "MultiPolygon", "coordinates": [[[[72.38258111, 34.15436254], [72.38257958, 34.15440583], [72.38250186, 34.15440397], [72.38250003, 34.15445603], [72.38264049, 34.15445941], [72.38264384, 34.15436405], [72.38258111, 34.15436254]]]]}, "properties": {"id": "Pakistan_123102310_581267", "height": 2.952754974365234, "hmax": 0.043, "ratio": 0.015, "vulnClass": "none"}}, {"type": "Feature", "geometry": {"type": "MultiPolygon", "coordinates": [[[[72.38254654, 34.15424591], [72.38250822, 34.15424303], [72.38250218, 34.15429807], [72.38254051, 34.15430095], [72.38254654, 34.15424591]]]]}, "properties": {"id": "Pakistan_123102310_141387", "height": 2.462339162826538, "hmax": 0.043, "ratio": 0.018, "vulnClass": "none"}}, {"type": "Feature", "geometry": {"type": "MultiPolygon", "coordinates": [[[[72.38247752, 34.1543529], [72.38247927, 34.15427968], [72.38232377, 34.15427713], [72.38232201, 34.15435035], [72.38247752, 34.1543529]]]]}, "properties": {"id": "Pakistan_123102310_75037", "height": 2.873225688934326, "hmax": 0.043, "ratio": 0.015, "vulnClass": "none"}}, {"type": "Feature", "geometry": {"type": "MultiPolygon", "coordinates": [[[[72.38114075, 34.1537593], [72.38113757, 34.15368739], [72.38108668, 34.15368893], [72.38108985, 34.15376084], [72.38114075, 34.1537593]]]]}, "properties": {"id": "Pakistan_123102310_595380", "height": 3.177456140518188, "hmax": 0.095, "ratio": 0.03, "vulnClass": "none"}}, {"type": "Feature", "geometry": {"type": "MultiPolygon", "coordinates": [[[[72.38189275, 34.15404299], [72.38189229, 34.15388318], [72.38185043, 34.15388327], [72.3818506, 34.15393876], [72.38170308, 34.15393905], [72.38170275, 34.15383029], [72.38158905, 34.15383052], [72.38158943, 34.15396249], [72.38155831, 34.15396255], [72.38155847, 34.15401703], [72.3815075, 34.15401714], [72.38150801, 34.15418805], [72.38159813, 34.15418786], [72.38159799, 34.15414125], [72.38175624, 34.15414093], [72.38175596, 34.15404327], [72.38189275, 34.15404299]]]]}, "properties": {"id": "Pakistan_123102310_908353", "height": 6.446443557739258, "hmax": 0.037, "ratio": 0.006, "vulnClass": "none"}}, {"type": "Feature", "geometry": {"type": "MultiPolygon", "coordinates": [[[[72.38109354, 34.1537631], [72.38086289, 34.15376515], [72.38086244, 34.1537306], [72.38080613, 34.15373109], [72.38080727, 34.15381987], [72.38082605, 34.1538197], [72.38082753, 34.15393415], [72.38107052, 34.153932], [72.38106912, 34.15382325], [72.38109431, 34.15382303], [72.38109354, 34.1537631]]]]}, "properties": {"id": "Pakistan_123102310_320963", "height": 3.902036905288696, "hmax": 0.002, "ratio": 0.001, "vulnClass": "none"}}, {"type": "Feature", "geometry": {"type": "MultiPolygon", "coordinates": [[[[72.37995192, 34.15325584], [72.38031795, 34.15348798], [72.38030446, 34.15350255], [72.38054166, 34.153653], [72.38057847, 34.15361325], [72.3803757, 34.15348465], [72.38052851, 34.15331965], [72.38048288, 34.15329071], [72.38052562, 34.15324457], [72.38037123, 34.15314665], [72.38032072, 34.15320118], [72.38041766, 34.15326267], [72.38030241, 34.15338712], [72.38007535, 34.15324312], [72.38019968, 34.15310888], [72.38028817, 34.153165], [72.38031795, 34.15313284], [72.38015912, 34.1530321], [72.37995192, 34.15325584]]]]}, "properties": {"id": "Pakistan_123102310_168866", "height": 3.683646440505981, "hmax": 0.076, "ratio": 0.021, "vulnClass": "none"}}, {"type": "Feature", "geometry": {"type": "MultiPolygon", "coordinates": [[[[72.38214905, 34.15266655], [72.38214196, 34.15258157], [72.38211623, 34.15258304], [72.38211079, 34.15251779], [72.38195863, 34.15252648], [72.38195265, 34.15245477], [72.3817551, 34.15246606], [72.38176219, 34.15255102], [72.3817702, 34.15255056], [72.38178162, 34.15268753], [72.38214905, 34.15266655]]]]}, "properties": {"id": "Pakistan_123102310_424797", "height": 2.908176422119141, "hmax": 0.003, "ratio": 0.001, "vulnClass": "none"}}, {"type": "Feature", "geometry": {"type": "MultiPolygon", "coordinates": [[[[72.38222605, 34.15300516], [72.38222817, 34.15296083], [72.38196135, 34.15295209], [72.38195763, 34.15302965], [72.38213706, 34.15303553], [72.38213865, 34.15300229], [72.38222605, 34.15300516]]]]}, "properties": {"id": "Pakistan_123102310_45534", "height": 3.661243677139282, "hmax": 0.052, "ratio": 0.014, "vulnClass": "none"}}, {"type": "Feature", "geometry": {"type": "MultiPolygon", "coordinates": [[[[72.38231088, 34.15256418], [72.3823139, 34.15248657], [72.38215581, 34.15248236], [72.38215279, 34.15255996], [72.38231088, 34.15256418]]]]}, "properties": {"id": "Pakistan_123102310_552675", "height": 2.802859783172607, "hmax": 0.003, "ratio": 0.001, "vulnClass": "none"}}, {"type": "Feature", "geometry": {"type": "MultiPolygon", "coordinates": [[[[72.38328802, 34.15339802], [72.38334065, 34.15339818], [72.3833405, 34.15343147], [72.38344881, 34.15343179], [72.38344942, 34.15328974], [72.38343769, 34.1532897], [72.38343796, 34.15322755], [72.38333067, 34.15322724], [72.38333037, 34.15329604], [72.38328846, 34.15329592], [72.38328802, 34.15339802]]]]}, "properties": {"id": "Pakistan_123102310_36188", "height": 2.878391981124878, "hmax": 0.009, "ratio": 0.003, "vulnClass": "none"}}, {"type": "Feature", "geometry": {"type": "MultiPolygon", "coordinates": [[[[72.38602535, 34.15411176], [72.38602171, 34.15423154], [72.38639163, 34.15423923], [72.38639526, 34.15411945], [72.38602535, 34.15411176]]]]}, "properties": {"id": "Pakistan_123102310_150863", "height": 3.003613471984863, "hmax": 0.007, "ratio": 0.002, "vulnClass": "none"}}, {"type": "Feature", "geometry": {"type": "MultiPolygon", "coordinates": [[[[72.38426724, 34.15427179], [72.38436883, 34.15427659], [72.38437211, 34.15422908], [72.38427052, 34.15422428], [72.38426724, 34.15427179]]]]}, "properties": {"id": "Pakistan_123102310_481824", "height": 3.50620174407959, "hmax": 0.042, "ratio": 0.012, "vulnClass": "none"}}, {"type": "Feature", "geometry": {"type": "MultiPolygon", "coordinates": [[[[72.38428043, 34.15363022], [72.38428421, 34.15369889], [72.38438325, 34.15369515], [72.38437947, 34.15362649], [72.38428043, 34.15363022]]]]}, "properties": {"id": "Pakistan_123102310_543242", "height": 2.624987125396729, "hmax": 0.008, "ratio": 0.003, "vulnClass": "none"}}, {"type": "Feature", "geometry": {"type": "MultiPolygon", "coordinates": [[[[72.38381523, 34.15371191], [72.3838274, 34.15399196], [72.38382058, 34.15398436], [72.383806, 34.15399331], [72.38381008, 34.15408718], [72.38398956, 34.15408184], [72.38398821, 34.15405081], [72.38439806, 34.1540386], [72.38439536, 34.15397654], [72.384315, 34.15397893], [72.3843116, 34.15390078], [72.38428509, 34.15387122], [72.38433477, 34.15384072], [72.38401704, 34.15385018], [72.38402157, 34.15395437], [72.38400282, 34.15395493], [72.38400041, 34.15389951], [72.38393076, 34.15390158], [72.38392797, 34.1538373], [72.38398958, 34.15383546], [72.38398823, 34.15380443], [72.38394525, 34.15380571], [72.38391924, 34.15382168], [72.38391444, 34.15371118], [72.38425732, 34.15370097], [72.38425462, 34.1536389], [72.38389834, 34.15364951], [72.38390112, 34.15371336], [72.38385884, 34.1536662], [72.38386076, 34.15371056], [72.38381523, 34.15371191]]]]}, "properties": {"id": "Pakistan_123102310_150012", "height": 3.558259963989258, "hmax": 0.035, "ratio": 0.01, "vulnClass": "none"}}, {"type": "Feature", "geometry": {"type": "MultiPolygon", "coordinates": [[[[72.38381338, 34.15392337], [72.38381066, 34.15384131], [72.38358983, 34.15384632], [72.38358789, 34.15378756], [72.38350317, 34.15378947], [72.38350784, 34.15393031], [72.38381338, 34.15392337]]]]}, "properties": {"id": "Pakistan_123102310_160395", "height": 2.678361654281616, "hmax": 0.135, "ratio": 0.05, "vulnClass": "low"}}, {"type": "Feature", "geometry": {"type": "MultiPolygon", "coordinates": [[[[72.38345367, 34.15346647], [72.38322053, 34.15347221], [72.38323125, 34.15377047], [72.38332504, 34.15376817], [72.38332221, 34.15368945], [72.38331417, 34.15368965], [72.38331107, 34.15360316], [72.38345846, 34.15359953], [72.38345367, 34.15346647]]]]}, "properties": {"id": "Pakistan_123102310_349386", "height": 3.265507698059082, "hmax": 0.009, "ratio": 0.003, "vulnClass": "none"}}, {"type": "Feature", "geometry": {"type": "MultiPolygon", "coordinates": [[[[72.38373264, 34.15467573], [72.3836677, 34.15464945], [72.38365076, 34.15467812], [72.38371571, 34.15470439], [72.38373264, 34.15467573]]]]}, "properties": {"id": "Pakistan_123102310_619070", "height": 2.867716550827026, "hmax": 0.097, "ratio": 0.034, "vulnClass": "none"}}, {"type": "Feature", "geometry": {"type": "MultiPolygon", "coordinates": [[[[72.38399067, 34.15482106], [72.38397491, 34.15485356], [72.38403729, 34.15487428], [72.38405305, 34.15484178], [72.38399067, 34.15482106]]]]}, "properties": {"id": "Pakistan_123102310_875193", "height": 2.53019642829895, "hmax": 0.052, "ratio": 0.021, "vulnClass": "none"}}, {"type": "Feature", "geometry": {"type": "MultiPolygon", "coordinates": [[[[72.38443845, 34.15501196], [72.38438022, 34.1549932], [72.3843512, 34.15505487], [72.38431393, 34.15504287], [72.38428219, 34.15511032], [72.38437768, 34.15514109], [72.38443845, 34.15501196]]]]}, "properties": {"id": "Pakistan_123102310_851483", "height": 2.563149690628052, "hmax": 0.052, "ratio": 0.02, "vulnClass": "none"}}, {"type": "Feature", "geometry": {"type": "MultiPolygon", "coordinates": [[[[72.38431269, 34.15513587], [72.38430946, 34.15516894], [72.38440922, 34.1551756], [72.38441245, 34.15514253], [72.38431269, 34.15513587]]]]}, "properties": {"id": "Pakistan_123102310_728577", "height": 2.671921730041504, "hmax": 0.052, "ratio": 0.019, "vulnClass": "none"}}, {"type": "Feature", "geometry": {"type": "MultiPolygon", "coordinates": [[[[72.3843101, 34.15527058], [72.38412263, 34.1552645], [72.38411886, 34.15534428], [72.38435604, 34.15535197], [72.38435336, 34.15540843], [72.3848741, 34.15542529], [72.38487756, 34.15535216], [72.38438629, 34.15533625], [72.38439342, 34.15518555], [72.38431424, 34.15518299], [72.3843101, 34.15527058]]]]}, "properties": {"id": "Pakistan_123102310_614363", "height": 2.445060968399048, "hmax": 0.064, "ratio": 0.026, "vulnClass": "none"}}, {"type": "Feature", "geometry": {"type": "MultiPolygon", "coordinates": [[[[72.38639082, 34.15444086], [72.38636401, 34.15444042], [72.38636513, 34.15439382], [72.38624716, 34.15439187], [72.38624851, 34.1543364], [72.3861788, 34.15433525], [72.38617633, 34.15443731], [72.38630234, 34.1544394], [72.38629912, 34.15457252], [72.3863876, 34.15457398], [72.38639082, 34.15444086]]]]}, "properties": {"id": "Pakistan_123102310_699965", "height": 3.519089221954346, "hmax": 0.007, "ratio": 0.002, "vulnClass": "none"}}, {"type": "Feature", "geometry": {"type": "MultiPolygon", "coordinates": [[[[72.38601663, 34.15444155], [72.38599296, 34.15458892], [72.38612474, 34.15460341], [72.38614841, 34.15445604], [72.38601663, 34.15444155]]]]}, "properties": {"id": "Pakistan_123102310_245295", "height": 2.451886177062988, "hmax": 0.007, "ratio": 0.003, "vulnClass": "none"}}, {"type": "Feature", "geometry": {"type": "MultiPolygon", "coordinates": [[[[72.38640671, 34.15460762], [72.38621035, 34.15459071], [72.38619445, 34.15471712], [72.38628887, 34.15472526], [72.38627935, 34.15480085], [72.38599278, 34.15477617], [72.38597233, 34.15493866], [72.38606899, 34.15494698], [72.38605475, 34.15506022], [72.38606005, 34.15506067], [72.3860479, 34.15515729], [72.38612485, 34.15516392], [72.38613854, 34.15505507], [72.3863349, 34.15507198], [72.38638654, 34.15466137], [72.38639981, 34.15466251], [72.38640671, 34.15460762]]]]}, "properties": {"id": "Pakistan_123102310_505369", "height": 3.698492050170898, "hmax": 0.078, "ratio": 0.021, "vulnClass": "none"}}, {"type": "Feature", "geometry": {"type": "MultiPolygon", "coordinates": [[[[72.38678999, 34.15551018], [72.38718842, 34.15553734], [72.38720115, 34.15540947], [72.38713306, 34.15540483], [72.38712946, 34.15544099], [72.38686453, 34.15542295], [72.38688591, 34.15520819], [72.38722808, 34.15523152], [72.38724312, 34.15508028], [72.38718185, 34.15507611], [72.38717514, 34.15514357], [72.3868288, 34.15511996], [72.38678999, 34.15551018]]]]}, "properties": {"id": "Pakistan_123102310_699966", "height": 2.620812892913818, "hmax": 0.048, "ratio": 0.018, "vulnClass": "none"}}, {"type": "Feature", "geometry": {"type": "MultiPolygon", "coordinates": [[[[72.38728199, 34.15553692], [72.38746647, 34.15556997], [72.38746979, 34.15555725], [72.38752474, 34.15556709], [72.38754082, 34.1555056], [72.38736033, 34.15547327], [72.38736477, 34.15545631], [72.38730584, 34.15544575], [72.38728199, 34.15553692]]]]}, "properties": {"id": "Pakistan_123102310_908387", "height": 2.649379968643188, "hmax": 0.012, "ratio": 0.005, "vulnClass": "none"}}, {"type": "Feature", "geometry": {"type": "MultiPolygon", "coordinates": [[[[72.38747471, 34.15571421], [72.38728424, 34.15563942], [72.3872589, 34.15568362], [72.38744938, 34.15575841], [72.38747471, 34.15571421]]]]}, "properties": {"id": "Pakistan_123102310_628622", "height": 3.455474376678467, "hmax": 0.246, "ratio": 0.071, "vulnClass": "low"}}, {"type": "Feature", "geometry": {"type": "MultiPolygon", "coordinates": [[[[72.38774368, 34.15566234], [72.38749286, 34.15567594], [72.38758699, 34.15569545], [72.38756151, 34.15577963], [72.38747969, 34.15578407], [72.38746424, 34.15583513], [72.38761567, 34.15586651], [72.38762224, 34.15584481], [72.38767019, 34.15585475], [72.38768979, 34.15579001], [72.38765951, 34.15578373], [72.38767432, 34.1557348], [72.3876724, 34.1557106], [72.38774718, 34.15570654], [72.38774368, 34.15566234]]]]}, "properties": {"id": "Pakistan_123102310_538558", "height": 5.604341983795166, "hmax": 0.259, "ratio": 0.046, "vulnClass": "none"}}, {"type": "Feature", "geometry": {"type": "MultiPolygon", "coordinates": [[[[72.38717307, 34.15555908], [72.38705936, 34.15554784], [72.3870502, 34.1556113], [72.38716392, 34.15562254], [72.38717307, 34.15555908]]]]}, "properties": {"id": "Pakistan_123102310_738122", "height": 4.899844169616699, "hmax": 0.012, "ratio": 0.002, "vulnClass": "none"}}, {"type": "Feature", "geometry": {"type": "MultiPolygon", "coordinates": [[[[72.38762806, 34.15584885], [72.38761041, 34.15588876], [72.38771448, 34.15592028], [72.38773214, 34.15588037], [72.38762806, 34.15584885]]]]}, "properties": {"id": "Pakistan_123102310_747663", "height": 2.499524593353271, "hmax": 0.261, "ratio": 0.104, "vulnClass": "low"}}, {"type": "Feature", "geometry": {"type": "MultiPolygon", "coordinates": [[[[72.38807112, 34.15596316], [72.38810599, 34.15596316], [72.38810599, 34.15592987], [72.38807112, 34.15592987], [72.38807112, 34.15596316]]]]}, "properties": {"id": "Pakistan_123102310_335132", "height": 2.613128185272217, "hmax": 0.069, "ratio": 0.026, "vulnClass": "none"}}, {"type": "Feature", "geometry": {"type": "MultiPolygon", "coordinates": [[[[72.38785086, 34.15590065], [72.38783836, 34.15597919], [72.38790955, 34.15598695], [72.38791024, 34.15598259], [72.38802889, 34.15599551], [72.3880334, 34.15596715], [72.3880624, 34.15597031], [72.38806761, 34.15593758], [72.38803333, 34.15593385], [72.38803923, 34.15589676], [72.38793641, 34.15588556], [72.38793259, 34.15590956], [72.38785086, 34.15590065]]]]}, "properties": {"id": "Pakistan_123102310_47119", "height": 2.742700099945068, "hmax": 0.236, "ratio": 0.086, "vulnClass": "low"}}, {"type": "Feature", "geometry": {"type": "MultiPolygon", "coordinates": [[[[72.38809718, 34.15603865], [72.38799977, 34.15601142], [72.38798107, 34.15605725], [72.38807849, 34.15608447], [72.38809718, 34.15603865]]]]}, "properties": {"id": "Pakistan_123102310_510307", "height": 2.828770637512207, "hmax": 0.123, "ratio": 0.043, "vulnClass": "none"}}, {"type": "Feature", "geometry": {"type": "MultiPolygon", "coordinates": [[[[72.38774567, 34.15564675], [72.38775185, 34.15573215], [72.38787746, 34.15572593], [72.38787871, 34.15574319], [72.38785208, 34.15584035], [72.38785183, 34.15583683], [72.38784546, 34.15586005], [72.38784797, 34.15589471], [72.38792949, 34.15589067], [72.38794899, 34.1558195], [72.38802325, 34.15583344], [72.3880251, 34.15585904], [72.38810568, 34.15587416], [72.38812419, 34.15580661], [72.38808229, 34.15579875], [72.3880557, 34.15580007], [72.38805357, 34.15577067], [72.38806385, 34.15573314], [72.38801538, 34.15572405], [72.38802807, 34.15567776], [72.38802626, 34.15565284], [72.38794773, 34.15563811], [72.38792901, 34.15563903], [72.38792323, 34.15563795], [72.38774567, 34.15564675]]]]}, "properties": {"id": "Pakistan_123102310_37637", "height": 3.387135028839111, "hmax": 0.194, "ratio": 0.057, "vulnClass": "low"}}, {"type": "Feature", "geometry": {"type": "MultiPolygon", "coordinates": [[[[72.38982943, 34.15564088], [72.38987133, 34.15594095], [72.38991247, 34.15593702], [72.38990739, 34.15590062], [72.39004095, 34.15588786], [72.390007, 34.15564473], [72.38998317, 34.15564701], [72.38999223, 34.15571187], [72.38996047, 34.15571491], [72.38994854, 34.15562949], [72.38982943, 34.15564088]]]]}, "properties": {"id": "Pakistan_123102310_179175", "height": 3.8648362159729, "hmax": 0.036, "ratio": 0.009, "vulnClass": "none"}}, {"type": "Feature", "geometry": {"type": "MultiPolygon", "coordinates": [[[[72.38757582, 34.15047668], [72.38757734, 34.15052684], [72.38769528, 34.1505244], [72.38769622, 34.15055545], [72.38764529, 34.15055651], [72.38764723, 34.15062084], [72.3878858, 34.15061591], [72.38788325, 34.15053161], [72.38776685, 34.15053402], [72.387765, 34.15047276], [72.38757582, 34.15047668]]]]}, "properties": {"id": "Pakistan_123102310_898960", "height": 2.803867340087891, "hmax": 0.003, "ratio": 0.001, "vulnClass": "none"}}, {"type": "Feature", "geometry": {"type": "MultiPolygon", "coordinates": [[[[72.3877943, 34.14908773], [72.38759878, 34.14909379], [72.38760225, 34.14917051], [72.38779777, 34.14916446], [72.3877943, 34.14908773]]]]}, "properties": {"id": "Pakistan_123102310_103729", "height": 3.9128098487854, "hmax": 0.003, "ratio": 0.001, "vulnClass": "none"}}, {"type": "Feature", "geometry": {"type": "MultiPolygon", "coordinates": [[[[72.38793993, 34.14967866], [72.3877095, 34.14967247], [72.38770724, 34.14973012], [72.38793767, 34.14973632], [72.38793993, 34.14967866]]]]}, "properties": {"id": "Pakistan_123102310_273585", "height": 2.916275501251221, "hmax": 0.002, "ratio": 0.001, "vulnClass": "none"}}, {"type": "Feature", "geometry": {"type": "MultiPolygon", "coordinates": [[[[72.3914417, 34.15040815], [72.39143927, 34.15036385], [72.3911716, 34.15037393], [72.39117684, 34.15046918], [72.39158637, 34.15045376], [72.39158357, 34.15040281], [72.3914417, 34.15040815]]]]}, "properties": {"id": "Pakistan_123102310_372989", "height": 2.918259620666504, "hmax": 0.007, "ratio": 0.002, "vulnClass": "none"}}, {"type": "Feature", "geometry": {"type": "MultiPolygon", "coordinates": [[[[72.39113623, 34.15547811], [72.39113602, 34.15536713], [72.39087585, 34.15536748], [72.3908758, 34.15534175], [72.39079383, 34.15534185], [72.3907942, 34.15553051], [72.39086393, 34.15553042], [72.39086385, 34.15548513], [72.39094849, 34.15548502], [72.39094856, 34.15552497], [72.39101293, 34.15552488], [72.39101285, 34.15547827], [72.39113623, 34.15547811]]]]}, "properties": {"id": "Pakistan_123102310_159500", "height": 2.478589057922363, "hmax": 0.007, "ratio": 0.003, "vulnClass": "none"}}, {"type": "Feature", "geometry": {"type": "MultiPolygon", "coordinates": [[[[72.38389055, 34.15713078], [72.38384338, 34.15714185], [72.38386168, 34.15719526], [72.38390885, 34.15718419], [72.38389055, 34.15713078]]]]}, "properties": {"id": "Pakistan_123102310_56333", "height": 3.896384239196777, "hmax": 0.004, "ratio": 0.001, "vulnClass": "none"}}, {"type": "Feature", "geometry": {"type": "MultiPolygon", "coordinates": [[[[72.38361394, 34.15706194], [72.38362998, 34.15713499], [72.38378445, 34.15711175], [72.38378989, 34.15713648], [72.38389765, 34.15712027], [72.38387617, 34.15702248], [72.38361394, 34.15706194]]]]}, "properties": {"id": "Pakistan_123102310_647469", "height": 3.94163179397583, "hmax": 0.004, "ratio": 0.001, "vulnClass": "none"}}, {"type": "Feature", "geometry": {"type": "MultiPolygon", "coordinates": [[[[72.38359625, 34.15746503], [72.38359304, 34.15739188], [72.38350464, 34.15739453], [72.38350304, 34.15735795], [72.38325124, 34.15736552], [72.38325455, 34.15744089], [72.38345678, 34.15743481], [72.38345828, 34.15746917], [72.38359625, 34.15746503]]]]}, "properties": {"id": "Pakistan_123102310_235885", "height": 2.764245748519897, "hmax": 0.003, "ratio": 0.001, "vulnClass": "none"}}, {"type": "Feature", "geometry": {"type": "MultiPolygon", "coordinates": [[[[72.38364828, 34.15767121], [72.38362613, 34.15748884], [72.38346415, 34.15750231], [72.38345721, 34.15744518], [72.38336162, 34.15745313], [72.38337042, 34.15752564], [72.38344478, 34.15751946], [72.38345252, 34.15758318], [72.38342331, 34.15758561], [72.38341824, 34.15754386], [72.38339168, 34.15754607], [72.38339835, 34.157601], [72.38310361, 34.15762551], [72.38309587, 34.15756179], [72.38325253, 34.15754876], [72.38324399, 34.15747845], [72.38298377, 34.15750009], [72.38301099, 34.15772422], [72.38364828, 34.15767121]]]]}, "properties": {"id": "Pakistan_123102310_358771", "height": 3.656925678253174, "hmax": 0.003, "ratio": 0.001, "vulnClass": "none"}}, {"type": "Feature", "geometry": {"type": "MultiPolygon", "coordinates": [[[[72.38299686, 34.15760066], [72.38298029, 34.15750497], [72.38289619, 34.15751494], [72.38291276, 34.15761064], [72.38299686, 34.15760066]]]]}, "properties": {"id": "Pakistan_123102310_387070", "height": 3.309035062789917, "hmax": 0.003, "ratio": 0.001, "vulnClass": "none"}}, {"type": "Feature", "geometry": {"type": "MultiPolygon", "coordinates": [[[[72.38376849, 34.15726655], [72.38376647, 34.15723221], [72.38361127, 34.15723846], [72.38362053, 34.15739568], [72.38370748, 34.15739217], [72.38370026, 34.1572693], [72.38376849, 34.15726655]]]]}, "properties": {"id": "Pakistan_123102310_728575", "height": 2.830296754837036, "hmax": 0.004, "ratio": 0.001, "vulnClass": "none"}}, {"type": "Feature", "geometry": {"type": "MultiPolygon", "coordinates": [[[[72.38425091, 34.15750029], [72.38417323, 34.15751736], [72.38423776, 34.15771848], [72.38449082, 34.15766288], [72.38446954, 34.15759653], [72.3844094, 34.15760974], [72.38441339, 34.15762218], [72.38429814, 34.1576475], [72.38425091, 34.15750029]]]]}, "properties": {"id": "Pakistan_123102310_215916", "height": 2.796717882156372, "hmax": 0.002, "ratio": 0.001, "vulnClass": "none"}}, {"type": "Feature", "geometry": {"type": "MultiPolygon", "coordinates": [[[[72.38285012, 34.15747498], [72.38283991, 34.15732008], [72.38273561, 34.15732478], [72.38274349, 34.15744428], [72.38260443, 34.15745056], [72.38260676, 34.15748596], [72.38285012, 34.15747498]]]]}, "properties": {"id": "Pakistan_123102310_168890", "height": 2.925811767578125, "hmax": 0.003, "ratio": 0.001, "vulnClass": "none"}}]}