{"type": "FeatureCollection", "features": [{"type": "Feature", "geometry": {"type": "MultiPolygon", "coordinates": [[[[72.3136445, 34.2837454], [72.31375977, 34.28377275], [72.31377329, 34.28373386], [72.31365802, 34.2837065], [72.3136445, 34.2837454]]]]}, "properties": {"id": "Pakistan_123102310_215849", "height": 2.974284887313843, "hmax": 0.001, "ratio": 0.0, "vulnClass": "none"}}, {"type": "Feature", "geometry": {"type": "MultiPolygon", "coordinates": [[[[72.3137848, 34.28358794], [72.31374439, 34.28359341], [72.3137502, 34.28362276], [72.31379062, 34.28361729], [72.3137848, 34.28358794]]]]}, "properties": {"id": "Pakistan_123102310_205266", "height": 2.502593278884888, "hmax": 0.001, "ratio": 0.0, "vulnClass": "none"}}, {"type": "Feature", "geometry": {"type": "MultiPolygon", "coordinates": [[[[72.31337785, 34.28635464], [72.31339545, 34.28620983], [72.31328393, 34.28620058], [72.31325726, 34.28641998], [72.31361839, 34.28644995], [72.31362746, 34.28637535], [72.31337785, 34.28635464]]]]}, "properties": {"id": "Pakistan_123102310_770652", "height": 2.608216285705566, "hmax": 0.001, "ratio": 0.0, "vulnClass": "none"}}, {"type": "Feature", "geometry": {"type": "MultiPolygon", "coordinates": [[[[72.31307441, 34.28641722], [72.3130283, 34.28656946], [72.31321256, 34.28660755], [72.31324706, 34.28649366], [72.31311723, 34.28646681], [72.31312884, 34.28642847], [72.31307441, 34.28641722]]]]}, "properties": {"id": "Pakistan_123102310_940902", "height": 2.909119129180908, "hmax": 0.001, "ratio": 0.0, "vulnClass": "none"}}, {"type": "Feature", "geometry": {"type": "MultiPolygon", "coordinates": [[[[72.31255472, 34.28807338], [72.31276828, 34.28809661], [72.31277522, 34.28805304], [72.31256167, 34.28802981], [72.31255472, 34.28807338]]]]}, "properties": {"id": "Pakistan_123102310_727976", "height": 2.471318006515503, "hmax": 0.001, "ratio": 0.0, "vulnClass": "none"}}, {"type": "Feature", "geometry": {"type": "MultiPolygon", "coordinates": [[[[72.31259021, 34.28856826], [72.31257662, 34.28864061], [72.31287067, 34.28867867], [72.3128786, 34.28863648], [72.31290462, 34.28863985], [72.31291029, 34.28860968], [72.31259021, 34.28856826]]]]}, "properties": {"id": "8J6J78Q7+C3XW", "height": 3.100813150405884, "hmax": 0.001, "ratio": 0.0, "vulnClass": "none"}}, {"type": "Feature", "geometry": {"type": "MultiPolygon", "coordinates": [[[[72.3132205, 34.28877476], [72.31346484, 34.28880395], [72.31347904, 34.28872278], [72.31334076, 34.28870626], [72.31335595, 34.28861944], [72.31301343, 34.28857854], [72.31300014, 34.28865451], [72.31317976, 34.28867596], [72.31315165, 34.28883659], [72.3132085, 34.28884338], [72.3132205, 34.28877476]]]]}, "properties": {"id": "Pakistan_123102310_803673", "height": 3.804021120071411, "hmax": 0.001, "ratio": 0.0, "vulnClass": "none"}}, {"type": "Feature", "geometry": {"type": "MultiPolygon", "coordinates": [[[[72.31723484, 34.29167808], [72.31705305, 34.2916694], [72.3170478, 34.29174449], [72.31722958, 34.29175318], [72.31723484, 34.29167808]]]]}, "properties": {"id": "Pakistan_123102310_865178", "height": 2.667821645736694, "hmax": 0.0, "ratio": 0.0, "vulnClass": "none"}}, {"type": "Feature", "geometry": {"type": "MultiPolygon", "coordinates": [[[[72.3167143, 34.29173231], [72.31685607, 34.29173841], [72.31686206, 34.29164338], [72.31681391, 34.29164131], [72.31681043, 34.29169656], [72.3167168, 34.29169253], [72.3167143, 34.29173231]]]]}, "properties": {"id": "Pakistan_123102310_689877", "height": 2.666630268096924, "hmax": 0.0, "ratio": 0.0, "vulnClass": "none"}}, {"type": "Feature", "geometry": {"type": "MultiPolygon", "coordinates": [[[[72.31684006, 34.29200396], [72.31720281, 34.29201818], [72.3172049, 34.29198172], [72.31690102, 34.29196982], [72.31690502, 34.29190014], [72.31684614, 34.29189783], [72.31684006, 34.29200396]]]]}, "properties": {"id": "Pakistan_123102310_926662", "height": 2.86937403678894, "hmax": 0.0, "ratio": 0.0, "vulnClass": "none"}}, {"type": "Feature", "geometry": {"type": "MultiPolygon", "coordinates": [[[[72.31177045, 34.29256471], [72.31169105, 34.29254743], [72.3116783, 34.2925878], [72.31175769, 34.29260508], [72.31177045, 34.29256471]]]]}, "properties": {"id": "8J6J78V6+2MQ2", "height": 4.071022987365723, "hmax": 0.0, "ratio": 0.0, "vulnClass": "none"}}, {"type": "Feature", "geometry": {"type": "MultiPolygon", "coordinates": [[[[72.31181462, 34.2924262], [72.31173544, 34.29240891], [72.31169158, 34.29254731], [72.31177075, 34.2925646], [72.31181462, 34.2924262]]]]}, "properties": {"id": "8J6J78R6+XPRC", "height": 4.279010772705078, "hmax": 0.0, "ratio": 0.0, "vulnClass": "none"}}, {"type": "Feature", "geometry": {"type": "MultiPolygon", "coordinates": [[[[72.31210452, 34.29248097], [72.31182964, 34.29242081], [72.31178338, 34.29256642], [72.31210625, 34.29263708], [72.31213958, 34.29253216], [72.31209159, 34.29252166], [72.31210452, 34.29248097]]]]}, "properties": {"id": "8J6J78V6+2Q85", "height": 4.845669746398926, "hmax": 0.0, "ratio": 0.0, "vulnClass": "none"}}, {"type": "Feature", "geometry": {"type": "MultiPolygon", "coordinates": [[[[72.30985366, 34.28976754], [72.30974772, 34.2897397], [72.30969487, 34.2898782], [72.30980081, 34.28990604], [72.30985366, 34.28976754]]]]}, "properties": {"id": "8J6J78Q5+WWCX", "height": 2.854854106903076, "hmax": 0.0, "ratio": 0.0, "vulnClass": "none"}}, {"type": "Feature", "geometry": {"type": "MultiPolygon", "coordinates": [[[[72.31005497, 34.28993186], [72.30999902, 34.28991719], [72.30998683, 34.28994922], [72.31004278, 34.28996389], [72.31005497, 34.28993186]]]]}, "properties": {"id": "8J6J78Q6+X2CP", "height": 2.574337482452393, "hmax": 0.0, "ratio": 0.0, "vulnClass": "none"}}, {"type": "Feature", "geometry": {"type": "MultiPolygon", "coordinates": [[[[72.30992264, 34.28990013], [72.30981397, 34.28987156], [72.30980081, 34.28990604], [72.30990948, 34.28993461], [72.30992264, 34.28990013]]]]}, "properties": {"id": "8J6J78Q5+XW94", "height": 3.075136661529541, "hmax": 0.0, "ratio": 0.0, "vulnClass": "none"}}, {"type": "Feature", "geometry": {"type": "MultiPolygon", "coordinates": [[[[72.30954377, 34.29029252], [72.30950535, 34.29028038], [72.30949127, 34.29031108], [72.3095297, 34.29032321], [72.30954377, 34.29029252]]]]}, "properties": {"id": "8J6J78R5+4RC4", "height": 3.301742315292358, "hmax": 0.0, "ratio": 0.0, "vulnClass": "none"}}, {"type": "Feature", "geometry": {"type": "MultiPolygon", "coordinates": [[[[72.30935406, 34.2902326], [72.30931867, 34.29022143], [72.30927194, 34.29032336], [72.30958133, 34.29042108], [72.30961399, 34.29034984], [72.30933998, 34.29026329], [72.30935406, 34.2902326]]]]}, "properties": {"id": "8J6J78R5+4QP6", "height": 3.348095417022705, "hmax": 0.0, "ratio": 0.0, "vulnClass": "none"}}, {"type": "Feature", "geometry": {"type": "MultiPolygon", "coordinates": [[[[72.31210079, 34.28783012], [72.31197946, 34.28781193], [72.31196525, 34.28787722], [72.31208658, 34.28789541], [72.31210079, 34.28783012]]]]}, "properties": {"id": "8J6J78Q6+4RV2", "height": 2.488896369934082, "hmax": 0.001, "ratio": 0.0, "vulnClass": "none"}}, {"type": "Feature", "geometry": {"type": "MultiPolygon", "coordinates": [[[[72.31197488, 34.28783296], [72.3118591, 34.2878156], [72.31184947, 34.28785987], [72.31196525, 34.28787722], [72.31197488, 34.28783296]]]]}, "properties": {"id": "8J6J78Q6+4QMR", "height": 2.488896369934082, "hmax": 0.001, "ratio": 0.0, "vulnClass": "none"}}, {"type": "Feature", "geometry": {"type": "MultiPolygon", "coordinates": [[[[72.31171609, 34.28779416], [72.31170646, 34.28783843], [72.31179535, 34.28785175], [72.31180498, 34.28780749], [72.31171609, 34.28779416]]]]}, "properties": {"id": "8J6J78Q6+4PCR", "height": 3.005912303924561, "hmax": 0.001, "ratio": 0.0, "vulnClass": "none"}}, {"type": "Feature", "geometry": {"type": "MultiPolygon", "coordinates": [[[[72.31182153, 34.28787109], [72.31170533, 34.28785335], [72.31167045, 34.28801074], [72.31178665, 34.28802848], [72.31182153, 34.28787109]]]]}, "properties": {"id": "8J6J78Q6+5MHQ", "height": 2.740350246429443, "hmax": 0.001, "ratio": 0.0, "vulnClass": "none"}}, {"type": "Feature", "geometry": {"type": "MultiPolygon", "coordinates": [[[[72.31210686, 34.28802689], [72.3118997, 34.2879929], [72.31188729, 34.28804501], [72.31224762, 34.28810414], [72.31226572, 34.28802815], [72.31211254, 34.28800302], [72.31210686, 34.28802689]]]]}, "properties": {"id": "8J6J78Q6+6R8X", "height": 2.938319444656372, "hmax": 0.001, "ratio": 0.0, "vulnClass": "none"}}, {"type": "Feature", "geometry": {"type": "MultiPolygon", "coordinates": [[[[72.31183751, 34.28803028], [72.31186846, 34.28787653], [72.31181544, 34.28786918], [72.31178449, 34.28802293], [72.31183751, 34.28803028]]]]}, "properties": {"id": "8J6J78Q6+5PGV", "height": 2.980326890945435, "hmax": 0.001, "ratio": 0.0, "vulnClass": "none"}}, {"type": "Feature", "geometry": {"type": "MultiPolygon", "coordinates": [[[[72.31200631, 34.28789723], [72.3119611, 34.28788821], [72.31195239, 34.28791831], [72.31199759, 34.28792733], [72.31200631, 34.28789723]]]]}, "properties": {"id": "8J6J78Q6+5Q97", "height": 2.578287601470947, "hmax": 0.001, "ratio": 0.0, "vulnClass": "none"}}, {"type": "Feature", "geometry": {"type": "MultiPolygon", "coordinates": [[[[72.31250823, 34.2879809], [72.31226651, 34.28794671], [72.31225032, 34.2880256], [72.31234283, 34.28803869], [72.3123496, 34.28800572], [72.3124988, 34.28802683], [72.31250823, 34.2879809]]]]}, "properties": {"id": "8J6J78Q6+5WXP", "height": 3.918917179107666, "hmax": 0.001, "ratio": 0.0, "vulnClass": "none"}}, {"type": "Feature", "geometry": {"type": "MultiPolygon", "coordinates": [[[[72.31238458, 34.28807823], [72.31231514, 34.28806755], [72.31229744, 34.28814685], [72.31236688, 34.28815753], [72.31238458, 34.28807823]]]]}, "properties": {"id": "8J6J78Q6+6WWH", "height": 3.315649032592773, "hmax": 0.001, "ratio": 0.0, "vulnClass": "none"}}, {"type": "Feature", "geometry": {"type": "MultiPolygon", "coordinates": [[[[72.31245565, 34.28808801], [72.3123848, 34.28807724], [72.31236743, 34.28815593], [72.31243828, 34.2881667], [72.31245565, 34.28808801]]]]}, "properties": {"id": "8J6J78Q6+6XVR", "height": 3.315649032592773, "hmax": 0.001, "ratio": 0.0, "vulnClass": "none"}}, {"type": "Feature", "geometry": {"type": "MultiPolygon", "coordinates": [[[[72.31259157, 34.28809636], [72.31245611, 34.28807945], [72.31244232, 34.28815562], [72.31257777, 34.28817252], [72.31259157, 34.28809636]]]]}, "properties": {"id": "8J6J78Q7+7224", "height": 2.707858085632324, "hmax": 0.001, "ratio": 0.0, "vulnClass": "none"}}, {"type": "Feature", "geometry": {"type": "MultiPolygon", "coordinates": [[[[72.31251022, 34.28788001], [72.31228397, 34.28784374], [72.31226662, 34.28791827], [72.31252478, 34.28795966], [72.3125302, 34.28793639], [72.31249829, 34.28793128], [72.31251022, 34.28788001]]]]}, "properties": {"id": "8J6J78Q6+5X64", "height": 3.190679788589478, "hmax": 0.001, "ratio": 0.0, "vulnClass": "none"}}, {"type": "Feature", "geometry": {"type": "MultiPolygon", "coordinates": [[[[72.31220557, 34.28784583], [72.31210079, 34.28783012], [72.31208658, 34.28789541], [72.312245, 34.28791916], [72.31225179, 34.28788798], [72.31219815, 34.28787994], [72.31220557, 34.28784583]]]]}, "properties": {"id": "8J6J78Q6+5V32", "height": 2.541902303695679, "hmax": 0.001, "ratio": 0.0, "vulnClass": "none"}}, {"type": "Feature", "geometry": {"type": "MultiPolygon", "coordinates": [[[[72.31197487, 34.28748699], [72.31193629, 34.28747666], [72.31191971, 34.28751935], [72.31195829, 34.28752968], [72.31197487, 34.28748699]]]]}, "properties": {"id": "8J6J78Q6+2Q43", "height": 3.607666492462158, "hmax": 0.001, "ratio": 0.0, "vulnClass": "none"}}, {"type": "Feature", "geometry": {"type": "MultiPolygon", "coordinates": [[[[72.31194053, 34.28754092], [72.31181058, 34.28751514], [72.31178947, 34.28758843], [72.31191942, 34.28761421], [72.31194053, 34.28754092]]]]}, "properties": {"id": "8J6J78Q6+2PHG", "height": 3.187824726104736, "hmax": 0.001, "ratio": 0.0, "vulnClass": "none"}}, {"type": "Feature", "geometry": {"type": "MultiPolygon", "coordinates": [[[[72.31199684, 34.28749675], [72.31210694, 34.28735804], [72.31203011, 34.28731603], [72.31196771, 34.28739465], [72.31190203, 34.28735873], [72.31185433, 34.28741882], [72.31199684, 34.28749675]]]]}, "properties": {"id": "8J6J78P6+XQ98", "height": 2.526769638061523, "hmax": 0.005, "ratio": 0.002, "vulnClass": "none"}}, {"type": "Feature", "geometry": {"type": "MultiPolygon", "coordinates": [[[[72.3057845, 34.28575728], [72.30570332, 34.28575172], [72.30569931, 34.28579207], [72.30578049, 34.28579763], [72.3057845, 34.28575728]]]]}, "properties": {"id": "8J6J78P4+875W", "height": 3.770918846130371, "hmax": 0.0, "ratio": 0.0, "vulnClass": "none"}}, {"type": "Feature", "geometry": {"type": "MultiPolygon", "coordinates": [[[[72.30316425, 34.28720453], [72.30300415, 34.28718751], [72.30299751, 34.28723055], [72.30315761, 34.28724757], [72.30316425, 34.28720453]]]]}, "properties": {"id": "8J6J78P3+V6PP", "height": 2.451241016387939, "hmax": 0.0, "ratio": 0.0, "vulnClass": "none"}}, {"type": "Feature", "geometry": {"type": "MultiPolygon", "coordinates": [[[[72.30313792, 34.28737513], [72.3028743, 34.2873471], [72.30286834, 34.28738569], [72.30313196, 34.28741372], [72.30313792, 34.28737513]]]]}, "properties": {"id": "8J6J78P3+X626", "height": 4.651669025421143, "hmax": 0.002, "ratio": 0.0, "vulnClass": "none"}}, {"type": "Feature", "geometry": {"type": "MultiPolygon", "coordinates": [[[[72.30318828, 34.28739895], [72.30313512, 34.2873933], [72.30312701, 34.28744584], [72.30318017, 34.28745149], [72.30318828, 34.28739895]]]]}, "properties": {"id": "8J6J78P3+X77R", "height": 6.536906719207764, "hmax": 0.002, "ratio": 0.0, "vulnClass": "none"}}, {"type": "Feature", "geometry": {"type": "MultiPolygon", "coordinates": [[[[72.30317986, 34.28744623], [72.30313434, 34.28744021], [72.30309302, 34.28765529], [72.30313854, 34.28766131], [72.30317986, 34.28744623]]]]}, "properties": {"id": "8J6J78Q3+27C3", "height": 7.717738628387451, "hmax": 0.002, "ratio": 0.0, "vulnClass": "none"}}, {"type": "Feature", "geometry": {"type": "MultiPolygon", "coordinates": [[[[72.30303771, 34.28776389], [72.303001, 34.28775612], [72.30298991, 34.28779224], [72.30302663, 34.2878], [72.30303771, 34.28776389]]]]}, "properties": {"id": "8J6J78Q3+4663", "height": 2.692418098449707, "hmax": 0.002, "ratio": 0.001, "vulnClass": "none"}}, {"type": "Feature", "geometry": {"type": "MultiPolygon", "coordinates": [[[[72.30323687, 34.28783128], [72.30314497, 34.28781911], [72.30314056, 34.28784203], [72.30316946, 34.28784585], [72.30316474, 34.28787045], [72.30322774, 34.28787879], [72.30323687, 34.28783128]]]]}, "properties": {"id": "8J6J78Q3+47PR", "height": 2.473755121231079, "hmax": 0.002, "ratio": 0.001, "vulnClass": "none"}}, {"type": "Feature", "geometry": {"type": "MultiPolygon", "coordinates": [[[[72.30305829, 34.28768171], [72.30299092, 34.28767262], [72.30298214, 34.28771745], [72.30301111, 34.28772136], [72.30300496, 34.2877528], [72.30304335, 34.28775798], [72.30305829, 34.28768171]]]]}, "properties": {"id": "8J6J78Q3+36JG", "height": 3.267895460128784, "hmax": 0.002, "ratio": 0.001, "vulnClass": "none"}}, {"type": "Feature", "geometry": {"type": "MultiPolygon", "coordinates": [[[[72.30328309, 34.28763577], [72.30314546, 34.28761397], [72.30313509, 34.28765909], [72.30327272, 34.28768088], [72.30328309, 34.28763577]]]]}, "properties": {"id": "8J6J78Q3+374W", "height": 4.018609046936035, "hmax": 0.002, "ratio": 0.001, "vulnClass": "none"}}, {"type": "Feature", "geometry": {"type": "MultiPolygon", "coordinates": [[[[72.30318572, 34.28791965], [72.30314673, 34.28790999], [72.30313214, 34.28795054], [72.30317112, 34.28796021], [72.30318572, 34.28791965]]]]}, "properties": {"id": "8J6J78Q3+57FC", "height": 2.749893188476562, "hmax": 0.002, "ratio": 0.001, "vulnClass": "none"}}, {"type": "Feature", "geometry": {"type": "MultiPolygon", "coordinates": [[[[72.30320689, 34.28678916], [72.30310785, 34.28678217], [72.30309755, 34.28688284], [72.30319658, 34.28688983], [72.30320689, 34.28678916]]]]}, "properties": {"id": "8J6J78P3+P7JH", "height": 3.149901390075684, "hmax": 0.0, "ratio": 0.0, "vulnClass": "none"}}, {"type": "Feature", "geometry": {"type": "MultiPolygon", "coordinates": [[[[72.3032561, 34.28679263], [72.30320689, 34.28678916], [72.30319969, 34.28685947], [72.3032489, 34.28686294], [72.3032561, 34.28679263]]]]}, "properties": {"id": "8J6J78P3+P7Q3", "height": 2.614249467849731, "hmax": 0.0, "ratio": 0.0, "vulnClass": "none"}}, {"type": "Feature", "geometry": {"type": "MultiPolygon", "coordinates": [[[[72.30329354, 34.2867958], [72.30325558, 34.28679317], [72.30324869, 34.28686182], [72.30319989, 34.28685844], [72.30319674, 34.28688976], [72.30328351, 34.28689577], [72.30329354, 34.2867958]]]]}, "properties": {"id": "8J6J78P3+P8R2", "height": 3.149901390075684, "hmax": 0.0, "ratio": 0.0, "vulnClass": "none"}}, {"type": "Feature", "geometry": {"type": "MultiPolygon", "coordinates": [[[[72.3032833, 34.2869893], [72.3031854, 34.2869797], [72.3031725, 34.2870711], [72.3032704, 34.2870807], [72.3032833, 34.2869893]]]]}, "properties": {"id": "8J6J78P3+R797", "height": 3.708373546600342, "hmax": 0.0, "ratio": 0.0, "vulnClass": "none"}}, {"type": "Feature", "geometry": {"type": "MultiPolygon", "coordinates": [[[[72.3031896, 34.2869501], [72.3031593, 34.2869472], [72.3031494, 34.2870174], [72.3030515, 34.2870079], [72.3030403, 34.2870871], [72.3031685, 34.2870996], [72.3031896, 34.2869501]]]]}, "properties": {"id": "8J6J78P3+R69Q", "height": 3.594086647033691, "hmax": 0.0, "ratio": 0.0, "vulnClass": "none"}}, {"type": "Feature", "geometry": {"type": "MultiPolygon", "coordinates": [[[[72.3031986, 34.28688559], [72.3031639, 34.28688289], [72.3031603, 34.28691467], [72.30319501, 34.28691737], [72.3031986, 34.28688559]]]]}, "properties": {"id": "8J6J78P3+Q774", "height": 3.416235446929932, "hmax": 0.0, "ratio": 0.0, "vulnClass": "none"}}, {"type": "Feature", "geometry": {"type": "MultiPolygon", "coordinates": [[[[72.30306444, 34.28589257], [72.30301156, 34.28588868], [72.30300827, 34.28591956], [72.30301488, 34.28592005], [72.30301082, 34.28595811], [72.30305709, 34.28596151], [72.30306444, 34.28589257]]]]}, "properties": {"id": "8J6J78P3+967R", "height": 2.560193777084351, "hmax": 0.0, "ratio": 0.0, "vulnClass": "none"}}, {"type": "Feature", "geometry": {"type": "MultiPolygon", "coordinates": [[[[72.30324222, 34.28364179], [72.30320193, 34.28364073], [72.30319611, 34.28379269], [72.30351581, 34.28380112], [72.30352052, 34.2836783], [72.3034226, 34.28367572], [72.3034213, 34.28370969], [72.3032398, 34.2837049], [72.30324222, 34.28364179]]]]}, "properties": {"id": "8J6J78M3+F8XM", "height": 2.893397331237793, "hmax": 0.0, "ratio": 0.0, "vulnClass": "none"}}, {"type": "Feature", "geometry": {"type": "MultiPolygon", "coordinates": [[[[72.30814616, 34.28186952], [72.30806697, 34.2818622], [72.30806119, 34.28190526], [72.30814038, 34.28191258], [72.30814616, 34.28186952]]]]}, "properties": {"id": "8J6J78J5+Q65F", "height": 3.320991039276123, "hmax": 0.0, "ratio": 0.0, "vulnClass": "none"}}, {"type": "Feature", "geometry": {"type": "MultiPolygon", "coordinates": [[[[72.30589993, 34.28323269], [72.30590486, 34.28313325], [72.30586169, 34.28313178], [72.30585903, 34.28318544], [72.30571551, 34.28318054], [72.30571324, 34.28322632], [72.30589993, 34.28323269]]]]}, "properties": {"id": "8J6J78M4+78GV", "height": 4.872978687286377, "hmax": 0.0, "ratio": 0.0, "vulnClass": "none"}}, {"type": "Feature", "geometry": {"type": "MultiPolygon", "coordinates": [[[[72.30563561, 34.28325615], [72.305633, 34.28321203], [72.30553678, 34.28321595], [72.30553939, 34.28326007], [72.30563561, 34.28325615]]]]}, "properties": {"id": "8J6J78M4+76WH", "height": 4.127388000488281, "hmax": 0.0, "ratio": 0.0, "vulnClass": "none"}}, {"type": "Feature", "geometry": {"type": "MultiPolygon", "coordinates": [[[[72.31126087, 34.28142321], [72.31116971, 34.28142995], [72.31117399, 34.28146989], [72.31126516, 34.28146315], [72.31126087, 34.28142321]]]]}, "properties": {"id": "8J6J78J6+HFGX", "height": 3.403263807296753, "hmax": 0.002, "ratio": 0.001, "vulnClass": "none"}}, {"type": "Feature", "geometry": {"type": "MultiPolygon", "coordinates": [[[[72.30929833, 34.27923724], [72.3092712, 34.27923665], [72.30927068, 34.27925285], [72.30929782, 34.27925344], [72.30929833, 34.27923724]]]]}, "properties": {"id": "8J6J78H5+MPVR", "height": 3.259047508239746, "hmax": 0.001, "ratio": 0.0, "vulnClass": "none"}}, {"type": "Feature", "geometry": {"type": "MultiPolygon", "coordinates": [[[[72.3080449, 34.27867046], [72.30795777, 34.27866467], [72.30795364, 34.27870754], [72.30804077, 34.27871333], [72.3080449, 34.27867046]]]]}, "properties": {"id": "8J6J78H5+F5HH", "height": 2.554598331451416, "hmax": 0.0, "ratio": 0.0, "vulnClass": "none"}}, {"type": "Feature", "geometry": {"type": "MultiPolygon", "coordinates": [[[[72.30470599, 34.27869569], [72.30470376, 34.27864747], [72.30455863, 34.2786521], [72.30456086, 34.27870032], [72.30470599, 34.27869569]]]]}, "properties": {"id": "8J6J78H3+FV6R", "height": 3.856293201446533, "hmax": 0.0, "ratio": 0.0, "vulnClass": "none"}}, {"type": "Feature", "geometry": {"type": "MultiPolygon", "coordinates": [[[[72.30406948, 34.27867074], [72.30399753, 34.27866569], [72.30399154, 34.27872456], [72.30406348, 34.27872961], [72.30406948, 34.27867074]]]]}, "properties": {"id": "8J6J78H3+FJCX", "height": 2.496096611022949, "hmax": 0.0, "ratio": 0.0, "vulnClass": "none"}}]}