{"type": "FeatureCollection", "features": [{"type": "Feature", "geometry": {"type": "MultiPolygon", "coordinates": [[[[72.39291082, 34.28035456], [72.39289788, 34.28025598], [72.39250288, 34.28029139], [72.39250518, 34.28030892], [72.39217911, 34.28033814], [72.39217508, 34.28030748], [72.39212206, 34.28031223], [72.39210797, 34.28020489], [72.39206025, 34.28020917], [72.39207923, 34.28035375], [72.39198645, 34.28036206], [72.39199249, 34.28040806], [72.39192621, 34.280414], [72.39192995, 34.28044248], [72.39291082, 34.28035456]]]]}, "properties": {"id": "Pakistan_123102310_519834", "height": 4.170156955718994, "hmax": 0.0, "ratio": 0.0, "vulnClass": "none"}}, {"type": "Feature", "geometry": {"type": "MultiPolygon", "coordinates": [[[[72.39112878, 34.27911888], [72.39108105, 34.27898657], [72.39095296, 34.27901812], [72.39093387, 34.2789652], [72.3908649, 34.27898219], [72.39093172, 34.27916742], [72.39112878, 34.27911888]]]]}, "properties": {"id": "Pakistan_123102310_709535", "height": 4.354659557342529, "hmax": 0.0, "ratio": 0.0, "vulnClass": "none"}}, {"type": "Feature", "geometry": {"type": "MultiPolygon", "coordinates": [[[[72.39096086, 34.27889973], [72.39087079, 34.27891502], [72.39087872, 34.27894692], [72.39096879, 34.27893162], [72.39096086, 34.27889973]]]]}, "properties": {"id": "Pakistan_123102310_306751", "height": 2.684022426605225, "hmax": 0.0, "ratio": 0.0, "vulnClass": "none"}}, {"type": "Feature", "geometry": {"type": "MultiPolygon", "coordinates": [[[[72.39201045, 34.27906222], [72.39201831, 34.27899623], [72.39194006, 34.27898986], [72.39193539, 34.27897618], [72.39188021, 34.27897169], [72.39188733, 34.27899253], [72.39187762, 34.27907401], [72.39185323, 34.27900263], [72.39188105, 34.27899614], [72.3918284, 34.27899186], [72.3918336, 34.27894822], [72.3918203, 34.27890932], [72.39173619, 34.27892895], [72.39169393, 34.27892551], [72.39159749, 34.27894801], [72.39163578, 34.27906003], [72.39145042, 34.27910328], [72.39142693, 34.27903455], [72.39138831, 34.2790314], [72.39141734, 34.27911637], [72.39128541, 34.27914714], [72.3912057, 34.27914066], [72.391193, 34.27910351], [72.39114734, 34.27911416], [72.39119463, 34.27925254], [72.39201045, 34.27906222]]]]}, "properties": {"id": "Pakistan_123102310_112114", "height": 2.555652141571045, "hmax": 0.0, "ratio": 0.0, "vulnClass": "none"}}, {"type": "Feature", "geometry": {"type": "MultiPolygon", "coordinates": [[[[72.3913413, 34.27870824], [72.39133039, 34.27862594], [72.39129594, 34.27862905], [72.39130685, 34.27871136], [72.3913413, 34.27870824]]]]}, "properties": {"id": "Pakistan_123102310_178388", "height": 2.915793895721436, "hmax": 0.0, "ratio": 0.0, "vulnClass": "none"}}, {"type": "Feature", "geometry": {"type": "MultiPolygon", "coordinates": [[[[72.39139461, 34.27873217], [72.39137513, 34.27862828], [72.39133742, 34.2786331], [72.3913569, 34.27873699], [72.39139461, 34.27873217]]]]}, "properties": {"id": "Pakistan_123102310_272624", "height": 2.957537651062012, "hmax": 0.0, "ratio": 0.0, "vulnClass": "none"}}, {"type": "Feature", "geometry": {"type": "MultiPolygon", "coordinates": [[[[72.39164359, 34.27878761], [72.39166049, 34.27869375], [72.39165172, 34.27865312], [72.39165576, 34.27863067], [72.39157853, 34.27864206], [72.39158735, 34.27868289], [72.39157759, 34.27873705], [72.39155561, 34.2786353], [72.39149322, 34.2786445], [72.39150795, 34.27871264], [72.39150298, 34.2787402], [72.39148454, 34.27873793], [72.39137215, 34.27875451], [72.3913703, 34.27874592], [72.39128793, 34.27875807], [72.39125401, 34.2787539], [72.39124761, 34.2787243], [72.39120077, 34.27871854], [72.39122086, 34.27881153], [72.3912172, 34.27883184], [72.39122111, 34.27884993], [72.39155008, 34.2788014], [72.39155008, 34.2788014], [72.39164359, 34.27878761]]]]}, "properties": {"id": "Pakistan_123102310_785486", "height": 2.960708856582642, "hmax": 0.0, "ratio": 0.0, "vulnClass": "none"}}, {"type": "Feature", "geometry": {"type": "MultiPolygon", "coordinates": [[[[72.39118806, 34.27875834], [72.39114951, 34.27875955], [72.39115154, 34.27880381], [72.39119009, 34.27880261], [72.39118806, 34.27875834]]]]}, "properties": {"id": "Pakistan_123102310_879978", "height": 2.606464862823486, "hmax": 0.0, "ratio": 0.0, "vulnClass": "none"}}, {"type": "Feature", "geometry": {"type": "MultiPolygon", "coordinates": [[[[72.39122266, 34.27890189], [72.39120498, 34.27884487], [72.39107507, 34.27887236], [72.39104543, 34.27877668], [72.39098753, 34.27878893], [72.39100364, 34.27884093], [72.39096239, 34.27884966], [72.39097812, 34.27890043], [72.39105462, 34.27888425], [72.39107008, 34.27893417], [72.39122266, 34.27890189]]]]}, "properties": {"id": "Pakistan_123102310_358834", "height": 2.797485828399658, "hmax": 0.0, "ratio": 0.0, "vulnClass": "none"}}, {"type": "Feature", "geometry": {"type": "MultiPolygon", "coordinates": [[[[72.39081928, 34.27879101], [72.39075795, 34.27880978], [72.39081333, 34.27893336], [72.39087466, 34.2789146], [72.39081928, 34.27879101]]]]}, "properties": {"id": "Pakistan_123102310_330447", "height": 3.44010329246521, "hmax": 0.0, "ratio": 0.0, "vulnClass": "none"}}, {"type": "Feature", "geometry": {"type": "MultiPolygon", "coordinates": [[[[72.39071612, 34.27872495], [72.39075027, 34.278806], [72.39081964, 34.27878604], [72.39082464, 34.2787979], [72.39085813, 34.27878827], [72.39083148, 34.27872501], [72.3908578, 34.27871744], [72.3908453, 34.27868779], [72.39071612, 34.27872495]]]]}, "properties": {"id": "Pakistan_123102310_84747", "height": 4.078499794006348, "hmax": 0.0, "ratio": 0.0, "vulnClass": "none"}}, {"type": "Feature", "geometry": {"type": "MultiPolygon", "coordinates": [[[[72.39093161, 34.27881355], [72.39091294, 34.27866667], [72.39085352, 34.27867184], [72.39087221, 34.27881871], [72.39093161, 34.27881355]]]]}, "properties": {"id": "Pakistan_123102310_141515", "height": 4.078499794006348, "hmax": 0.0, "ratio": 0.0, "vulnClass": "none"}}, {"type": "Feature", "geometry": {"type": "MultiPolygon", "coordinates": [[[[72.39077214, 34.27863779], [72.39077537, 34.27868196], [72.39083043, 34.27867921], [72.3908272, 34.27863504], [72.39077214, 34.27863779]]]]}, "properties": {"id": "Pakistan_123102310_17446", "height": 2.901619672775269, "hmax": 0.0, "ratio": 0.0, "vulnClass": "none"}}, {"type": "Feature", "geometry": {"type": "MultiPolygon", "coordinates": [[[[72.39093057, 34.27862768], [72.39093637, 34.27877249], [72.39099263, 34.27877096], [72.39098683, 34.27862614], [72.39093057, 34.27862768]]]]}, "properties": {"id": "Pakistan_123102310_264241", "height": 3.777629852294922, "hmax": 0.0, "ratio": 0.0, "vulnClass": "none"}}, {"type": "Feature", "geometry": {"type": "MultiPolygon", "coordinates": [[[[72.39118684, 34.27873812], [72.39116882, 34.27865891], [72.39110924, 34.27866816], [72.391092, 34.27859235], [72.39099355, 34.27860765], [72.3910288, 34.27876266], [72.39118684, 34.27873812]]]]}, "properties": {"id": "Pakistan_123102310_699997", "height": 2.684208393096924, "hmax": 0.0, "ratio": 0.0, "vulnClass": "none"}}, {"type": "Feature", "geometry": {"type": "MultiPolygon", "coordinates": [[[[72.39119211, 34.27850099], [72.39097851, 34.27854679], [72.39099482, 34.2785987], [72.39120842, 34.2785529], [72.39119211, 34.27850099]]]]}, "properties": {"id": "Pakistan_123102310_168976", "height": 2.804654598236084, "hmax": 0.0, "ratio": 0.0, "vulnClass": "none"}}, {"type": "Feature", "geometry": {"type": "MultiPolygon", "coordinates": [[[[72.39120029, 34.27843708], [72.39127527, 34.27842509], [72.39126127, 34.27836527], [72.39118629, 34.27837726], [72.39120029, 34.27843708]]]]}, "properties": {"id": "Pakistan_123102310_287570", "height": 2.817443132400513, "hmax": 0.0, "ratio": 0.0, "vulnClass": "none"}}, {"type": "Feature", "geometry": {"type": "MultiPolygon", "coordinates": [[[[72.39128977, 34.27843989], [72.39132428, 34.27853798], [72.39144546, 34.27850886], [72.39142461, 34.2784496], [72.39134547, 34.27846862], [72.39133181, 34.27842979], [72.39128977, 34.27843989]]]]}, "properties": {"id": "Pakistan_123102310_217075", "height": 2.535315990447998, "hmax": 0.0, "ratio": 0.0, "vulnClass": "none"}}, {"type": "Feature", "geometry": {"type": "MultiPolygon", "coordinates": [[[[72.39130944, 34.27854826], [72.39129144, 34.27849138], [72.39121462, 34.27850798], [72.39123261, 34.27856486], [72.39130944, 34.27854826]]]]}, "properties": {"id": "Pakistan_123102310_894195", "height": 2.535315990447998, "hmax": 0.0, "ratio": 0.0, "vulnClass": "none"}}, {"type": "Feature", "geometry": {"type": "MultiPolygon", "coordinates": [[[[72.39148893, 34.27857774], [72.39147409, 34.27852053], [72.39129715, 34.27855187], [72.39131199, 34.27860908], [72.39148893, 34.27857774]]]]}, "properties": {"id": "Pakistan_123102310_235967", "height": 2.618987560272217, "hmax": 0.0, "ratio": 0.0, "vulnClass": "none"}}, {"type": "Feature", "geometry": {"type": "MultiPolygon", "coordinates": [[[[72.39168291, 34.27860802], [72.39167664, 34.27857107], [72.39174766, 34.27856283], [72.39173807, 34.27850632], [72.39164601, 34.27851699], [72.39165581, 34.27857475], [72.39151377, 34.27859122], [72.39151982, 34.27862692], [72.39168291, 34.27860802]]]]}, "properties": {"id": "Pakistan_123102310_330455", "height": 2.631194591522217, "hmax": 0.0, "ratio": 0.0, "vulnClass": "none"}}, {"type": "Feature", "geometry": {"type": "MultiPolygon", "coordinates": [[[[72.39161651, 34.27839291], [72.39147711, 34.27839014], [72.39147261, 34.2785452], [72.3915289, 34.27854631], [72.39153102, 34.27847322], [72.39161412, 34.27847486], [72.39161651, 34.27839291]]]]}, "properties": {"id": "Pakistan_123102310_657135", "height": 3.159021377563477, "hmax": 0.0, "ratio": 0.0, "vulnClass": "none"}}, {"type": "Feature", "geometry": {"type": "MultiPolygon", "coordinates": [[[[72.39163285, 34.27838941], [72.39163542, 34.2784758], [72.39173192, 34.27847384], [72.39173099, 34.27844283], [72.39169079, 34.27844364], [72.39168914, 34.27838827], [72.39163285, 34.27838941]]]]}, "properties": {"id": "Pakistan_123102310_179219", "height": 3.159021377563477, "hmax": 0.0, "ratio": 0.0, "vulnClass": "none"}}, {"type": "Feature", "geometry": {"type": "MultiPolygon", "coordinates": [[[[72.39191181, 34.27874818], [72.39190136, 34.27868962], [72.39183048, 34.27869825], [72.39181328, 34.27860187], [72.39188941, 34.27859259], [72.39187255, 34.27849809], [72.39178329, 34.27850897], [72.3917928, 34.27856226], [72.39171405, 34.27857186], [72.3917208, 34.27860967], [72.3916725, 34.27861555], [72.39168047, 34.27866017], [72.39167101, 34.27866133], [72.3916913, 34.27877505], [72.39191181, 34.27874818]]]]}, "properties": {"id": "Pakistan_123102310_870538", "height": 2.769184589385986, "hmax": 0.0, "ratio": 0.0, "vulnClass": "none"}}, {"type": "Feature", "geometry": {"type": "MultiPolygon", "coordinates": [[[[72.3918747, 34.27839966], [72.39188303, 34.27855102], [72.39202918, 34.27854553], [72.39202775, 34.27851958], [72.39197337, 34.27850233], [72.39204275, 34.27849972], [72.39202426, 34.2781645], [72.39201358, 34.2781649], [72.39191094, 34.27813235], [72.3919133, 34.27817521], [72.39196985, 34.27819314], [72.39182618, 34.27819855], [72.3918227, 34.27819744], [72.39184038, 34.27815937], [72.3917383, 34.27816322], [72.39174164, 34.27822389], [72.39181993, 34.27822094], [72.39184088, 34.27822759], [72.39182428, 34.27826332], [72.39182707, 34.27831408], [72.39175032, 34.27828973], [72.39176484, 34.27825848], [72.39171037, 34.27826052], [72.39171777, 34.27839466], [72.39174853, 34.27840441], [72.3918747, 34.27839966]]]]}, "properties": {"id": "Pakistan_123102310_642813", "height": 2.785485982894897, "hmax": 0.0, "ratio": 0.0, "vulnClass": "none"}}, {"type": "Feature", "geometry": {"type": "MultiPolygon", "coordinates": [[[[72.39170276, 34.27822929], [72.39164644, 34.27822884], [72.39164564, 34.27829659], [72.39144181, 34.27829497], [72.39144086, 34.27837568], [72.39170101, 34.27837777], [72.39170276, 34.27822929]]]]}, "properties": {"id": "Pakistan_123102310_301898", "height": 3.621153354644775, "hmax": 0.0, "ratio": 0.0, "vulnClass": "none"}}, {"type": "Feature", "geometry": {"type": "MultiPolygon", "coordinates": [[[[72.39127049, 34.27815829], [72.39127273, 34.27823138], [72.39144697, 34.27822774], [72.39144473, 34.27815464], [72.39127049, 34.27815829]]]]}, "properties": {"id": "Pakistan_123102310_898996", "height": 3.187748908996582, "hmax": 0.0, "ratio": 0.0, "vulnClass": "none"}}, {"type": "Feature", "geometry": {"type": "MultiPolygon", "coordinates": [[[[72.39142021, 34.27840637], [72.391389, 34.27825107], [72.39126893, 34.27826755], [72.39130014, 34.27842285], [72.39142021, 34.27840637]]]]}, "properties": {"id": "Pakistan_123102310_695282", "height": 3.019637584686279, "hmax": 0.0, "ratio": 0.0, "vulnClass": "none"}}, {"type": "Feature", "geometry": {"type": "MultiPolygon", "coordinates": [[[[72.39121979, 34.27829168], [72.39121398, 34.27826142], [72.39116427, 34.27826792], [72.39117007, 34.27829819], [72.39121979, 34.27829168]]]]}, "properties": {"id": "Pakistan_123102310_188601", "height": 3.177436590194702, "hmax": 0.0, "ratio": 0.0, "vulnClass": "none"}}, {"type": "Feature", "geometry": {"type": "MultiPolygon", "coordinates": [[[[72.39106349, 34.278418], [72.39108529, 34.27841466], [72.39109441, 34.27845538], [72.39119296, 34.27844031], [72.3911824, 34.27839317], [72.39117357, 34.27839452], [72.39115869, 34.27832808], [72.3910975, 34.27833744], [72.39108262, 34.27827101], [72.39103229, 34.27827871], [72.39106349, 34.278418]]]]}, "properties": {"id": "Pakistan_123102310_65779", "height": 3.572527885437012, "hmax": 0.0, "ratio": 0.0, "vulnClass": "none"}}, {"type": "Feature", "geometry": {"type": "MultiPolygon", "coordinates": [[[[72.39073727, 34.27823199], [72.3908791, 34.2782263], [72.39087572, 34.27816881], [72.3907339, 34.2781745], [72.39073727, 34.27823199]]]]}, "properties": {"id": "Pakistan_123102310_515039", "height": 2.740731954574585, "hmax": 0.0, "ratio": 0.0, "vulnClass": "none"}}, {"type": "Feature", "geometry": {"type": "MultiPolygon", "coordinates": [[[[72.39173233, 34.27820988], [72.39172945, 34.27806143], [72.39145168, 34.27806509], [72.39145278, 34.27812176], [72.39133637, 34.2781233], [72.39133499, 34.2780524], [72.39125454, 34.27805346], [72.39125581, 34.27811865], [72.39105738, 34.27812126], [72.39105525, 34.27801178], [72.39078978, 34.27801529], [72.39079074, 34.27806494], [72.39100795, 34.27806207], [72.39101121, 34.27823047], [72.39126864, 34.27822708], [72.3912672, 34.27815303], [72.39145759, 34.27815051], [72.39145881, 34.27821349], [72.39173233, 34.27820988]]]]}, "properties": {"id": "Pakistan_123102310_420155", "height": 3.166616439819336, "hmax": 0.0, "ratio": 0.0, "vulnClass": "none"}}, {"type": "Feature", "geometry": {"type": "MultiPolygon", "coordinates": [[[[72.3848875, 34.27860645], [72.38488726, 34.27851336], [72.38470112, 34.27851369], [72.38470079, 34.27838735], [72.38465627, 34.27838743], [72.38465683, 34.27860685], [72.3848875, 34.27860645]]]]}, "properties": {"id": "Pakistan_123102310_368213", "height": 3.486284017562866, "hmax": 0.0, "ratio": 0.0, "vulnClass": "none"}}, {"type": "Feature", "geometry": {"type": "MultiPolygon", "coordinates": [[[[72.38482859, 34.27842189], [72.38482587, 34.27846713], [72.38490881, 34.27847053], [72.3849146, 34.27837445], [72.38488517, 34.27837324], [72.3848821, 34.27842409], [72.38482859, 34.27842189]]]]}, "properties": {"id": "Pakistan_123102310_8863", "height": 3.343934774398804, "hmax": 0.0, "ratio": 0.0, "vulnClass": "none"}}, {"type": "Feature", "geometry": {"type": "MultiPolygon", "coordinates": [[[[72.38489317, 34.27860668], [72.38498162, 34.27860474], [72.38498286, 34.27864341], [72.38504987, 34.27864194], [72.38504877, 34.2786077], [72.38508093, 34.278607], [72.3850783, 34.27852505], [72.38503006, 34.27852611], [72.3850297, 34.27851504], [72.38489032, 34.27851809], [72.38489317, 34.27860668]]]]}, "properties": {"id": "Pakistan_123102310_141411", "height": 3.996252536773682, "hmax": 0.0, "ratio": 0.0, "vulnClass": "none"}}, {"type": "Feature", "geometry": {"type": "MultiPolygon", "coordinates": [[[[72.38508825, 34.27853723], [72.38509155, 34.27859917], [72.38522808, 34.27859419], [72.38522477, 34.27853226], [72.38508825, 34.27853723]]]]}, "properties": {"id": "Pakistan_123102310_244384", "height": 3.496744155883789, "hmax": 0.0, "ratio": 0.0, "vulnClass": "none"}}, {"type": "Feature", "geometry": {"type": "MultiPolygon", "coordinates": [[[[72.38533603, 34.27858379], [72.38533058, 34.27840881], [72.38527429, 34.27841001], [72.38528085, 34.27862042], [72.38524332, 34.27862122], [72.38524615, 34.27871203], [72.38534265, 34.27870998], [72.38534023, 34.27863246], [72.3853724, 34.27863177], [72.38537088, 34.27858304], [72.38533603, 34.27858379]]]]}, "properties": {"id": "Pakistan_123102310_358783", "height": 2.483714580535889, "hmax": 0.0, "ratio": 0.0, "vulnClass": "none"}}, {"type": "Feature", "geometry": {"type": "MultiPolygon", "coordinates": [[[[72.38562866, 34.27859284], [72.38563065, 34.27841776], [72.38573256, 34.27841855], [72.38573275, 34.2784018], [72.38578103, 34.27840217], [72.38578164, 34.27834801], [72.38553649, 34.27834611], [72.38553372, 34.2785921], [72.38562866, 34.27859284]]]]}, "properties": {"id": "Pakistan_123102310_941488", "height": 4.291821956634521, "hmax": 0.0, "ratio": 0.0, "vulnClass": "none"}}, {"type": "Feature", "geometry": {"type": "MultiPolygon", "coordinates": [[[[72.38556222, 34.27869385], [72.38556422, 34.27859858], [72.38552132, 34.27859796], [72.38552062, 34.2786312], [72.3854804, 34.27863062], [72.3854791, 34.27869266], [72.38556222, 34.27869385]]]]}, "properties": {"id": "Pakistan_123102310_141427", "height": 5.631609916687012, "hmax": 0.0, "ratio": 0.0, "vulnClass": "none"}}, {"type": "Feature", "geometry": {"type": "MultiPolygon", "coordinates": [[[[72.3857652, 34.2787499], [72.3857682, 34.27867018], [72.38571728, 34.27866888], [72.38571429, 34.27874859], [72.3857652, 34.2787499]]]]}, "properties": {"id": "Pakistan_123102310_941489", "height": 2.949637413024902, "hmax": 0.0, "ratio": 0.0, "vulnClass": "none"}}, {"type": "Feature", "geometry": {"type": "MultiPolygon", "coordinates": [[[[72.3850059, 34.27874148], [72.38500566, 34.27883457], [72.38576204, 34.27883592], [72.38576225, 34.27875392], [72.38553264, 34.27875351], [72.38553265, 34.27874908], [72.38538944, 34.27874882], [72.38538955, 34.27870793], [72.38533322, 34.27870783], [72.38533313, 34.27874207], [72.3850059, 34.27874148]]]]}, "properties": {"id": "Pakistan_123102310_794819", "height": 3.327637195587158, "hmax": 0.0, "ratio": 0.0, "vulnClass": "none"}}, {"type": "Feature", "geometry": {"type": "MultiPolygon", "coordinates": [[[[72.384953, 34.27901887], [72.3850442, 34.27901919], [72.38504405, 34.279048], [72.38510842, 34.27904823], [72.38510817, 34.27909699], [72.3851484, 34.27909713], [72.38514886, 34.27900727], [72.38519178, 34.27900742], [72.3851923, 34.27890668], [72.38507428, 34.27890626], [72.38507453, 34.27885852], [72.38499407, 34.27885824], [72.38499386, 34.27889813], [72.38495363, 34.27889799], [72.384953, 34.27901887]]]]}, "properties": {"id": "Pakistan_123102310_860939", "height": 2.584534645080566, "hmax": 0.0, "ratio": 0.0, "vulnClass": "none"}}, {"type": "Feature", "geometry": {"type": "MultiPolygon", "coordinates": [[[[72.38570613, 34.27921896], [72.38569684, 34.27910868], [72.38555537, 34.27911682], [72.38554785, 34.27902762], [72.38550247, 34.27903023], [72.38550609, 34.27907312], [72.38547775, 34.27907475], [72.38548406, 34.27914974], [72.3853736, 34.27915609], [72.38537472, 34.27916933], [72.3852813, 34.2791747], [72.38527312, 34.27907766], [72.38523041, 34.27908011], [72.38524435, 34.27924553], [72.38570613, 34.27921896]]]]}, "properties": {"id": "Pakistan_123102310_141429", "height": 3.074072599411011, "hmax": 0.0, "ratio": 0.0, "vulnClass": "none"}}, {"type": "Feature", "geometry": {"type": "MultiPolygon", "coordinates": [[[[72.38549668, 34.27902519], [72.38537711, 34.2790279], [72.38537869, 34.27907563], [72.38549827, 34.27907292], [72.38549668, 34.27902519]]]]}, "properties": {"id": "Pakistan_123102310_903713", "height": 2.638917446136475, "hmax": 0.0, "ratio": 0.0, "vulnClass": "none"}}, {"type": "Feature", "geometry": {"type": "MultiPolygon", "coordinates": [[[[72.38538223, 34.27887691], [72.38527076, 34.27888014], [72.38527662, 34.27901838], [72.3854829, 34.27901239], [72.38548055, 34.27895705], [72.38538575, 34.27895981], [72.38538223, 34.27887691]]]]}, "properties": {"id": "Pakistan_123102310_26962", "height": 2.967188358306885, "hmax": 0.0, "ratio": 0.0, "vulnClass": "none"}}, {"type": "Feature", "geometry": {"type": "MultiPolygon", "coordinates": [[[[72.38554192, 34.27892237], [72.38554374, 34.27901321], [72.38571536, 34.27901086], [72.38571354, 34.27892001], [72.38554192, 34.27892237]]]]}, "properties": {"id": "Pakistan_123102310_179129", "height": 2.646285533905029, "hmax": 0.0, "ratio": 0.0, "vulnClass": "none"}}, {"type": "Feature", "geometry": {"type": "MultiPolygon", "coordinates": [[[[72.38585174, 34.27922981], [72.38630997, 34.27921815], [72.38631351, 34.27931336], [72.38647965, 34.27930913], [72.38647379, 34.27915193], [72.38611204, 34.27916113], [72.38610824, 34.27905928], [72.38607609, 34.27906009], [72.3860784, 34.27912209], [72.38585867, 34.27912768], [72.38585619, 34.27906126], [72.38584547, 34.27906153], [72.38585174, 34.27922981]]]]}, "properties": {"id": "Pakistan_123102310_728585", "height": 3.832669258117676, "hmax": 0.0, "ratio": 0.0, "vulnClass": "none"}}, {"type": "Feature", "geometry": {"type": "MultiPolygon", "coordinates": [[[[72.38630958, 34.27906088], [72.38644367, 34.27905953], [72.38644432, 34.27910385], [72.38650869, 34.27910321], [72.38650732, 34.27901013], [72.38630886, 34.27901213], [72.38630958, 34.27906088]]]]}, "properties": {"id": "Pakistan_123102310_429546", "height": 2.923359870910645, "hmax": 0.0, "ratio": 0.0, "vulnClass": "none"}}, {"type": "Feature", "geometry": {"type": "MultiPolygon", "coordinates": [[[[72.38606608, 34.27876856], [72.38577116, 34.27877351], [72.385773, 34.27884883], [72.38606792, 34.27884388], [72.38606608, 34.27876856]]]]}, "properties": {"id": "Pakistan_123102310_941490", "height": 2.829927206039429, "hmax": 0.0, "ratio": 0.0, "vulnClass": "none"}}, {"type": "Feature", "geometry": {"type": "MultiPolygon", "coordinates": [[[[72.38597895, 34.27863304], [72.38597738, 34.27859445], [72.38584503, 34.27859813], [72.38584661, 34.27863673], [72.38597895, 34.27863304]]]]}, "properties": {"id": "Pakistan_123102310_263296", "height": 2.849853515625, "hmax": 0.0, "ratio": 0.0, "vulnClass": "none"}}, {"type": "Feature", "geometry": {"type": "MultiPolygon", "coordinates": [[[[72.38657929, 34.27801692], [72.38658098, 34.2779536], [72.38630216, 34.27794856], [72.38630399, 34.27787988], [72.38626109, 34.27787911], [72.38625758, 34.27801108], [72.38657929, 34.27801692]]]]}, "properties": {"id": "Pakistan_123102310_780739", "height": 3.256101369857788, "hmax": 0.0, "ratio": 0.0, "vulnClass": "none"}}, {"type": "Feature", "geometry": {"type": "MultiPolygon", "coordinates": [[[[72.39064604, 34.27764787], [72.39055097, 34.27764315], [72.39052491, 34.27800179], [72.39062, 34.27800651], [72.39064604, 34.27764787]]]]}, "properties": {"id": "Pakistan_123102310_339896", "height": 3.289612293243408, "hmax": 0.0, "ratio": 0.0, "vulnClass": "none"}}, {"type": "Feature", "geometry": {"type": "MultiPolygon", "coordinates": [[[[72.39080815, 34.27894516], [72.39076661, 34.27886831], [72.39065704, 34.27890874], [72.39059211, 34.27878864], [72.39069945, 34.27874903], [72.39067348, 34.27870099], [72.39052142, 34.2787571], [72.39065386, 34.27900211], [72.39080815, 34.27894516]]]]}, "properties": {"id": "Pakistan_123102310_306750", "height": 2.807899475097656, "hmax": 0.0, "ratio": 0.0, "vulnClass": "none"}}, {"type": "Feature", "geometry": {"type": "MultiPolygon", "coordinates": [[[[72.3907332, 34.27917515], [72.39056858, 34.27884943], [72.39051148, 34.27886913], [72.39055631, 34.27895783], [72.39046407, 34.27898966], [72.39043221, 34.27892664], [72.39038882, 34.27894161], [72.39046323, 34.27908881], [72.39062309, 34.27903363], [72.39066029, 34.27910723], [72.390515, 34.27915737], [72.39055506, 34.27923663], [72.3907332, 34.27917515]]]]}, "properties": {"id": "Pakistan_123102310_776002", "height": 3.903010129928589, "hmax": 0.0, "ratio": 0.0, "vulnClass": "none"}}, {"type": "Feature", "geometry": {"type": "MultiPolygon", "coordinates": [[[[72.39017919, 34.2790517], [72.39019101, 34.27911218], [72.39025636, 34.27910345], [72.39024454, 34.27904297], [72.39017919, 34.2790517]]]]}, "properties": {"id": "Pakistan_123102310_562203", "height": 2.444069147109985, "hmax": 0.0, "ratio": 0.0, "vulnClass": "none"}}, {"type": "Feature", "geometry": {"type": "MultiPolygon", "coordinates": [[[[72.39026261, 34.27921738], [72.39011132, 34.2792384], [72.39012799, 34.27932031], [72.3903184, 34.27929384], [72.39028217, 34.27911579], [72.39024304, 34.27912123], [72.39026261, 34.27921738]]]]}, "properties": {"id": "Pakistan_123102310_898985", "height": 3.666632175445557, "hmax": 0.0, "ratio": 0.0, "vulnClass": "none"}}, {"type": "Feature", "geometry": {"type": "MultiPolygon", "coordinates": [[[[72.39018406, 34.27911258], [72.39016889, 34.27906017], [72.39009278, 34.27907521], [72.39010795, 34.27912762], [72.39018406, 34.27911258]]]]}, "properties": {"id": "Pakistan_123102310_804302", "height": 2.743619203567505, "hmax": 0.0, "ratio": 0.0, "vulnClass": "none"}}, {"type": "Feature", "geometry": {"type": "MultiPolygon", "coordinates": [[[[72.39016064, 34.27941264], [72.39018681, 34.27952828], [72.39044856, 34.27948785], [72.39043209, 34.27941504], [72.3902118, 34.27944907], [72.39020211, 34.27940624], [72.39016064, 34.27941264]]]]}, "properties": {"id": "Pakistan_123102310_903745", "height": 3.017868280410767, "hmax": 0.0, "ratio": 0.0, "vulnClass": "none"}}, {"type": "Feature", "geometry": {"type": "MultiPolygon", "coordinates": [[[[72.39054371, 34.27967746], [72.39056969, 34.27985527], [72.39071245, 34.27984103], [72.39069681, 34.27973399], [72.39060164, 34.27974349], [72.39059079, 34.27966921], [72.39054849, 34.27967343], [72.39054147, 34.27962538], [72.39049388, 34.27963012], [72.39048909, 34.27959736], [72.39043886, 34.27960237], [72.39045118, 34.27968669], [72.39054371, 34.27967746]]]]}, "properties": {"id": "Pakistan_123102310_661994", "height": 2.573970079421997, "hmax": 0.0, "ratio": 0.0, "vulnClass": "none"}}, {"type": "Feature", "geometry": {"type": "MultiPolygon", "coordinates": [[[[72.39013719, 34.2797112], [72.39025393, 34.27970113], [72.39026463, 34.27978577], [72.39054322, 34.27976172], [72.39053363, 34.27968586], [72.39044246, 34.27969373], [72.39044273, 34.27969592], [72.39044104, 34.27969606], [72.39043301, 34.27963248], [72.39021013, 34.27965171], [72.39019794, 34.27955525], [72.39011834, 34.27956212], [72.39013719, 34.2797112]]]]}, "properties": {"id": "Pakistan_123102310_297215", "height": 2.7478928565979, "hmax": 0.0, "ratio": 0.0, "vulnClass": "none"}}, {"type": "Feature", "geometry": {"type": "MultiPolygon", "coordinates": [[[[72.39036299, 34.27998784], [72.3903475, 34.27985922], [72.39024298, 34.27986781], [72.39025846, 34.27999643], [72.39036299, 34.27998784]]]]}, "properties": {"id": "Pakistan_123102310_382446", "height": 2.513399362564087, "hmax": 0.0, "ratio": 0.0, "vulnClass": "none"}}, {"type": "Feature", "geometry": {"type": "MultiPolygon", "coordinates": [[[[72.39052574, 34.2801527], [72.39029507, 34.28015191], [72.39029461, 34.28024278], [72.39057454, 34.28024373], [72.39057543, 34.2800651], [72.39052619, 34.28006493], [72.39052574, 34.2801527]]]]}, "properties": {"id": "Pakistan_123102310_557405", "height": 3.273293256759644, "hmax": 0.0, "ratio": 0.0, "vulnClass": "none"}}, {"type": "Feature", "geometry": {"type": "MultiPolygon", "coordinates": [[[[72.38606841, 34.28051232], [72.38606993, 34.28055883], [72.3861155, 34.28055781], [72.38611397, 34.2805113], [72.38606841, 34.28051232]]]]}, "properties": {"id": "Pakistan_123102310_47095", "height": 3.027376651763916, "hmax": 0.0, "ratio": 0.0, "vulnClass": "none"}}, {"type": "Feature", "geometry": {"type": "MultiPolygon", "coordinates": [[[[72.38600148, 34.28051216], [72.38599938, 34.28056751], [72.38606101, 34.28056911], [72.38606311, 34.28051376], [72.38600148, 34.28051216]]]]}, "properties": {"id": "Pakistan_123102310_652209", "height": 3.02171516418457, "hmax": 0.0, "ratio": 0.0, "vulnClass": "none"}}, {"type": "Feature", "geometry": {"type": "MultiPolygon", "coordinates": [[[[72.3859792, 34.28063214], [72.38597517, 34.28051921], [72.38592157, 34.28052052], [72.38592735, 34.28068217], [72.3860801, 34.28067844], [72.38607836, 34.28062973], [72.3859792, 34.28063214]]]]}, "properties": {"id": "Pakistan_123102310_47093", "height": 2.892108917236328, "hmax": 0.0, "ratio": 0.0, "vulnClass": "none"}}, {"type": "Feature", "geometry": {"type": "MultiPolygon", "coordinates": [[[[72.38208396, 34.28341612], [72.3820518, 34.28341684], [72.38205281, 34.28344785], [72.38208497, 34.28344713], [72.38208396, 34.28341612]]]]}, "properties": {"id": "Pakistan_123102310_505342", "height": 3.276374816894531, "hmax": 0.0, "ratio": 0.0, "vulnClass": "none"}}, {"type": "Feature", "geometry": {"type": "MultiPolygon", "coordinates": [[[[72.38225388, 34.2833874], [72.3822555, 34.28335199], [72.382218, 34.28335082], [72.38221638, 34.28338623], [72.38225388, 34.2833874]]]]}, "properties": {"id": "Pakistan_123102310_263280", "height": 2.813358783721924, "hmax": 0.0, "ratio": 0.0, "vulnClass": "none"}}, {"type": "Feature", "geometry": {"type": "MultiPolygon", "coordinates": [[[[72.38600735, 34.28706804], [72.38598233, 34.28700877], [72.38594407, 34.2870198], [72.38596909, 34.28707907], [72.38600735, 34.28706804]]]]}, "properties": {"id": "Pakistan_123102310_903716", "height": 3.657315254211426, "hmax": 0.0, "ratio": 0.0, "vulnClass": "none"}}, {"type": "Feature", "geometry": {"type": "MultiPolygon", "coordinates": [[[[72.38862696, 34.28743229], [72.38858765, 34.2874478], [72.38861334, 34.28749226], [72.38865266, 34.28747675], [72.38862696, 34.28743229]]]]}, "properties": {"id": "Pakistan_123102310_159448", "height": 2.825296878814697, "hmax": 0.0, "ratio": 0.0, "vulnClass": "none"}}, {"type": "Feature", "geometry": {"type": "MultiPolygon", "coordinates": [[[[72.38776567, 34.28784302], [72.38777782, 34.28788961], [72.38782908, 34.28788049], [72.38781693, 34.2878339], [72.38776567, 34.28784302]]]]}, "properties": {"id": "Pakistan_123102310_709510", "height": 5.927979469299316, "hmax": 0.0, "ratio": 0.0, "vulnClass": "none"}}, {"type": "Feature", "geometry": {"type": "MultiPolygon", "coordinates": [[[[72.38700052, 34.28902098], [72.38698595, 34.28889582], [72.38692482, 34.28890068], [72.3869394, 34.28902584], [72.38700052, 34.28902098]]]]}, "properties": {"id": "Pakistan_123102310_562179", "height": 2.569412469863892, "hmax": 0.0, "ratio": 0.0, "vulnClass": "none"}}, {"type": "Feature", "geometry": {"type": "MultiPolygon", "coordinates": [[[[72.38794643, 34.28892641], [72.38792231, 34.28885677], [72.38786866, 34.28886945], [72.38785022, 34.28881619], [72.38792866, 34.28879765], [72.38791022, 34.28874439], [72.38765485, 34.28880476], [72.38771586, 34.28898092], [72.38794643, 34.28892641]]]]}, "properties": {"id": "Pakistan_123102310_168938", "height": 3.730521202087402, "hmax": 0.0, "ratio": 0.0, "vulnClass": "none"}}, {"type": "Feature", "geometry": {"type": "MultiPolygon", "coordinates": [[[[72.38732909, 34.28881272], [72.38730929, 34.28876871], [72.38726216, 34.28878319], [72.38728196, 34.28882719], [72.38732909, 34.28881272]]]]}, "properties": {"id": "Pakistan_123102310_832697", "height": 3.155142545700073, "hmax": 0.0, "ratio": 0.0, "vulnClass": "none"}}, {"type": "Feature", "geometry": {"type": "MultiPolygon", "coordinates": [[[[72.38891333, 34.28743618], [72.3888436, 34.28743618], [72.3888436, 34.28746277], [72.38881409, 34.28746277], [72.38881409, 34.28754477], [72.38891333, 34.28754477], [72.38891333, 34.28743618]]]]}, "properties": {"id": "Pakistan_123102310_600143", "height": 4.115226745605469, "hmax": 0.0, "ratio": 0.0, "vulnClass": "none"}}, {"type": "Feature", "geometry": {"type": "MultiPolygon", "coordinates": [[[[72.38721617, 34.28689485], [72.38717331, 34.28689615], [72.38717556, 34.28694705], [72.38721842, 34.28694576], [72.38721617, 34.28689485]]]]}, "properties": {"id": "Pakistan_123102310_709501", "height": 2.704611301422119, "hmax": 0.0, "ratio": 0.0, "vulnClass": "none"}}, {"type": "Feature", "geometry": {"type": "MultiPolygon", "coordinates": [[[[72.38728861, 34.28382542], [72.38725376, 34.2838261], [72.38725612, 34.28390805], [72.38729097, 34.28390737], [72.38728861, 34.28382542]]]]}, "properties": {"id": "Pakistan_123102310_169821", "height": 2.662988185882568, "hmax": 0.0, "ratio": 0.0, "vulnClass": "none"}}, {"type": "Feature", "geometry": {"type": "MultiPolygon", "coordinates": [[[[72.38745073, 34.28391826], [72.38745162, 34.28394261], [72.38727208, 34.2839471], [72.38727434, 34.2840091], [72.387545, 34.28400233], [72.38754184, 34.28391598], [72.38745073, 34.28391826]]]]}, "properties": {"id": "Pakistan_123102310_571748", "height": 4.286798477172852, "hmax": 0.0, "ratio": 0.0, "vulnClass": "none"}}, {"type": "Feature", "geometry": {"type": "MultiPolygon", "coordinates": [[[[72.3851954, 34.28230089], [72.3851793, 34.28224546], [72.38495866, 34.28228922], [72.38497477, 34.28234467], [72.3851954, 34.28230089]]]]}, "properties": {"id": "Pakistan_123102310_443652", "height": 3.029914379119873, "hmax": 0.0, "ratio": 0.0, "vulnClass": "none"}}, {"type": "Feature", "geometry": {"type": "MultiPolygon", "coordinates": [[[[72.39075393, 34.28390466], [72.39080212, 34.28390639], [72.3908049, 34.2838533], [72.39075671, 34.28385157], [72.39075393, 34.28390466]]]]}, "properties": {"id": "Pakistan_123102310_311493", "height": 2.645732164382935, "hmax": 0.0, "ratio": 0.0, "vulnClass": "none"}}, {"type": "Feature", "geometry": {"type": "MultiPolygon", "coordinates": [[[[72.38930446, 34.29243049], [72.38924141, 34.29234246], [72.3892087, 34.29235845], [72.38917301, 34.29230861], [72.38916002, 34.29231496], [72.38910007, 34.29223126], [72.38897292, 34.29229342], [72.38913163, 34.29251498], [72.38930446, 34.29243049]]]]}, "properties": {"id": "Pakistan_123102310_794844", "height": 3.253339290618896, "hmax": 0.0, "ratio": 0.0, "vulnClass": "none"}}, {"type": "Feature", "geometry": {"type": "MultiPolygon", "coordinates": [[[[72.38932462, 34.29221558], [72.38928225, 34.29212495], [72.38923791, 34.2921391], [72.38919791, 34.29205355], [72.38907888, 34.29209155], [72.38916124, 34.29226772], [72.38932462, 34.29221558]]]]}, "properties": {"id": "Pakistan_123102310_316191", "height": 3.121455192565918, "hmax": 0.0, "ratio": 0.0, "vulnClass": "none"}}, {"type": "Feature", "geometry": {"type": "MultiPolygon", "coordinates": [[[[72.38926878, 34.29131639], [72.38909389, 34.29097949], [72.3889489, 34.29103086], [72.38897124, 34.29107391], [72.38870165, 34.29116944], [72.38873372, 34.29123121], [72.38883113, 34.29119669], [72.38880976, 34.29115551], [72.38889131, 34.29112661], [72.38890589, 34.29115469], [72.38892758, 34.291147], [72.38899073, 34.29126866], [72.38880366, 34.29133495], [72.38886779, 34.29145848], [72.38926878, 34.29131639]]]]}, "properties": {"id": "Pakistan_123102310_552709", "height": 4.549534797668457, "hmax": 0.0, "ratio": 0.0, "vulnClass": "none"}}, {"type": "Feature", "geometry": {"type": "MultiPolygon", "coordinates": [[[[72.3883429, 34.28951849], [72.38831026, 34.28942186], [72.38810778, 34.28946854], [72.3881404, 34.28956517], [72.3883429, 34.28951849]]]]}, "properties": {"id": "Pakistan_123102310_187728", "height": 3.88451361656189, "hmax": 0.0, "ratio": 0.0, "vulnClass": "none"}}]}