{"type": "FeatureCollection", "features": [{"type": "Feature", "geometry": {"type": "MultiPolygon", "coordinates": [[[[71.89826051, 34.43830014], [71.89801515, 34.43833987], [71.89803543, 34.43842507], [71.89818523, 34.43840081], [71.89822275, 34.43855844], [71.89831831, 34.43854296], [71.89826051, 34.43830014]]]]}, "properties": {"id": "Pakistan_123102132_385687", "height": 3.116020202636719, "hmax": 0.002, "ratio": 0.001, "vulnClass": "none"}}, {"type": "Feature", "geometry": {"type": "MultiPolygon", "coordinates": [[[[71.89776169, 34.43836115], [71.89803312, 34.43856848], [71.89810265, 34.43850656], [71.8979626, 34.43839959], [71.89801074, 34.43835672], [71.89787936, 34.43825637], [71.89776169, 34.43836115]]]]}, "properties": {"id": "Pakistan_123102132_207251", "height": 3.556432962417603, "hmax": 0.002, "ratio": 0.001, "vulnClass": "none"}}, {"type": "Feature", "geometry": {"type": "MultiPolygon", "coordinates": [[[[71.89811066, 34.43858843], [71.89807208, 34.43854583], [71.89802387, 34.43857553], [71.89806245, 34.43861812], [71.89811066, 34.43858843]]]]}, "properties": {"id": "Pakistan_123102132_533354", "height": 3.25182318687439, "hmax": 0.002, "ratio": 0.001, "vulnClass": "none"}}, {"type": "Feature", "geometry": {"type": "MultiPolygon", "coordinates": [[[[71.89801867, 34.43892765], [71.89803133, 34.43922765], [71.8980416, 34.43925391], [71.89815112, 34.43925076], [71.89818746, 34.43924109], [71.89818656, 34.43921978], [71.89828244, 34.43921703], [71.89853583, 34.43914958], [71.89848376, 34.43901648], [71.89848451, 34.43903426], [71.89840414, 34.43903657], [71.89839929, 34.43892168], [71.89846875, 34.43891968], [71.89851245, 34.43890805], [71.89848136, 34.43882863], [71.89844508, 34.43882967], [71.89837748, 34.43884765], [71.89834342, 34.43876059], [71.89826067, 34.43878261], [71.8982626, 34.43882827], [71.89816846, 34.43883097], [71.89819141, 34.43888962], [71.8981919, 34.43890108], [71.89810964, 34.43890344], [71.89801867, 34.43892765]]]]}, "properties": {"id": "Pakistan_123102132_34436", "height": 2.661103248596191, "hmax": 0.002, "ratio": 0.001, "vulnClass": "none"}}, {"type": "Feature", "geometry": {"type": "MultiPolygon", "coordinates": [[[[71.89727216, 34.43964333], [71.8973217, 34.43977927], [71.89746799, 34.43974302], [71.89750314, 34.43983952], [71.89760533, 34.4398142], [71.89768296, 34.44002722], [71.89800389, 34.43994768], [71.89799468, 34.43992241], [71.89778572, 34.43987241], [71.897813, 34.43979488], [71.89772428, 34.43977365], [71.89793543, 34.43972132], [71.8979549, 34.43966597], [71.89794074, 34.4396271], [71.89776, 34.43967189], [71.89771671, 34.43955308], [71.89780151, 34.43953207], [71.89777753, 34.43946625], [71.89789199, 34.43943788], [71.89787868, 34.43940136], [71.89767887, 34.43935355], [71.8977169, 34.43945792], [71.89769838, 34.4394625], [71.89761412, 34.43923121], [71.89744684, 34.43927266], [71.89741445, 34.43936475], [71.89739373, 34.43936988], [71.89746691, 34.43957074], [71.89762389, 34.43953184], [71.89761451, 34.4395585], [71.89727216, 34.43964333]]]]}, "properties": {"id": "Pakistan_123102132_95818", "height": 3.680413722991943, "hmax": 0.002, "ratio": 0.001, "vulnClass": "none"}}, {"type": "Feature", "geometry": {"type": "MultiPolygon", "coordinates": [[[[71.89838693, 34.4398132], [71.89841532, 34.43989256], [71.89860532, 34.43984634], [71.89862206, 34.43989314], [71.89869362, 34.43987573], [71.89863174, 34.43970276], [71.89858486, 34.43971417], [71.89859796, 34.43975079], [71.8984968, 34.43977541], [71.89850044, 34.43978558], [71.89838693, 34.4398132]]]]}, "properties": {"id": "Pakistan_123102132_428875", "height": 3.686538219451904, "hmax": 0.002, "ratio": 0.001, "vulnClass": "none"}}, {"type": "Feature", "geometry": {"type": "MultiPolygon", "coordinates": [[[[71.89850616, 34.44130308], [71.89849985, 34.44125946], [71.89837556, 34.44127171], [71.89838678, 34.44134922], [71.89843967, 34.44134401], [71.89843476, 34.44131011], [71.89850616, 34.44130308]]]]}, "properties": {"id": "Pakistan_123102132_453515", "height": 2.781338453292847, "hmax": 0.001, "ratio": 0.0, "vulnClass": "none"}}, {"type": "Feature", "geometry": {"type": "MultiPolygon", "coordinates": [[[[71.90092139, 34.4416376], [71.90092423, 34.44155803], [71.90087599, 34.44155686], [71.90087315, 34.44163643], [71.90092139, 34.4416376]]]]}, "properties": {"id": "Pakistan_123102132_256352", "height": 2.802282810211182, "hmax": 0.004, "ratio": 0.001, "vulnClass": "none"}}, {"type": "Feature", "geometry": {"type": "MultiPolygon", "coordinates": [[[[71.90040818, 34.44175674], [71.90114713, 34.4417683], [71.90114471, 34.44187339], [71.90127877, 34.4418755], [71.90128175, 34.44174607], [71.90116914, 34.44174431], [71.90117188, 34.4416249], [71.90132471, 34.44162729], [71.90132654, 34.44154769], [71.90113618, 34.44154471], [71.90113572, 34.44156461], [71.9010955, 34.44156398], [71.9010927, 34.4416856], [71.90088893, 34.44168241], [71.90089, 34.44163598], [71.90081492, 34.4416348], [71.90081579, 34.44159721], [71.90065491, 34.44159469], [71.90065313, 34.44167209], [71.90047885, 34.44166936], [71.90048205, 34.44153005], [71.90041344, 34.44152898], [71.90040818, 34.44175674]]]]}, "properties": {"id": "Pakistan_123102132_182574", "height": 2.548916816711426, "hmax": 0.004, "ratio": 0.002, "vulnClass": "none"}}, {"type": "Feature", "geometry": {"type": "MultiPolygon", "coordinates": [[[[71.90144327, 34.44152276], [71.90144755, 34.44142113], [71.90136829, 34.44141885], [71.90136012, 34.44161209], [71.90156908, 34.44161808], [71.90156567, 34.44169881], [71.90167443, 34.44170194], [71.90167051, 34.44179473], [71.9015162, 34.4417903], [71.90151284, 34.44186983], [71.90173413, 34.44187619], [71.90173488, 34.44185852], [71.90186453, 34.44186225], [71.90186407, 34.44187329], [71.90197926, 34.4418766], [71.90198374, 34.44177056], [71.90172817, 34.44176321], [71.90173255, 34.44165937], [71.90177114, 34.44166048], [71.90177272, 34.44162292], [71.90200739, 34.44162967], [71.90201251, 34.44150815], [71.90195735, 34.44150657], [71.90195623, 34.44153308], [71.90159189, 34.44152261], [71.9015917, 34.44152702], [71.90144327, 34.44152276]]]]}, "properties": {"id": "Pakistan_123102132_197969", "height": 4.823572158813477, "hmax": 0.003, "ratio": 0.001, "vulnClass": "none"}}, {"type": "Feature", "geometry": {"type": "MultiPolygon", "coordinates": [[[[71.90151448, 34.44192317], [71.90151027, 34.44206686], [71.90166575, 34.44206997], [71.90166805, 34.44199139], [71.90162353, 34.44199051], [71.90162544, 34.44192538], [71.90151448, 34.44192317]]]]}, "properties": {"id": "Pakistan_123102132_560757", "height": 3.307268142700195, "hmax": 0.003, "ratio": 0.001, "vulnClass": "none"}}, {"type": "Feature", "geometry": {"type": "MultiPolygon", "coordinates": [[[[71.90167807, 34.44210752], [71.90167353, 34.44220249], [71.90192794, 34.44221075], [71.90192668, 34.44223726], [71.90180349, 34.44223325], [71.90180211, 34.44226197], [71.9015477, 34.4422537], [71.90154348, 34.44234204], [71.9018943, 34.44235344], [71.90188776, 34.44249037], [71.9020538, 34.44249577], [71.90205581, 34.44245381], [71.90199421, 34.4424518], [71.90200329, 34.44226187], [71.90219075, 34.44226796], [71.90219296, 34.44222158], [71.90203496, 34.44221644], [71.9020396, 34.44211927], [71.90167807, 34.44210752]]]]}, "properties": {"id": "Pakistan_123102132_515059", "height": 3.285040378570557, "hmax": 0.003, "ratio": 0.001, "vulnClass": "none"}}, {"type": "Feature", "geometry": {"type": "MultiPolygon", "coordinates": [[[[71.90137843, 34.44246646], [71.90143741, 34.44246748], [71.90143968, 34.44237785], [71.90152815, 34.44237937], [71.90153013, 34.44230097], [71.90143093, 34.44229926], [71.90143236, 34.44224279], [71.9013841, 34.44224196], [71.90137843, 34.44246646]]]]}, "properties": {"id": "Pakistan_123102132_114395", "height": 2.673374652862549, "hmax": 0.001, "ratio": 0.0, "vulnClass": "none"}}, {"type": "Feature", "geometry": {"type": "MultiPolygon", "coordinates": [[[[71.90166177, 34.4421798], [71.90165875, 34.44211354], [71.90145415, 34.4421199], [71.90144879, 34.44200283], [71.90147931, 34.44200188], [71.90147714, 34.44195447], [71.90134322, 34.44195863], [71.90135376, 34.44218938], [71.90166177, 34.4421798]]]]}, "properties": {"id": "Pakistan_123102132_391843", "height": 3.285040378570557, "hmax": 0.001, "ratio": 0.0, "vulnClass": "none"}}, {"type": "Feature", "geometry": {"type": "MultiPolygon", "coordinates": [[[[71.901575, 34.44251201], [71.90155272, 34.44261156], [71.9016046, 34.44261946], [71.90162687, 34.4425199], [71.901575, 34.44251201]]]]}, "properties": {"id": "Pakistan_123102132_222488", "height": 2.951686143875122, "hmax": 0.003, "ratio": 0.001, "vulnClass": "none"}}, {"type": "Feature", "geometry": {"type": "MultiPolygon", "coordinates": [[[[71.90511015, 34.44196869], [71.90466237, 34.44196187], [71.90466123, 34.44201273], [71.90510901, 34.44201955], [71.90511015, 34.44196869]]]]}, "properties": {"id": "Pakistan_123102132_293368", "height": 2.857576608657837, "hmax": 0.002, "ratio": 0.001, "vulnClass": "none"}}, {"type": "Feature", "geometry": {"type": "MultiPolygon", "coordinates": [[[[71.90492931, 34.44208872], [71.90507559, 34.4420931], [71.90507715, 34.44205775], [71.90493087, 34.44205338], [71.90492931, 34.44208872]]]]}, "properties": {"id": "Pakistan_123102132_606858", "height": 3.711775779724121, "hmax": 0.002, "ratio": 0.001, "vulnClass": "none"}}, {"type": "Feature", "geometry": {"type": "MultiPolygon", "coordinates": [[[[71.9052524, 34.44202298], [71.90525452, 34.44197962], [71.90518222, 34.44197722], [71.9051801, 34.44202058], [71.9052524, 34.44202298]]]]}, "properties": {"id": "Pakistan_123102132_330324", "height": 2.812264919281006, "hmax": 0.002, "ratio": 0.001, "vulnClass": "none"}}, {"type": "Feature", "geometry": {"type": "MultiPolygon", "coordinates": [[[[71.90579404, 34.44233787], [71.90561185, 34.44233296], [71.90560909, 34.44240225], [71.90563219, 34.44240288], [71.9056302, 34.4424529], [71.9057893, 34.44245719], [71.90579404, 34.44233787]]]]}, "properties": {"id": "Pakistan_123102132_120678", "height": 2.46034574508667, "hmax": 0.002, "ratio": 0.001, "vulnClass": "none"}}, {"type": "Feature", "geometry": {"type": "MultiPolygon", "coordinates": [[[[71.90562039, 34.4419659], [71.90528518, 34.44196979], [71.90528635, 34.44203835], [71.90538826, 34.44203717], [71.90538862, 34.4420585], [71.90640498, 34.44204665], [71.90640344, 34.44195682], [71.90621036, 34.44195906], [71.9062074, 34.44178655], [71.90639619, 34.44178436], [71.90639452, 34.44168621], [71.90608881, 34.44168978], [71.90608863, 34.44167954], [71.90587141, 34.44168206], [71.90587072, 34.44164144], [71.90560147, 34.44164458], [71.90560143, 34.44164237], [71.90552207, 34.4416433], [71.90552363, 34.44173476], [71.90561641, 34.44173368], [71.90562039, 34.4419659]]]]}, "properties": {"id": "Pakistan_123102132_16150", "height": 5.008040428161621, "hmax": 0.002, "ratio": 0.0, "vulnClass": "none"}}, {"type": "Feature", "geometry": {"type": "MultiPolygon", "coordinates": [[[[71.90566327, 34.44153712], [71.90578925, 34.44153978], [71.9057917, 34.441461], [71.90556228, 34.44145614], [71.90555849, 34.44157773], [71.90566194, 34.44157992], [71.90566327, 34.44153712]]]]}, "properties": {"id": "Pakistan_123102132_148416", "height": 3.311025381088257, "hmax": 0.002, "ratio": 0.001, "vulnClass": "none"}}, {"type": "Feature", "geometry": {"type": "MultiPolygon", "coordinates": [[[[71.90637725, 34.44139233], [71.90620122, 34.44140325], [71.90619098, 34.44129107], [71.90632167, 34.44128296], [71.90631625, 34.44122357], [71.90578661, 34.44125644], [71.90578982, 34.44129163], [71.90582449, 34.44128948], [71.9058289, 34.44133787], [71.90581023, 34.44133903], [71.90582895, 34.44154439], [71.90597831, 34.44153513], [71.90596941, 34.44143754], [71.90607234, 34.44143115], [71.9060908, 34.44163352], [71.90619323, 34.44162716], [71.90618842, 34.44157437], [71.90632602, 34.44156583], [71.90633392, 34.44165245], [71.90642035, 34.44164709], [71.90640403, 34.44146809], [71.90638427, 34.44146931], [71.90637725, 34.44139233]]]]}, "properties": {"id": "Pakistan_123102132_253295", "height": 3.199941873550415, "hmax": 0.002, "ratio": 0.001, "vulnClass": "none"}}, {"type": "Feature", "geometry": {"type": "MultiPolygon", "coordinates": [[[[71.90531193, 34.44123325], [71.90530585, 34.44163578], [71.90544262, 34.44163718], [71.90544476, 34.44149563], [71.9055279, 34.44149649], [71.90552898, 34.44142493], [71.90543512, 34.44142396], [71.90543664, 34.44132301], [71.90559218, 34.44132461], [71.90559376, 34.44122066], [71.90551866, 34.44121989], [71.90551843, 34.44123537], [71.90531193, 34.44123325]]]]}, "properties": {"id": "Pakistan_123102132_302679", "height": 2.669377088546753, "hmax": 0.002, "ratio": 0.001, "vulnClass": "none"}}, {"type": "Feature", "geometry": {"type": "MultiPolygon", "coordinates": [[[[71.90576489, 34.44064306], [71.90576688, 34.44068422], [71.90590345, 34.44067973], [71.90590147, 34.44063858], [71.90576489, 34.44064306]]]]}, "properties": {"id": "Pakistan_123102132_462810", "height": 4.992015838623047, "hmax": 0.002, "ratio": 0.0, "vulnClass": "none"}}, {"type": "Feature", "geometry": {"type": "MultiPolygon", "coordinates": [[[[71.90593396, 34.44027285], [71.90593223, 34.44022644], [71.90586672, 34.44022809], [71.90586368, 34.44014632], [71.90578865, 34.44014821], [71.90579511, 34.440322], [71.90613007, 34.44031353], [71.9061273, 34.44023921], [71.90607223, 34.4402406], [71.9060733, 34.44026933], [71.90593396, 34.44027285]]]]}, "properties": {"id": "Pakistan_123102132_536500", "height": 3.265172004699707, "hmax": 0.002, "ratio": 0.001, "vulnClass": "none"}}, {"type": "Feature", "geometry": {"type": "MultiPolygon", "coordinates": [[[[71.90539394, 34.43981097], [71.90539097, 34.43986537], [71.90543915, 34.43986716], [71.90544212, 34.43981276], [71.90539394, 34.43981097]]]]}, "properties": {"id": "Pakistan_123102132_123806", "height": 3.363794803619385, "hmax": 0.002, "ratio": 0.001, "vulnClass": "none"}}, {"type": "Feature", "geometry": {"type": "MultiPolygon", "coordinates": [[[[71.9054049, 34.43987748], [71.9054076, 34.43996733], [71.9055404, 34.43996461], [71.90553676, 34.43984381], [71.90550995, 34.43984436], [71.90551089, 34.43987531], [71.9054049, 34.43987748]]]]}, "properties": {"id": "Pakistan_123102132_34488", "height": 3.428033351898193, "hmax": 0.002, "ratio": 0.001, "vulnClass": "none"}}, {"type": "Feature", "geometry": {"type": "MultiPolygon", "coordinates": [[[[71.90437106, 34.43989572], [71.90475815, 34.43990821], [71.9047606, 34.43985657], [71.904699, 34.43985458], [71.90470043, 34.4398245], [71.90472989, 34.43982545], [71.90473178, 34.43978569], [71.9047532, 34.43978638], [71.90475848, 34.43967512], [71.90465403, 34.43967174], [71.90465089, 34.439738], [71.90459465, 34.43973618], [71.90459063, 34.43982095], [71.90437494, 34.43981399], [71.90437106, 34.43989572]]]]}, "properties": {"id": "Pakistan_123102132_83651", "height": 4.242994785308838, "hmax": 0.002, "ratio": 0.001, "vulnClass": "none"}}, {"type": "Feature", "geometry": {"type": "MultiPolygon", "coordinates": [[[[71.90431884, 34.43972753], [71.90425883, 34.43972435], [71.9042627, 34.43967453], [71.9043001, 34.43967651], [71.90431296, 34.43951129], [71.90420878, 34.43950577], [71.90420689, 34.43953001], [71.90425356, 34.43953248], [71.90425099, 34.43956552], [71.90418295, 34.43956192], [71.90417147, 34.43970952], [71.90411804, 34.43970669], [71.9041129, 34.43977279], [71.90418502, 34.4397766], [71.90417583, 34.4398947], [71.90430528, 34.43990156], [71.90431884, 34.43972753]]]]}, "properties": {"id": "Pakistan_123102132_231758", "height": 3.623880624771118, "hmax": 0.002, "ratio": 0.001, "vulnClass": "none"}}, {"type": "Feature", "geometry": {"type": "MultiPolygon", "coordinates": [[[[71.90312187, 34.43993867], [71.90320091, 34.43994188], [71.90320539, 34.43986685], [71.90312635, 34.43986364], [71.90312187, 34.43993867]]]]}, "properties": {"id": "Pakistan_123102132_360966", "height": 5.349368572235107, "hmax": 0.001, "ratio": 0.0, "vulnClass": "none"}}, {"type": "Feature", "geometry": {"type": "MultiPolygon", "coordinates": [[[[71.90195233, 34.44077855], [71.90192794, 34.44068557], [71.90154249, 34.44075434], [71.90156078, 34.44082408], [71.9016695, 34.44080468], [71.90167726, 34.44083426], [71.90181819, 34.44080912], [71.90181653, 34.44080278], [71.90195233, 34.44077855]]]]}, "properties": {"id": "Pakistan_123102132_170156", "height": 4.489725589752197, "hmax": 0.003, "ratio": 0.001, "vulnClass": "none"}}, {"type": "Feature", "geometry": {"type": "MultiPolygon", "coordinates": [[[[71.90136652, 34.44049414], [71.90142451, 34.44068098], [71.90167876, 34.44062732], [71.90168421, 34.44064487], [71.90183776, 34.44061245], [71.90181363, 34.4405347], [71.90158959, 34.44058199], [71.90158121, 34.440555], [71.90146794, 34.44057891], [71.90143701, 34.44047926], [71.90136652, 34.44049414]]]]}, "properties": {"id": "Pakistan_123102132_582225", "height": 2.706754684448242, "hmax": 0.004, "ratio": 0.002, "vulnClass": "none"}}, {"type": "Feature", "geometry": {"type": "MultiPolygon", "coordinates": [[[[71.90135601, 34.4412035], [71.90136836, 34.44100597], [71.90113181, 34.44099592], [71.90111948, 34.44119343], [71.90135601, 34.4412035]]]]}, "properties": {"id": "Pakistan_123102132_367088", "height": 3.726436853408813, "hmax": 0.004, "ratio": 0.001, "vulnClass": "none"}}, {"type": "Feature", "geometry": {"type": "MultiPolygon", "coordinates": [[[[71.90068065, 34.44124037], [71.90044789, 34.44123074], [71.90044311, 34.44130909], [71.90067588, 34.44131874], [71.90068065, 34.44124037]]]]}, "properties": {"id": "Pakistan_123102132_225486", "height": 2.740361452102661, "hmax": 0.004, "ratio": 0.002, "vulnClass": "none"}}, {"type": "Feature", "geometry": {"type": "MultiPolygon", "coordinates": [[[[71.90023218, 34.44150939], [71.90042259, 34.4415112], [71.90042387, 34.44141939], [71.90028868, 34.44141811], [71.90028946, 34.44136173], [71.90032007, 34.44136202], [71.90032054, 34.44132885], [71.90023472, 34.44132803], [71.90023218, 34.44150939]]]]}, "properties": {"id": "Pakistan_123102132_557648", "height": 3.287880659103394, "hmax": 0.001, "ratio": 0.0, "vulnClass": "none"}}, {"type": "Feature", "geometry": {"type": "MultiPolygon", "coordinates": [[[[71.90038136, 34.44117373], [71.90038423, 34.44112627], [71.90028637, 34.44112224], [71.90028349, 34.44116969], [71.90038136, 34.44117373]]]]}, "properties": {"id": "Pakistan_123102132_56074", "height": 2.84997034072876, "hmax": 0.001, "ratio": 0.0, "vulnClass": "none"}}, {"type": "Feature", "geometry": {"type": "MultiPolygon", "coordinates": [[[[71.8986815, 34.44130851], [71.89865308, 34.4411573], [71.89851273, 34.44117523], [71.89854115, 34.44132645], [71.8986815, 34.44130851]]]]}, "properties": {"id": "Pakistan_123102132_142261", "height": 3.531594753265381, "hmax": 0.001, "ratio": 0.0, "vulnClass": "none"}}, {"type": "Feature", "geometry": {"type": "MultiPolygon", "coordinates": [[[[71.89982983, 34.44024801], [71.89999298, 34.44026162], [71.90001125, 34.44011272], [71.89984809, 34.44009912], [71.89982983, 34.44024801]]]]}, "properties": {"id": "Pakistan_123102132_554696", "height": 4.043055534362793, "hmax": 0.002, "ratio": 0.001, "vulnClass": "none"}}, {"type": "Feature", "geometry": {"type": "MultiPolygon", "coordinates": [[[[71.89950743, 34.4401742], [71.89982259, 34.44022505], [71.8998456, 34.4401281], [71.89977585, 34.44011684], [71.89977433, 34.44012323], [71.89956767, 34.44008988], [71.8995884, 34.44000253], [71.89954965, 34.43999628], [71.89950743, 34.4401742]]]]}, "properties": {"id": "Pakistan_123102132_293317", "height": 2.500246047973633, "hmax": 0.002, "ratio": 0.001, "vulnClass": "none"}}, {"type": "Feature", "geometry": {"type": "MultiPolygon", "coordinates": [[[[71.89923922, 34.44007259], [71.89912385, 34.44006198], [71.8991172, 34.4401112], [71.89923257, 34.4401218], [71.89923922, 34.44007259]]]]}, "properties": {"id": "Pakistan_123102132_508953", "height": 2.768136978149414, "hmax": 0.002, "ratio": 0.001, "vulnClass": "none"}}, {"type": "Feature", "geometry": {"type": "MultiPolygon", "coordinates": [[[[71.89890177, 34.44007896], [71.8989715, 34.44007817], [71.89897192, 34.44010355], [71.89911405, 34.44010195], [71.89911346, 34.44006656], [71.89907324, 34.44006701], [71.89907005, 34.4398746], [71.89903787, 34.43987496], [71.89903842, 34.43990814], [71.89889897, 34.43990971], [71.89890177, 34.44007896]]]]}, "properties": {"id": "Pakistan_123102132_302624", "height": 3.037650108337402, "hmax": 0.002, "ratio": 0.001, "vulnClass": "none"}}, {"type": "Feature", "geometry": {"type": "MultiPolygon", "coordinates": [[[[71.89921488, 34.4397743], [71.89900054, 34.43978016], [71.89899868, 34.43973376], [71.89896652, 34.43973464], [71.8989699, 34.43981861], [71.89880771, 34.43982304], [71.89880966, 34.43987165], [71.89921835, 34.43986047], [71.89921488, 34.4397743]]]]}, "properties": {"id": "Pakistan_123102132_86594", "height": 3.596037864685059, "hmax": 0.002, "ratio": 0.001, "vulnClass": "none"}}, {"type": "Feature", "geometry": {"type": "MultiPolygon", "coordinates": [[[[71.8987471, 34.43967148], [71.8987516, 34.43975197], [71.89883725, 34.43974871], [71.89883552, 34.43971781], [71.89890119, 34.4397153], [71.89890286, 34.43974517], [71.89895104, 34.43974333], [71.89894658, 34.43966387], [71.8987471, 34.43967148]]]]}, "properties": {"id": "Pakistan_123102132_16085", "height": 2.977660655975342, "hmax": 0.002, "ratio": 0.001, "vulnClass": "none"}}, {"type": "Feature", "geometry": {"type": "MultiPolygon", "coordinates": [[[[71.89892946, 34.43951565], [71.89892625, 34.43963725], [71.89906423, 34.43963974], [71.89906745, 34.43951813], [71.89892946, 34.43951565]]]]}, "properties": {"id": "Pakistan_123102132_166977", "height": 3.140513181686401, "hmax": 0.002, "ratio": 0.001, "vulnClass": "none"}}, {"type": "Feature", "geometry": {"type": "MultiPolygon", "coordinates": [[[[71.89951107, 34.43970643], [71.89946828, 34.43970456], [71.89946245, 34.439795], [71.89950525, 34.43979687], [71.89951107, 34.43970643]]]]}, "properties": {"id": "Pakistan_123102132_182563", "height": 3.610486507415771, "hmax": 0.0, "ratio": 0.0, "vulnClass": "none"}}, {"type": "Feature", "geometry": {"type": "MultiPolygon", "coordinates": [[[[71.89971064, 34.43984784], [71.89967482, 34.43993267], [71.89986858, 34.43998832], [71.89988357, 34.43995281], [71.89990271, 34.43995831], [71.89992353, 34.43990899], [71.89971064, 34.43984784]]]]}, "properties": {"id": "Pakistan_123102132_545572", "height": 3.316437959671021, "hmax": 0.0, "ratio": 0.0, "vulnClass": "none"}}, {"type": "Feature", "geometry": {"type": "MultiPolygon", "coordinates": [[[[71.90075757, 34.44016613], [71.90066122, 34.44016245], [71.90065094, 34.44034566], [71.90081688, 34.44035199], [71.90082877, 34.44014009], [71.90075918, 34.44013743], [71.90075757, 34.44016613]]]]}, "properties": {"id": "Pakistan_123102132_105062", "height": 3.971197128295898, "hmax": 0.006, "ratio": 0.002, "vulnClass": "none"}}, {"type": "Feature", "geometry": {"type": "MultiPolygon", "coordinates": [[[[71.90082771, 34.44034124], [71.90096713, 34.44034346], [71.90097071, 34.44019089], [71.90083129, 34.44018866], [71.90082771, 34.44034124]]]]}, "properties": {"id": "Pakistan_123102132_213432", "height": 4.07199764251709, "hmax": 0.006, "ratio": 0.002, "vulnClass": "none"}}, {"type": "Feature", "geometry": {"type": "MultiPolygon", "coordinates": [[[[71.90121419, 34.44016796], [71.90117174, 34.4401643], [71.90116785, 34.44019493], [71.9012103, 34.4401986], [71.90121419, 34.44016796]]]]}, "properties": {"id": "Pakistan_123102132_185697", "height": 2.727777719497681, "hmax": 0.006, "ratio": 0.002, "vulnClass": "none"}}, {"type": "Feature", "geometry": {"type": "MultiPolygon", "coordinates": [[[[71.90137386, 34.44015138], [71.90139323, 34.44046024], [71.90148635, 34.44045627], [71.90147767, 34.44048684], [71.90148955, 34.4405082], [71.90154629, 34.44050578], [71.90154351, 34.44046141], [71.90149557, 34.44045215], [71.90150276, 34.44042681], [71.90159237, 34.44042299], [71.90155392, 34.44035384], [71.90160636, 34.44035161], [71.90160895, 34.44039291], [71.90160241, 34.44041593], [71.90166475, 34.44041327], [71.90172745, 34.44052602], [71.90175626, 34.44051512], [71.90159787, 34.44023031], [71.90149562, 34.44023467], [71.90148709, 34.4402647], [71.90144895, 34.44025733], [71.90146296, 34.44020797], [71.90142602, 34.44020084], [71.90148898, 34.44017702], [71.90150829, 34.44021175], [71.90154053, 34.44019955], [71.9015105, 34.44014555], [71.90137386, 34.44015138]]]]}, "properties": {"id": "Pakistan_123102132_28389", "height": 2.448289155960083, "hmax": 0.005, "ratio": 0.002, "vulnClass": "none"}}, {"type": "Feature", "geometry": {"type": "MultiPolygon", "coordinates": [[[[71.90221067, 34.43972391], [71.90202728, 34.4397183], [71.90202083, 34.43986189], [71.90208243, 34.43986377], [71.90208531, 34.43979971], [71.90220709, 34.43980344], [71.90221067, 34.43972391]]]]}, "properties": {"id": "Pakistan_123102132_163821", "height": 2.733949184417725, "hmax": 0.002, "ratio": 0.001, "vulnClass": "none"}}, {"type": "Feature", "geometry": {"type": "MultiPolygon", "coordinates": [[[[71.90175062, 34.43978593], [71.90174407, 34.43961014], [71.9016837, 34.43961167], [71.90169023, 34.43978746], [71.90175062, 34.43978593]]]]}, "properties": {"id": "Pakistan_123102132_185703", "height": 4.016625881195068, "hmax": 0.002, "ratio": 0.001, "vulnClass": "none"}}, {"type": "Feature", "geometry": {"type": "MultiPolygon", "coordinates": [[[[71.90213055, 34.43968365], [71.90212707, 34.43958763], [71.90198236, 34.43959119], [71.90198512, 34.43966732], [71.90204139, 34.43966594], [71.90204211, 34.43968583], [71.90213055, 34.43968365]]]]}, "properties": {"id": "Pakistan_123102132_444332", "height": 2.671060085296631, "hmax": 0.002, "ratio": 0.001, "vulnClass": "none"}}, {"type": "Feature", "geometry": {"type": "MultiPolygon", "coordinates": [[[[71.90238346, 34.43974372], [71.90238109, 34.43968406], [71.9022698, 34.43968707], [71.90227217, 34.43974673], [71.90238346, 34.43974372]]]]}, "properties": {"id": "Pakistan_123102132_262588", "height": 2.568342208862305, "hmax": 0.002, "ratio": 0.001, "vulnClass": "none"}}, {"type": "Feature", "geometry": {"type": "MultiPolygon", "coordinates": [[[[71.90215774, 34.43918947], [71.90216681, 34.43954324], [71.90243364, 34.43953858], [71.90243154, 34.43945677], [71.90228803, 34.43945928], [71.90228259, 34.43924701], [71.90238318, 34.43924525], [71.90238614, 34.43936023], [71.90243976, 34.43935929], [71.90243769, 34.43927872], [71.90249399, 34.43927774], [71.90249606, 34.43935831], [71.90259654, 34.43935655], [71.90259206, 34.43918187], [71.90215774, 34.43918947]]]]}, "properties": {"id": "Pakistan_123102132_197973", "height": 4.15726900100708, "hmax": 0.002, "ratio": 0.001, "vulnClass": "none"}}, {"type": "Feature", "geometry": {"type": "MultiPolygon", "coordinates": [[[[71.89949823, 34.43821561], [71.89949242, 34.43836917], [71.89957281, 34.43837124], [71.89957126, 34.43841215], [71.89971328, 34.43841579], [71.89971135, 34.43846662], [71.89984934, 34.43847017], [71.89985426, 34.43833978], [71.89975512, 34.43833723], [71.89975971, 34.43821569], [71.89965788, 34.43821307], [71.89965505, 34.43828821], [71.89960014, 34.4382868], [71.89960274, 34.43821829], [71.89949823, 34.43821561]]]]}, "properties": {"id": "Pakistan_123102132_9959", "height": 3.063953161239624, "hmax": 0.0, "ratio": 0.0, "vulnClass": "none"}}, {"type": "Feature", "geometry": {"type": "MultiPolygon", "coordinates": [[[[71.89952305, 34.43840458], [71.89952523, 34.43845761], [71.89970876, 34.4384525], [71.89970732, 34.43841714], [71.89956932, 34.43842099], [71.8995686, 34.43840331], [71.89952305, 34.43840458]]]]}, "properties": {"id": "Pakistan_123102132_410398", "height": 2.537585735321045, "hmax": 0.0, "ratio": 0.0, "vulnClass": "none"}}, {"type": "Feature", "geometry": {"type": "MultiPolygon", "coordinates": [[[[71.89943329, 34.43839275], [71.89943547, 34.43845906], [71.89949444, 34.43845775], [71.89949226, 34.43839143], [71.89943329, 34.43839275]]]]}, "properties": {"id": "Pakistan_123102132_40571", "height": 2.757449626922607, "hmax": 0.0, "ratio": 0.0, "vulnClass": "none"}}, {"type": "Feature", "geometry": {"type": "MultiPolygon", "coordinates": [[[[71.89911646, 34.43802534], [71.89914629, 34.43844419], [71.89925855, 34.43843876], [71.89924882, 34.43830208], [71.89948137, 34.43829081], [71.89946363, 34.4380417], [71.89959857, 34.43803517], [71.89961177, 34.43822035], [71.89971471, 34.43821536], [71.89969918, 34.43799711], [71.89911646, 34.43802534]]]]}, "properties": {"id": "Pakistan_123102132_336389", "height": 3.095743894577026, "hmax": 0.0, "ratio": 0.0, "vulnClass": "none"}}, {"type": "Feature", "geometry": {"type": "MultiPolygon", "coordinates": [[[[71.90266211, 34.43903256], [71.90273456, 34.43903488], [71.90279621, 34.43906045], [71.90279455, 34.43909558], [71.90287627, 34.4390982], [71.90287461, 34.43913354], [71.90298571, 34.43913711], [71.90299254, 34.43899226], [71.90296903, 34.43899151], [71.90285922, 34.43894596], [71.90285372, 34.43894579], [71.90282385, 34.43899476], [71.90278987, 34.43899367], [71.902723, 34.43896593], [71.90268786, 34.43896481], [71.90266341, 34.4390049], [71.90266211, 34.43903256]]]]}, "properties": {"id": "Pakistan_123102132_179493", "height": 3.516076803207397, "hmax": 0.001, "ratio": 0.0, "vulnClass": "none"}}, {"type": "Feature", "geometry": {"type": "MultiPolygon", "coordinates": [[[[71.903214, 34.43917151], [71.90321211, 34.43899455], [71.90307801, 34.43899553], [71.90307856, 34.4390464], [71.90300745, 34.43904692], [71.90300878, 34.439173], [71.903214, 34.43917151]]]]}, "properties": {"id": "Pakistan_123102132_560768", "height": 3.420600652694702, "hmax": 0.001, "ratio": 0.0, "vulnClass": "none"}}, {"type": "Feature", "geometry": {"type": "MultiPolygon", "coordinates": [[[[71.90416131, 34.4392083], [71.90408582, 34.43919473], [71.90405625, 34.43930666], [71.90413173, 34.43932022], [71.90416131, 34.4392083]]]]}, "properties": {"id": "Pakistan_123102132_569899", "height": 4.260743141174316, "hmax": 0.002, "ratio": 0.001, "vulnClass": "none"}}, {"type": "Feature", "geometry": {"type": "MultiPolygon", "coordinates": [[[[71.90430421, 34.43904055], [71.90413221, 34.4395266], [71.90477129, 34.43952885], [71.90476916, 34.43994029], [71.90540717, 34.43994254], [71.90533971, 34.43978834], [71.90544915, 34.43981468], [71.90553319, 34.4395772], [71.90521197, 34.43957605], [71.90524478, 34.43965104], [71.90519842, 34.43966483], [71.90515598, 34.43956781], [71.905101, 34.43956762], [71.90510038, 34.43968605], [71.90504373, 34.43984614], [71.90497349, 34.43984589], [71.90497419, 34.43971165], [71.90508043, 34.43968003], [71.90504988, 34.43961019], [71.90489444, 34.43957277], [71.90489468, 34.43952638], [71.90470039, 34.43947961], [71.90468406, 34.43944227], [71.90436673, 34.43944116], [71.90436691, 34.43940549], [71.90438245, 34.43936158], [71.9062556, 34.43936817], [71.90608987, 34.43898932], [71.9059623, 34.43898887], [71.905962, 34.43904639], [71.90430421, 34.43904055]]]]}, "properties": {"id": "Pakistan_123102132_22344", "height": 9.444067001342773, "hmax": 0.002, "ratio": 0.0, "vulnClass": "none"}}, {"type": "Feature", "geometry": {"type": "MultiPolygon", "coordinates": [[[[71.90406681, 34.43850809], [71.90374403, 34.43853933], [71.90375366, 34.43860697], [71.9039124, 34.43859161], [71.90399004, 34.43913712], [71.90410381, 34.43912611], [71.90411424, 34.43919944], [71.90416451, 34.43919457], [71.90406681, 34.43850809]]]]}, "properties": {"id": "Pakistan_123102132_382513", "height": 3.308475494384766, "hmax": 0.001, "ratio": 0.0, "vulnClass": "none"}}, {"type": "Feature", "geometry": {"type": "MultiPolygon", "coordinates": [[[[71.90581388, 34.43888], [71.90580072, 34.43883947], [71.90575818, 34.43884887], [71.90577134, 34.4388894], [71.90581388, 34.43888]]]]}, "properties": {"id": "Pakistan_123102132_62321", "height": 2.696517944335938, "hmax": 0.002, "ratio": 0.001, "vulnClass": "none"}}, {"type": "Feature", "geometry": {"type": "MultiPolygon", "coordinates": [[[[71.905757, 34.4388576], [71.90575348, 34.43878693], [71.90571063, 34.43878839], [71.90571416, 34.43885905], [71.905757, 34.4388576]]]]}, "properties": {"id": "Pakistan_123102132_133094", "height": 3.265660524368286, "hmax": 0.002, "ratio": 0.001, "vulnClass": "none"}}, {"type": "Feature", "geometry": {"type": "MultiPolygon", "coordinates": [[[[71.90576206, 34.43879565], [71.9058639, 34.43879327], [71.90586126, 34.43871671], [71.90575942, 34.43871909], [71.90576206, 34.43879565]]]]}, "properties": {"id": "Pakistan_123102132_376281", "height": 2.912588119506836, "hmax": 0.002, "ratio": 0.001, "vulnClass": "none"}}, {"type": "Feature", "geometry": {"type": "MultiPolygon", "coordinates": [[[[71.90649744, 34.43816845], [71.90676871, 34.43815534], [71.90678323, 34.43835951], [71.90773215, 34.4383136], [71.90774767, 34.43853185], [71.90822587, 34.43850872], [71.90802021, 34.4383736], [71.90824302, 34.43836284], [71.90813316, 34.43833267], [71.90813028, 34.43829213], [71.90822639, 34.43828749], [71.90808485, 34.43824862], [71.90810816, 34.43819087], [71.90771576, 34.43808312], [71.907721, 34.43815671], [71.90766843, 34.43828692], [71.90712361, 34.43813731], [71.90740483, 34.43812371], [71.9074017, 34.43807962], [71.90723062, 34.4380879], [71.90722106, 34.43795342], [71.90710612, 34.43795898], [71.90711245, 34.43804798], [71.90698803, 34.43801381], [71.90698189, 34.43792738], [71.90664904, 34.43794348], [71.90665766, 34.43806473], [71.90637433, 34.43807844], [71.90640433, 34.43850034], [71.90675182, 34.43848355], [71.90674016, 34.43831956], [71.90650897, 34.43833074], [71.90649744, 34.43816845]]]]}, "properties": {"id": "Pakistan_123102132_441276", "height": 3.600810289382935, "hmax": 0.001, "ratio": 0.0, "vulnClass": "none"}}, {"type": "Feature", "geometry": {"type": "MultiPolygon", "coordinates": [[[[71.90941483, 34.43762853], [71.90941483, 34.43773692], [71.90946579, 34.43773692], [71.90946579, 34.43775462], [71.9095248, 34.43775462], [71.9095248, 34.43762853], [71.90941483, 34.43762853]]]]}, "properties": {"id": "Pakistan_123102132_364162", "height": 3.426983118057251, "hmax": 0.0, "ratio": 0.0, "vulnClass": "none"}}, {"type": "Feature", "geometry": {"type": "MultiPolygon", "coordinates": [[[[71.9084035, 34.4386981], [71.90840335, 34.4387809], [71.90866889, 34.43878125], [71.90866864, 34.43891176], [71.90912998, 34.43891238], [71.90913038, 34.43869902], [71.9084035, 34.4386981]]]]}, "properties": {"id": "Pakistan_123102132_19241", "height": 5.103009223937988, "hmax": 0.002, "ratio": 0.0, "vulnClass": "none"}}, {"type": "Feature", "geometry": {"type": "MultiPolygon", "coordinates": [[[[71.90892504, 34.43891863], [71.90879504, 34.438921], [71.90879883, 34.43906251], [71.90872109, 34.43906392], [71.9087196, 34.43900865], [71.90869279, 34.43900914], [71.90869588, 34.43912411], [71.9090712, 34.43911726], [71.90906874, 34.4390254], [71.90892796, 34.43902796], [71.90892504, 34.43891863]]]]}, "properties": {"id": "Pakistan_123102132_413517", "height": 2.477872610092163, "hmax": 0.002, "ratio": 0.001, "vulnClass": "none"}}, {"type": "Feature", "geometry": {"type": "MultiPolygon", "coordinates": [[[[71.91001677, 34.43916237], [71.91000625, 34.43883626], [71.90993524, 34.43883781], [71.9099391, 34.43895718], [71.90972736, 34.43896183], [71.90972357, 34.43884467], [71.90988975, 34.43884102], [71.90988725, 34.43876366], [71.90966343, 34.43876856], [71.90966589, 34.43884491], [71.90949703, 34.43884862], [71.90950002, 34.43894146], [71.90961128, 34.43893901], [71.90961496, 34.43905278], [71.90952383, 34.43905477], [71.90952702, 34.43915323], [71.90968109, 34.43914984], [71.90968209, 34.43918079], [71.90973172, 34.4391797], [71.90973136, 34.43916864], [71.91001677, 34.43916237]]]]}, "properties": {"id": "Pakistan_123102132_388863", "height": 4.690415382385254, "hmax": 0.002, "ratio": 0.0, "vulnClass": "none"}}, {"type": "Feature", "geometry": {"type": "MultiPolygon", "coordinates": [[[[71.90956046, 34.43932959], [71.90955525, 34.43961931], [71.90991191, 34.43962367], [71.90991495, 34.43945455], [71.90977282, 34.43945282], [71.90977177, 34.43951136], [71.90966987, 34.43951011], [71.9096713, 34.43943049], [71.90998773, 34.43943436], [71.90998956, 34.43933263], [71.91022286, 34.43933548], [71.91022131, 34.43942174], [71.91035271, 34.43942334], [71.91035223, 34.43944988], [71.91045413, 34.43945113], [71.91045891, 34.43918574], [71.90995208, 34.43917954], [71.9099493, 34.43933435], [71.90956046, 34.43932959]]]]}, "properties": {"id": "Pakistan_123102132_524286", "height": 6.18766450881958, "hmax": 0.002, "ratio": 0.0, "vulnClass": "none"}}, {"type": "Feature", "geometry": {"type": "MultiPolygon", "coordinates": [[[[71.90918833, 34.43926333], [71.90918988, 34.43930874], [71.90927832, 34.4393067], [71.90927677, 34.43926128], [71.90918833, 34.43926333]]]]}, "properties": {"id": "Pakistan_123102132_278036", "height": 3.567811250686646, "hmax": 0.002, "ratio": 0.001, "vulnClass": "none"}}, {"type": "Feature", "geometry": {"type": "MultiPolygon", "coordinates": [[[[71.90789873, 34.43856507], [71.90791417, 34.43872777], [71.9078382, 34.43873267], [71.90785219, 34.43887998], [71.9079215, 34.4388755], [71.90793466, 34.43901402], [71.90798128, 34.439011], [71.90798482, 34.43904838], [71.90825011, 34.43903125], [71.90823424, 34.43886415], [71.9082689, 34.43886191], [71.90825429, 34.43870801], [71.90825162, 34.43870818], [71.90824503, 34.43863877], [71.90821837, 34.43864049], [71.9082093, 34.43854501], [71.90789873, 34.43856507]]]]}, "properties": {"id": "Pakistan_123102132_19237", "height": 3.701626777648926, "hmax": 0.002, "ratio": 0.001, "vulnClass": "none"}}, {"type": "Feature", "geometry": {"type": "MultiPolygon", "coordinates": [[[[71.90720643, 34.43873917], [71.90742636, 34.43874044], [71.90742602, 34.43878026], [71.90747698, 34.43878055], [71.90747735, 34.43873762], [71.90756585, 34.43873813], [71.90756793, 34.4384935], [71.90671503, 34.43848858], [71.90671409, 34.43859918], [71.90720759, 34.43860203], [71.90720643, 34.43873917]]]]}, "properties": {"id": "Pakistan_123102132_133102", "height": 4.342818260192871, "hmax": 0.002, "ratio": 0.001, "vulnClass": "none"}}, {"type": "Feature", "geometry": {"type": "MultiPolygon", "coordinates": [[[[71.90644571, 34.43893373], [71.90656236, 34.43893161], [71.90655763, 34.43875472], [71.906441, 34.43875684], [71.90644571, 34.43893373]]]]}, "properties": {"id": "Pakistan_123102132_395022", "height": 4.284957408905029, "hmax": 0.002, "ratio": 0.001, "vulnClass": "none"}}, {"type": "Feature", "geometry": {"type": "MultiPolygon", "coordinates": [[[[71.9064626, 34.43900449], [71.90650422, 34.43956955], [71.90657637, 34.43956594], [71.9065716, 34.43950117], [71.90668243, 34.43949562], [71.90668551, 34.4395375], [71.90698572, 34.43952246], [71.90703362, 34.43943759], [71.90703224, 34.43941878], [71.90704995, 34.43938739], [71.90718627, 34.43938057], [71.90717339, 34.43920557], [71.90708926, 34.43920979], [71.90708608, 34.43916659], [71.90712131, 34.43916482], [71.90714986, 34.43917578], [71.9072416, 34.43917119], [71.9071468, 34.43913479], [71.90723224, 34.43913051], [71.90722919, 34.439089], [71.90719063, 34.4390742], [71.90707029, 34.43908022], [71.90706785, 34.43904696], [71.90702914, 34.4390321], [71.90703545, 34.43902091], [71.90657273, 34.43904407], [71.90656034, 34.43903931], [71.90655743, 34.43899974], [71.9064626, 34.43900449]]]]}, "properties": {"id": "Pakistan_123102132_321109", "height": 4.634627342224121, "hmax": 0.002, "ratio": 0.0, "vulnClass": "none"}}, {"type": "Feature", "geometry": {"type": "MultiPolygon", "coordinates": [[[[71.90722023, 34.43900677], [71.90722784, 34.43913609], [71.90729612, 34.43913336], [71.90730444, 34.4392746], [71.90745022, 34.43926876], [71.90743781, 34.4390578], [71.9072719, 34.43906443], [71.9072684, 34.43900485], [71.90722023, 34.43900677]]]]}, "properties": {"id": "Pakistan_123102132_388844", "height": 3.388523817062378, "hmax": 0.002, "ratio": 0.001, "vulnClass": "none"}}, {"type": "Feature", "geometry": {"type": "MultiPolygon", "coordinates": [[[[71.90663532, 34.43950311], [71.90657775, 34.43950217], [71.90657687, 34.43953892], [71.90663444, 34.43953985], [71.90663532, 34.43950311]]]]}, "properties": {"id": "Pakistan_123102132_77543", "height": 3.456926345825195, "hmax": 0.002, "ratio": 0.001, "vulnClass": "none"}}, {"type": "Feature", "geometry": {"type": "MultiPolygon", "coordinates": [[[[71.90676894, 34.43972168], [71.90716831, 34.43971299], [71.90716409, 34.43958124], [71.90707564, 34.43958316], [71.9070766, 34.43961323], [71.90697475, 34.43961545], [71.90697534, 34.43963401], [71.906777, 34.43963831], [71.90677796, 34.4396684], [71.90657426, 34.43967283], [71.90657539, 34.4397082], [71.9065057, 34.43970972], [71.90651393, 34.43996698], [71.9067766, 34.43996128], [71.90676894, 34.43972168]]]]}, "properties": {"id": "Pakistan_123102132_185735", "height": 2.535429239273071, "hmax": 0.002, "ratio": 0.001, "vulnClass": "none"}}, {"type": "Feature", "geometry": {"type": "MultiPolygon", "coordinates": [[[[71.90711217, 34.44001122], [71.90729185, 34.44000932], [71.90728951, 34.43985892], [71.90722783, 34.43985958], [71.90722883, 34.43992372], [71.90711083, 34.43992496], [71.90711217, 34.44001122]]]]}, "properties": {"id": "Pakistan_123102132_89775", "height": 3.446871280670166, "hmax": 0.001, "ratio": 0.0, "vulnClass": "none"}}, {"type": "Feature", "geometry": {"type": "MultiPolygon", "coordinates": [[[[71.90687315, 34.44032152], [71.90687082, 34.44037897], [71.9069244, 34.44038045], [71.90692673, 34.440323], [71.90687315, 34.44032152]]]]}, "properties": {"id": "Pakistan_123102132_111348", "height": 2.816113233566284, "hmax": 0.001, "ratio": 0.0, "vulnClass": "none"}}, {"type": "Feature", "geometry": {"type": "MultiPolygon", "coordinates": [[[[71.90665237, 34.44078803], [71.90664704, 34.44078839], [71.90666107, 34.44092939], [71.9068538, 34.44085111], [71.90687391, 34.44078853], [71.90724386, 34.4407635], [71.9072312, 34.44063606], [71.9070462, 34.44064857], [71.90702305, 34.44041589], [71.90711228, 34.44043538], [71.90712655, 34.44039096], [71.90705858, 34.44039556], [71.90704752, 34.44028437], [71.90692723, 34.4402925], [71.90697277, 34.44036874], [71.90697359, 34.44037698], [71.90693362, 34.44037968], [71.90695119, 34.44055633], [71.90678551, 34.44056753], [71.9068599, 34.44033599], [71.9066931, 34.44029954], [71.90668178, 34.44033478], [71.90659447, 34.44034069], [71.90660408, 34.44043737], [71.9066952, 34.4404312], [71.90663007, 34.44063391], [71.90679509, 34.44066998], [71.90664166, 34.44068036], [71.90665237, 34.44078803]]]]}, "properties": {"id": "Pakistan_123102132_496647", "height": 3.148691654205322, "hmax": 0.002, "ratio": 0.001, "vulnClass": "none"}}, {"type": "Feature", "geometry": {"type": "MultiPolygon", "coordinates": [[[[71.91019439, 34.44154986], [71.91019624, 34.44129443], [71.90972955, 34.44129216], [71.9097278, 34.4415343], [71.9099236, 34.44153526], [71.90992413, 34.44146122], [71.91007969, 34.44146197], [71.91007906, 34.44154929], [71.91019439, 34.44154986]]]]}, "properties": {"id": "Pakistan_123102132_560806", "height": 2.586136341094971, "hmax": 0.001, "ratio": 0.0, "vulnClass": "none"}}, {"type": "Feature", "geometry": {"type": "MultiPolygon", "coordinates": [[[[71.91003876, 34.44121154], [71.91013783, 34.4412081], [71.91013563, 34.44116509], [71.91003657, 34.44116853], [71.91003876, 34.44121154]]]]}, "properties": {"id": "Pakistan_123102132_551673", "height": 3.086408853530884, "hmax": 0.001, "ratio": 0.0, "vulnClass": "none"}}, {"type": "Feature", "geometry": {"type": "MultiPolygon", "coordinates": [[[[71.91004866, 34.44096422], [71.90997629, 34.4409657], [71.90997388, 34.44088612], [71.90984943, 34.44088868], [71.90984762, 34.44082899], [71.90967722, 34.44083249], [71.90968777, 34.44118178], [71.90977355, 34.44118001], [71.90977228, 34.44113801], [71.9099894, 34.44113355], [71.90998793, 34.44108492], [71.91005227, 34.44108359], [71.91004866, 34.44096422]]]]}, "properties": {"id": "Pakistan_123102132_582284", "height": 3.852930784225464, "hmax": 0.001, "ratio": 0.0, "vulnClass": "none"}}, {"type": "Feature", "geometry": {"type": "MultiPolygon", "coordinates": [[[[71.91015487, 34.44108313], [71.91087205, 34.44112262], [71.91088238, 34.44099489], [71.91077671, 34.44098907], [71.91077296, 34.44103532], [71.91052195, 34.4410215], [71.9105323, 34.44089377], [71.91059104, 34.44089701], [71.910593, 34.44087278], [71.91083066, 34.44088587], [71.91085705, 34.44055994], [71.91073688, 34.44055332], [71.91071941, 34.44076914], [71.91065799, 34.44076576], [71.91065282, 34.44082962], [71.91050329, 34.44082139], [71.9105253, 34.44054944], [71.91046122, 34.44054591], [71.91044847, 34.44070334], [71.90984498, 34.44067011], [71.9098366, 34.44077362], [71.909882, 34.44077612], [71.90987932, 34.44080915], [71.91017573, 34.44082547], [71.91015487, 34.44108313]]]]}, "properties": {"id": "Pakistan_123102132_385789", "height": 3.086857080459595, "hmax": 0.002, "ratio": 0.001, "vulnClass": "none"}}, {"type": "Feature", "geometry": {"type": "MultiPolygon", "coordinates": [[[[71.90973871, 34.44010209], [71.90973569, 34.44002918], [71.9096071, 34.4400328], [71.90961231, 34.44015874], [71.90977306, 34.44015421], [71.90977086, 34.44010119], [71.90973871, 34.44010209]]]]}, "properties": {"id": "Pakistan_123102132_447477", "height": 2.570245265960693, "hmax": 0.002, "ratio": 0.001, "vulnClass": "none"}}, {"type": "Feature", "geometry": {"type": "MultiPolygon", "coordinates": [[[[71.90935416, 34.44050549], [71.90935159, 34.44042149], [71.90914519, 34.44042578], [71.90914776, 34.44050978], [71.90935416, 34.44050549]]]]}, "properties": {"id": "Pakistan_123102132_101998", "height": 2.59046459197998, "hmax": 0.002, "ratio": 0.001, "vulnClass": "none"}}, {"type": "Feature", "geometry": {"type": "MultiPolygon", "coordinates": [[[[71.90876157, 34.44018206], [71.90936766, 34.44018811], [71.90936728, 34.44021345], [71.90942628, 34.44021404], [71.90942703, 34.44016317], [71.90937876, 34.44016269], [71.90938198, 34.43994492], [71.90933247, 34.43994443], [71.90933139, 34.44001843], [71.90929238, 34.44001804], [71.90929363, 34.43993399], [71.90913149, 34.43993236], [71.90913168, 34.43991909], [71.90904586, 34.43991823], [71.90904495, 34.43998016], [71.90887454, 34.43997845], [71.90887565, 34.43990325], [71.90883811, 34.43990287], [71.90883635, 34.4400223], [71.90872371, 34.44002117], [71.90872312, 34.44006098], [71.90876335, 34.44006139], [71.90876157, 34.44018206]]]]}, "properties": {"id": "Pakistan_123102132_194948", "height": 4.318412780761719, "hmax": 0.002, "ratio": 0.001, "vulnClass": "none"}}, {"type": "Feature", "geometry": {"type": "MultiPolygon", "coordinates": [[[[71.90863714, 34.43969633], [71.90864127, 34.43981347], [71.90848316, 34.43981727], [71.90848651, 34.4399123], [71.90883758, 34.43990387], [71.90883727, 34.43989503], [71.90925802, 34.43988493], [71.90925869, 34.43990382], [71.90928281, 34.43990324], [71.9092784, 34.43977826], [71.90916584, 34.43978096], [71.90916155, 34.4396594], [71.90929822, 34.43965612], [71.9092976, 34.43963844], [71.90886881, 34.43964874], [71.90887029, 34.43969073], [71.90863714, 34.43969633]]]]}, "properties": {"id": "Pakistan_123102132_315065", "height": 3.495237350463867, "hmax": 0.002, "ratio": 0.001, "vulnClass": "none"}}, {"type": "Feature", "geometry": {"type": "MultiPolygon", "coordinates": [[[[71.90927733, 34.43975341], [71.90928218, 34.43983405], [71.90930626, 34.43983306], [71.90931064, 34.43990588], [71.90935078, 34.43990424], [71.90934154, 34.43975078], [71.90927733, 34.43975341]]]]}, "properties": {"id": "Pakistan_123102132_453600", "height": 3.945038080215454, "hmax": 0.002, "ratio": 0.001, "vulnClass": "none"}}, {"type": "Feature", "geometry": {"type": "MultiPolygon", "coordinates": [[[[71.9103877, 34.43955154], [71.9103868, 34.43958471], [71.91045114, 34.43958589], [71.91045347, 34.43949966], [71.91025777, 34.43949606], [71.91025633, 34.43954912], [71.9103877, 34.43955154]]]]}, "properties": {"id": "Pakistan_123102132_450475", "height": 3.29752779006958, "hmax": 0.001, "ratio": 0.0, "vulnClass": "none"}}, {"type": "Feature", "geometry": {"type": "MultiPolygon", "coordinates": [[[[71.91054968, 34.43950687], [71.9104613, 34.43950395], [71.91045707, 34.43959116], [71.91038209, 34.43958868], [71.91038364, 34.43955669], [71.91025242, 34.43955236], [71.91024653, 34.43967383], [71.9105411, 34.43968355], [71.91054968, 34.43950687]]]]}, "properties": {"id": "Pakistan_123102132_505949", "height": 4.634907722473145, "hmax": 0.001, "ratio": 0.0, "vulnClass": "none"}}, {"type": "Feature", "geometry": {"type": "MultiPolygon", "coordinates": [[[[71.91046504, 34.43919125], [71.91045946, 34.43945441], [71.91054385, 34.43945563], [71.91054946, 34.43919247], [71.91046504, 34.43919125]]]]}, "properties": {"id": "Pakistan_123102132_83694", "height": 3.820458173751831, "hmax": 0.001, "ratio": 0.0, "vulnClass": "none"}}, {"type": "Feature", "geometry": {"type": "MultiPolygon", "coordinates": [[[[71.9100787, 34.442067], [71.91083394, 34.44209124], [71.91083931, 34.4419775], [71.91066523, 34.44197193], [71.91067299, 34.44180736], [71.91013468, 34.44179009], [71.91013239, 34.44183868], [71.91008954, 34.4418373], [71.9100787, 34.442067]]]]}, "properties": {"id": "Pakistan_123102132_416584", "height": 3.47675633430481, "hmax": 0.0, "ratio": 0.0, "vulnClass": "none"}}, {"type": "Feature", "geometry": {"type": "MultiPolygon", "coordinates": [[[[71.91009463, 34.4417534], [71.91002233, 34.441751], [71.91001865, 34.44182608], [71.91009096, 34.44182849], [71.91009463, 34.4417534]]]]}, "properties": {"id": "Pakistan_123102132_530429", "height": 3.756232738494873, "hmax": 0.001, "ratio": 0.0, "vulnClass": "none"}}, {"type": "Feature", "geometry": {"type": "MultiPolygon", "coordinates": [[[[71.90991691, 34.44157021], [71.9099158, 34.44166206], [71.91006439, 34.44166329], [71.91006375, 34.44171521], [71.91013348, 34.44171579], [71.91013524, 34.44157203], [71.90991691, 34.44157021]]]]}, "properties": {"id": "Pakistan_123102132_382558", "height": 4.267392158508301, "hmax": 0.001, "ratio": 0.0, "vulnClass": "none"}}, {"type": "Feature", "geometry": {"type": "MultiPolygon", "coordinates": [[[[71.90742621, 34.44215935], [71.90738061, 34.44215926], [71.90738069, 34.44213272], [71.9072895, 34.44213253], [71.90728914, 34.44225419], [71.90738033, 34.44225438], [71.90738029, 34.44226986], [71.90742588, 34.44226995], [71.90742621, 34.44215935]]]]}, "properties": {"id": "Pakistan_123102132_86650", "height": 2.468918800354004, "hmax": 0.002, "ratio": 0.001, "vulnClass": "none"}}, {"type": "Feature", "geometry": {"type": "MultiPolygon", "coordinates": [[[[71.90709567, 34.44219109], [71.90720021, 34.44218893], [71.90719826, 34.44212482], [71.90709372, 34.44212698], [71.90709567, 34.44219109]]]]}, "properties": {"id": "Pakistan_123102132_83671", "height": 2.591110229492188, "hmax": 0.002, "ratio": 0.001, "vulnClass": "none"}}, {"type": "Feature", "geometry": {"type": "MultiPolygon", "coordinates": [[[[71.90695128, 34.44207461], [71.90695819, 34.44228326], [71.90708952, 34.4422803], [71.90708261, 34.44207165], [71.90695128, 34.44207461]]]]}, "properties": {"id": "Pakistan_123102132_318096", "height": 3.253442287445068, "hmax": 0.002, "ratio": 0.001, "vulnClass": "none"}}, {"type": "Feature", "geometry": {"type": "MultiPolygon", "coordinates": [[[[71.90709656, 34.44219795], [71.90709777, 34.44226208], [71.90725701, 34.44226004], [71.90725581, 34.44219591], [71.90709656, 34.44219795]]]]}, "properties": {"id": "Pakistan_123102132_324103", "height": 3.183091878890991, "hmax": 0.002, "ratio": 0.001, "vulnClass": "none"}}, {"type": "Feature", "geometry": {"type": "MultiPolygon", "coordinates": [[[[71.90728376, 34.44245835], [71.90728553, 34.44238627], [71.90700235, 34.44238153], [71.90700058, 34.44245362], [71.90728376, 34.44245835]]]]}, "properties": {"id": "Pakistan_123102132_496652", "height": 3.051717042922974, "hmax": 0.002, "ratio": 0.001, "vulnClass": "none"}}, {"type": "Feature", "geometry": {"type": "MultiPolygon", "coordinates": [[[[71.90913575, 34.42775897], [71.90921198, 34.42776062], [71.90921325, 34.42772082], [71.90913701, 34.42771917], [71.90913575, 34.42775897]]]]}, "properties": {"id": "Pakistan_123102132_74561", "height": 2.557263851165771, "hmax": 0.002, "ratio": 0.001, "vulnClass": "none"}}, {"type": "Feature", "geometry": {"type": "MultiPolygon", "coordinates": [[[[71.90884186, 34.42785683], [71.90906859, 34.42788147], [71.90909083, 34.4277423], [71.90898537, 34.42773083], [71.90897008, 34.42782652], [71.90884881, 34.42781333], [71.90884186, 34.42785683]]]]}, "properties": {"id": "Pakistan_123102132_204251", "height": 2.799295663833618, "hmax": 0.002, "ratio": 0.001, "vulnClass": "none"}}, {"type": "Feature", "geometry": {"type": "MultiPolygon", "coordinates": [[[[71.90850146, 34.42940436], [71.90849618, 34.42956699], [71.90865699, 34.42957054], [71.90865969, 34.4294875], [71.90860073, 34.4294862], [71.90860331, 34.42940661], [71.90850146, 34.42940436]]]]}, "properties": {"id": "Pakistan_123102132_92801", "height": 3.179369449615479, "hmax": 0.001, "ratio": 0.0, "vulnClass": "none"}}, {"type": "Feature", "geometry": {"type": "MultiPolygon", "coordinates": [[[[71.90876214, 34.4295555], [71.90876544, 34.42946709], [71.90866629, 34.42946458], [71.908663, 34.42955299], [71.90876214, 34.4295555]]]]}, "properties": {"id": "Pakistan_123102132_465877", "height": 3.590408563613892, "hmax": 0.001, "ratio": 0.0, "vulnClass": "none"}}, {"type": "Feature", "geometry": {"type": "MultiPolygon", "coordinates": [[[[71.908847, 34.4286857], [71.90872643, 34.4286825], [71.90872341, 34.42875986], [71.90890026, 34.42876454], [71.90890602, 34.42861647], [71.90884976, 34.42861498], [71.908847, 34.4286857]]]]}, "properties": {"id": "Pakistan_123102132_425904", "height": 2.624186515808105, "hmax": 0.001, "ratio": 0.0, "vulnClass": "none"}}, {"type": "Feature", "geometry": {"type": "MultiPolygon", "coordinates": [[[[71.90923125, 34.42860216], [71.90911918, 34.42860883], [71.90911428, 34.42855281], [71.90900755, 34.42855916], [71.90900416, 34.42852036], [71.90893767, 34.42849612], [71.90893205, 34.4284319], [71.9087208, 34.42844446], [71.90871369, 34.42845774], [71.90883239, 34.42850101], [71.90886141, 34.42849928], [71.90887054, 34.4286037], [71.9089079, 34.42860148], [71.9089167, 34.42870209], [71.90897842, 34.42872459], [71.90896371, 34.42875204], [71.90891202, 34.42875511], [71.90890926, 34.42872351], [71.90887209, 34.42879289], [71.90908447, 34.42878025], [71.90907859, 34.42871301], [71.90921327, 34.428705], [71.90924112, 34.42871515], [71.90924548, 34.42876503], [71.90931219, 34.42876107], [71.90931634, 34.42880848], [71.90948304, 34.42879856], [71.90947765, 34.42873694], [71.90934297, 34.42874495], [71.9093219, 34.42850385], [71.90922317, 34.42850972], [71.90923125, 34.42860216]]]]}, "properties": {"id": "Pakistan_123102132_579236", "height": 3.081329345703125, "hmax": 0.001, "ratio": 0.0, "vulnClass": "none"}}, {"type": "Feature", "geometry": {"type": "MultiPolygon", "coordinates": [[[[71.9087833, 34.42807044], [71.90965219, 34.42806096], [71.90965084, 34.4279769], [71.90913058, 34.42798258], [71.90912913, 34.42789189], [71.90903795, 34.42789288], [71.90903763, 34.42787297], [71.90884991, 34.42787502], [71.90884994, 34.42787723], [71.90880435, 34.42787773], [71.90880506, 34.42792197], [71.90878093, 34.42792223], [71.9087833, 34.42807044]]]]}, "properties": {"id": "Pakistan_123102132_194949", "height": 2.644821405410767, "hmax": 0.002, "ratio": 0.001, "vulnClass": "none"}}, {"type": "Feature", "geometry": {"type": "MultiPolygon", "coordinates": [[[[71.90869989, 34.42993967], [71.90869781, 34.42989106], [71.9085491, 34.42989539], [71.90855118, 34.429944], [71.90869989, 34.42993967]]]]}, "properties": {"id": "Pakistan_123102132_101993", "height": 3.073221206665039, "hmax": 0.001, "ratio": 0.0, "vulnClass": "none"}}, {"type": "Feature", "geometry": {"type": "MultiPolygon", "coordinates": [[[[71.90874693, 34.43028966], [71.90864251, 34.4302861], [71.90863896, 34.43035677], [71.90874339, 34.43036033], [71.90874693, 34.43028966]]]]}, "properties": {"id": "Pakistan_123102132_367137", "height": 4.236581325531006, "hmax": 0.001, "ratio": 0.0, "vulnClass": "none"}}, {"type": "Feature", "geometry": {"type": "MultiPolygon", "coordinates": [[[[71.90812498, 34.42975852], [71.90812381, 34.42980274], [71.90819756, 34.42980407], [71.90819633, 34.42985051], [71.90826336, 34.42985171], [71.90826575, 34.42976105], [71.90812498, 34.42975852]]]]}, "properties": {"id": "Pakistan_123102132_582271", "height": 3.660756587982178, "hmax": 0.002, "ratio": 0.001, "vulnClass": "none"}}, {"type": "Feature", "geometry": {"type": "MultiPolygon", "coordinates": [[[[71.90800292, 34.42976174], [71.90800038, 34.42980367], [71.90803249, 34.42980499], [71.90803503, 34.42976306], [71.90800292, 34.42976174]]]]}, "properties": {"id": "Pakistan_123102132_425901", "height": 3.453953742980957, "hmax": 0.002, "ratio": 0.001, "vulnClass": "none"}}, {"type": "Feature", "geometry": {"type": "MultiPolygon", "coordinates": [[[[71.90825714, 34.42998494], [71.90825719, 34.42990751], [71.90817941, 34.42990747], [71.90817944, 34.42986892], [71.90812716, 34.42986889], [71.90812714, 34.4299065], [71.9079246, 34.42990641], [71.90792454, 34.42998477], [71.90825714, 34.42998494]]]]}, "properties": {"id": "Pakistan_123102132_302710", "height": 3.461164951324463, "hmax": 0.002, "ratio": 0.001, "vulnClass": "none"}}, {"type": "Feature", "geometry": {"type": "MultiPolygon", "coordinates": [[[[71.90804484, 34.43297837], [71.90828245, 34.43297555], [71.90828055, 34.43286717], [71.90822424, 34.43286784], [71.9082248, 34.43290007], [71.908132, 34.43290118], [71.90812993, 34.43278268], [71.90816104, 34.43278231], [71.90816041, 34.43274598], [71.90827411, 34.43274462], [71.90827275, 34.43266721], [71.90810649, 34.4326692], [71.9081049, 34.43257851], [71.9081639, 34.43257781], [71.90816263, 34.43250482], [71.90809449, 34.43250563], [71.90809515, 34.43254323], [71.90803724, 34.43254393], [71.90804484, 34.43297837]]]]}, "properties": {"id": "Pakistan_123102132_588354", "height": 2.607885122299194, "hmax": 0.0, "ratio": 0.0, "vulnClass": "none"}}, {"type": "Feature", "geometry": {"type": "MultiPolygon", "coordinates": [[[[71.9092686, 34.43200812], [71.90895493, 34.43200249], [71.90895797, 34.4318875], [71.908714, 34.43188312], [71.9087133, 34.43190966], [71.90852564, 34.43190629], [71.90852068, 34.43209424], [71.90869494, 34.43209737], [71.90869704, 34.43201777], [71.90888357, 34.43202111], [71.90888043, 34.43214052], [71.90926493, 34.43214742], [71.9092686, 34.43200812]]]]}, "properties": {"id": "Pakistan_123102132_505935", "height": 2.772656917572021, "hmax": 0.001, "ratio": 0.0, "vulnClass": "none"}}, {"type": "Feature", "geometry": {"type": "MultiPolygon", "coordinates": [[[[71.90890846, 34.43299392], [71.90873069, 34.43298783], [71.9087247, 34.43310709], [71.90864169, 34.43310425], [71.90864547, 34.43302916], [71.90859028, 34.43302727], [71.90859128, 34.4330074], [71.90855543, 34.43300617], [71.90854766, 34.43316076], [71.90856476, 34.43316135], [71.90855631, 34.43332919], [71.90882305, 34.43333832], [71.90882982, 34.4332036], [71.90878801, 34.43320217], [71.90878434, 34.43327505], [71.90875654, 34.4332741], [71.90875987, 34.43320785], [71.90867419, 34.43320491], [71.90867618, 34.43316516], [71.90884858, 34.43317106], [71.90884647, 34.43321302], [71.90889735, 34.43321476], [71.90890846, 34.43299392]]]]}, "properties": {"id": "Pakistan_123102132_487507", "height": 2.476297855377197, "hmax": 0.002, "ratio": 0.001, "vulnClass": "none"}}, {"type": "Feature", "geometry": {"type": "MultiPolygon", "coordinates": [[[[71.90822556, 34.43331071], [71.90829093, 34.43330977], [71.9082896, 34.43324658], [71.90822422, 34.43324752], [71.90822556, 34.43331071]]]]}, "properties": {"id": "Pakistan_123102132_182633", "height": 2.775358438491821, "hmax": 0.002, "ratio": 0.001, "vulnClass": "none"}}, {"type": "Feature", "geometry": {"type": "MultiPolygon", "coordinates": [[[[71.90727316, 34.43269849], [71.90717149, 34.4327027], [71.9071719, 34.43270932], [71.90684816, 34.43272272], [71.90685582, 34.4328485], [71.90689166, 34.43284701], [71.90689957, 34.43297721], [71.90697983, 34.43297389], [71.90697908, 34.43296152], [71.90712356, 34.43295555], [71.907129, 34.43304514], [71.90715843, 34.43304392], [71.90716286, 34.43311675], [71.90720195, 34.43311513], [71.90719953, 34.43307541], [71.90730388, 34.43307109], [71.90729843, 34.4329815], [71.9072904, 34.43298184], [71.90727316, 34.43269849]]]]}, "properties": {"id": "Pakistan_123102132_539509", "height": 4.715441703796387, "hmax": 0.002, "ratio": 0.0, "vulnClass": "none"}}, {"type": "Feature", "geometry": {"type": "MultiPolygon", "coordinates": [[[[71.90641541, 34.43268191], [71.90643311, 34.43282953], [71.90650588, 34.43282359], [71.90650815, 34.43284247], [71.90669143, 34.43282752], [71.90668171, 34.43274646], [71.90683578, 34.4327339], [71.90683037, 34.43268875], [71.9066168, 34.43270615], [71.90661197, 34.43266587], [71.90641541, 34.43268191]]]]}, "properties": {"id": "Pakistan_123102132_533423", "height": 2.776593685150146, "hmax": 0.002, "ratio": 0.001, "vulnClass": "none"}}, {"type": "Feature", "geometry": {"type": "MultiPolygon", "coordinates": [[[[71.90685367, 34.43317335], [71.90682776, 34.43337373], [71.90718578, 34.43340523], [71.90718861, 34.43338336], [71.90722309, 34.43338639], [71.90724091, 34.43324858], [71.90713483, 34.43323925], [71.90714603, 34.43315263], [71.90699752, 34.43313956], [71.90699157, 34.43318549], [71.90685367, 34.43317335]]]]}, "properties": {"id": "Pakistan_123102132_382535", "height": 4.852277278900146, "hmax": 0.002, "ratio": 0.0, "vulnClass": "none"}}, {"type": "Feature", "geometry": {"type": "MultiPolygon", "coordinates": [[[[71.9068496, 34.43395773], [71.90661089, 34.43395908], [71.90661137, 34.43401659], [71.90697345, 34.43401455], [71.90697264, 34.43391721], [71.90684927, 34.43391791], [71.9068496, 34.43395773]]]]}, "properties": {"id": "Pakistan_123102132_330336", "height": 3.037118673324585, "hmax": 0.0, "ratio": 0.0, "vulnClass": "none"}}, {"type": "Feature", "geometry": {"type": "MultiPolygon", "coordinates": [[[[71.91120726, 34.43573296], [71.9111011, 34.43573462], [71.91110222, 34.43578327], [71.91120837, 34.43578161], [71.91120726, 34.43573296]]]]}, "properties": {"id": "Pakistan_123102132_163875", "height": 2.457596063613892, "hmax": 0.001, "ratio": 0.0, "vulnClass": "none"}}, {"type": "Feature", "geometry": {"type": "MultiPolygon", "coordinates": [[[[71.91108392, 34.43593755], [71.91118836, 34.435941], [71.91119297, 34.43584603], [71.91108854, 34.43584258], [71.91108392, 34.43593755]]]]}, "properties": {"id": "Pakistan_123102132_444397", "height": 3.662110328674316, "hmax": 0.001, "ratio": 0.0, "vulnClass": "none"}}, {"type": "Feature", "geometry": {"type": "MultiPolygon", "coordinates": [[[[71.90972344, 34.43709513], [71.90972317, 34.4370155], [71.9093596, 34.43701636], [71.90935988, 34.43709599], [71.90972344, 34.43709513]]]]}, "properties": {"id": "Pakistan_123102132_244082", "height": 2.47719144821167, "hmax": 0.0, "ratio": 0.0, "vulnClass": "none"}}, {"type": "Feature", "geometry": {"type": "MultiPolygon", "coordinates": [[[[71.90874612, 34.43722614], [71.90906664, 34.43723143], [71.90906922, 34.43712529], [71.90903558, 34.43712474], [71.90903558, 34.43712474], [71.9087487, 34.43712], [71.90874612, 34.43722614]]]]}, "properties": {"id": "Pakistan_123102132_321126", "height": 4.227851867675781, "hmax": 0.001, "ratio": 0.0, "vulnClass": "none"}}, {"type": "Feature", "geometry": {"type": "MultiPolygon", "coordinates": [[[[71.90830157, 34.43680102], [71.90833325, 34.43695459], [71.90846881, 34.43693556], [71.90847797, 34.43697999], [71.90850745, 34.43698448], [71.90835575, 34.43700578], [71.90835974, 34.43702513], [71.90836723, 34.43702408], [71.90842297, 34.43703258], [71.90845272, 34.43717673], [71.90831599, 34.43719592], [71.90833461, 34.43728622], [71.90857443, 34.43725256], [71.90860244, 34.43738831], [71.9088585, 34.43742738], [71.90885426, 34.43740682], [71.90873794, 34.43738908], [71.90867338, 34.43707622], [71.90875294, 34.43706505], [71.90876165, 34.43702622], [71.90890012, 34.43700678], [71.90897901, 34.43701882], [71.90902381, 34.43701253], [71.90901152, 34.43695299], [71.90871134, 34.43690719], [71.90906543, 34.43685749], [71.90903521, 34.43671106], [71.9087832, 34.43667261], [71.90879734, 34.43674113], [71.9087642, 34.43673607], [71.90830157, 34.43680102]]]]}, "properties": {"id": "Pakistan_123102132_296419", "height": 4.077003479003906, "hmax": 0.001, "ratio": 0.0, "vulnClass": "none"}}, {"type": "Feature", "geometry": {"type": "MultiPolygon", "coordinates": [[[[71.90828082, 34.43660706], [71.90828209, 34.43668226], [71.90833422, 34.43668166], [71.90833486, 34.43671926], [71.90847045, 34.4367177], [71.90846853, 34.4366049], [71.90828082, 34.43660706]]]]}, "properties": {"id": "Pakistan_123102132_216463", "height": 2.699692249298096, "hmax": 0.001, "ratio": 0.0, "vulnClass": "none"}}, {"type": "Feature", "geometry": {"type": "MultiPolygon", "coordinates": [[[[71.90932144, 34.43682825], [71.90932959, 34.43694511], [71.90938841, 34.43694232], [71.90938026, 34.43682546], [71.90932144, 34.43682825]]]]}, "properties": {"id": "Pakistan_123102132_512111", "height": 2.513311386108398, "hmax": 0.0, "ratio": 0.0, "vulnClass": "none"}}, {"type": "Feature", "geometry": {"type": "MultiPolygon", "coordinates": [[[[71.90662508, 34.43706089], [71.90661721, 34.43691518], [71.90636826, 34.43692433], [71.90637613, 34.43707004], [71.90662508, 34.43706089]]]]}, "properties": {"id": "Pakistan_123102132_167041", "height": 3.315982580184937, "hmax": 0.0, "ratio": 0.0, "vulnClass": "none"}}, {"type": "Feature", "geometry": {"type": "MultiPolygon", "coordinates": [[[[71.90627401, 34.43741746], [71.90644388, 34.43741107], [71.90644094, 34.43735809], [71.90627108, 34.43736448], [71.90627401, 34.43741746]]]]}, "properties": {"id": "Pakistan_123102132_244066", "height": 3.376882314682007, "hmax": 0.0, "ratio": 0.0, "vulnClass": "none"}}, {"type": "Feature", "geometry": {"type": "MultiPolygon", "coordinates": [[[[71.90551906, 34.43733122], [71.90530058, 34.43733226], [71.90530147, 34.43745915], [71.90534026, 34.43745897], [71.90534123, 34.43759531], [71.90538826, 34.43759509], [71.90538899, 34.43769906], [71.90532462, 34.43769936], [71.90532523, 34.43778563], [71.90537478, 34.4377854], [71.905375, 34.43781637], [71.90547296, 34.4378159], [71.90547359, 34.43790438], [71.90564524, 34.43790356], [71.90564488, 34.43785268], [71.90552278, 34.43785326], [71.90551906, 34.43733122]]]]}, "properties": {"id": "Pakistan_123102132_533412", "height": 5.983741283416748, "hmax": 0.002, "ratio": 0.0, "vulnClass": "none"}}, {"type": "Feature", "geometry": {"type": "MultiPolygon", "coordinates": [[[[71.90629267, 34.43697575], [71.90623116, 34.4369785], [71.90623581, 34.43704909], [71.90629732, 34.43704633], [71.90629267, 34.43697575]]]]}, "properties": {"id": "Pakistan_123102132_318091", "height": 2.655667543411255, "hmax": 0.0, "ratio": 0.0, "vulnClass": "none"}}, {"type": "Feature", "geometry": {"type": "MultiPolygon", "coordinates": [[[[71.90378036, 34.43689206], [71.90378467, 34.4368015], [71.90362131, 34.43679621], [71.903617, 34.43688676], [71.90378036, 34.43689206]]]]}, "properties": {"id": "Pakistan_123102132_126806", "height": 3.199258089065552, "hmax": 0.0, "ratio": 0.0, "vulnClass": "none"}}, {"type": "Feature", "geometry": {"type": "MultiPolygon", "coordinates": [[[[71.90313167, 34.43564721], [71.90344909, 34.43565927], [71.90345372, 34.43557629], [71.90313629, 34.43556425], [71.90313167, 34.43564721]]]]}, "properties": {"id": "Pakistan_123102132_465821", "height": 2.778297424316406, "hmax": 0.002, "ratio": 0.001, "vulnClass": "none"}}, {"type": "Feature", "geometry": {"type": "MultiPolygon", "coordinates": [[[[71.90497839, 34.43549034], [71.90499308, 34.43570506], [71.90523262, 34.43569392], [71.90522383, 34.43556521], [71.90525592, 34.43556372], [71.905262, 34.43565273], [71.90544489, 34.43564422], [71.90543956, 34.43556625], [71.90533153, 34.43557127], [71.90533053, 34.43555663], [71.90526637, 34.43555962], [71.90526275, 34.43550669], [71.90534671, 34.43550279], [71.90534469, 34.43547332], [71.90497839, 34.43549034]]]]}, "properties": {"id": "Pakistan_123102132_46847", "height": 2.906807661056519, "hmax": 0.002, "ratio": 0.001, "vulnClass": "none"}}, {"type": "Feature", "geometry": {"type": "MultiPolygon", "coordinates": [[[[71.90445511, 34.43527829], [71.90499896, 34.43526297], [71.90500751, 34.43546985], [71.90570943, 34.43545012], [71.90570186, 34.43526672], [71.905517, 34.43527192], [71.90551353, 34.43518795], [71.90545296, 34.43518965], [71.90545305, 34.43519186], [71.90502171, 34.43520399], [71.9050025, 34.43473997], [71.90443352, 34.43475596], [71.90445511, 34.43527829]]]]}, "properties": {"id": "Pakistan_123102132_487480", "height": 2.899480819702148, "hmax": 0.001, "ratio": 0.0, "vulnClass": "none"}}, {"type": "Feature", "geometry": {"type": "MultiPolygon", "coordinates": [[[[71.90591093, 34.43410014], [71.90591259, 34.43415984], [71.90603054, 34.43415761], [71.90602888, 34.43409791], [71.90591093, 34.43410014]]]]}, "properties": {"id": "Pakistan_123102132_481278", "height": 2.462023258209229, "hmax": 0.002, "ratio": 0.001, "vulnClass": "none"}}, {"type": "Feature", "geometry": {"type": "MultiPolygon", "coordinates": [[[[71.90512218, 34.43416241], [71.90511671, 34.43420537], [71.90518569, 34.43421135], [71.90519116, 34.43416838], [71.90512218, 34.43416241]]]]}, "properties": {"id": "Pakistan_123102132_330322", "height": 2.71176815032959, "hmax": 0.002, "ratio": 0.001, "vulnClass": "none"}}, {"type": "Feature", "geometry": {"type": "MultiPolygon", "coordinates": [[[[71.90261275, 34.43422178], [71.902771, 34.43422178], [71.902771, 34.43396737], [71.90266907, 34.43396737], [71.90266907, 34.43401162], [71.90261275, 34.43401162], [71.90261275, 34.43422178]]]]}, "properties": {"id": "Pakistan_123102132_606836", "height": 2.921351671218872, "hmax": 0.0, "ratio": 0.0, "vulnClass": "none"}}, {"type": "Feature", "geometry": {"type": "MultiPolygon", "coordinates": [[[[71.90266326, 34.43396152], [71.90260698, 34.43396287], [71.90260854, 34.43400708], [71.90266482, 34.43400573], [71.90266326, 34.43396152]]]]}, "properties": {"id": "Pakistan_123102132_569884", "height": 3.046270370483398, "hmax": 0.0, "ratio": 0.0, "vulnClass": "none"}}, {"type": "Feature", "geometry": {"type": "MultiPolygon", "coordinates": [[[[71.90278808, 34.43520274], [71.90301323, 34.43521634], [71.9029984, 34.43538357], [71.90347756, 34.4354125], [71.90350229, 34.43513395], [71.90343826, 34.43513009], [71.90344166, 34.43509177], [71.90340697, 34.43508968], [71.90340326, 34.43513149], [71.90345395, 34.43513455], [71.90343794, 34.43531498], [71.90331255, 34.43530741], [71.90333395, 34.43506628], [71.90344067, 34.43507271], [71.90344828, 34.4349869], [71.90340293, 34.43498416], [71.9034032, 34.43498106], [71.90322979, 34.43497058], [71.90320518, 34.43524784], [71.90307179, 34.43523978], [71.90307882, 34.43516057], [71.90301479, 34.4351567], [71.90302065, 34.43509069], [71.90285093, 34.43508044], [71.90286225, 34.43495282], [71.90289858, 34.43495501], [71.90291147, 34.43480978], [71.90282343, 34.43480447], [71.90278808, 34.43520274]]]]}, "properties": {"id": "Pakistan_123102132_394991", "height": 2.999009132385254, "hmax": 0.001, "ratio": 0.0, "vulnClass": "none"}}, {"type": "Feature", "geometry": {"type": "MultiPolygon", "coordinates": [[[[71.90295895, 34.43488816], [71.90296027, 34.43489364], [71.90291641, 34.43490084], [71.90293335, 34.43497106], [71.90301849, 34.43495709], [71.90300023, 34.43488138], [71.90295895, 34.43488816]]]]}, "properties": {"id": "Pakistan_123102132_191773", "height": 2.501684665679932, "hmax": 0.001, "ratio": 0.0, "vulnClass": "none"}}, {"type": "Feature", "geometry": {"type": "MultiPolygon", "coordinates": [[[[71.89792773, 34.43695465], [71.89792538, 34.43701776], [71.89796973, 34.43701889], [71.8979668, 34.43709722], [71.89810199, 34.43710066], [71.89810438, 34.43703657], [71.89806687, 34.43703562], [71.89806975, 34.43695827], [71.89792773, 34.43695465]]]]}, "properties": {"id": "Pakistan_123102132_431954", "height": 6.894018173217773, "hmax": 0.001, "ratio": 0.0, "vulnClass": "none"}}, {"type": "Feature", "geometry": {"type": "MultiPolygon", "coordinates": [[[[71.89823219, 34.43694134], [71.89809491, 34.43694953], [71.89810629, 34.43707937], [71.89824358, 34.43707118], [71.89823219, 34.43694134]]]]}, "properties": {"id": "Pakistan_123102132_481221", "height": 6.694309711456299, "hmax": 0.001, "ratio": 0.0, "vulnClass": "none"}}, {"type": "Feature", "geometry": {"type": "MultiPolygon", "coordinates": [[[[71.90525814, 34.43312955], [71.90548261, 34.43311823], [71.90547168, 34.43297056], [71.90530496, 34.43297897], [71.9053031, 34.43295392], [71.90524536, 34.43295683], [71.90525814, 34.43312955]]]]}, "properties": {"id": "Pakistan_123102132_509001", "height": 2.901416301727295, "hmax": 0.001, "ratio": 0.0, "vulnClass": "none"}}, {"type": "Feature", "geometry": {"type": "MultiPolygon", "coordinates": [[[[71.9061398, 34.43318889], [71.9058233, 34.43318761], [71.9058227, 34.43328857], [71.90586996, 34.43328876], [71.90586983, 34.43331088], [71.90617393, 34.43331209], [71.90617408, 34.43328775], [71.90643425, 34.43328879], [71.90643613, 34.43297108], [71.90618133, 34.43297005], [71.90618153, 34.43293686], [71.90622607, 34.43293704], [71.90622671, 34.43282782], [71.90614194, 34.43282748], [71.9061398, 34.43318889]]]]}, "properties": {"id": "Pakistan_123102132_65308", "height": 4.275026321411133, "hmax": 0.002, "ratio": 0.001, "vulnClass": "none"}}, {"type": "Feature", "geometry": {"type": "MultiPolygon", "coordinates": [[[[71.90640345, 34.43265716], [71.90626434, 34.43262251], [71.90624754, 34.43266837], [71.90638667, 34.43270302], [71.90640345, 34.43265716]]]]}, "properties": {"id": "Pakistan_123102132_576205", "height": 2.4443678855896, "hmax": 0.002, "ratio": 0.001, "vulnClass": "none"}}, {"type": "Feature", "geometry": {"type": "MultiPolygon", "coordinates": [[[[71.90485733, 34.43260921], [71.9051968, 34.43259274], [71.90520481, 34.43270518], [71.90541063, 34.4326952], [71.90539916, 34.43253426], [71.90536867, 34.43253574], [71.90536175, 34.43243874], [71.90508752, 34.43245203], [71.90509255, 34.43252258], [71.90499098, 34.43252751], [71.90498517, 34.43244594], [71.90492369, 34.43244892], [71.90492107, 34.43241226], [71.90484356, 34.43241602], [71.90485733, 34.43260921]]]]}, "properties": {"id": "Pakistan_123102132_484367", "height": 4.969250202178955, "hmax": 0.001, "ratio": 0.0, "vulnClass": "none"}}, {"type": "Feature", "geometry": {"type": "MultiPolygon", "coordinates": [[[[71.90576714, 34.43175358], [71.90627549, 34.43177453], [71.90628486, 34.43162006], [71.90615376, 34.43161466], [71.90614693, 34.4317272], [71.90606283, 34.43172374], [71.90606533, 34.43168263], [71.90609476, 34.43168384], [71.90609716, 34.43164412], [71.90601806, 34.43164085], [71.90602275, 34.43156362], [71.90572192, 34.4315512], [71.90571617, 34.43164609], [71.90577352, 34.43164846], [71.90576714, 34.43175358]]]]}, "properties": {"id": "Pakistan_123102132_228642", "height": 4.048159599304199, "hmax": 0.001, "ratio": 0.0, "vulnClass": "none"}}, {"type": "Feature", "geometry": {"type": "MultiPolygon", "coordinates": [[[[71.90336458, 34.43018009], [71.9042495, 34.4301687], [71.90424765, 34.43007052], [71.90410154, 34.43007239], [71.90410025, 34.43000383], [71.90396747, 34.43000553], [71.90396661, 34.42995996], [71.90369578, 34.42996345], [71.90369668, 34.43001121], [71.90365783, 34.43001171], [71.90365863, 34.43005373], [71.90336227, 34.43005753], [71.90336458, 34.43018009]]]]}, "properties": {"id": "Pakistan_123102132_545603", "height": 3.712806463241577, "hmax": 0.001, "ratio": 0.0, "vulnClass": "none"}}, {"type": "Feature", "geometry": {"type": "MultiPolygon", "coordinates": [[[[71.90571593, 34.43065914], [71.90577143, 34.43065029], [71.90578275, 34.43069857], [71.9058448, 34.43068867], [71.90582049, 34.43058495], [71.90570293, 34.4306037], [71.90571593, 34.43065914]]]]}, "properties": {"id": "Pakistan_123102132_105111", "height": 2.610162734985352, "hmax": 0.001, "ratio": 0.0, "vulnClass": "none"}}, {"type": "Feature", "geometry": {"type": "MultiPolygon", "coordinates": [[[[71.90604942, 34.43081805], [71.90604462, 34.43074164], [71.90609688, 34.43073941], [71.90609114, 34.43064813], [71.90599752, 34.43065213], [71.90600173, 34.43071914], [71.90593218, 34.43072211], [71.90593851, 34.43082279], [71.90604942, 34.43081805]]]]}, "properties": {"id": "Pakistan_123102132_496638", "height": 2.751333236694336, "hmax": 0.001, "ratio": 0.0, "vulnClass": "none"}}, {"type": "Feature", "geometry": {"type": "MultiPolygon", "coordinates": [[[[71.90447835, 34.42905975], [71.90479778, 34.42908278], [71.90479615, 34.42909815], [71.90496917, 34.42911063], [71.90498569, 34.42895474], [71.90467425, 34.42893228], [71.90469534, 34.42873332], [71.90476188, 34.42873811], [71.90476081, 34.42874826], [71.90492318, 34.42875997], [71.90492737, 34.42872045], [71.904946, 34.42872179], [71.90494996, 34.42868447], [71.90447615, 34.4286503], [71.90449662, 34.42845709], [71.90482137, 34.42848051], [71.90481742, 34.42851783], [71.90490526, 34.42852417], [71.90491573, 34.42842536], [71.90465487, 34.42840656], [71.90465603, 34.42839558], [71.90457085, 34.42838944], [71.90457015, 34.42839602], [71.90442109, 34.42838527], [71.9043847, 34.42872864], [71.90452045, 34.42873842], [71.90449727, 34.42895713], [71.90448929, 34.42895656], [71.90447835, 34.42905975]]]]}, "properties": {"id": "Pakistan_123102132_357990", "height": 4.306422710418701, "hmax": 0.002, "ratio": 0.001, "vulnClass": "none"}}, {"type": "Feature", "geometry": {"type": "MultiPolygon", "coordinates": [[[[71.9033802, 34.42795506], [71.90338478, 34.42788094], [71.90322961, 34.42787442], [71.90322503, 34.42794853], [71.9033802, 34.42795506]]]]}, "properties": {"id": "Pakistan_123102132_308851", "height": 3.953141689300537, "hmax": 0.002, "ratio": 0.001, "vulnClass": "none"}}, {"type": "Feature", "geometry": {"type": "MultiPolygon", "coordinates": [[[[71.90406777, 34.42968534], [71.90406992, 34.42974945], [71.90413556, 34.42974796], [71.90413343, 34.42968385], [71.90406777, 34.42968534]]]]}, "properties": {"id": "Pakistan_123102132_80567", "height": 2.621259212493896, "hmax": 0.002, "ratio": 0.001, "vulnClass": "none"}}, {"type": "Feature", "geometry": {"type": "MultiPolygon", "coordinates": [[[[71.90279634, 34.42957878], [71.90279764, 34.42946596], [71.90255626, 34.42946408], [71.90255419, 34.42964452], [71.90261051, 34.42964496], [71.90261086, 34.42961495], [71.90276373, 34.42961614], [71.90276416, 34.42957853], [71.90279634, 34.42957878]]]]}, "properties": {"id": "Pakistan_123102132_40597", "height": 2.97403359413147, "hmax": 0.0, "ratio": 0.0, "vulnClass": "none"}}, {"type": "Feature", "geometry": {"type": "MultiPolygon", "coordinates": [[[[71.90223897, 34.42789326], [71.90241814, 34.42790129], [71.90243138, 34.42770056], [71.90242068, 34.42770008], [71.90242454, 34.42764149], [71.9022213, 34.42763238], [71.90221787, 34.42768435], [71.90236079, 34.42769076], [71.90235294, 34.42780987], [71.90224478, 34.42780502], [71.90223897, 34.42789326]]]]}, "properties": {"id": "Pakistan_123102132_394987", "height": 3.7128586769104, "hmax": 0.002, "ratio": 0.001, "vulnClass": "none"}}, {"type": "Feature", "geometry": {"type": "MultiPolygon", "coordinates": [[[[71.9019549, 34.42762919], [71.90194956, 34.427795], [71.90197756, 34.42779561], [71.90197582, 34.42784989], [71.90218756, 34.42785452], [71.9021898, 34.42778476], [71.90203583, 34.4277814], [71.90203924, 34.42767528], [71.90217176, 34.42767817], [71.90217318, 34.42763395], [71.9019549, 34.42762919]]]]}, "properties": {"id": "Pakistan_123102132_9974", "height": 6.253687858581543, "hmax": 0.001, "ratio": 0.0, "vulnClass": "none"}}, {"type": "Feature", "geometry": {"type": "MultiPolygon", "coordinates": [[[[71.89870206, 34.42783698], [71.89894731, 34.42783905], [71.8989499, 34.42762889], [71.89870466, 34.42762682], [71.89870206, 34.42783698]]]]}, "properties": {"id": "Pakistan_123102132_222464", "height": 3.098306655883789, "hmax": 0.002, "ratio": 0.001, "vulnClass": "none"}}, {"type": "Feature", "geometry": {"type": "MultiPolygon", "coordinates": [[[[71.90559118, 34.42779862], [71.90558678, 34.42770805], [71.90551566, 34.42771041], [71.90551691, 34.42773613], [71.90516343, 34.42774782], [71.90516659, 34.42781269], [71.90559118, 34.42779862]]]]}, "properties": {"id": "Pakistan_123102132_379429", "height": 3.627131223678589, "hmax": 0.002, "ratio": 0.001, "vulnClass": "none"}}, {"type": "Feature", "geometry": {"type": "MultiPolygon", "coordinates": [[[[71.90572497, 34.42776569], [71.90586143, 34.42776013], [71.90585774, 34.42769834], [71.90579084, 34.42770106], [71.90578834, 34.42765912], [71.90582044, 34.42765782], [71.90581741, 34.42760706], [71.90571573, 34.42761119], [71.90572497, 34.42776569]]]]}, "properties": {"id": "Pakistan_123102132_441271", "height": 2.998521327972412, "hmax": 0.002, "ratio": 0.001, "vulnClass": "none"}}, {"type": "Feature", "geometry": {"type": "MultiPolygon", "coordinates": [[[[71.8982686, 34.4280075], [71.90043142, 34.42805782], [71.90043338, 34.42800048], [71.90021369, 34.42789725], [71.90024483, 34.42785216], [71.89985736, 34.42798118], [71.89985732, 34.42798251], [71.89978175, 34.42798075], [71.89973229, 34.42787969], [71.89968128, 34.42795353], [71.89968385, 34.42787836], [71.89954771, 34.42781438], [71.89938786, 34.42786761], [71.89926589, 34.42786477], [71.89926181, 34.42798419], [71.89919582, 34.42795317], [71.89920252, 34.4277571], [71.89950896, 34.42776423], [71.89957049, 34.42767515], [71.89954849, 34.42763019], [71.89916961, 34.42762138], [71.8991656, 34.42773854], [71.89913344, 34.4277378], [71.89913647, 34.42764937], [71.89895958, 34.42764525], [71.89895165, 34.42787737], [71.8989034, 34.42787625], [71.89890091, 34.4279492], [71.89832201, 34.42793573], [71.89832587, 34.42782299], [71.89827495, 34.4278218], [71.8982686, 34.4280075]]]]}, "properties": {"id": "Pakistan_123102132_59196", "height": 4.271495819091797, "hmax": 0.002, "ratio": 0.001, "vulnClass": "none"}}]}