{"type": "FeatureCollection", "features": [{"type": "Feature", "geometry": {"type": "MultiPolygon", "coordinates": [[[[72.10326139, 34.4695216], [72.10323362, 34.46945501], [72.10301946, 34.46951627], [72.10304724, 34.46958286], [72.10326139, 34.4695216]]]]}, "properties": {"id": "8J6JF493+R72M", "height": 5.035480499267578, "hmax": 0.001, "ratio": 0.0, "vulnClass": "none"}}, {"type": "Feature", "geometry": {"type": "MultiPolygon", "coordinates": [[[[72.10328675, 34.46964705], [72.10325174, 34.46952733], [72.10321429, 34.46953485], [72.10323504, 34.46960579], [72.10320229, 34.46961236], [72.10321656, 34.46966113], [72.10328675, 34.46964705]]]]}, "properties": {"id": "8J6JF493+R7X5", "height": 4.757076263427734, "hmax": 0.001, "ratio": 0.0, "vulnClass": "none"}}, {"type": "Feature", "geometry": {"type": "MultiPolygon", "coordinates": [[[[72.10345902, 34.46978446], [72.10341271, 34.46964941], [72.10332176, 34.46967081], [72.10336807, 34.46980585], [72.10345902, 34.46978446]]]]}, "properties": {"id": "8J6JF493+V9R3", "height": 2.439951419830322, "hmax": 0.001, "ratio": 0.0, "vulnClass": "none"}}, {"type": "Feature", "geometry": {"type": "MultiPolygon", "coordinates": [[[[72.10432966, 34.4694017], [72.10431329, 34.46932458], [72.10408938, 34.46935718], [72.10410575, 34.46943429], [72.10432966, 34.4694017]]]]}, "properties": {"id": "8J6JF493+QM44", "height": 3.706218242645264, "hmax": 0.001, "ratio": 0.0, "vulnClass": "none"}}, {"type": "Feature", "geometry": {"type": "MultiPolygon", "coordinates": [[[[72.10446061, 34.47039531], [72.10438829, 34.47040108], [72.10440725, 34.47056407], [72.10483516, 34.47052993], [72.10482943, 34.47048066], [72.10476731, 34.47048561], [72.10476328, 34.47045096], [72.10446981, 34.47047437], [72.10446061, 34.47039531]]]]}, "properties": {"id": "8J6JF4C3+5RWW", "height": 5.427431106567383, "hmax": 0.001, "ratio": 0.0, "vulnClass": "none"}}, {"type": "Feature", "geometry": {"type": "MultiPolygon", "coordinates": [[[[72.10418368, 34.47022831], [72.10413773, 34.47023128], [72.1041532, 34.47039535], [72.10437346, 34.4703811], [72.10436587, 34.47030068], [72.10419157, 34.47031195], [72.10418368, 34.47022831]]]]}, "properties": {"id": "8J6JF4C3+4MQ9", "height": 4.110777854919434, "hmax": 0.001, "ratio": 0.0, "vulnClass": "none"}}, {"type": "Feature", "geometry": {"type": "MultiPolygon", "coordinates": [[[[72.10452076, 34.47248637], [72.10449509, 34.47259484], [72.10459483, 34.47261102], [72.10461141, 34.47254094], [72.10469944, 34.47255523], [72.10470852, 34.47251684], [72.10452076, 34.47248637]]]]}, "properties": {"id": "8J6JF4F3+2R8P", "height": 3.821417808532715, "hmax": 0.001, "ratio": 0.0, "vulnClass": "none"}}, {"type": "Feature", "geometry": {"type": "MultiPolygon", "coordinates": [[[[72.10518903, 34.47223489], [72.1051954, 34.47216796], [72.10506249, 34.47215929], [72.10505759, 34.4722108], [72.10511759, 34.47226341], [72.10512072, 34.47223044], [72.10518903, 34.47223489]]]]}, "properties": {"id": "8J6JF4C4+V3J2", "height": 4.942104339599609, "hmax": 0.002, "ratio": 0.0, "vulnClass": "none"}}, {"type": "Feature", "geometry": {"type": "MultiPolygon", "coordinates": [[[[72.10475611, 34.47207719], [72.1045895, 34.47205577], [72.10455939, 34.47221642], [72.104726, 34.47223784], [72.10475611, 34.47207719]]]]}, "properties": {"id": "8J6JF4C3+VV3R", "height": 3.810534238815308, "hmax": 0.001, "ratio": 0.0, "vulnClass": "none"}}, {"type": "Feature", "geometry": {"type": "MultiPolygon", "coordinates": [[[[72.10463068, 34.47180358], [72.10462191, 34.47189409], [72.10493498, 34.4719149], [72.10494375, 34.47182439], [72.10463068, 34.47180358]]]]}, "properties": {"id": "8J6JF4C3+PWV6", "height": 3.333644390106201, "hmax": 0.002, "ratio": 0.001, "vulnClass": "none"}}, {"type": "Feature", "geometry": {"type": "MultiPolygon", "coordinates": [[[[72.10526979, 34.47185117], [72.10526788, 34.47180941], [72.10522509, 34.47181076], [72.105227, 34.47185251], [72.10526979, 34.47185117]]]]}, "properties": {"id": "8J6JF4C4+P3Q9", "height": 2.972599983215332, "hmax": 0.001, "ratio": 0.0, "vulnClass": "none"}}, {"type": "Feature", "geometry": {"type": "MultiPolygon", "coordinates": [[[[72.10523276, 34.47184726], [72.10522559, 34.47192903], [72.10561237, 34.4719523], [72.10561501, 34.47192225], [72.10554514, 34.47191805], [72.10554711, 34.4718955], [72.10551019, 34.47189328], [72.10551275, 34.47186411], [72.10523276, 34.47184726]]]]}, "properties": {"id": "8J6JF4C4+Q564", "height": 3.619070768356323, "hmax": 0.001, "ratio": 0.0, "vulnClass": "none"}}, {"type": "Feature", "geometry": {"type": "MultiPolygon", "coordinates": [[[[72.1064604, 34.4719821], [72.1063998, 34.4719826], [72.1064019, 34.4721494], [72.1066365, 34.4721475], [72.1066352, 34.4720414], [72.106558, 34.472042], [72.1065584, 34.4720756], [72.1064615, 34.4720764], [72.1064604, 34.4719821]]]]}, "properties": {"id": "8J6JF4C4+RJJC", "height": 3.073291063308716, "hmax": 0.001, "ratio": 0.0, "vulnClass": "none"}}, {"type": "Feature", "geometry": {"type": "MultiPolygon", "coordinates": [[[[72.10592371, 34.4721017], [72.10587904, 34.47210391], [72.10588261, 34.4721535], [72.10592729, 34.47215129], [72.10592371, 34.4721017]]]]}, "properties": {"id": "8J6JF4C4+V925", "height": 3.041063785552979, "hmax": 0.002, "ratio": 0.001, "vulnClass": "none"}}, {"type": "Feature", "geometry": {"type": "MultiPolygon", "coordinates": [[[[72.10612886, 34.47214132], [72.10612528, 34.47209173], [72.10592371, 34.4721017], [72.10592729, 34.47215129], [72.10612886, 34.47214132]]]]}, "properties": {"id": "8J6JF4C4+RCRX", "height": 3.416172027587891, "hmax": 0.001, "ratio": 0.0, "vulnClass": "none"}}, {"type": "Feature", "geometry": {"type": "MultiPolygon", "coordinates": [[[[72.10570362, 34.47217476], [72.10551933, 34.47216919], [72.10551355, 34.47230041], [72.10569784, 34.47230598], [72.10570362, 34.47217476]]]]}, "properties": {"id": "8J6JF4C4+V6XF", "height": 4.57008171081543, "hmax": 0.002, "ratio": 0.0, "vulnClass": "none"}}, {"type": "Feature", "geometry": {"type": "MultiPolygon", "coordinates": [[[[72.10644027, 34.47261126], [72.10633385, 34.47261564], [72.10633713, 34.47267039], [72.10647492, 34.47266471], [72.10647293, 34.47263153], [72.10644157, 34.47263283], [72.10644027, 34.47261126]]]]}, "properties": {"id": "8J6JF4F4+3H2Q", "height": 2.806594848632812, "hmax": 0.001, "ratio": 0.0, "vulnClass": "none"}}, {"type": "Feature", "geometry": {"type": "MultiPolygon", "coordinates": [[[[72.10636289, 34.47239783], [72.10634903, 34.47231257], [72.1062209, 34.47232686], [72.10623476, 34.47241212], [72.10636289, 34.47239783]]]]}, "properties": {"id": "8J6JF4C4+WGVF", "height": 3.522877931594849, "hmax": 0.001, "ratio": 0.0, "vulnClass": "none"}}, {"type": "Feature", "geometry": {"type": "MultiPolygon", "coordinates": [[[[72.10641533, 34.47251883], [72.10637793, 34.4723844], [72.10629645, 34.47239995], [72.10633385, 34.47253438], [72.10641533, 34.47251883]]]]}, "properties": {"id": "8J6JF4C4+XGQ7", "height": 3.572297811508179, "hmax": 0.001, "ratio": 0.0, "vulnClass": "none"}}, {"type": "Feature", "geometry": {"type": "MultiPolygon", "coordinates": [[[[72.106136, 34.47240288], [72.1060774, 34.47241054], [72.10610446, 34.47255252], [72.106307, 34.47252604], [72.10630222, 34.47250098], [72.10615828, 34.47251979], [72.106136, 34.47240288]]]]}, "properties": {"id": "8J6JF4C4+XFRQ", "height": 2.960175037384033, "hmax": 0.001, "ratio": 0.0, "vulnClass": "none"}}, {"type": "Feature", "geometry": {"type": "MultiPolygon", "coordinates": [[[[72.10686207, 34.47203924], [72.10663498, 34.47204182], [72.10663673, 34.4721475], [72.10686383, 34.47214491], [72.10686207, 34.47203924]]]]}, "properties": {"id": "8J6JF4C4+RMQQ", "height": 3.092925548553467, "hmax": 0.001, "ratio": 0.0, "vulnClass": "none"}}, {"type": "Feature", "geometry": {"type": "MultiPolygon", "coordinates": [[[[72.10691741, 34.47203861], [72.10686207, 34.47203924], [72.10686383, 34.47214491], [72.10732796, 34.47213962], [72.10732673, 34.47206598], [72.10713836, 34.47206813], [72.10713783, 34.47203609], [72.10710299, 34.47203649], [72.10710352, 34.47206853], [72.10691794, 34.47207064], [72.10691741, 34.47203861]]]]}, "properties": {"id": "8J6JF4C4+RRW5", "height": 3.172036409378052, "hmax": 0.001, "ratio": 0.0, "vulnClass": "none"}}, {"type": "Feature", "geometry": {"type": "MultiPolygon", "coordinates": [[[[72.10670757, 34.47190583], [72.10664428, 34.47190294], [72.10664002, 34.47196689], [72.10670332, 34.47196978], [72.10670757, 34.47190583]]]]}, "properties": {"id": "8J6JF4C4+QMFG", "height": 2.603434085845947, "hmax": 0.002, "ratio": 0.001, "vulnClass": "none"}}, {"type": "Feature", "geometry": {"type": "MultiPolygon", "coordinates": [[[[72.10726319, 34.46050839], [72.10713879, 34.46044681], [72.10711187, 34.46048411], [72.10723628, 34.46054569], [72.10726319, 34.46050839]]]]}, "properties": {"id": "8J6JF464+5VWR", "height": 2.504848718643188, "hmax": 0.001, "ratio": 0.0, "vulnClass": "none"}}, {"type": "Feature", "geometry": {"type": "MultiPolygon", "coordinates": [[[[72.10719674, 34.46060855], [72.10722585, 34.46054377], [72.10717958, 34.46052951], [72.10715047, 34.46059429], [72.10719674, 34.46060855]]]]}, "properties": {"id": "8J6JF464+6VGJ", "height": 2.504848718643188, "hmax": 0.001, "ratio": 0.0, "vulnClass": "none"}}, {"type": "Feature", "geometry": {"type": "MultiPolygon", "coordinates": [[[[72.1025821, 34.46049425], [72.1025798, 34.46045187], [72.10250987, 34.46045447], [72.10251217, 34.46049685], [72.1025821, 34.46049425]]]]}, "properties": {"id": "8J6JF463+52MV", "height": 2.549320697784424, "hmax": 0.001, "ratio": 0.0, "vulnClass": "none"}}, {"type": "Feature", "geometry": {"type": "MultiPolygon", "coordinates": [[[[72.10257611, 34.46038384], [72.10243424, 34.46038911], [72.10243793, 34.46045715], [72.1025798, 34.46045187], [72.10257611, 34.46038384]]]]}, "properties": {"id": "8J6JF463+526R", "height": 2.894278764724731, "hmax": 0.001, "ratio": 0.0, "vulnClass": "none"}}, {"type": "Feature", "geometry": {"type": "MultiPolygon", "coordinates": [[[[72.10128865, 34.46058724], [72.1016974, 34.46062555], [72.10170672, 34.46055728], [72.10151008, 34.46053885], [72.10150659, 34.46056438], [72.10129448, 34.4605445], [72.10128865, 34.46058724]]]]}, "properties": {"id": "8J6JF462+6JJ4", "height": 2.703046321868896, "hmax": 0.001, "ratio": 0.0, "vulnClass": "none"}}, {"type": "Feature", "geometry": {"type": "MultiPolygon", "coordinates": [[[[72.1012054, 34.4606114], [72.1011921, 34.4606902], [72.1016522, 34.4607436], [72.1016655, 34.4606648], [72.1012054, 34.4606114]]]]}, "properties": {"id": "8J6JF462+7HF4", "height": 2.921702146530151, "hmax": 0.001, "ratio": 0.0, "vulnClass": "none"}}, {"type": "Feature", "geometry": {"type": "MultiPolygon", "coordinates": [[[[72.10123377, 34.46078074], [72.10118603, 34.46077526], [72.10117369, 34.46084903], [72.10122143, 34.46085451], [72.10123377, 34.46078074]]]]}, "properties": {"id": "8J6JF462+8FGG", "height": 2.673736095428467, "hmax": 0.001, "ratio": 0.0, "vulnClass": "none"}}, {"type": "Feature", "geometry": {"type": "MultiPolygon", "coordinates": [[[[72.10143111, 34.46087288], [72.10137362, 34.46087856], [72.10138705, 34.46097171], [72.10144454, 34.46096602], [72.10143111, 34.46087288]]]]}, "properties": {"id": "8J6JF462+9H7R", "height": 3.031233787536621, "hmax": 0.001, "ratio": 0.0, "vulnClass": "none"}}, {"type": "Feature", "geometry": {"type": "MultiPolygon", "coordinates": [[[[72.10145555, 34.46084198], [72.10139844, 34.46083748], [72.10139519, 34.46086581], [72.1014523, 34.46087031], [72.10145555, 34.46084198]]]]}, "properties": {"id": "8J6JF462+8HV4", "height": 3.278908729553223, "hmax": 0.001, "ratio": 0.0, "vulnClass": "none"}}, {"type": "Feature", "geometry": {"type": "MultiPolygon", "coordinates": [[[[72.1011875, 34.4609325], [72.1011315, 34.4609284], [72.1011188, 34.4610474], [72.1018757, 34.4611026], [72.1018849, 34.4610162], [72.1014203, 34.4609824], [72.101184, 34.4609651], [72.1011875, 34.4609325]]]]}, "properties": {"id": "8J6JF462+CH95", "height": 2.935364007949829, "hmax": 0.001, "ratio": 0.0, "vulnClass": "none"}}, {"type": "Feature", "geometry": {"type": "MultiPolygon", "coordinates": [[[[72.09814861, 34.4639726], [72.09848593, 34.4639571], [72.09848047, 34.46387558], [72.09814315, 34.46389108], [72.09814861, 34.4639726]]]]}, "properties": {"id": "8J6JF37X+H88R", "height": 2.46789288520813, "hmax": 0.001, "ratio": 0.0, "vulnClass": "none"}}, {"type": "Feature", "geometry": {"type": "MultiPolygon", "coordinates": [[[[72.0984404, 34.4639592], [72.0984467, 34.4640534], [72.098566, 34.4640479], [72.0985597, 34.4639537], [72.0984404, 34.4639592]]]]}, "properties": {"id": "8J6JF37X+JC22", "height": 2.532830476760864, "hmax": 0.001, "ratio": 0.0, "vulnClass": "none"}}, {"type": "Feature", "geometry": {"type": "MultiPolygon", "coordinates": [[[[72.0985508, 34.4642349], [72.0985461, 34.4641599], [72.0983594, 34.4641679], [72.098362, 34.4642092], [72.0984146, 34.4642069], [72.0984167, 34.4642407], [72.0985508, 34.4642349]]]]}, "properties": {"id": "8J6JF37X+M9GX", "height": 2.922649621963501, "hmax": 0.001, "ratio": 0.0, "vulnClass": "none"}}, {"type": "Feature", "geometry": {"type": "MultiPolygon", "coordinates": [[[[72.09945413, 34.46440161], [72.09944663, 34.4643154], [72.09937763, 34.46431952], [72.09938514, 34.46440573], [72.09945413, 34.46440161]]]]}, "properties": {"id": "8J6JF37X+PQVF", "height": 2.991206884384155, "hmax": 0.001, "ratio": 0.0, "vulnClass": "none"}}, {"type": "Feature", "geometry": {"type": "MultiPolygon", "coordinates": [[[[72.09952596, 34.46429761], [72.09952178, 34.46424838], [72.09916348, 34.46426928], [72.09916767, 34.46431851], [72.09927898, 34.46431201], [72.09928833, 34.46442195], [72.09937788, 34.46441673], [72.09936853, 34.46430679], [72.09952596, 34.46429761]]]]}, "properties": {"id": "8J6JF37X+PPGH", "height": 3.333122730255127, "hmax": 0.001, "ratio": 0.0, "vulnClass": "none"}}, {"type": "Feature", "geometry": {"type": "MultiPolygon", "coordinates": [[[[72.10058608, 34.46406775], [72.10058481, 34.4640325], [72.10048223, 34.46403504], [72.1004835, 34.46407029], [72.10058608, 34.46406775]]]]}, "properties": {"id": "8J6JF472+J6F2", "height": 2.886334896087646, "hmax": 0.001, "ratio": 0.0, "vulnClass": "none"}}, {"type": "Feature", "geometry": {"type": "MultiPolygon", "coordinates": [[[[72.10068518, 34.46429349], [72.10068432, 34.46420219], [72.100561, 34.46420298], [72.10056129, 34.46423376], [72.10030303, 34.46423542], [72.10030423, 34.46436262], [72.10056248, 34.46436095], [72.10056186, 34.46429429], [72.10068518, 34.46429349]]]]}, "properties": {"id": "8J6JF472+P59F", "height": 4.759236812591553, "hmax": 0.001, "ratio": 0.0, "vulnClass": "none"}}, {"type": "Feature", "geometry": {"type": "MultiPolygon", "coordinates": [[[[72.10063803, 34.46452161], [72.10063528, 34.46446352], [72.10060528, 34.46446449], [72.10060139, 34.46438223], [72.10000758, 34.46440149], [72.10001146, 34.46448375], [72.1003257, 34.46447356], [72.10033165, 34.46459945], [72.10061123, 34.46459038], [72.10060802, 34.46452259], [72.10063803, 34.46452161]]]]}, "properties": {"id": "8J6JF472+Q5JR", "height": 2.96410870552063, "hmax": 0.001, "ratio": 0.0, "vulnClass": "none"}}, {"type": "Feature", "geometry": {"type": "MultiPolygon", "coordinates": [[[[72.10071194, 34.46406463], [72.10071066, 34.46402937], [72.10065143, 34.46403084], [72.1006527, 34.46406609], [72.10071194, 34.46406463]]]]}, "properties": {"id": "8J6JF472+J77X", "height": 2.872762441635132, "hmax": 0.001, "ratio": 0.0, "vulnClass": "none"}}, {"type": "Feature", "geometry": {"type": "MultiPolygon", "coordinates": [[[[72.10062281, 34.46403224], [72.1005917, 34.46403074], [72.10058923, 34.46406605], [72.10062034, 34.46406755], [72.10062281, 34.46403224]]]]}, "properties": {"id": "8J6JF472+J69V", "height": 2.698516845703125, "hmax": 0.001, "ratio": 0.0, "vulnClass": "none"}}, {"type": "Feature", "geometry": {"type": "MultiPolygon", "coordinates": [[[[72.10688319, 34.46360593], [72.10680527, 34.46357849], [72.10678494, 34.46361808], [72.10686286, 34.46364553], [72.10688319, 34.46360593]]]]}, "properties": {"id": "8J6JF474+CPWG", "height": 2.452632427215576, "hmax": 0.001, "ratio": 0.0, "vulnClass": "none"}}, {"type": "Feature", "geometry": {"type": "MultiPolygon", "coordinates": [[[[72.10761704, 34.46384716], [72.10748825, 34.46380222], [72.10744866, 34.46388006], [72.10754538, 34.4639138], [72.10752912, 34.46394578], [72.10756119, 34.46395697], [72.10761704, 34.46384716]]]]}, "properties": {"id": "8J6JF475+G2VR", "height": 2.973014354705811, "hmax": 0.0, "ratio": 0.0, "vulnClass": "none"}}, {"type": "Feature", "geometry": {"type": "MultiPolygon", "coordinates": [[[[72.10760858, 34.4640527], [72.10757498, 34.46404767], [72.107557, 34.46413015], [72.10764907, 34.46414393], [72.10765593, 34.46411247], [72.10759745, 34.46410372], [72.10760858, 34.4640527]]]]}, "properties": {"id": "8J6JF475+J2X2", "height": 3.975039005279541, "hmax": 0.0, "ratio": 0.0, "vulnClass": "none"}}, {"type": "Feature", "geometry": {"type": "MultiPolygon", "coordinates": [[[[72.10764616, 34.46415728], [72.10752653, 34.46413938], [72.10751892, 34.46417428], [72.10763855, 34.46419217], [72.10764616, 34.46415728]]]]}, "properties": {"id": "8J6JF475+M28P", "height": 3.025927066802979, "hmax": 0.0, "ratio": 0.0, "vulnClass": "none"}}, {"type": "Feature", "geometry": {"type": "MultiPolygon", "coordinates": [[[[72.10759288, 34.46432405], [72.10759805, 34.46429112], [72.10755476, 34.46428646], [72.10754959, 34.46431939], [72.10759288, 34.46432405]]]]}, "properties": {"id": "8J6JF475+P2G7", "height": 3.506322383880615, "hmax": 0.0, "ratio": 0.0, "vulnClass": "none"}}, {"type": "Feature", "geometry": {"type": "MultiPolygon", "coordinates": [[[[72.10756766, 34.46436772], [72.10748583, 34.46435825], [72.10747995, 34.46439313], [72.10756177, 34.4644026], [72.10756766, 34.46436772]]]]}, "properties": {"id": "8J6JF475+Q229", "height": 3.395898342132568, "hmax": 0.0, "ratio": 0.0, "vulnClass": "none"}}, {"type": "Feature", "geometry": {"type": "MultiPolygon", "coordinates": [[[[72.10754423, 34.46442874], [72.10746563, 34.46442474], [72.10746216, 34.46447156], [72.10754075, 34.46447556], [72.10754423, 34.46442874]]]]}, "properties": {"id": "8J6JF475+Q2J2", "height": 3.672460794448853, "hmax": 0.0, "ratio": 0.0, "vulnClass": "none"}}, {"type": "Feature", "geometry": {"type": "MultiPolygon", "coordinates": [[[[72.10754524, 34.46451001], [72.10745921, 34.46449733], [72.10744248, 34.46457521], [72.10752851, 34.46458788], [72.10754524, 34.46451001]]]]}, "properties": {"id": "8J6JF474+RX9Q", "height": 3.330423831939697, "hmax": 0.0, "ratio": 0.0, "vulnClass": "none"}}, {"type": "Feature", "geometry": {"type": "MultiPolygon", "coordinates": [[[[72.10767007, 34.46452629], [72.10757245, 34.46451688], [72.10756207, 34.46459075], [72.10765969, 34.46460016], [72.10767007, 34.46452629]]]]}, "properties": {"id": "8J6JF475+R2H8", "height": 2.98852276802063, "hmax": 0.0, "ratio": 0.0, "vulnClass": "none"}}, {"type": "Feature", "geometry": {"type": "MultiPolygon", "coordinates": [[[[72.10761547, 34.46475617], [72.10749504, 34.46474225], [72.10748088, 34.46482634], [72.10760131, 34.46484026], [72.10761547, 34.46475617]]]]}, "properties": {"id": "8J6JF475+W27P", "height": 2.977263212203979, "hmax": 0.0, "ratio": 0.0, "vulnClass": "none"}}, {"type": "Feature", "geometry": {"type": "MultiPolygon", "coordinates": [[[[72.1072877, 34.46477097], [72.10720104, 34.46475924], [72.10719297, 34.46480011], [72.10727964, 34.46481184], [72.1072877, 34.46477097]]]]}, "properties": {"id": "8J6JF474+WV9G", "height": 3.080070018768311, "hmax": 0.0, "ratio": 0.0, "vulnClass": "none"}}, {"type": "Feature", "geometry": {"type": "MultiPolygon", "coordinates": [[[[72.10749504, 34.46474225], [72.10738924, 34.46473003], [72.10737508, 34.46481412], [72.10748088, 34.46482634], [72.10749504, 34.46474225]]]]}, "properties": {"id": "8J6JF474+WX75", "height": 3.127204418182373, "hmax": 0.0, "ratio": 0.0, "vulnClass": "none"}}, {"type": "Feature", "geometry": {"type": "MultiPolygon", "coordinates": [[[[72.10750868, 34.46466125], [72.10740289, 34.46464903], [72.10738924, 34.46473003], [72.10749504, 34.46474225], [72.10750868, 34.46466125]]]]}, "properties": {"id": "8J6JF474+VXGV", "height": 2.939594030380249, "hmax": 0.0, "ratio": 0.0, "vulnClass": "none"}}, {"type": "Feature", "geometry": {"type": "MultiPolygon", "coordinates": [[[[72.10707982, 34.46461695], [72.10700961, 34.46460067], [72.10699769, 34.46463595], [72.10706775, 34.4646522], [72.10707982, 34.46461695]]]]}, "properties": {"id": "8J6JF474+VR32", "height": 2.633547782897949, "hmax": 0.0, "ratio": 0.0, "vulnClass": "none"}}, {"type": "Feature", "geometry": {"type": "MultiPolygon", "coordinates": [[[[72.10706656, 34.46465174], [72.10699393, 34.46463557], [72.10697985, 34.46467897], [72.10705248, 34.46469513], [72.10706656, 34.46465174]]]]}, "properties": {"id": "8J6JF474+VR6P", "height": 2.859817981719971, "hmax": 0.0, "ratio": 0.0, "vulnClass": "none"}}, {"type": "Feature", "geometry": {"type": "MultiPolygon", "coordinates": [[[[72.10698762, 34.46461756], [72.10692117, 34.46461058], [72.10691044, 34.46468065], [72.10697689, 34.46468763], [72.10698762, 34.46461756]]]]}, "properties": {"id": "8J6JF474+VQ4V", "height": 3.043112993240356, "hmax": 0.0, "ratio": 0.0, "vulnClass": "none"}}, {"type": "Feature", "geometry": {"type": "MultiPolygon", "coordinates": [[[[72.10696267, 34.46461505], [72.10696759, 34.46457098], [72.10692325, 34.46456758], [72.10691833, 34.46461166], [72.10696267, 34.46461505]]]]}, "properties": {"id": "8J6JF474+RQPJ", "height": 2.803773641586304, "hmax": 0.0, "ratio": 0.0, "vulnClass": "none"}}, {"type": "Feature", "geometry": {"type": "MultiPolygon", "coordinates": [[[[72.10685221, 34.46450814], [72.10679764, 34.46450295], [72.10678624, 34.46458512], [72.10684081, 34.46459031], [72.10685221, 34.46450814]]]]}, "properties": {"id": "8J6JF474+RP8R", "height": 3.838936805725098, "hmax": 0.0, "ratio": 0.0, "vulnClass": "none"}}, {"type": "Feature", "geometry": {"type": "MultiPolygon", "coordinates": [[[[72.10692117, 34.46461058], [72.10678999, 34.4645968], [72.10677926, 34.46466688], [72.10691044, 34.46468065], [72.10692117, 34.46461058]]]]}, "properties": {"id": "8J6JF474+VP5C", "height": 4.029789924621582, "hmax": 0.0, "ratio": 0.0, "vulnClass": "none"}}, {"type": "Feature", "geometry": {"type": "MultiPolygon", "coordinates": [[[[72.10652284, 34.46458196], [72.1064847, 34.46457934], [72.10647908, 34.46463551], [72.10651722, 34.46463813], [72.10652284, 34.46458196]]]]}, "properties": {"id": "8J6JF474+RJR6", "height": 2.485221147537231, "hmax": 0.0, "ratio": 0.0, "vulnClass": "none"}}, {"type": "Feature", "geometry": {"type": "MultiPolygon", "coordinates": [[[[72.10679752, 34.46452944], [72.10666491, 34.4645194], [72.10665972, 34.46456645], [72.10669878, 34.46456941], [72.10669601, 34.46459453], [72.10665695, 34.46459157], [72.1066486, 34.46466724], [72.10678121, 34.46467728], [72.10679752, 34.46452944]]]]}, "properties": {"id": "8J6JF474+RMQR", "height": 3.451384544372559, "hmax": 0.0, "ratio": 0.0, "vulnClass": "none"}}, {"type": "Feature", "geometry": {"type": "MultiPolygon", "coordinates": [[[[72.10690708, 34.46444852], [72.10680651, 34.46443895], [72.10679764, 34.46450295], [72.10685221, 34.46450814], [72.10684859, 34.46453418], [72.10689459, 34.46453856], [72.10690708, 34.46444852]]]]}, "properties": {"id": "8J6JF474+QPX7", "height": 2.977572917938232, "hmax": 0.0, "ratio": 0.0, "vulnClass": "none"}}, {"type": "Feature", "geometry": {"type": "MultiPolygon", "coordinates": [[[[72.10728703, 34.4644627], [72.10696042, 34.46439336], [72.10693674, 34.4644699], [72.10701409, 34.46448632], [72.10702389, 34.46445466], [72.10727314, 34.46450757], [72.10728703, 34.4644627]]]]}, "properties": {"id": "8J6JF474+QRQ2", "height": 2.993484497070312, "hmax": 0.0, "ratio": 0.0, "vulnClass": "none"}}, {"type": "Feature", "geometry": {"type": "MultiPolygon", "coordinates": [[[[72.10715996, 34.46437278], [72.1071142, 34.46436784], [72.10710807, 34.4644068], [72.10715383, 34.46441174], [72.10715996, 34.46437278]]]]}, "properties": {"id": "8J6JF474+QV2F", "height": 2.736892223358154, "hmax": 0.0, "ratio": 0.0, "vulnClass": "none"}}, {"type": "Feature", "geometry": {"type": "MultiPolygon", "coordinates": [[[[72.10708538, 34.46448822], [72.10704827, 34.46448034], [72.1070363, 34.46451901], [72.10707342, 34.46452689], [72.10708538, 34.46448822]]]]}, "properties": {"id": "8J6JF474+RR35", "height": 2.772909641265869, "hmax": 0.0, "ratio": 0.0, "vulnClass": "none"}}, {"type": "Feature", "geometry": {"type": "MultiPolygon", "coordinates": [[[[72.1070265, 34.46455386], [72.10703489, 34.4644974], [72.10700566, 34.46449442], [72.10699727, 34.46455088], [72.1070265, 34.46455386]]]]}, "properties": {"id": "8J6JF474+RR2W", "height": 2.772909641265869, "hmax": 0.0, "ratio": 0.0, "vulnClass": "none"}}, {"type": "Feature", "geometry": {"type": "MultiPolygon", "coordinates": [[[[72.10715825, 34.46461602], [72.10707384, 34.46459008], [72.10705917, 34.46462284], [72.10714358, 34.46464878], [72.10715825, 34.46461602]]]]}, "properties": {"id": "8J6JF474+RRXM", "height": 2.494275569915771, "hmax": 0.0, "ratio": 0.0, "vulnClass": "none"}}, {"type": "Feature", "geometry": {"type": "MultiPolygon", "coordinates": [[[[72.10719346, 34.46452168], [72.10709846, 34.46451138], [72.1070912, 34.46455731], [72.1071862, 34.4645676], [72.10719346, 34.46452168]]]]}, "properties": {"id": "8J6JF474+RV6G", "height": 2.569213628768921, "hmax": 0.0, "ratio": 0.0, "vulnClass": "none"}}, {"type": "Feature", "geometry": {"type": "MultiPolygon", "coordinates": [[[[72.1074527, 34.46449712], [72.10740361, 34.4644919], [72.10739764, 34.46453036], [72.10744673, 34.46453558], [72.1074527, 34.46449712]]]]}, "properties": {"id": "8J6JF474+RX3G", "height": 3.312811851501465, "hmax": 0.0, "ratio": 0.0, "vulnClass": "none"}}, {"type": "Feature", "geometry": {"type": "MultiPolygon", "coordinates": [[[[72.10740238, 34.46448718], [72.10728703, 34.4644627], [72.10727314, 34.46450757], [72.10738849, 34.46453206], [72.10740238, 34.46448718]]]]}, "properties": {"id": "8J6JF474+QWWX", "height": 2.678874492645264, "hmax": 0.0, "ratio": 0.0, "vulnClass": "none"}}, {"type": "Feature", "geometry": {"type": "MultiPolygon", "coordinates": [[[[72.10742463, 34.46427709], [72.10738791, 34.4642722], [72.10737894, 34.46431831], [72.10741566, 34.46432321], [72.10742463, 34.46427709]]]]}, "properties": {"id": "8J6JF474+PX6X", "height": 2.707790374755859, "hmax": 0.0, "ratio": 0.0, "vulnClass": "none"}}, {"type": "Feature", "geometry": {"type": "MultiPolygon", "coordinates": [[[[72.10721587, 34.46434163], [72.10722561, 34.46425696], [72.1071921, 34.46425431], [72.10718236, 34.46433898], [72.10721587, 34.46434163]]]]}, "properties": {"id": "8J6JF474+PV8W", "height": 3.34414529800415, "hmax": 0.0, "ratio": 0.0, "vulnClass": "none"}}, {"type": "Feature", "geometry": {"type": "MultiPolygon", "coordinates": [[[[72.10728018, 34.46435347], [72.1071945, 34.46434066], [72.10717645, 34.46442344], [72.10726213, 34.46443625], [72.10728018, 34.46435347]]]]}, "properties": {"id": "8J6JF474+QV5F", "height": 3.154128074645996, "hmax": 0.0, "ratio": 0.0, "vulnClass": "none"}}, {"type": "Feature", "geometry": {"type": "MultiPolygon", "coordinates": [[[[72.10710318, 34.46430045], [72.10699965, 34.46428497], [72.10698887, 34.46433443], [72.10697648, 34.46433258], [72.10696881, 34.46436778], [72.10708472, 34.46438512], [72.10710318, 34.46430045]]]]}, "properties": {"id": "8J6JF474+PRMF", "height": 3.728232860565186, "hmax": 0.0, "ratio": 0.0, "vulnClass": "none"}}, {"type": "Feature", "geometry": {"type": "MultiPolygon", "coordinates": [[[[72.10710995, 34.46420617], [72.10698799, 34.46418792], [72.10696787, 34.46428021], [72.10712026, 34.46430301], [72.10713589, 34.4642313], [72.10710546, 34.46422675], [72.10710995, 34.46420617]]]]}, "properties": {"id": "8J6JF474+MRVW", "height": 3.728232860565186, "hmax": 0.0, "ratio": 0.0, "vulnClass": "none"}}, {"type": "Feature", "geometry": {"type": "MultiPolygon", "coordinates": [[[[72.10702643, 34.46419478], [72.10701849, 34.4641502], [72.10698022, 34.46415487], [72.10698816, 34.46419946], [72.10702643, 34.46419478]]]]}, "properties": {"id": "8J6JF474+MR6R", "height": 2.697275161743164, "hmax": 0.0, "ratio": 0.0, "vulnClass": "none"}}, {"type": "Feature", "geometry": {"type": "MultiPolygon", "coordinates": [[[[72.10720708, 34.46417614], [72.10715906, 34.46416874], [72.10713495, 34.46427608], [72.10718297, 34.46428348], [72.10720708, 34.46417614]]]]}, "properties": {"id": "8J6JF474+MVV3", "height": 3.280282497406006, "hmax": 0.0, "ratio": 0.0, "vulnClass": "none"}}, {"type": "Feature", "geometry": {"type": "MultiPolygon", "coordinates": [[[[72.10737272, 34.46415241], [72.10723988, 34.46413254], [72.10723381, 34.4641604], [72.10736664, 34.46418027], [72.10737272, 34.46415241]]]]}, "properties": {"id": "8J6JF474+MW78", "height": 3.106614589691162, "hmax": 0.0, "ratio": 0.0, "vulnClass": "none"}}, {"type": "Feature", "geometry": {"type": "MultiPolygon", "coordinates": [[[[72.10736664, 34.46418027], [72.10723381, 34.4641604], [72.10721574, 34.46424325], [72.10734858, 34.46426312], [72.10736664, 34.46418027]]]]}, "properties": {"id": "8J6JF474+MWMF", "height": 3.344211101531982, "hmax": 0.0, "ratio": 0.0, "vulnClass": "none"}}, {"type": "Feature", "geometry": {"type": "MultiPolygon", "coordinates": [[[[72.10751643, 34.46421956], [72.10740114, 34.46420418], [72.10738791, 34.4642722], [72.1075032, 34.46428758], [72.10751643, 34.46421956]]]]}, "properties": {"id": "8J6JF474+MXWV", "height": 3.062927007675171, "hmax": 0.0, "ratio": 0.0, "vulnClass": "none"}}, {"type": "Feature", "geometry": {"type": "MultiPolygon", "coordinates": [[[[72.10744764, 34.46409229], [72.10738261, 34.46408826], [72.10737887, 34.46412968], [72.10744389, 34.46413371], [72.10744764, 34.46409229]]]]}, "properties": {"id": "8J6JF474+JXVC", "height": 2.535943746566772, "hmax": 0.0, "ratio": 0.0, "vulnClass": "none"}}, {"type": "Feature", "geometry": {"type": "MultiPolygon", "coordinates": [[[[72.10727608, 34.46406874], [72.10723748, 34.46406305], [72.10722926, 34.46410128], [72.10726787, 34.46410698], [72.10727608, 34.46406874]]]]}, "properties": {"id": "8J6JF474+JWJC", "height": 3.045270919799805, "hmax": 0.0, "ratio": 0.0, "vulnClass": "none"}}, {"type": "Feature", "geometry": {"type": "MultiPolygon", "coordinates": [[[[72.10735285, 34.46414798], [72.10738559, 34.46404775], [72.10734002, 34.46403727], [72.10732433, 34.46408409], [72.10728028, 34.46407396], [72.10726257, 34.46412678], [72.10735285, 34.46414798]]]]}, "properties": {"id": "8J6JF474+JWPW", "height": 3.14853835105896, "hmax": 0.0, "ratio": 0.0, "vulnClass": "none"}}, {"type": "Feature", "geometry": {"type": "MultiPolygon", "coordinates": [[[[72.10744407, 34.46402809], [72.10740122, 34.46402168], [72.1073901, 34.4640727], [72.10743295, 34.46407911], [72.10744407, 34.46402809]]]]}, "properties": {"id": "8J6JF474+JXF3", "height": 2.627802610397339, "hmax": 0.0, "ratio": 0.0, "vulnClass": "none"}}, {"type": "Feature", "geometry": {"type": "MultiPolygon", "coordinates": [[[[72.10744404, 34.46396064], [72.1073085, 34.46395104], [72.10730166, 34.46401722], [72.1074372, 34.46402683], [72.10744404, 34.46396064]]]]}, "properties": {"id": "8J6JF474+HWXH", "height": 3.45720386505127, "hmax": 0.001, "ratio": 0.0, "vulnClass": "none"}}, {"type": "Feature", "geometry": {"type": "MultiPolygon", "coordinates": [[[[72.10757952, 34.46402687], [72.10760456, 34.46391201], [72.10757701, 34.46390788], [72.10756683, 34.46395456], [72.10742063, 34.46393269], [72.10741537, 34.46395678], [72.10745822, 34.46396319], [72.10744861, 34.46400728], [72.10757952, 34.46402687]]]]}, "properties": {"id": "8J6JF475+H2JW", "height": 3.975039005279541, "hmax": 0.0, "ratio": 0.0, "vulnClass": "none"}}, {"type": "Feature", "geometry": {"type": "MultiPolygon", "coordinates": [[[[72.10729355, 34.46398993], [72.1072867, 34.4639512], [72.10716489, 34.46396599], [72.10717174, 34.46400472], [72.10729355, 34.46398993]]]]}, "properties": {"id": "8J6JF474+HVX3", "height": 3.431695699691772, "hmax": 0.001, "ratio": 0.0, "vulnClass": "none"}}, {"type": "Feature", "geometry": {"type": "MultiPolygon", "coordinates": [[[[72.10679962, 34.46409545], [72.10675529, 34.46408882], [72.10674172, 34.46415108], [72.10678604, 34.46415771], [72.10679962, 34.46409545]]]]}, "properties": {"id": "8J6JF474+JPRW", "height": 2.611485958099365, "hmax": 0.0, "ratio": 0.0, "vulnClass": "none"}}, {"type": "Feature", "geometry": {"type": "MultiPolygon", "coordinates": [[[[72.10673176, 34.46408285], [72.10669913, 34.46408002], [72.10669351, 34.46412457], [72.10672613, 34.46412739], [72.10673176, 34.46408285]]]]}, "properties": {"id": "8J6JF474+JMW5", "height": 2.611485958099365, "hmax": 0.0, "ratio": 0.0, "vulnClass": "none"}}, {"type": "Feature", "geometry": {"type": "MultiPolygon", "coordinates": [[[[72.10701817, 34.46404955], [72.10678037, 34.46401398], [72.10676378, 34.46409009], [72.10697208, 34.46412125], [72.10696881, 34.46413627], [72.10701769, 34.46414358], [72.10702705, 34.4641007], [72.10708503, 34.46410937], [72.10706988, 34.46417886], [72.10712781, 34.46418752], [72.10717017, 34.46399323], [72.10711225, 34.46398457], [72.10712769, 34.46391375], [72.1070503, 34.46390217], [72.10701817, 34.46404955]]]]}, "properties": {"id": "8J6JF474+JRC3", "height": 3.075076580047607, "hmax": 0.001, "ratio": 0.0, "vulnClass": "none"}}, {"type": "Feature", "geometry": {"type": "MultiPolygon", "coordinates": [[[[72.10678933, 34.46393336], [72.1067283, 34.46392525], [72.10671572, 34.46399014], [72.10677675, 34.46399826], [72.10678933, 34.46393336]]]]}, "properties": {"id": "8J6JF474+HPJC", "height": 3.157725095748901, "hmax": 0.001, "ratio": 0.0, "vulnClass": "none"}}, {"type": "Feature", "geometry": {"type": "MultiPolygon", "coordinates": [[[[72.10663051, 34.46391248], [72.10655533, 34.46390218], [72.10651735, 34.46409239], [72.10659253, 34.46410269], [72.10663051, 34.46391248]]]]}, "properties": {"id": "8J6JF474+JJ43", "height": 2.979551076889038, "hmax": 0.001, "ratio": 0.0, "vulnClass": "none"}}, {"type": "Feature", "geometry": {"type": "MultiPolygon", "coordinates": [[[[72.10653959, 34.46421152], [72.10647554, 34.46420202], [72.10646266, 34.46426154], [72.10652671, 34.46427105], [72.10653959, 34.46421152]]]]}, "properties": {"id": "8J6JF474+MJRC", "height": 3.837303161621094, "hmax": 0.0, "ratio": 0.0, "vulnClass": "none"}}, {"type": "Feature", "geometry": {"type": "MultiPolygon", "coordinates": [[[[72.10668295, 34.46425015], [72.10653596, 34.46422833], [72.10652671, 34.46427105], [72.10667371, 34.46429287], [72.10668295, 34.46425015]]]]}, "properties": {"id": "8J6JF474+PJ5F", "height": 3.837303161621094, "hmax": 0.0, "ratio": 0.0, "vulnClass": "none"}}, {"type": "Feature", "geometry": {"type": "MultiPolygon", "coordinates": [[[[72.10690348, 34.46427058], [72.10677535, 34.46425141], [72.10676134, 34.46431569], [72.10688946, 34.46433486], [72.10690348, 34.46427058]]]]}, "properties": {"id": "8J6JF474+PP8P", "height": 2.49336314201355, "hmax": 0.0, "ratio": 0.0, "vulnClass": "none"}}, {"type": "Feature", "geometry": {"type": "MultiPolygon", "coordinates": [[[[72.10698245, 34.4642851], [72.10692458, 34.46427194], [72.10690326, 34.46433629], [72.10696112, 34.46434945], [72.10698245, 34.4642851]]]]}, "properties": {"id": "8J6JF474+PQGC", "height": 2.79617714881897, "hmax": 0.0, "ratio": 0.0, "vulnClass": "none"}}, {"type": "Feature", "geometry": {"type": "MultiPolygon", "coordinates": [[[[72.10685091, 34.46437011], [72.1066735, 34.46433245], [72.10665366, 34.46439657], [72.1067961, 34.46442681], [72.10680205, 34.46440756], [72.10683702, 34.46441498], [72.10685091, 34.46437011]]]]}, "properties": {"id": "8J6JF474+QM59", "height": 2.579102993011475, "hmax": 0.0, "ratio": 0.0, "vulnClass": "none"}}, {"type": "Feature", "geometry": {"type": "MultiPolygon", "coordinates": [[[[72.10666963, 34.46432426], [72.10655881, 34.46430194], [72.10654613, 34.46434514], [72.10665695, 34.46436746], [72.10666963, 34.46432426]]]]}, "properties": {"id": "8J6JF474+PJQ7", "height": 3.099360227584839, "hmax": 0.0, "ratio": 0.0, "vulnClass": "none"}}, {"type": "Feature", "geometry": {"type": "MultiPolygon", "coordinates": [[[[72.10638731, 34.46418987], [72.10635856, 34.46418743], [72.10635116, 34.46424748], [72.10637991, 34.46424991], [72.10638731, 34.46418987]]]]}, "properties": {"id": "8J6JF474+MGQQ", "height": 2.968186855316162, "hmax": 0.001, "ratio": 0.0, "vulnClass": "none"}}, {"type": "Feature", "geometry": {"type": "MultiPolygon", "coordinates": [[[[72.10649521, 34.46407572], [72.10637361, 34.46406544], [72.10636754, 34.46411466], [72.10639628, 34.46411709], [72.10639201, 34.46415178], [72.10645264, 34.46415691], [72.10645691, 34.46412222], [72.10648914, 34.46412494], [72.10649521, 34.46407572]]]]}, "properties": {"id": "8J6JF474+JHV8", "height": 2.749301195144653, "hmax": 0.0, "ratio": 0.0, "vulnClass": "none"}}, {"type": "Feature", "geometry": {"type": "MultiPolygon", "coordinates": [[[[72.10639628, 34.46411709], [72.10626211, 34.46410574], [72.10625314, 34.46417852], [72.10638731, 34.46418987], [72.10639628, 34.46411709]]]]}, "properties": {"id": "8J6JF474+MG4V", "height": 2.968186855316162, "hmax": 0.001, "ratio": 0.0, "vulnClass": "none"}}, {"type": "Feature", "geometry": {"type": "MultiPolygon", "coordinates": [[[[72.10654358, 34.46438906], [72.10640631, 34.464379], [72.10639493, 34.46448547], [72.10653221, 34.46449553], [72.10654358, 34.46438906]]]]}, "properties": {"id": "8J6JF474+QHHC", "height": 2.950903177261353, "hmax": 0.0, "ratio": 0.0, "vulnClass": "none"}}, {"type": "Feature", "geometry": {"type": "MultiPolygon", "coordinates": [[[[72.10640112, 34.46449519], [72.10637559, 34.46449143], [72.10636735, 34.46452978], [72.10639287, 34.46453354], [72.10640112, 34.46449519]]]]}, "properties": {"id": "8J6JF474+RH2F", "height": 2.631577014923096, "hmax": 0.0, "ratio": 0.0, "vulnClass": "none"}}, {"type": "Feature", "geometry": {"type": "MultiPolygon", "coordinates": [[[[72.10645701, 34.46450473], [72.10642211, 34.46450211], [72.10641731, 34.46454607], [72.10645221, 34.46454868], [72.10645701, 34.46450473]]]]}, "properties": {"id": "8J6JF474+RH75", "height": 2.857860803604126, "hmax": 0.0, "ratio": 0.0, "vulnClass": "none"}}, {"type": "Feature", "geometry": {"type": "MultiPolygon", "coordinates": [[[[72.10652284, 34.46458196], [72.10653139, 34.46449664], [72.10649325, 34.46449402], [72.10648832, 34.46454322], [72.10639137, 34.46453656], [72.10638775, 34.46457267], [72.10652284, 34.46458196]]]]}, "properties": {"id": "8J6JF474+RH9R", "height": 2.879093170166016, "hmax": 0.0, "ratio": 0.0, "vulnClass": "none"}}, {"type": "Feature", "geometry": {"type": "MultiPolygon", "coordinates": [[[[72.10539671, 34.46448285], [72.10536705, 34.46447578], [72.10535696, 34.46450481], [72.10538662, 34.46451188], [72.10539671, 34.46448285]]]]}, "properties": {"id": "8J6JF474+Q5RJ", "height": 2.743685483932495, "hmax": 0.001, "ratio": 0.0, "vulnClass": "none"}}, {"type": "Feature", "geometry": {"type": "MultiPolygon", "coordinates": [[[[72.10478512, 34.46472483], [72.10477696, 34.46463495], [72.10447778, 34.46465358], [72.10448594, 34.46474346], [72.10478512, 34.46472483]]]]}, "properties": {"id": "8J6JF473+VVCC", "height": 2.991520404815674, "hmax": 0.003, "ratio": 0.001, "vulnClass": "none"}}, {"type": "Feature", "geometry": {"type": "MultiPolygon", "coordinates": [[[[72.10389121, 34.46450218], [72.10390114, 34.46440685], [72.10387497, 34.46440498], [72.10387227, 34.46443087], [72.10379565, 34.4644254], [72.10378842, 34.46449484], [72.10389121, 34.46450218]]]]}, "properties": {"id": "8J6JF473+QGQ6", "height": 3.63784646987915, "hmax": 0.001, "ratio": 0.0, "vulnClass": "none"}}, {"type": "Feature", "geometry": {"type": "MultiPolygon", "coordinates": [[[[72.10418894, 34.46413099], [72.104151, 34.46412738], [72.10414368, 34.46418016], [72.10418163, 34.46418377], [72.10418894, 34.46413099]]]]}, "properties": {"id": "8J6JF473+MM77", "height": 2.557915925979614, "hmax": 0.001, "ratio": 0.0, "vulnClass": "none"}}, {"type": "Feature", "geometry": {"type": "MultiPolygon", "coordinates": [[[[72.10404854, 34.46433282], [72.10393736, 34.46432573], [72.10392824, 34.46442373], [72.10403943, 34.46443082], [72.10404854, 34.46433282]]]]}, "properties": {"id": "8J6JF473+QH54", "height": 3.224339008331299, "hmax": 0.001, "ratio": 0.0, "vulnClass": "none"}}, {"type": "Feature", "geometry": {"type": "MultiPolygon", "coordinates": [[[[72.10391571, 34.464253], [72.10375427, 34.46423978], [72.10374952, 34.46427957], [72.10387282, 34.46428966], [72.10386653, 34.46434238], [72.10390467, 34.46434551], [72.10391571, 34.464253]]]]}, "properties": {"id": "8J6JF473+PG92", "height": 4.041135311126709, "hmax": 0.001, "ratio": 0.0, "vulnClass": "none"}}, {"type": "Feature", "geometry": {"type": "MultiPolygon", "coordinates": [[[[72.10380707, 34.46420089], [72.10375937, 34.46419698], [72.10375427, 34.46423978], [72.10380196, 34.46424369], [72.10380707, 34.46420089]]]]}, "properties": {"id": "8J6JF473+MGJX", "height": 2.448675632476807, "hmax": 0.001, "ratio": 0.0, "vulnClass": "none"}}, {"type": "Feature", "geometry": {"type": "MultiPolygon", "coordinates": [[[[72.10369364, 34.46423269], [72.10363103, 34.46423555], [72.10364432, 34.46443552], [72.10370693, 34.46443267], [72.10369364, 34.46423269]]]]}, "properties": {"id": "8J6JF473+PFM7", "height": 4.428271293640137, "hmax": 0.001, "ratio": 0.0, "vulnClass": "none"}}, {"type": "Feature", "geometry": {"type": "MultiPolygon", "coordinates": [[[[72.10352596, 34.46417787], [72.10352086, 34.46422067], [72.10375427, 34.46423978], [72.10375937, 34.46419698], [72.10352596, 34.46417787]]]]}, "properties": {"id": "8J6JF473+MFJ7", "height": 3.054972410202026, "hmax": 0.001, "ratio": 0.0, "vulnClass": "none"}}, {"type": "Feature", "geometry": {"type": "MultiPolygon", "coordinates": [[[[72.10359836, 34.46412951], [72.10354498, 34.46412549], [72.10353847, 34.46418477], [72.10359185, 34.46418879], [72.10359836, 34.46412951]]]]}, "properties": {"id": "8J6JF473+MC86", "height": 2.570369005203247, "hmax": 0.001, "ratio": 0.0, "vulnClass": "none"}}, {"type": "Feature", "geometry": {"type": "MultiPolygon", "coordinates": [[[[72.10439729, 34.46403617], [72.1039897, 34.46400105], [72.10397948, 34.46408241], [72.10438708, 34.46411753], [72.10439729, 34.46403617]]]]}, "properties": {"id": "8J6JF473+JMG6", "height": 2.619594812393188, "hmax": 0.002, "ratio": 0.001, "vulnClass": "none"}}, {"type": "Feature", "geometry": {"type": "MultiPolygon", "coordinates": [[[[72.10357551, 34.46393685], [72.10354273, 34.46393274], [72.1035277, 34.46401503], [72.10363826, 34.46402888], [72.1036479, 34.46397616], [72.10357011, 34.46396641], [72.10357551, 34.46393685]]]]}, "properties": {"id": "8J6JF473+HCWG", "height": 3.05210280418396, "hmax": 0.001, "ratio": 0.0, "vulnClass": "none"}}, {"type": "Feature", "geometry": {"type": "MultiPolygon", "coordinates": [[[[72.10397775, 34.46396973], [72.10389445, 34.46395929], [72.10388592, 34.46400599], [72.10396921, 34.46401643], [72.10397775, 34.46396973]]]]}, "properties": {"id": "8J6JF473+HHVH", "height": 2.730301380157471, "hmax": 0.001, "ratio": 0.0, "vulnClass": "none"}}, {"type": "Feature", "geometry": {"type": "MultiPolygon", "coordinates": [[[[72.10406531, 34.46392509], [72.10399994, 34.46391946], [72.1039897, 34.46400105], [72.10405506, 34.46400668], [72.10406531, 34.46392509]]]]}, "properties": {"id": "8J6JF473+HJJH", "height": 2.476509571075439, "hmax": 0.001, "ratio": 0.0, "vulnClass": "none"}}, {"type": "Feature", "geometry": {"type": "MultiPolygon", "coordinates": [[[[72.10398829, 34.46391202], [72.10394328, 34.46390638], [72.10393274, 34.46396409], [72.10397775, 34.46396973], [72.10398829, 34.46391202]]]]}, "properties": {"id": "8J6JF473+HHGG", "height": 2.722861766815186, "hmax": 0.001, "ratio": 0.0, "vulnClass": "none"}}, {"type": "Feature", "geometry": {"type": "MultiPolygon", "coordinates": [[[[72.10513518, 34.46427287], [72.10511599, 34.46418545], [72.10502969, 34.46419844], [72.10504888, 34.46428587], [72.10513518, 34.46427287]]]]}, "properties": {"id": "8J6JF474+M2WG", "height": 2.791424989700317, "hmax": 0.003, "ratio": 0.001, "vulnClass": "none"}}, {"type": "Feature", "geometry": {"type": "MultiPolygon", "coordinates": [[[[72.10367189, 34.46385667], [72.10363517, 34.46384926], [72.10361425, 34.46392034], [72.10365097, 34.46392775], [72.10367189, 34.46385667]]]]}, "properties": {"id": "8J6JF473+HF2G", "height": 3.072369813919067, "hmax": 0.001, "ratio": 0.0, "vulnClass": "none"}}, {"type": "Feature", "geometry": {"type": "MultiPolygon", "coordinates": [[[[72.10362377, 34.46381526], [72.10356427, 34.46380918], [72.10354824, 34.46391678], [72.10360774, 34.46392286], [72.10362377, 34.46381526]]]]}, "properties": {"id": "8J6JF473+GCWQ", "height": 3.103872299194336, "hmax": 0.001, "ratio": 0.0, "vulnClass": "none"}}, {"type": "Feature", "geometry": {"type": "MultiPolygon", "coordinates": [[[[72.10308543, 34.46380758], [72.10301528, 34.46381209], [72.1030214, 34.4638774], [72.10309155, 34.46387289], [72.10308543, 34.46380758]]]]}, "properties": {"id": "8J6JF473+G6MP", "height": 2.861188173294067, "hmax": 0.002, "ratio": 0.001, "vulnClass": "none"}}, {"type": "Feature", "geometry": {"type": "MultiPolygon", "coordinates": [[[[72.10297223, 34.46333092], [72.10285236, 34.46333811], [72.10287431, 34.46358894], [72.10299418, 34.46358175], [72.10297223, 34.46333092]]]]}, "properties": {"id": "8J6JF473+95M8", "height": 2.93818211555481, "hmax": 0.002, "ratio": 0.001, "vulnClass": "none"}}, {"type": "Feature", "geometry": {"type": "MultiPolygon", "coordinates": [[[[72.10244482, 34.46318048], [72.10239593, 34.46318258], [72.10240323, 34.46329911], [72.10245212, 34.46329701], [72.10244482, 34.46318048]]]]}, "properties": {"id": "8J6JF472+7XVG", "height": 2.470176458358765, "hmax": 0.002, "ratio": 0.001, "vulnClass": "none"}}, {"type": "Feature", "geometry": {"type": "MultiPolygon", "coordinates": [[[[72.1025942, 34.4638443], [72.1024459, 34.4638372], [72.1024426, 34.4638847], [72.1024737, 34.4638862], [72.1024674, 34.4639769], [72.1025048, 34.4639786], [72.1025007, 34.4640377], [72.1026736, 34.4640458], [72.1026755, 34.4640188], [72.1025333, 34.464012], [72.1025436, 34.4638626], [72.1025928, 34.4638649], [72.1025942, 34.4638443]]]]}, "properties": {"id": "8J6JF473+H2CH", "height": 3.354330539703369, "hmax": 0.002, "ratio": 0.001, "vulnClass": "none"}}, {"type": "Feature", "geometry": {"type": "MultiPolygon", "coordinates": [[[[72.10244443, 34.46385786], [72.10244945, 34.46378515], [72.10227692, 34.46377698], [72.10226852, 34.4638988], [72.10232126, 34.4639013], [72.10232465, 34.46385219], [72.10244443, 34.46385786]]]]}, "properties": {"id": "8J6JF472+GWQ2", "height": 3.621622562408447, "hmax": 0.002, "ratio": 0.001, "vulnClass": "none"}}, {"type": "Feature", "geometry": {"type": "MultiPolygon", "coordinates": [[[[72.1022719, 34.4638497], [72.10227692, 34.46377698], [72.10213895, 34.46377045], [72.10213393, 34.46384317], [72.1022719, 34.4638497]]]]}, "properties": {"id": "8J6JF472+GVGG", "height": 2.486440896987915, "hmax": 0.002, "ratio": 0.001, "vulnClass": "none"}}, {"type": "Feature", "geometry": {"type": "MultiPolygon", "coordinates": [[[[72.10202298, 34.4639461], [72.10202007, 34.46386187], [72.1017691, 34.46386781], [72.10177201, 34.46395204], [72.10202298, 34.4639461]]]]}, "properties": {"id": "8J6JF472+HQ68", "height": 3.79822039604187, "hmax": 0.002, "ratio": 0.001, "vulnClass": "none"}}, {"type": "Feature", "geometry": {"type": "MultiPolygon", "coordinates": [[[[72.10216429, 34.46416905], [72.10211771, 34.46417022], [72.10212047, 34.46424599], [72.10222568, 34.46424336], [72.10222453, 34.4642117], [72.1021659, 34.46421316], [72.10216429, 34.46416905]]]]}, "properties": {"id": "8J6JF472+MVMC", "height": 2.905404329299927, "hmax": 0.002, "ratio": 0.001, "vulnClass": "none"}}, {"type": "Feature", "geometry": {"type": "MultiPolygon", "coordinates": [[[[72.102408, 34.46425501], [72.1024059, 34.46416682], [72.10225996, 34.46416921], [72.10226206, 34.4642574], [72.102408, 34.46425501]]]]}, "properties": {"id": "8J6JF472+MWPG", "height": 3.263071775436401, "hmax": 0.002, "ratio": 0.001, "vulnClass": "none"}}, {"type": "Feature", "geometry": {"type": "MultiPolygon", "coordinates": [[[[72.10247336, 34.46411807], [72.10241599, 34.4641195], [72.10242089, 34.46425388], [72.10247826, 34.46425245], [72.10247336, 34.46411807]]]]}, "properties": {"id": "8J6JF472+MXGF", "height": 2.844567537307739, "hmax": 0.002, "ratio": 0.001, "vulnClass": "none"}}, {"type": "Feature", "geometry": {"type": "MultiPolygon", "coordinates": [[[[72.10230762, 34.46411644], [72.1023102, 34.4640748], [72.10223492, 34.4640716], [72.10222951, 34.46415893], [72.10227411, 34.46416083], [72.10227694, 34.46411513], [72.10230762, 34.46411644]]]]}, "properties": {"id": "8J6JF472+JWRF", "height": 2.964492559432983, "hmax": 0.002, "ratio": 0.001, "vulnClass": "none"}}, {"type": "Feature", "geometry": {"type": "MultiPolygon", "coordinates": [[[[72.10247504, 34.46404717], [72.1024755, 34.46400051], [72.10226885, 34.46399913], [72.1022684, 34.46404579], [72.10247504, 34.46404717]]]]}, "properties": {"id": "8J6JF472+JW5X", "height": 5.004791259765625, "hmax": 0.002, "ratio": 0.0, "vulnClass": "none"}}, {"type": "Feature", "geometry": {"type": "MultiPolygon", "coordinates": [[[[72.1032356, 34.46421689], [72.10322622, 34.46402418], [72.10318152, 34.46402567], [72.10318742, 34.464147], [72.10307277, 34.46415083], [72.10307624, 34.46422221], [72.1032356, 34.46421689]]]]}, "properties": {"id": "8J6JF473+M773", "height": 5.982481956481934, "hmax": 0.001, "ratio": 0.0, "vulnClass": "none"}}, {"type": "Feature", "geometry": {"type": "MultiPolygon", "coordinates": [[[[72.1033963, 34.4642393], [72.10329, 34.4642357], [72.1032881, 34.4642735], [72.1033382, 34.4642752], [72.1033343, 34.4643536], [72.1033905, 34.4643556], [72.1033963, 34.4642393]]]]}, "properties": {"id": "8J6JF473+P89F", "height": 3.456660509109497, "hmax": 0.001, "ratio": 0.0, "vulnClass": "none"}}, {"type": "Feature", "geometry": {"type": "MultiPolygon", "coordinates": [[[[72.10339733, 34.46434734], [72.1034831, 34.46434409], [72.10348058, 34.4642985], [72.10339481, 34.46430175], [72.10339733, 34.46434734]]]]}, "properties": {"id": "8J6JF473+P9GR", "height": 2.837292194366455, "hmax": 0.001, "ratio": 0.0, "vulnClass": "none"}}, {"type": "Feature", "geometry": {"type": "MultiPolygon", "coordinates": [[[[72.10335485, 34.46453546], [72.10335061, 34.46449693], [72.10325785, 34.46450393], [72.10326209, 34.46454246], [72.10335485, 34.46453546]]]]}, "properties": {"id": "8J6JF473+R83Q", "height": 3.115126371383667, "hmax": 0.001, "ratio": 0.0, "vulnClass": "none"}}, {"type": "Feature", "geometry": {"type": "MultiPolygon", "coordinates": [[[[72.10253276, 34.4647393], [72.102492, 34.46473762], [72.10248932, 34.46478204], [72.10253009, 34.46478372], [72.10253276, 34.4647393]]]]}, "properties": {"id": "8J6JF473+W22F", "height": 3.030594348907471, "hmax": 0.001, "ratio": 0.0, "vulnClass": "none"}}, {"type": "Feature", "geometry": {"type": "MultiPolygon", "coordinates": [[[[72.10254718, 34.46487694], [72.1025419, 34.4648021], [72.1021829, 34.46481948], [72.10218818, 34.46489432], [72.10254718, 34.46487694]]]]}, "properties": {"id": "8J6JF472+WWQW", "height": 6.127408027648926, "hmax": 0.001, "ratio": 0.0, "vulnClass": "none"}}, {"type": "Feature", "geometry": {"type": "MultiPolygon", "coordinates": [[[[72.10209533, 34.46476915], [72.10209681, 34.46472636], [72.10206469, 34.4647256], [72.10206321, 34.46476838], [72.10209533, 34.46476915]]]]}, "properties": {"id": "8J6JF472+VRWW", "height": 2.857266664505005, "hmax": 0.001, "ratio": 0.0, "vulnClass": "none"}}, {"type": "Feature", "geometry": {"type": "MultiPolygon", "coordinates": [[[[72.10270999, 34.46479359], [72.10270267, 34.46469786], [72.10253339, 34.46470673], [72.10254629, 34.46487554], [72.10266566, 34.46486928], [72.10266008, 34.4647962], [72.10270999, 34.46479359]]]]}, "properties": {"id": "8J6JF473+W298", "height": 3.500305891036987, "hmax": 0.001, "ratio": 0.0, "vulnClass": "none"}}, {"type": "Feature", "geometry": {"type": "MultiPolygon", "coordinates": [[[[72.10269044, 34.4647002], [72.1026847, 34.46463642], [72.10251435, 34.46464694], [72.10251762, 34.46468318], [72.10255598, 34.46468081], [72.10255846, 34.46470835], [72.10269044, 34.4647002]]]]}, "properties": {"id": "8J6JF473+V29V", "height": 2.485430479049683, "hmax": 0.002, "ratio": 0.001, "vulnClass": "none"}}, {"type": "Feature", "geometry": {"type": "MultiPolygon", "coordinates": [[[[72.10228273, 34.46466452], [72.10227678, 34.46455798], [72.10217726, 34.46456179], [72.10218321, 34.46466833], [72.10228273, 34.46466452]]]]}, "properties": {"id": "8J6JF472+RVXF", "height": 5.647954940795898, "hmax": 0.002, "ratio": 0.0, "vulnClass": "none"}}, {"type": "Feature", "geometry": {"type": "MultiPolygon", "coordinates": [[[[72.10216755, 34.46458357], [72.10210774, 34.46458215], [72.1021067, 34.46461224], [72.10216651, 34.46461366], [72.10216755, 34.46458357]]]]}, "properties": {"id": "8J6JF472+RVJV", "height": 3.555608987808228, "hmax": 0.002, "ratio": 0.001, "vulnClass": "none"}}, {"type": "Feature", "geometry": {"type": "MultiPolygon", "coordinates": [[[[72.10217482, 34.46539153], [72.1021579, 34.46527518], [72.10210828, 34.46528013], [72.1021252, 34.46539648], [72.10217482, 34.46539153]]]]}, "properties": {"id": "8J6JF482+4VJG", "height": 2.651990413665771, "hmax": 0.001, "ratio": 0.0, "vulnClass": "none"}}, {"type": "Feature", "geometry": {"type": "MultiPolygon", "coordinates": [[[[72.10262425, 34.4653467], [72.10254329, 34.46535478], [72.10256788, 34.46552388], [72.10261069, 34.46551961], [72.10260841, 34.46550393], [72.10264656, 34.46550013], [72.10262425, 34.4653467]]]]}, "properties": {"id": "8J6JF483+52H6", "height": 2.924965381622314, "hmax": 0.001, "ratio": 0.0, "vulnClass": "none"}}, {"type": "Feature", "geometry": {"type": "MultiPolygon", "coordinates": [[[[72.10279905, 34.46550425], [72.10279283, 34.46546077], [72.10264232, 34.46547553], [72.10264853, 34.46551901], [72.10279905, 34.46550425]]]]}, "properties": {"id": "8J6JF483+53XC", "height": 3.65400218963623, "hmax": 0.001, "ratio": 0.0, "vulnClass": "none"}}, {"type": "Feature", "geometry": {"type": "MultiPolygon", "coordinates": [[[[72.10290813, 34.46549356], [72.10290192, 34.46545007], [72.10279283, 34.46546077], [72.10279905, 34.46550425], [72.10290813, 34.46549356]]]]}, "properties": {"id": "8J6JF483+54X2", "height": 4.096152782440186, "hmax": 0.001, "ratio": 0.0, "vulnClass": "none"}}, {"type": "Feature", "geometry": {"type": "MultiPolygon", "coordinates": [[[[72.10291098, 34.46571048], [72.10290207, 34.46566726], [72.10264382, 34.46570381], [72.10265273, 34.46574703], [72.10291098, 34.46571048]]]]}, "properties": {"id": "8J6JF483+74J9", "height": 3.732996463775635, "hmax": 0.001, "ratio": 0.0, "vulnClass": "none"}}, {"type": "Feature", "geometry": {"type": "MultiPolygon", "coordinates": [[[[72.10276704, 34.46590082], [72.10273297, 34.46573567], [72.10265273, 34.46574703], [72.1026868, 34.46591218], [72.10276704, 34.46590082]]]]}, "properties": {"id": "8J6JF483+83GW", "height": 4.116973400115967, "hmax": 0.001, "ratio": 0.0, "vulnClass": "none"}}, {"type": "Feature", "geometry": {"type": "MultiPolygon", "coordinates": [[[[72.10283128, 34.46576214], [72.10282293, 34.46571979], [72.10275795, 34.46572858], [72.1027663, 34.46577093], [72.10283128, 34.46576214]]]]}, "properties": {"id": "8J6JF483+74VV", "height": 3.879451036453247, "hmax": 0.001, "ratio": 0.0, "vulnClass": "none"}}, {"type": "Feature", "geometry": {"type": "MultiPolygon", "coordinates": [[[[72.10256224, 34.4655536], [72.10255091, 34.46548532], [72.10237963, 34.4655048], [72.10239096, 34.46557309], [72.10256224, 34.4655536]]]]}, "properties": {"id": "8J6JF482+6X92", "height": 3.932332992553711, "hmax": 0.001, "ratio": 0.0, "vulnClass": "none"}}, {"type": "Feature", "geometry": {"type": "MultiPolygon", "coordinates": [[[[72.10255914, 34.46546377], [72.10254329, 34.46535478], [72.10244201, 34.46536488], [72.10245786, 34.46547387], [72.10255914, 34.46546377]]]]}, "properties": {"id": "8J6JF483+526C", "height": 3.121149063110352, "hmax": 0.001, "ratio": 0.0, "vulnClass": "none"}}, {"type": "Feature", "geometry": {"type": "MultiPolygon", "coordinates": [[[[72.1023927, 34.46542722], [72.1023458, 34.4654319], [72.10235342, 34.46548428], [72.10240032, 34.46547961], [72.1023927, 34.46542722]]]]}, "properties": {"id": "8J6JF482+5WQ9", "height": 4.084843158721924, "hmax": 0.001, "ratio": 0.0, "vulnClass": "none"}}, {"type": "Feature", "geometry": {"type": "MultiPolygon", "coordinates": [[[[72.10225007, 34.46538403], [72.10221133, 34.46538789], [72.10221956, 34.46544449], [72.1022583, 34.46544062], [72.10225007, 34.46538403]]]]}, "properties": {"id": "8J6JF482+5V9G", "height": 3.010449647903442, "hmax": 0.001, "ratio": 0.0, "vulnClass": "none"}}, {"type": "Feature", "geometry": {"type": "MultiPolygon", "coordinates": [[[[72.1023332, 34.4653452], [72.1021704, 34.4653615], [72.1021748, 34.4653915], [72.1022501, 34.465384], [72.1022583, 34.4654406], [72.1023311, 34.4654334], [72.1023279, 34.465412], [72.1024471, 34.4654001], [72.102442, 34.4653649], [72.1023376, 34.4653753], [72.1023332, 34.4653452]]]]}, "properties": {"id": "8J6JF482+5W3H", "height": 3.413611173629761, "hmax": 0.001, "ratio": 0.0, "vulnClass": "none"}}, {"type": "Feature", "geometry": {"type": "MultiPolygon", "coordinates": [[[[72.10223798, 34.46559049], [72.10220664, 34.46540147], [72.10211699, 34.46541167], [72.10214834, 34.46560069], [72.10223798, 34.46559049]]]]}, "properties": {"id": "8J6JF482+6V34", "height": 3.851749181747437, "hmax": 0.001, "ratio": 0.0, "vulnClass": "none"}}, {"type": "Feature", "geometry": {"type": "MultiPolygon", "coordinates": [[[[72.1021252, 34.46539648], [72.10202881, 34.46540609], [72.10204465, 34.46551508], [72.10214104, 34.46550547], [72.1021252, 34.46539648]]]]}, "properties": {"id": "8J6JF482+5RP8", "height": 3.700770139694214, "hmax": 0.001, "ratio": 0.0, "vulnClass": "none"}}, {"type": "Feature", "geometry": {"type": "MultiPolygon", "coordinates": [[[[72.10245207, 34.46613674], [72.10240247, 34.46614284], [72.10241507, 34.46621309], [72.10246467, 34.46620699], [72.10245207, 34.46613674]]]]}, "properties": {"id": "8J6JF482+FX7X", "height": 2.704599380493164, "hmax": 0.001, "ratio": 0.0, "vulnClass": "none"}}, {"type": "Feature", "geometry": {"type": "MultiPolygon", "coordinates": [[[[72.10248421, 34.46631597], [72.10247053, 34.4662397], [72.10232562, 34.46625752], [72.1023393, 34.46633379], [72.10248421, 34.46631597]]]]}, "properties": {"id": "8J6JF482+GX6H", "height": 2.966479778289795, "hmax": 0.001, "ratio": 0.0, "vulnClass": "none"}}, {"type": "Feature", "geometry": {"type": "MultiPolygon", "coordinates": [[[[72.1027854, 34.46627547], [72.10277308, 34.46620387], [72.10251726, 34.46623406], [72.10251074, 34.46619615], [72.10247201, 34.46620072], [72.10249085, 34.46631023], [72.1027854, 34.46627547]]]]}, "properties": {"id": "8J6JF483+G255", "height": 3.046423435211182, "hmax": 0.001, "ratio": 0.0, "vulnClass": "none"}}, {"type": "Feature", "geometry": {"type": "MultiPolygon", "coordinates": [[[[72.10399896, 34.46690068], [72.10393359, 34.46674473], [72.10381531, 34.46677874], [72.10388068, 34.46693469], [72.10399896, 34.46690068]]]]}, "properties": {"id": "8J6JF483+PHMC", "height": 3.18231201171875, "hmax": 0.002, "ratio": 0.001, "vulnClass": "none"}}, {"type": "Feature", "geometry": {"type": "MultiPolygon", "coordinates": [[[[72.10733795, 34.46488883], [72.10718546, 34.4648508], [72.10716041, 34.46491968], [72.1073129, 34.46495771], [72.10733795, 34.46488883]]]]}, "properties": {"id": "8J6JF474+XV95", "height": 4.693856716156006, "hmax": 0.002, "ratio": 0.0, "vulnClass": "none"}}, {"type": "Feature", "geometry": {"type": "MultiPolygon", "coordinates": [[[[72.10408232, 34.46696053], [72.10405898, 34.46690088], [72.10388737, 34.46694694], [72.10391071, 34.4670066], [72.10408232, 34.46696053]]]]}, "properties": {"id": "8J6JF483+QHQ4", "height": 3.136961936950684, "hmax": 0.002, "ratio": 0.001, "vulnClass": "none"}}, {"type": "Feature", "geometry": {"type": "MultiPolygon", "coordinates": [[[[72.10127457, 34.46805353], [72.1012493, 34.46796929], [72.10096951, 34.46802684], [72.10099477, 34.46811108], [72.10127457, 34.46805353]]]]}, "properties": {"id": "8J6JF492+6C9Q", "height": 2.690764904022217, "hmax": 0.002, "ratio": 0.001, "vulnClass": "none"}}, {"type": "Feature", "geometry": {"type": "MultiPolygon", "coordinates": [[[[72.10127551, 34.46782217], [72.10125979, 34.46776977], [72.10113818, 34.46779479], [72.10119392, 34.46798068], [72.10131554, 34.46795567], [72.10128697, 34.46786041], [72.10122074, 34.46787403], [72.10120316, 34.4678154], [72.10123815, 34.4678082], [72.10124427, 34.4678286], [72.10127551, 34.46782217]]]]}, "properties": {"id": "8J6JF492+5F56", "height": 2.92848539352417, "hmax": 0.002, "ratio": 0.001, "vulnClass": "none"}}, {"type": "Feature", "geometry": {"type": "MultiPolygon", "coordinates": [[[[72.10120966, 34.46522834], [72.10114906, 34.46522325], [72.10112959, 34.46538206], [72.10119019, 34.46538716], [72.10120966, 34.46522834]]]]}, "properties": {"id": "8J6JF482+4FF7", "height": 3.011023044586182, "hmax": 0.001, "ratio": 0.0, "vulnClass": "none"}}, {"type": "Feature", "geometry": {"type": "MultiPolygon", "coordinates": [[[[72.10090111, 34.46500278], [72.10089358, 34.46489754], [72.10069718, 34.46490717], [72.1007047, 34.46501241], [72.10090111, 34.46500278]]]]}, "properties": {"id": "8J6JF472+X8M4", "height": 2.534398555755615, "hmax": 0.001, "ratio": 0.0, "vulnClass": "none"}}, {"type": "Feature", "geometry": {"type": "MultiPolygon", "coordinates": [[[[72.10112423, 34.46509081], [72.10111393, 34.46501064], [72.1007636, 34.46504153], [72.1007739, 34.4651217], [72.10112423, 34.46509081]]]]}, "properties": {"id": "8J6JF482+29GJ", "height": 2.736257553100586, "hmax": 0.001, "ratio": 0.0, "vulnClass": "none"}}]}