{"type": "FeatureCollection", "features": [{"type": "Feature", "geometry": {"type": "MultiPolygon", "coordinates": [[[[71.85684322, 34.51791414], [71.85682469, 34.5178239], [71.85676472, 34.51783226], [71.85674, 34.51771195], [71.85664353, 34.5177254], [71.85666933, 34.51785105], [71.85652704, 34.5178709], [71.85651049, 34.51779036], [71.85642854, 34.51780179], [71.85646076, 34.51795863], [71.85663807, 34.5179339], [71.85663984, 34.5179425], [71.85684322, 34.51791414]]]]}, "properties": {"id": "Pakistan_123102132_302356", "height": 3.292169570922852, "hmax": 0.0, "ratio": 0.0, "vulnClass": "none"}}, {"type": "Feature", "geometry": {"type": "MultiPolygon", "coordinates": [[[[71.85641873, 34.51775617], [71.85642065, 34.51779146], [71.85648222, 34.51778918], [71.85648029, 34.51775389], [71.85641873, 34.51775617]]]]}, "properties": {"id": "Pakistan_123102132_621", "height": 3.224636077880859, "hmax": 0.0, "ratio": 0.0, "vulnClass": "none"}}, {"type": "Feature", "geometry": {"type": "MultiPolygon", "coordinates": [[[[71.8575912, 34.51925049], [71.85777384, 34.51928158], [71.85776427, 34.51931973], [71.85784145, 34.51933286], [71.8578643, 34.51924173], [71.85782057, 34.51923428], [71.85784874, 34.51912195], [71.85775219, 34.51910551], [71.85774103, 34.51915002], [71.85780791, 34.51916141], [71.85780236, 34.51918357], [71.85767767, 34.51916235], [71.85766676, 34.51920589], [71.85760502, 34.51919538], [71.8575912, 34.51925049]]]]}, "properties": {"id": "Pakistan_123102132_450139", "height": 3.000216722488403, "hmax": 0.0, "ratio": 0.0, "vulnClass": "none"}}, {"type": "Feature", "geometry": {"type": "MultiPolygon", "coordinates": [[[[71.8555432, 34.51775621], [71.85546529, 34.51798454], [71.85555726, 34.51800585], [71.85559464, 34.5178963], [71.85579847, 34.51794352], [71.855839, 34.51782473], [71.8555432, 34.51775621]]]]}, "properties": {"id": "Pakistan_123102132_606529", "height": 3.750185966491699, "hmax": 0.0, "ratio": 0.0, "vulnClass": "none"}}, {"type": "Feature", "geometry": {"type": "MultiPolygon", "coordinates": [[[[71.85398304, 34.51796799], [71.85394063, 34.5179584], [71.85393144, 34.51798603], [71.85397384, 34.51799562], [71.85398304, 34.51796799]]]]}, "properties": {"id": "Pakistan_123102132_299202", "height": 2.444528102874756, "hmax": 0.0, "ratio": 0.0, "vulnClass": "none"}}, {"type": "Feature", "geometry": {"type": "MultiPolygon", "coordinates": [[[[71.85419947, 34.51852923], [71.85409507, 34.51851494], [71.8541033, 34.51847408], [71.85404066, 34.51846551], [71.85401354, 34.51860004], [71.85418059, 34.51862289], [71.85419947, 34.51852923]]]]}, "properties": {"id": "Pakistan_123102132_339200", "height": 2.955589056015015, "hmax": 0.0, "ratio": 0.0, "vulnClass": "none"}}, {"type": "Feature", "geometry": {"type": "MultiPolygon", "coordinates": [[[[71.85406186, 34.52034632], [71.85412077, 34.52042553], [71.8543287, 34.5204628], [71.85436584, 34.52043046], [71.85434872, 34.52040745], [71.85429173, 34.52036301], [71.85430187, 34.5203246], [71.85432429, 34.52031328], [71.85435341, 34.52035244], [71.85452893, 34.5204893], [71.85459814, 34.52042905], [71.85458517, 34.52041161], [71.85445109, 34.52030706], [71.85443902, 34.52029083], [71.85450185, 34.52023614], [71.85454455, 34.52026944], [71.8545726, 34.52027446], [71.8545829, 34.52023544], [71.85456298, 34.52020865], [71.85451511, 34.52020007], [71.85446036, 34.52015738], [71.85442328, 34.5201761], [71.85439031, 34.52020481], [71.85428177, 34.52025961], [71.85425863, 34.52027975], [71.85423312, 34.52025986], [71.85406186, 34.52034632]]]]}, "properties": {"id": "Pakistan_123102132_71100", "height": 3.376002073287964, "hmax": 0.0, "ratio": 0.0, "vulnClass": "none"}}, {"type": "Feature", "geometry": {"type": "MultiPolygon", "coordinates": [[[[71.85644085, 34.52044138], [71.85638475, 34.52044434], [71.85638852, 34.52049276], [71.85644462, 34.5204898], [71.85644085, 34.52044138]]]]}, "properties": {"id": "Pakistan_123102132_323767", "height": 2.58443021774292, "hmax": 0.0, "ratio": 0.0, "vulnClass": "none"}}, {"type": "Feature", "geometry": {"type": "MultiPolygon", "coordinates": [[[[71.86694154, 34.52369817], [71.8669026, 34.52369233], [71.86689219, 34.52373938], [71.86693113, 34.52374523], [71.86694154, 34.52369817]]]]}, "properties": {"id": "Pakistan_123102132_450201", "height": 2.631172180175781, "hmax": 0.0, "ratio": 0.0, "vulnClass": "none"}}, {"type": "Feature", "geometry": {"type": "MultiPolygon", "coordinates": [[[[71.86654723, 34.52372112], [71.866533, 34.52380342], [71.86691418, 34.52384817], [71.86692841, 34.52376587], [71.86654723, 34.52372112]]]]}, "properties": {"id": "Pakistan_123102132_98625", "height": 3.531338214874268, "hmax": 0.0, "ratio": 0.0, "vulnClass": "none"}}, {"type": "Feature", "geometry": {"type": "MultiPolygon", "coordinates": [[[[71.86750047, 34.52244909], [71.86743732, 34.52244721], [71.86743315, 34.52254212], [71.86749631, 34.52254399], [71.86750047, 34.52244909]]]]}, "properties": {"id": "Pakistan_123102132_407045", "height": 2.581381559371948, "hmax": 0.0, "ratio": 0.0, "vulnClass": "none"}}]}