{"type": "FeatureCollection", "features": [{"type": "Feature", "geometry": {"type": "MultiPolygon", "coordinates": [[[[72.1550798, 34.12047488], [72.15507772, 34.12042316], [72.15489788, 34.12042817], [72.15489996, 34.12047988], [72.1550798, 34.12047488]]]]}, "properties": {"id": "8J6J45C3+5XQ4", "height": 2.782764673233032, "hmax": 0.0, "ratio": 0.0, "vulnClass": "none"}}, {"type": "Feature", "geometry": {"type": "MultiPolygon", "coordinates": [[[[72.15487162, 34.12025429], [72.15482451, 34.12025025], [72.15481497, 34.12032714], [72.15486209, 34.12033118], [72.15487162, 34.12025429]]]]}, "properties": {"id": "8J6J45C3+4W8Q", "height": 2.577524900436401, "hmax": 0.0, "ratio": 0.0, "vulnClass": "none"}}, {"type": "Feature", "geometry": {"type": "MultiPolygon", "coordinates": [[[[72.15504965, 34.12041288], [72.15504398, 34.12032899], [72.15481206, 34.12033983], [72.15481773, 34.12042372], [72.15504965, 34.12041288]]]]}, "properties": {"id": "8J6J45C3+5X35", "height": 2.782764673233032, "hmax": 0.0, "ratio": 0.0, "vulnClass": "none"}}, {"type": "Feature", "geometry": {"type": "MultiPolygon", "coordinates": [[[[72.15509511, 34.12029403], [72.15504179, 34.12029652], [72.15504965, 34.12041288], [72.15528106, 34.12040206], [72.15527802, 34.120357], [72.15509993, 34.12036533], [72.15509511, 34.12029403]]]]}, "properties": {"id": "8J6J45C4+43RV", "height": 2.536224842071533, "hmax": 0.0, "ratio": 0.0, "vulnClass": "none"}}, {"type": "Feature", "geometry": {"type": "MultiPolygon", "coordinates": [[[[72.15451364, 34.12019262], [72.1544969, 34.12011321], [72.15439009, 34.1201288], [72.15440684, 34.1202082], [72.15451364, 34.12019262]]]]}, "properties": {"id": "8J6J45C3+3Q8F", "height": 3.019455909729004, "hmax": 0.0, "ratio": 0.0, "vulnClass": "none"}}, {"type": "Feature", "geometry": {"type": "MultiPolygon", "coordinates": [[[[72.15390858, 34.12011451], [72.15394612, 34.1197466], [72.15389597, 34.11974306], [72.15385843, 34.12011097], [72.15390858, 34.12011451]]]]}, "properties": {"id": "8J6J4593+XHC5", "height": 2.661806583404541, "hmax": 0.0, "ratio": 0.0, "vulnClass": "none"}}, {"type": "Feature", "geometry": {"type": "MultiPolygon", "coordinates": [[[[72.15425728, 34.11982782], [72.15425527, 34.11978658], [72.1540569, 34.11979328], [72.15405892, 34.11983452], [72.15425728, 34.11982782]]]]}, "properties": {"id": "8J6J4593+WMFC", "height": 2.908111333847046, "hmax": 0.0, "ratio": 0.0, "vulnClass": "none"}}, {"type": "Feature", "geometry": {"type": "MultiPolygon", "coordinates": [[[[72.15414823, 34.11948105], [72.15389991, 34.11948268], [72.1539007, 34.11956554], [72.15414902, 34.1195639], [72.15414823, 34.11948105]]]]}, "properties": {"id": "8J6J4593+RJ2X", "height": 2.668936252593994, "hmax": 0.0, "ratio": 0.0, "vulnClass": "none"}}, {"type": "Feature", "geometry": {"type": "MultiPolygon", "coordinates": [[[[72.15459865, 34.1183728], [72.15457167, 34.11837116], [72.15456851, 34.11840707], [72.1545955, 34.11840872], [72.15459865, 34.1183728]]]]}, "properties": {"id": "8J6J4593+9R4G", "height": 4.56632661819458, "hmax": 0.0, "ratio": 0.0, "vulnClass": "none"}}, {"type": "Feature", "geometry": {"type": "MultiPolygon", "coordinates": [[[[72.15477988, 34.11835393], [72.15473386, 34.11835286], [72.15473038, 34.11845645], [72.15477641, 34.11845751], [72.15477988, 34.11835393]]]]}, "properties": {"id": "8J6J4593+9W66", "height": 2.701023578643799, "hmax": 0.0, "ratio": 0.0, "vulnClass": "none"}}, {"type": "Feature", "geometry": {"type": "MultiPolygon", "coordinates": [[[[72.15504041, 34.11845462], [72.15504212, 34.1184035], [72.15499367, 34.11840238], [72.15499195, 34.1184535], [72.15504041, 34.11845462]]]]}, "properties": {"id": "8J6J4594+92C4", "height": 2.596510410308838, "hmax": 0.0, "ratio": 0.0, "vulnClass": "none"}}, {"type": "Feature", "geometry": {"type": "MultiPolygon", "coordinates": [[[[72.15498283, 34.11849436], [72.15497496, 34.11839386], [72.15492582, 34.11839652], [72.15492773, 34.11842082], [72.15488764, 34.11842299], [72.15489361, 34.1184992], [72.15498283, 34.11849436]]]]}, "properties": {"id": "8J6J4593+9XP2", "height": 3.368115663528442, "hmax": 0.0, "ratio": 0.0, "vulnClass": "none"}}, {"type": "Feature", "geometry": {"type": "MultiPolygon", "coordinates": [[[[72.15489456, 34.11864984], [72.15488936, 34.11854609], [72.15484187, 34.11854774], [72.15484707, 34.11865148], [72.15489456, 34.11864984]]]]}, "properties": {"id": "8J6J4593+CWQX", "height": 3.54529881477356, "hmax": 0.0, "ratio": 0.0, "vulnClass": "none"}}, {"type": "Feature", "geometry": {"type": "MultiPolygon", "coordinates": [[[[72.15484727, 34.11862057], [72.15481588, 34.11862143], [72.15481712, 34.11865258], [72.15484851, 34.11865172], [72.15484727, 34.11862057]]]]}, "properties": {"id": "8J6J4593+FW4G", "height": 3.564882040023804, "hmax": 0.0, "ratio": 0.0, "vulnClass": "none"}}, {"type": "Feature", "geometry": {"type": "MultiPolygon", "coordinates": [[[[72.15459741, 34.11856828], [72.15455352, 34.11856715], [72.15454807, 34.11871359], [72.15459196, 34.11871472], [72.15459741, 34.11856828]]]]}, "properties": {"id": "8J6J4593+FR4M", "height": 2.822504281997681, "hmax": 0.0, "ratio": 0.0, "vulnClass": "none"}}, {"type": "Feature", "geometry": {"type": "MultiPolygon", "coordinates": [[[[72.15484389, 34.11871163], [72.15484211, 34.11868167], [72.15471627, 34.11868684], [72.15471805, 34.1187168], [72.15484389, 34.11871163]]]]}, "properties": {"id": "8J6J4593+FWCX", "height": 4.943049907684326, "hmax": 0.0, "ratio": 0.0, "vulnClass": "none"}}, {"type": "Feature", "geometry": {"type": "MultiPolygon", "coordinates": [[[[72.15471983, 34.11889055], [72.15471732, 34.11879875], [72.15468036, 34.11879945], [72.15468094, 34.11882051], [72.15454811, 34.11882302], [72.15455004, 34.11889376], [72.15471983, 34.11889055]]]]}, "properties": {"id": "8J6J4593+GVR3", "height": 3.321625709533691, "hmax": 0.0, "ratio": 0.0, "vulnClass": "none"}}, {"type": "Feature", "geometry": {"type": "MultiPolygon", "coordinates": [[[[72.15471981, 34.11889094], [72.15505547, 34.118884], [72.15505419, 34.11884107], [72.15471853, 34.11884801], [72.15471981, 34.11889094]]]]}, "properties": {"id": "8J6J4593+GXRM", "height": 2.917637586593628, "hmax": 0.0, "ratio": 0.0, "vulnClass": "none"}}, {"type": "Feature", "geometry": {"type": "MultiPolygon", "coordinates": [[[[72.1548662, 34.11902312], [72.15486217, 34.11888799], [72.15471981, 34.11889094], [72.15472385, 34.11902606], [72.1548662, 34.11902312]]]]}, "properties": {"id": "8J6J4593+HWM7", "height": 3.719449520111084, "hmax": 0.0, "ratio": 0.0, "vulnClass": "none"}}, {"type": "Feature", "geometry": {"type": "MultiPolygon", "coordinates": [[[[72.15502329, 34.11877636], [72.15502023, 34.11872498], [72.15484511, 34.11873218], [72.15484817, 34.11878356], [72.15502329, 34.11877636]]]]}, "properties": {"id": "8J6J4593+GX35", "height": 4.734640598297119, "hmax": 0.0, "ratio": 0.0, "vulnClass": "none"}}, {"type": "Feature", "geometry": {"type": "MultiPolygon", "coordinates": [[[[72.15489603, 34.11867916], [72.15484854, 34.11868081], [72.15485028, 34.11871565], [72.15489777, 34.118714], [72.15489603, 34.11867916]]]]}, "properties": {"id": "8J6J4593+FWHX", "height": 4.734640598297119, "hmax": 0.0, "ratio": 0.0, "vulnClass": "none"}}, {"type": "Feature", "geometry": {"type": "MultiPolygon", "coordinates": [[[[72.15489777, 34.118714], [72.15502024, 34.11870976], [72.15501849, 34.11867492], [72.15489603, 34.11867916], [72.15489777, 34.118714]]]]}, "properties": {"id": "8J6J4593+FXGP", "height": 3.94151496887207, "hmax": 0.0, "ratio": 0.0, "vulnClass": "none"}}, {"type": "Feature", "geometry": {"type": "MultiPolygon", "coordinates": [[[[72.15585714, 34.11785927], [72.15580249, 34.11785233], [72.15579821, 34.11787563], [72.15585286, 34.11788258], [72.15585714, 34.11785927]]]]}, "properties": {"id": "8J6J4594+48WM", "height": 2.510276794433594, "hmax": 0.0, "ratio": 0.0, "vulnClass": "none"}}, {"type": "Feature", "geometry": {"type": "MultiPolygon", "coordinates": [[[[72.15581178, 34.11741324], [72.15575038, 34.11740663], [72.15574075, 34.11746844], [72.15580216, 34.11747506], [72.15581178, 34.11741324]]]]}, "properties": {"id": "8J6J4584+X8CQ", "height": 2.650598764419556, "hmax": 0.0, "ratio": 0.0, "vulnClass": "none"}}, {"type": "Feature", "geometry": {"type": "MultiPolygon", "coordinates": [[[[72.15609328, 34.11746654], [72.15580827, 34.11743584], [72.15580216, 34.11747506], [72.15608717, 34.11750576], [72.15609328, 34.11746654]]]]}, "properties": {"id": "8J6J4584+X9PV", "height": 2.716319561004639, "hmax": 0.0, "ratio": 0.0, "vulnClass": "none"}}, {"type": "Feature", "geometry": {"type": "MultiPolygon", "coordinates": [[[[72.15602184, 34.11731427], [72.15593729, 34.11730315], [72.15592579, 34.11736361], [72.15597358, 34.1173699], [72.15597821, 34.11734555], [72.15601497, 34.11735039], [72.15602184, 34.11731427]]]]}, "properties": {"id": "8J6J4584+W9Q6", "height": 4.605796813964844, "hmax": 0.0, "ratio": 0.0, "vulnClass": "none"}}, {"type": "Feature", "geometry": {"type": "MultiPolygon", "coordinates": [[[[72.15592703, 34.1173018], [72.15579484, 34.1172844], [72.15578797, 34.11732051], [72.15592016, 34.11733791], [72.15592703, 34.1173018]]]]}, "properties": {"id": "8J6J4584+W8HF", "height": 4.036150932312012, "hmax": 0.0, "ratio": 0.0, "vulnClass": "none"}}, {"type": "Feature", "geometry": {"type": "MultiPolygon", "coordinates": [[[[72.15595029, 34.11723482], [72.15580784, 34.11721607], [72.15579484, 34.1172844], [72.1560807, 34.11732202], [72.15608814, 34.11728292], [72.15594473, 34.11726405], [72.15595029, 34.11723482]]]]}, "properties": {"id": "8J6J4584+W93W", "height": 4.98847484588623, "hmax": 0.0, "ratio": 0.0, "vulnClass": "none"}}, {"type": "Feature", "geometry": {"type": "MultiPolygon", "coordinates": [[[[72.15607989, 34.11717659], [72.15607256, 34.11712351], [72.15603533, 34.11712706], [72.15604266, 34.11718015], [72.15607989, 34.11717659]]]]}, "properties": {"id": "8J6J4584+VC75", "height": 2.722513437271118, "hmax": 0.0, "ratio": 0.0, "vulnClass": "none"}}, {"type": "Feature", "geometry": {"type": "MultiPolygon", "coordinates": [[[[72.15597012, 34.11711125], [72.15588187, 34.11710452], [72.15587922, 34.11712853], [72.15596747, 34.11713526], [72.15597012, 34.11711125]]]]}, "properties": {"id": "8J6J4584+R9VP", "height": 3.170959711074829, "hmax": 0.0, "ratio": 0.0, "vulnClass": "none"}}, {"type": "Feature", "geometry": {"type": "MultiPolygon", "coordinates": [[[[72.15587041, 34.11715601], [72.15582052, 34.11714945], [72.15580784, 34.11721607], [72.15585773, 34.11722264], [72.15587041, 34.11715601]]]]}, "properties": {"id": "8J6J4584+V8GH", "height": 3.713322877883911, "hmax": 0.0, "ratio": 0.0, "vulnClass": "none"}}, {"type": "Feature", "geometry": {"type": "MultiPolygon", "coordinates": [[[[72.15628853, 34.1166671], [72.15615622, 34.11663624], [72.15614244, 34.1166771], [72.15627475, 34.11670797], [72.15628853, 34.1166671]]]]}, "properties": {"id": "8J6J4584+MF8X", "height": 3.703582525253296, "hmax": 0.0, "ratio": 0.0, "vulnClass": "none"}}, {"type": "Feature", "geometry": {"type": "MultiPolygon", "coordinates": [[[[72.15615589, 34.116637], [72.15603132, 34.11660816], [72.15598287, 34.11675294], [72.15606875, 34.11677282], [72.15609397, 34.11669748], [72.15613265, 34.11670643], [72.15615589, 34.116637]]]]}, "properties": {"id": "8J6J4584+MCGC", "height": 3.545324802398682, "hmax": 0.0, "ratio": 0.0, "vulnClass": "none"}}, {"type": "Feature", "geometry": {"type": "MultiPolygon", "coordinates": [[[[72.15571049, 34.11592124], [72.15568976, 34.11584595], [72.15553832, 34.11587479], [72.15555905, 34.11595008], [72.15571049, 34.11592124]]]]}, "properties": {"id": "8J6J4584+965X", "height": 2.581579923629761, "hmax": 0.0, "ratio": 0.0, "vulnClass": "none"}}, {"type": "Feature", "geometry": {"type": "MultiPolygon", "coordinates": [[[[72.15541621, 34.11532986], [72.15536651, 34.11533065], [72.1553716, 34.11555166], [72.1554213, 34.11555087], [72.15541621, 34.11532986]]]]}, "properties": {"id": "8J6J4584+55CP", "height": 4.070824146270752, "hmax": 0.0, "ratio": 0.0, "vulnClass": "none"}}, {"type": "Feature", "geometry": {"type": "MultiPolygon", "coordinates": [[[[72.15593869, 34.11394718], [72.15586728, 34.11394236], [72.15586123, 34.11400444], [72.15593264, 34.11400926], [72.15593869, 34.11394718]]]]}, "properties": {"id": "8J6J4574+H9R5", "height": 2.541047811508179, "hmax": 0.0, "ratio": 0.0, "vulnClass": "none"}}, {"type": "Feature", "geometry": {"type": "MultiPolygon", "coordinates": [[[[72.15598523, 34.1139267], [72.15593566, 34.11392327], [72.15592694, 34.11401052], [72.15597652, 34.11401394], [72.15598523, 34.1139267]]]]}, "properties": {"id": "8J6J4574+H9PP", "height": 4.053665161132812, "hmax": 0.0, "ratio": 0.0, "vulnClass": "none"}}, {"type": "Feature", "geometry": {"type": "MultiPolygon", "coordinates": [[[[72.15632025, 34.11372834], [72.15627322, 34.11372142], [72.15623897, 34.11388256], [72.156286, 34.11388948], [72.15632025, 34.11372834]]]]}, "properties": {"id": "8J6J4574+GGC9", "height": 4.760082244873047, "hmax": 0.0, "ratio": 0.0, "vulnClass": "none"}}, {"type": "Feature", "geometry": {"type": "MultiPolygon", "coordinates": [[[[72.15501341, 34.11384499], [72.15492538, 34.11385044], [72.15494789, 34.11410218], [72.15506078, 34.1140952], [72.15504875, 34.11396072], [72.15502389, 34.11396225], [72.15501341, 34.11384499]]]]}, "properties": {"id": "8J6J4573+HXX8", "height": 4.195691585540771, "hmax": 0.0, "ratio": 0.0, "vulnClass": "none"}}, {"type": "Feature", "geometry": {"type": "MultiPolygon", "coordinates": [[[[72.1551209, 34.11399112], [72.15511779, 34.11395701], [72.15504728, 34.11396145], [72.15505038, 34.11399556], [72.1551209, 34.11399112]]]]}, "properties": {"id": "8J6J4574+H2W4", "height": 2.785546064376831, "hmax": 0.0, "ratio": 0.0, "vulnClass": "none"}}, {"type": "Feature", "geometry": {"type": "MultiPolygon", "coordinates": [[[[72.15494422, 34.11406113], [72.15489935, 34.1140639], [72.15490302, 34.11410496], [72.15494789, 34.11410218], [72.15494422, 34.11406113]]]]}, "properties": {"id": "8J6J4573+JXM8", "height": 3.368421077728271, "hmax": 0.0, "ratio": 0.0, "vulnClass": "none"}}, {"type": "Feature", "geometry": {"type": "MultiPolygon", "coordinates": [[[[72.15503591, 34.11409674], [72.15494789, 34.11410218], [72.15496224, 34.11426265], [72.15505026, 34.1142572], [72.15503591, 34.11409674]]]]}, "properties": {"id": "8J6J4573+MXH5", "height": 3.501022338867188, "hmax": 0.0, "ratio": 0.0, "vulnClass": "none"}}, {"type": "Feature", "geometry": {"type": "MultiPolygon", "coordinates": [[[[72.15481436, 34.11423371], [72.15480828, 34.11416576], [72.15468776, 34.11417321], [72.15469383, 34.11424117], [72.15481436, 34.11423371]]]]}, "properties": {"id": "8J6J4573+MWJ2", "height": 2.554436683654785, "hmax": 0.0, "ratio": 0.0, "vulnClass": "none"}}, {"type": "Feature", "geometry": {"type": "MultiPolygon", "coordinates": [[[[72.15344958, 34.11344531], [72.15339593, 34.11344233], [72.15338535, 34.11357422], [72.15343901, 34.1135772], [72.15344958, 34.11344531]]]]}, "properties": {"id": "8J6J4573+C937", "height": 3.746626853942871, "hmax": 0.0, "ratio": 0.0, "vulnClass": "none"}}, {"type": "Feature", "geometry": {"type": "MultiPolygon", "coordinates": [[[[72.16617871, 34.11323953], [72.16613034, 34.1132345], [72.16612456, 34.11327298], [72.16617292, 34.11327801], [72.16617871, 34.11323953]]]]}, "properties": {"id": "8J6J4578+8F29", "height": 2.725513935089111, "hmax": 0.0, "ratio": 0.0, "vulnClass": "none"}}, {"type": "Feature", "geometry": {"type": "MultiPolygon", "coordinates": [[[[72.16614696, 34.11320736], [72.16617877, 34.11312481], [72.16614197, 34.11311501], [72.16611016, 34.11319755], [72.16614696, 34.11320736]]]]}, "properties": {"id": "8J6J4578+7F6G", "height": 4.769330024719238, "hmax": 0.0, "ratio": 0.0, "vulnClass": "none"}}, {"type": "Feature", "geometry": {"type": "MultiPolygon", "coordinates": [[[[72.16640504, 34.11313848], [72.16615827, 34.1130727], [72.16614197, 34.11311501], [72.16638874, 34.11318079], [72.16640504, 34.11313848]]]]}, "properties": {"id": "8J6J4578+7G25", "height": 3.691593647003174, "hmax": 0.0, "ratio": 0.0, "vulnClass": "none"}}, {"type": "Feature", "geometry": {"type": "MultiPolygon", "coordinates": [[[[72.16630649, 34.11306957], [72.16617317, 34.11303403], [72.16615827, 34.1130727], [72.16629159, 34.11310824], [72.16630649, 34.11306957]]]]}, "properties": {"id": "8J6J4578+6FHV", "height": 3.691593647003174, "hmax": 0.0, "ratio": 0.0, "vulnClass": "none"}}, {"type": "Feature", "geometry": {"type": "MultiPolygon", "coordinates": [[[[72.16650052, 34.11281509], [72.16651324, 34.11278207], [72.16643892, 34.11276226], [72.16638672, 34.11289773], [72.1664179, 34.11290604], [72.16645738, 34.11280358], [72.16650052, 34.11281509]]]]}, "properties": {"id": "8J6J4578+4HGR", "height": 2.51449728012085, "hmax": 0.0, "ratio": 0.0, "vulnClass": "none"}}, {"type": "Feature", "geometry": {"type": "MultiPolygon", "coordinates": [[[[72.16644777, 34.11270189], [72.16643574, 34.11273954], [72.16654929, 34.11276462], [72.16656131, 34.11272697], [72.16644777, 34.11270189]]]]}, "properties": {"id": "8J6J4578+3HX9", "height": 2.559973239898682, "hmax": 0.0, "ratio": 0.0, "vulnClass": "none"}}, {"type": "Feature", "geometry": {"type": "MultiPolygon", "coordinates": [[[[72.16613317, 34.11343303], [72.16596058, 34.11339651], [72.1659311, 34.11349288], [72.16610369, 34.11352941], [72.16613317, 34.11343303]]]]}, "properties": {"id": "8J6J4578+9CMC", "height": 3.164382457733154, "hmax": 0.0, "ratio": 0.0, "vulnClass": "none"}}, {"type": "Feature", "geometry": {"type": "MultiPolygon", "coordinates": [[[[72.16632388, 34.11339311], [72.16624934, 34.11338627], [72.16624575, 34.11341331], [72.16632029, 34.11342015], [72.16632388, 34.11339311]]]]}, "properties": {"id": "8J6J4578+9G72", "height": 2.536353826522827, "hmax": 0.0, "ratio": 0.0, "vulnClass": "none"}}, {"type": "Feature", "geometry": {"type": "MultiPolygon", "coordinates": [[[[72.16136417, 34.11362199], [72.16136319, 34.11358908], [72.16120706, 34.1135923], [72.16121044, 34.11370538], [72.16127403, 34.11370407], [72.16127164, 34.1136239], [72.16136417, 34.11362199]]]]}, "properties": {"id": "8J6J4576+FG2F", "height": 2.451530933380127, "hmax": 0.0, "ratio": 0.0, "vulnClass": "none"}}, {"type": "Feature", "geometry": {"type": "MultiPolygon", "coordinates": [[[[72.16127568, 34.11370331], [72.16121111, 34.11370428], [72.16121687, 34.11397054], [72.16146731, 34.11396679], [72.16146641, 34.11392507], [72.16128054, 34.11392785], [72.16127568, 34.11370331]]]]}, "properties": {"id": "8J6J4576+GGVR", "height": 3.162078619003296, "hmax": 0.0, "ratio": 0.0, "vulnClass": "none"}}, {"type": "Feature", "geometry": {"type": "MultiPolygon", "coordinates": [[[[72.1606093, 34.11417041], [72.16058382, 34.11416722], [72.16057892, 34.11419427], [72.16060439, 34.11419747], [72.1606093, 34.11417041]]]]}, "properties": {"id": "8J6J4576+M6H6", "height": 2.941685438156128, "hmax": 0.0, "ratio": 0.0, "vulnClass": "none"}}, {"type": "Feature", "geometry": {"type": "MultiPolygon", "coordinates": [[[[72.1602678, 34.1146928], [72.1602168, 34.1146906], [72.1602101, 34.1148025], [72.160261, 34.1148046], [72.1602678, 34.1146928]]]]}, "properties": {"id": "8J6J4576+V3XW", "height": 2.865703821182251, "hmax": 0.0, "ratio": 0.0, "vulnClass": "none"}}, {"type": "Feature", "geometry": {"type": "MultiPolygon", "coordinates": [[[[72.16053358, 34.11460611], [72.16045349, 34.11460391], [72.16044935, 34.11470794], [72.16052945, 34.11471014], [72.16053358, 34.11460611]]]]}, "properties": {"id": "8J6J4576+V598", "height": 3.591989517211914, "hmax": 0.0, "ratio": 0.0, "vulnClass": "none"}}, {"type": "Feature", "geometry": {"type": "MultiPolygon", "coordinates": [[[[72.16088383, 34.11485901], [72.16083739, 34.1148557], [72.16083188, 34.11490924], [72.16087831, 34.11491255], [72.16088383, 34.11485901]]]]}, "properties": {"id": "8J6J4576+X857", "height": 3.230566740036011, "hmax": 0.0, "ratio": 0.0, "vulnClass": "none"}}, {"type": "Feature", "geometry": {"type": "MultiPolygon", "coordinates": [[[[72.16010888, 34.11479646], [72.16010617, 34.11483454], [72.16025695, 34.11484197], [72.16025966, 34.11480389], [72.16010888, 34.11479646]]]]}, "properties": {"id": "8J6J4576+W3FQ", "height": 3.357809543609619, "hmax": 0.0, "ratio": 0.0, "vulnClass": "none"}}, {"type": "Feature", "geometry": {"type": "MultiPolygon", "coordinates": [[[[72.16014575, 34.11476875], [72.16010914, 34.11477298], [72.16011302, 34.11479624], [72.16014963, 34.11479201], [72.16014575, 34.11476875]]]]}, "properties": {"id": "8J6J4576+W366", "height": 3.596599102020264, "hmax": 0.0, "ratio": 0.0, "vulnClass": "none"}}, {"type": "Feature", "geometry": {"type": "MultiPolygon", "coordinates": [[[[72.15983647, 34.11467558], [72.15985724, 34.11451897], [72.15980353, 34.11451404], [72.15978276, 34.11467066], [72.15983647, 34.11467558]]]]}, "properties": {"id": "8J6J4575+RWPJ", "height": 2.808350563049316, "hmax": 0.0, "ratio": 0.0, "vulnClass": "none"}}, {"type": "Feature", "geometry": {"type": "MultiPolygon", "coordinates": [[[[72.15980458, 34.11470866], [72.15974224, 34.11471179], [72.15974544, 34.11475586], [72.15980777, 34.11475273], [72.15980458, 34.11470866]]]]}, "properties": {"id": "8J6J4575+VWR9", "height": 2.984843730926514, "hmax": 0.0, "ratio": 0.0, "vulnClass": "none"}}, {"type": "Feature", "geometry": {"type": "MultiPolygon", "coordinates": [[[[72.15889025, 34.11373599], [72.15894949, 34.11357792], [72.15889958, 34.11356498], [72.15886758, 34.11365038], [72.15869786, 34.11360638], [72.15867063, 34.11367905], [72.15889025, 34.11373599]]]]}, "properties": {"id": "8J6J4575+FG86", "height": 2.468310832977295, "hmax": 0.0, "ratio": 0.0, "vulnClass": "none"}}, {"type": "Feature", "geometry": {"type": "MultiPolygon", "coordinates": [[[[72.15672393, 34.11364676], [72.15663684, 34.11364038], [72.15661506, 34.11384612], [72.15670215, 34.1138525], [72.15672393, 34.11364676]]]]}, "properties": {"id": "8J6J4574+FMVV", "height": 5.727688789367676, "hmax": 0.0, "ratio": 0.0, "vulnClass": "none"}}, {"type": "Feature", "geometry": {"type": "MultiPolygon", "coordinates": [[[[72.15651828, 34.11375761], [72.15632111, 34.11372921], [72.1563134, 34.11376625], [72.15651057, 34.11379465], [72.15651828, 34.11375761]]]]}, "properties": {"id": "8J6J4574+GH3F", "height": 4.602079391479492, "hmax": 0.0, "ratio": 0.0, "vulnClass": "none"}}, {"type": "Feature", "geometry": {"type": "MultiPolygon", "coordinates": [[[[72.15663509, 34.11378702], [72.15660554, 34.11378472], [72.15660354, 34.11380263], [72.15663308, 34.11380492], [72.15663509, 34.11378702]]]]}, "properties": {"id": "8J6J4574+GJ9Q", "height": 2.753959894180298, "hmax": 0.0, "ratio": 0.0, "vulnClass": "none"}}, {"type": "Feature", "geometry": {"type": "MultiPolygon", "coordinates": [[[[72.1567185, 34.1138845], [72.1568123, 34.1138981], [72.1568244, 34.1138398], [72.1567306, 34.1138263], [72.1567185, 34.1138845]]]]}, "properties": {"id": "8J6J4574+GPRG", "height": 2.816462278366089, "hmax": 0.0, "ratio": 0.0, "vulnClass": "none"}}, {"type": "Feature", "geometry": {"type": "MultiPolygon", "coordinates": [[[[72.15710214, 34.11565641], [72.1571387, 34.115628], [72.15705852, 34.11555661], [72.15682845, 34.11573537], [72.15686356, 34.11576664], [72.15705708, 34.11561629], [72.15710214, 34.11565641]]]]}, "properties": {"id": "8J6J4584+7Q93", "height": 2.87370753288269, "hmax": 0.0, "ratio": 0.0, "vulnClass": "none"}}, {"type": "Feature", "geometry": {"type": "MultiPolygon", "coordinates": [[[[72.15742562, 34.11693768], [72.1573786, 34.11693496], [72.15737358, 34.11699486], [72.1574206, 34.11699759], [72.15742562, 34.11693768]]]]}, "properties": {"id": "8J6J4584+QXJQ", "height": 3.225953578948975, "hmax": 0.0, "ratio": 0.0, "vulnClass": "none"}}, {"type": "Feature", "geometry": {"type": "MultiPolygon", "coordinates": [[[[72.15744196, 34.11679346], [72.15738761, 34.11679135], [72.15738374, 34.11686056], [72.15743809, 34.11686266], [72.15744196, 34.11679346]]]]}, "properties": {"id": "8J6J4584+PXM2", "height": 3.168167114257812, "hmax": 0.0, "ratio": 0.0, "vulnClass": "none"}}, {"type": "Feature", "geometry": {"type": "MultiPolygon", "coordinates": [[[[72.1580038, 34.11648626], [72.15799937, 34.11644893], [72.15792841, 34.11645476], [72.15793284, 34.11649209], [72.1580038, 34.11648626]]]]}, "properties": {"id": "8J6J4585+H5PX", "height": 3.246110439300537, "hmax": 0.0, "ratio": 0.0, "vulnClass": "none"}}, {"type": "Feature", "geometry": {"type": "MultiPolygon", "coordinates": [[[[72.15750705, 34.11632749], [72.15745764, 34.11632253], [72.15744875, 34.1163838], [72.15749816, 34.11638876], [72.15750705, 34.11632749]]]]}, "properties": {"id": "8J6J4584+GXX7", "height": 2.616032838821411, "hmax": 0.0, "ratio": 0.0, "vulnClass": "none"}}, {"type": "Feature", "geometry": {"type": "MultiPolygon", "coordinates": [[[[72.15751186, 34.11638685], [72.15742569, 34.11638069], [72.15742082, 34.11642774], [72.15750699, 34.1164339], [72.15751186, 34.11638685]]]]}, "properties": {"id": "8J6J4584+HX89", "height": 3.017285585403442, "hmax": 0.0, "ratio": 0.0, "vulnClass": "none"}}]}