{"type": "FeatureCollection", "features": [{"type": "Feature", "geometry": {"type": "MultiPolygon", "coordinates": [[[[72.28819037551249, 34.172982429901985], [72.28819261197428, 34.17291594931391], [72.28806125548736, 34.17291286425436], [72.28805901603911, 34.17297943492045], [72.28819037551249, 34.172982429901985]]]]}, "properties": {"id": "Pakistan_123102310_571014", "height": 2.857156991958618, "hmax": 0.0, "ratio": 0.0, "vulnClass": "none"}}, {"type": "Feature", "geometry": {"type": "MultiPolygon", "coordinates": [[[[72.28788672970009, 34.17294371205187], [72.28794303904515, 34.17294315436868], [72.28794221137066, 34.172887694366004], [72.28788590206256, 34.1728882520506], [72.28788672970009, 34.17294371205187]]]]}, "properties": {"id": "Pakistan_123102310_6562", "height": 3.198155879974365, "hmax": 0.0, "ratio": 0.0, "vulnClass": "none"}}, {"type": "Feature", "geometry": {"type": "MultiPolygon", "coordinates": [[[[72.28776083534298, 34.17299700050377], [72.28775955111745, 34.17308793253981], [72.28805035189622, 34.17309084791197], [72.28805354977483, 34.172868971532374], [72.28795162785153, 34.17286797965983], [72.28794971372913, 34.172998923976195], [72.28776083534298, 34.17299700050377]]]]}, "properties": {"id": "Pakistan_123102310_575881", "height": 3.688551902770996, "hmax": 0.0, "ratio": 0.0, "vulnClass": "none"}}, {"type": "Feature", "geometry": {"type": "MultiPolygon", "coordinates": [[[[72.2880550262967, 34.17286350508888], [72.28805435821631, 34.1725794304734], [72.2879497950462, 34.172579642287126], [72.28795035727482, 34.17286362440403], [72.2880550262967, 34.17286350508888]]]]}, "properties": {"id": "Pakistan_123102310_903021", "height": 4.363680839538574, "hmax": 0.0, "ratio": 0.0, "vulnClass": "none"}}, {"type": "Feature", "geometry": {"type": "MultiPolygon", "coordinates": [[[[72.29209955669647, 34.173460600059826], [72.2922173201895, 34.173464823059724], [72.29222110363446, 34.17339395916659], [72.29210334023934, 34.17338973617502], [72.29209955669647, 34.173460600059826]]]]}, "properties": {"id": "Pakistan_123102310_381703", "height": 3.008703231811523, "hmax": 0.127, "ratio": 0.042, "vulnClass": "low"}}, {"type": "Feature", "geometry": {"type": "MultiPolygon", "coordinates": [[[[72.29223603349645, 34.173466408194194], [72.29231382959713, 34.17346551159438], [72.29231221895947, 34.17337676920133], [72.2922345313261, 34.17337766819723], [72.29223603349645, 34.173466408194194]]]]}, "properties": {"id": "Pakistan_123102310_215649", "height": 3.28341007232666, "hmax": 0.127, "ratio": 0.038, "vulnClass": "low"}}, {"type": "Feature", "geometry": {"type": "MultiPolygon", "coordinates": [[[[72.29249740815735, 34.17353149730445], [72.2923364847619, 34.173533804020124], [72.29233731178184, 34.173572406145354], [72.29249823237171, 34.173570189517754], [72.29249740815735, 34.17353149730445]]]]}, "properties": {"id": "Pakistan_123102310_301141", "height": 2.955013990402222, "hmax": 0.0, "ratio": 0.0, "vulnClass": "none"}}, {"type": "Feature", "geometry": {"type": "MultiPolygon", "coordinates": [[[[72.29199770633632, 34.17347430743953], [72.29199701153439, 34.17369623944641], [72.29211240916051, 34.173696443746714], [72.29211293059222, 34.17353761235146], [72.29231249014984, 34.17353796199083], [72.29231276857541, 34.17347495383538], [72.29199770633632, 34.17347430743953]]]]}, "properties": {"id": "Pakistan_123102310_556714", "height": 3.11695384979248, "hmax": 0.127, "ratio": 0.041, "vulnClass": "low"}}, {"type": "Feature", "geometry": {"type": "MultiPolygon", "coordinates": [[[[72.2924323920615, 34.17384179785552], [72.29242476547468, 34.17369693997611], [72.29232301768762, 34.17370064332197], [72.29233064409978, 34.17384550119928], [72.2924323920615, 34.17384179785552]]]]}, "properties": {"id": "Pakistan_123102310_315484", "height": 2.967452526092529, "hmax": 0.0, "ratio": 0.0, "vulnClass": "none"}}, {"type": "Feature", "geometry": {"type": "MultiPolygon", "coordinates": [[[[72.29241483054942, 34.17368878749414], [72.29241096981222, 34.17358899721789], [72.29232249706688, 34.173591370977], [72.29232636057874, 34.17369107116537], [72.29241483054942, 34.17368878749414]]]]}, "properties": {"id": "Pakistan_123102310_723166", "height": 2.672799825668335, "hmax": 0.0, "ratio": 0.0, "vulnClass": "none"}}, {"type": "Feature", "geometry": {"type": "MultiPolygon", "coordinates": [[[[72.2926071695061, 34.173830241071684], [72.29260378881463, 34.1736882715589], [72.29252598098313, 34.17368952867574], [72.29252946993013, 34.173831500577315], [72.2926071695061, 34.173830241071684]]]]}, "properties": {"id": "Pakistan_123102310_234511", "height": 3.31095814704895, "hmax": 0.0, "ratio": 0.0, "vulnClass": "none"}}, {"type": "Feature", "geometry": {"type": "MultiPolygon", "coordinates": [[[[72.29267252146167, 34.17340419621653], [72.2926717132722, 34.17337857599351], [72.29253507143008, 34.17338132888059], [72.29253647197116, 34.173429138890434], [72.29261038055502, 34.173427705527374], [72.29261167664438, 34.17347199741142], [72.29272010089845, 34.17346979344777], [72.29271810392554, 34.17340330938005], [72.29267252146167, 34.17340419621653]]]]}, "properties": {"id": "Pakistan_123102310_25600", "height": 2.481451034545898, "hmax": 0.076, "ratio": 0.031, "vulnClass": "none"}}, {"type": "Feature", "geometry": {"type": "MultiPolygon", "coordinates": [[[[72.29319831699655, 34.173320244668304], [72.29319696240054, 34.17324043268795], [72.29325588196622, 34.17323965972953], [72.29325546684508, 34.17321531027047], [72.2931884126244, 34.1732160839771], [72.29318706091087, 34.17313618191025], [72.29306108726406, 34.17313772847891], [72.29306304180508, 34.173253072502284], [72.29295041668666, 34.17325437270316], [72.29295297108696, 34.173405248763395], [72.29305485470165, 34.17340407206048], [72.29305346669913, 34.173321915465216], [72.29319831699655, 34.173320244668304]]]]}, "properties": {"id": "Pakistan_123102310_428825", "height": 5.200500965118408, "hmax": 0.08, "ratio": 0.015, "vulnClass": "none"}}, {"type": "Feature", "geometry": {"type": "MultiPolygon", "coordinates": [[[[72.2929613756147, 34.17321350656046], [72.29295803099882, 34.17313148707243], [72.29287226835554, 34.1731339210653], [72.2928756128881, 34.173215940551636], [72.2929613756147, 34.17321350656046]]]]}, "properties": {"id": "Pakistan_123102310_462136", "height": 4.660963535308838, "hmax": 0.0, "ratio": 0.0, "vulnClass": "none"}}, {"type": "Feature", "geometry": {"type": "MultiPolygon", "coordinates": [[[[72.29261266935865, 34.173230509547274], [72.29234203533424, 34.173237966685264], [72.29234541575475, 34.1733222406947], [72.2926160500493, 34.17331478356225], [72.29261266935865, 34.173230509547274]]]]}, "properties": {"id": "Pakistan_123102310_53528", "height": 4.426022529602051, "hmax": 0.096, "ratio": 0.022, "vulnClass": "none"}}, {"type": "Feature", "geometry": {"type": "MultiPolygon", "coordinates": [[[[72.29213137513189, 34.17337115343455], [72.29230301872083, 34.17337277979683], [72.29230395424196, 34.17330618017986], [72.29222881136957, 34.17330551267512], [72.29222909272097, 34.17328992307279], [72.29213248089204, 34.17328905191649], [72.29213137513189, 34.17337115343455]]]]}, "properties": {"id": "Pakistan_123102310_718403", "height": 4.300477027893066, "hmax": 0.127, "ratio": 0.029, "vulnClass": "low"}}, {"type": "Feature", "geometry": {"type": "MultiPolygon", "coordinates": [[[[72.29219423206725, 34.17328113005781], [72.29229479657124, 34.17328389142325], [72.29229799789384, 34.17320408989836], [72.29222300668752, 34.17320207350286], [72.29222186853454, 34.17323089612202], [72.29219618693706, 34.17323014876537], [72.29219423206725, 34.17328113005781]]]]}, "properties": {"id": "Pakistan_123102310_926534", "height": 4.968347072601318, "hmax": 0.087, "ratio": 0.018, "vulnClass": "none"}}, {"type": "Feature", "geometry": {"type": "MultiPolygon", "coordinates": [[[[72.29218882142872, 34.1732807401406], [72.29219205164421, 34.17320003776682], [72.29213840949691, 34.17319858286403], [72.29213517923054, 34.17327928523397], [72.29218882142872, 34.1732807401406]]]]}, "properties": {"id": "Pakistan_123102310_92743", "height": 4.656324863433838, "hmax": 0.084, "ratio": 0.018, "vulnClass": "none"}}, {"type": "Feature", "geometry": {"type": "MultiPolygon", "coordinates": [[[[72.29212844101883, 34.17328310301311], [72.2921311725561, 34.17320103739293], [72.29207752177265, 34.17319985272041], [72.2920748985691, 34.173281920730226], [72.29212844101883, 34.17328310301311]]]]}, "properties": {"id": "Pakistan_123102310_102299", "height": 2.66722846031189, "hmax": 0.0, "ratio": 0.0, "vulnClass": "none"}}, {"type": "Feature", "geometry": {"type": "MultiPolygon", "coordinates": [[[[72.29229125386453, 34.173113070578154], [72.29202063014256, 34.173106644262866], [72.29201764902515, 34.1731931216791], [72.29228827302245, 34.17319954801416], [72.29229125386453, 34.173113070578154]]]]}, "properties": {"id": "Pakistan_123102310_784805", "height": 5.318645477294922, "hmax": 0.057, "ratio": 0.011, "vulnClass": "none"}}, {"type": "Feature", "geometry": {"type": "MultiPolygon", "coordinates": [[[[72.29229444941436, 34.17303344922254], [72.29229525125506, 34.17298460604817], [72.29219061926881, 34.172983557865], [72.29218992575305, 34.173032403428984], [72.29229444941436, 34.17303344922254]]]]}, "properties": {"id": "Pakistan_123102310_666052", "height": 3.218084812164307, "hmax": 0.057, "ratio": 0.018, "vulnClass": "none"}}, {"type": "Feature", "geometry": {"type": "MultiPolygon", "coordinates": [[[[72.29222521530004, 34.17288524776014], [72.29216201716208, 34.172887548440954], [72.29216432880456, 34.172930600661424], [72.29222741858966, 34.17292829758783], [72.29222521530004, 34.17288524776014]]]]}, "properties": {"id": "Pakistan_123102310_45751", "height": 2.74277400970459, "hmax": 0.0, "ratio": 0.0, "vulnClass": "none"}}, {"type": "Feature", "geometry": {"type": "MultiPolygon", "coordinates": [[[[72.29234314162642, 34.17296240493696], [72.29234505149068, 34.17300445664365], [72.29238685176865, 34.17300312582063], [72.2923848334984, 34.17296107172057], [72.29234314162642, 34.17296240493696]]]]}, "properties": {"id": "Pakistan_123102310_666053", "height": 3.171024084091187, "hmax": 0.057, "ratio": 0.018, "vulnClass": "none"}}, {"type": "Feature", "geometry": {"type": "MultiPolygon", "coordinates": [[[[72.29256929082976, 34.17301310357164], [72.2925749200078, 34.17290144280234], [72.29243039478133, 34.17289635886457], [72.29242950245033, 34.17291409856112], [72.29247077989422, 34.17291555079094], [72.29246593163907, 34.17300955954449], [72.29256929082976, 34.17301310357164]]]]}, "properties": {"id": "Pakistan_123102310_723167", "height": 4.656420707702637, "hmax": 0.057, "ratio": 0.012, "vulnClass": "none"}}, {"type": "Feature", "geometry": {"type": "MultiPolygon", "coordinates": [[[[72.29260835357854, 34.172893797040274], [72.2926071144911, 34.17294614638892], [72.29281092175897, 34.172949293432964], [72.2928120523356, 34.172896941683625], [72.29260835357854, 34.172893797040274]]]]}, "properties": {"id": "Pakistan_123102310_64251", "height": 5.052678108215332, "hmax": 0.0, "ratio": 0.0, "vulnClass": "none"}}, {"type": "Feature", "geometry": {"type": "MultiPolygon", "coordinates": [[[[72.29259054568867, 34.17302339908636], [72.2925358111449, 34.173022190691185], [72.29253091976486, 34.1731752462397], [72.29258565440722, 34.173176454641776], [72.29259054568867, 34.17302339908636]]]]}, "properties": {"id": "Pakistan_123102310_775344", "height": 3.990638017654419, "hmax": 0.0, "ratio": 0.0, "vulnClass": "none"}}, {"type": "Feature", "geometry": {"type": "MultiPolygon", "coordinates": [[[[72.29261319336253, 34.173088536078986], [72.2926162590272, 34.17313854643317], [72.29270835984114, 34.17313462985694], [72.29271008305867, 34.17316216341498], [72.29275168104047, 34.17316037725711], [72.29274699757205, 34.173082925822726], [72.29261319336253, 34.173088536078986]]]]}, "properties": {"id": "Pakistan_123102310_879271", "height": 3.765209197998047, "hmax": 0.0, "ratio": 0.0, "vulnClass": "none"}}, {"type": "Feature", "geometry": {"type": "MultiPolygon", "coordinates": [[[[72.29274199370205, 34.173008712686936], [72.29261442429143, 34.17300589640935], [72.29261208375796, 34.17307913606226], [72.29273965327855, 34.17308195234755], [72.29274199370205, 34.173008712686936]]]]}, "properties": {"id": "Pakistan_123102310_91396", "height": 3.945510387420654, "hmax": 0.0, "ratio": 0.0, "vulnClass": "none"}}, {"type": "Feature", "geometry": {"type": "MultiPolygon", "coordinates": [[[[72.29290947533724, 34.173126989565084], [72.29291145116244, 34.173051578267774], [72.29276131737865, 34.173048895085955], [72.29275934142012, 34.17312430637446], [72.29290947533724, 34.173126989565084]]]]}, "properties": {"id": "Pakistan_123102310_72234", "height": 3.993499517440796, "hmax": 0.0, "ratio": 0.0, "vulnClass": "none"}}, {"type": "Feature", "geometry": {"type": "MultiPolygon", "coordinates": [[[[72.29304774544461, 34.17312418204101], [72.29304706965235, 34.173084231009604], [72.29291296143217, 34.17308577816785], [72.29291363716105, 34.173125729196954], [72.29304774544461, 34.17312418204101]]]]}, "properties": {"id": "Pakistan_123102310_400684", "height": 4.80455493927002, "hmax": 0.0, "ratio": 0.0, "vulnClass": "none"}}, {"type": "Feature", "geometry": {"type": "MultiPolygon", "coordinates": [[[[72.293011060691, 34.173002752590925], [72.2929333887698, 34.17299977596921], [72.29293195449537, 34.17302769057298], [72.29300952093519, 34.17303057471865], [72.293011060691, 34.173002752590925]]]]}, "properties": {"id": "Pakistan_123102310_618413", "height": 3.689175844192505, "hmax": 0.0, "ratio": 0.0, "vulnClass": "none"}}, {"type": "Feature", "geometry": {"type": "MultiPolygon", "coordinates": [[[[72.29304875882053, 34.1729838420385], [72.29304952845654, 34.17294617664299], [72.29288333656768, 34.17294368005334], [72.29288245559411, 34.17298143313737], [72.29304875882053, 34.1729838420385]]]]}, "properties": {"id": "Pakistan_123102310_789406", "height": 4.463305473327637, "hmax": 0.0, "ratio": 0.0, "vulnClass": "none"}}, {"type": "Feature", "geometry": {"type": "MultiPolygon", "coordinates": [[[[72.29288942640001, 34.172854927333724], [72.29288506509774, 34.17293371164457], [72.29293598021295, 34.172935646914155], [72.2929401611202, 34.17285911234926], [72.2929844704614, 34.172860721481385], [72.29298679017101, 34.172818672989585], [72.29284769291253, 34.17281343891604], [72.29284544222116, 34.17285332534527], [72.29288942640001, 34.172854927333724]]]]}, "properties": {"id": "Pakistan_123102310_286843", "height": 3.633514165878296, "hmax": 0.0, "ratio": 0.0, "vulnClass": "none"}}, {"type": "Feature", "geometry": {"type": "MultiPolygon", "coordinates": [[[[72.29296700578143, 34.17271483508742], [72.29284800207202, 34.17271211799418], [72.29284654650098, 34.1727542757073], [72.29276721162361, 34.172752434216406], [72.29276597666441, 34.17279108097715], [72.29296431540041, 34.17279563957182], [72.29296700578143, 34.17271483508742]]]]}, "properties": {"id": "Pakistan_123102310_542561", "height": 2.957662582397461, "hmax": 0.0, "ratio": 0.0, "vulnClass": "none"}}, {"type": "Feature", "geometry": {"type": "MultiPolygon", "coordinates": [[[[72.29310790504579, 34.1727315577513], [72.29311302561273, 34.17266973824277], [72.29305954107411, 34.17266675469371], [72.29305148314447, 34.172766191746796], [72.29327040441063, 34.17277832595803], [72.29327344714542, 34.17274080087752], [72.29310790504579, 34.1727315577513]]]]}, "properties": {"id": "Pakistan_123102310_680341", "height": 3.835753440856934, "hmax": 0.0, "ratio": 0.0, "vulnClass": "none"}}, {"type": "Feature", "geometry": {"type": "MultiPolygon", "coordinates": [[[[72.29315784511455, 34.17288960990229], [72.29305594871704, 34.1728878114999], [72.29305396916166, 34.17296673854272], [72.2933838400905, 34.172972306620174], [72.29338553441237, 34.17290229804495], [72.29327832423144, 34.172900472697876], [72.29327884714866, 34.17287731588189], [72.29322638012063, 34.17287642829299], [72.29322838927632, 34.17279317473155], [72.29316031486319, 34.17279194263043], [72.29315784511455, 34.17288960990229]]]]}, "properties": {"id": "Pakistan_123102310_637374", "height": 3.642154693603516, "hmax": 0.0, "ratio": 0.0, "vulnClass": "none"}}, {"type": "Feature", "geometry": {"type": "MultiPolygon", "coordinates": [[[[72.29353384518689, 34.17299599097195], [72.29354508623142, 34.17285461457057], [72.29357172306783, 34.17285601376753], [72.2935762687572, 34.172798598858755], [72.29354422132052, 34.17279680980742], [72.2935487670225, 34.17273939489991], [72.29338852134138, 34.17273071978676], [72.29337846183677, 34.17285887030666], [72.2934558766025, 34.1728631030571], [72.29345040324966, 34.172932577485334], [72.29348245361182, 34.172934276477804], [72.29347267526707, 34.173057024255094], [72.29352616295631, 34.17305991755046], [72.29352802384676, 34.17303561832023], [72.29401948148458, 34.17306223968218], [72.29402259584221, 34.17302246242468], [72.29353384518689, 34.17299599097195]]]]}, "properties": {"id": "Pakistan_123102310_940817", "height": 3.969863176345825, "hmax": 0.0, "ratio": 0.0, "vulnClass": "none"}}, {"type": "Feature", "geometry": {"type": "MultiPolygon", "coordinates": [[[[72.29385130013391, 34.17283000017168], [72.29385471288263, 34.17274353218257], [72.29379955355512, 34.17274204453554], [72.29380058180546, 34.17271664513273], [72.2936949237468, 34.1727137726163], [72.29369048255272, 34.172825639993505], [72.29385130013391, 34.17283000017168]]]]}, "properties": {"id": "Pakistan_123102310_72250", "height": 2.799859046936035, "hmax": 0.0, "ratio": 0.0, "vulnClass": "none"}}, {"type": "Feature", "geometry": {"type": "MultiPolygon", "coordinates": [[[[72.2936866344794, 34.17279670730948], [72.29364983630212, 34.17280103374481], [72.2936572629481, 34.172843567792356], [72.29369406402151, 34.17283915126995], [72.2936866344794, 34.17279670730948]]]]}, "properties": {"id": "Pakistan_123102310_62824", "height": 2.475142002105713, "hmax": 0.0, "ratio": 0.0, "vulnClass": "none"}}, {"type": "Feature", "geometry": {"type": "MultiPolygon", "coordinates": [[[[72.29436346659591, 34.172608896124466], [72.29430722923657, 34.17260720462563], [72.29430459664471, 34.172669259398226], [72.2942135734401, 34.17266662007009], [72.29420983591069, 34.17275308091371], [72.29437595278833, 34.17275791791932], [72.29438036529636, 34.17265371254898], [72.29436161758127, 34.17265320877819], [72.29436346659591, 34.172608896124466]]]]}, "properties": {"id": "Pakistan_123102310_339186", "height": 4.293082237243652, "hmax": 0.0, "ratio": 0.0, "vulnClass": "none"}}, {"type": "Feature", "geometry": {"type": "MultiPolygon", "coordinates": [[[[72.29433021291348, 34.17286562880808], [72.29433252808697, 34.17281690912661], [72.29409416714898, 34.17280894549129], [72.29409184896186, 34.17285775524755], [72.29433021291348, 34.17286562880808]]]]}, "properties": {"id": "Pakistan_123102310_604158", "height": 3.444380760192871, "hmax": 0.0, "ratio": 0.0, "vulnClass": "none"}}, {"type": "Feature", "geometry": {"type": "MultiPolygon", "coordinates": [[[[72.29411421928732, 34.173729631683045], [72.29408593046921, 34.17372900748912], [72.2940830597785, 34.17381548743957], [72.2941274981974, 34.17381646797436], [72.29413043597476, 34.173724490396786], [72.29417725884582, 34.1737255235247], [72.29418094177524, 34.17361021372435], [72.29411807782125, 34.173608826656334], [72.29411421928732, 34.173729631683045]]]]}, "properties": {"id": "Pakistan_123102310_400685", "height": 4.673689365386963, "hmax": 0.0, "ratio": 0.0, "vulnClass": "none"}}, {"type": "Feature", "geometry": {"type": "MultiPolygon", "coordinates": [[[[72.29411245323472, 34.17359815508638], [72.29433391674328, 34.17359528861896], [72.2943324920387, 34.173517638661835], [72.29411102873361, 34.17352050513648], [72.29411245323472, 34.17359815508638]]]]}, "properties": {"id": "Pakistan_123102310_16068", "height": 4.303418636322021, "hmax": 0.086, "ratio": 0.02, "vulnClass": "none"}}, {"type": "Feature", "geometry": {"type": "MultiPolygon", "coordinates": [[[[72.29417785554483, 34.17338423156051], [72.29417445155457, 34.17341949496765], [72.29426244844352, 34.173425222798684], [72.29426574401182, 34.173389956996004], [72.29417785554483, 34.17338423156051]]]]}, "properties": {"id": "Pakistan_123102310_523825", "height": 4.053799629211426, "hmax": 0.086, "ratio": 0.021, "vulnClass": "none"}}, {"type": "Feature", "geometry": {"type": "MultiPolygon", "coordinates": [[[[72.29430004766375, 34.17339242668893], [72.2942950266073, 34.173437570842864], [72.29435237044932, 34.17344199125188], [72.29435739435284, 34.173396757008376], [72.29430004766375, 34.17339242668893]]]]}, "properties": {"id": "Pakistan_123102310_395915", "height": 3.70141863822937, "hmax": 0.086, "ratio": 0.023, "vulnClass": "none"}}, {"type": "Feature", "geometry": {"type": "MultiPolygon", "coordinates": [[[[72.29410056566478, 34.1732572187052], [72.29416103911765, 34.173258733329114], [72.2941628153639, 34.1732099116157], [72.29410233906844, 34.17320848708012], [72.29410056566478, 34.1732572187052]]]]}, "properties": {"id": "Pakistan_123102310_575918", "height": 2.601654767990112, "hmax": 0.0, "ratio": 0.0, "vulnClass": "none"}}, {"type": "Feature", "geometry": {"type": "MultiPolygon", "coordinates": [[[[72.29429011225244, 34.17330277940088], [72.2942918311766, 34.173327067480884], [72.29434919121508, 34.173324186155526], [72.29434736388866, 34.17329989568422], [72.29429011225244, 34.17330277940088]]]]}, "properties": {"id": "Pakistan_123102310_17179", "height": 4.255463123321533, "hmax": 0.086, "ratio": 0.02, "vulnClass": "none"}}, {"type": "Feature", "geometry": {"type": "MultiPolygon", "coordinates": [[[[72.29434078631711, 34.17338358938982], [72.29434418245256, 34.17332479684188], [72.2940968729827, 34.17331510320662], [72.29409347955416, 34.17337380565379], [72.29434078631711, 34.17338358938982]]]]}, "properties": {"id": "Pakistan_123102310_7449", "height": 4.450147151947021, "hmax": 0.086, "ratio": 0.019, "vulnClass": "none"}}, {"type": "Feature", "geometry": {"type": "MultiPolygon", "coordinates": [[[[72.29391645680211, 34.17321799801125], [72.29391474468278, 34.17325122530965], [72.29402189493418, 34.17325494192308], [72.2940234986261, 34.173221712229605], [72.29391645680211, 34.17321799801125]]]]}, "properties": {"id": "Pakistan_123102310_187097", "height": 2.783322811126709, "hmax": 0.0, "ratio": 0.0, "vulnClass": "none"}}, {"type": "Feature", "geometry": {"type": "MultiPolygon", "coordinates": [[[[72.29362901582071, 34.17334074862598], [72.2940205636918, 34.17334416032276], [72.29402128493199, 34.17328422697492], [72.293884553023, 34.1732830128193], [72.29388527147837, 34.17322316956209], [72.29384504315239, 34.173222822747036], [72.2938445270759, 34.173262747482184], [72.29376949254993, 34.173262083315244], [72.29376917886167, 34.17328208952868], [72.29368341126357, 34.17328127860411], [72.29368306492924, 34.17330570140993], [72.29362949937367, 34.17330524049059], [72.29362901582071, 34.17334074862598]]]]}, "properties": {"id": "Pakistan_123102310_253419", "height": 5.299848556518555, "hmax": 0.0, "ratio": 0.0, "vulnClass": "none"}}, {"type": "Feature", "geometry": {"type": "MultiPolygon", "coordinates": [[[[72.29383841821793, 34.17320951476224], [72.29368683283663, 34.173204727242776], [72.2936849757701, 34.1732458844717], [72.29383656410228, 34.17325058191121], [72.29383841821793, 34.17320951476224]]]]}, "properties": {"id": "Pakistan_123102310_618417", "height": 3.264219284057617, "hmax": 0.0, "ratio": 0.0, "vulnClass": "none"}}, {"type": "Feature", "geometry": {"type": "MultiPolygon", "coordinates": [[[[72.29390551465865, 34.1732006281969], [72.29391119870513, 34.17306003061961], [72.29381854645527, 34.173057445189265], [72.29381719687048, 34.173089508545736], [72.29385480086134, 34.17309051865165], [72.29385046341693, 34.173199142950224], [72.29390551465865, 34.1732006281969]]]]}, "properties": {"id": "Pakistan_123102310_177044", "height": 2.463770866394043, "hmax": 0.0, "ratio": 0.0, "vulnClass": "none"}}, {"type": "Feature", "geometry": {"type": "MultiPolygon", "coordinates": [[[[72.29358066624079, 34.173102318610475], [72.29358169266396, 34.17307358364963], [72.29349704943303, 34.173071535324084], [72.29349594815444, 34.17310261251207], [72.29332709231859, 34.17309861533616], [72.29332542686159, 34.173147349321695], [72.29368188945125, 34.17315575725244], [72.29368362664775, 34.17310477110844], [72.29358066624079, 34.173102318610475]]]]}, "properties": {"id": "Pakistan_123102310_158068", "height": 4.019661426544189, "hmax": 0.0, "ratio": 0.0, "vulnClass": "none"}}, {"type": "Feature", "geometry": {"type": "MultiPolygon", "coordinates": [[[[72.29305444399448, 34.17296206126319], [72.2930507014821, 34.17304185088316], [72.29310162818423, 34.17304342574435], [72.29310537064887, 34.17296363612054], [72.29305444399448, 34.17296206126319]]]]}, "properties": {"id": "Pakistan_123102310_585404", "height": 3.623805046081543, "hmax": 0.0, "ratio": 0.0, "vulnClass": "none"}}, {"type": "Feature", "geometry": {"type": "MultiPolygon", "coordinates": [[[[72.29320021933911, 34.17306381205382], [72.29334608299988, 34.17306775269106], [72.29334910297328, 34.17299020083932], [72.29320335070902, 34.172986172518605], [72.29320021933911, 34.17306381205382]]]]}, "properties": {"id": "Pakistan_123102310_784808", "height": 2.851556062698364, "hmax": 0.0, "ratio": 0.0, "vulnClass": "none"}}, {"type": "Feature", "geometry": {"type": "MultiPolygon", "coordinates": [[[[72.29318246959686, 34.17311354325779], [72.29318071078643, 34.17308032951414], [72.29310046720889, 34.17308315593486], [72.2930987448566, 34.17305219672661], [72.29305064092966, 34.17305392954513], [72.29305401076041, 34.17311819018951], [72.29318246959686, 34.17311354325779]]]]}, "properties": {"id": "Pakistan_123102310_433591", "height": 3.382300853729248, "hmax": 0.0, "ratio": 0.0, "vulnClass": "none"}}, {"type": "Feature", "geometry": {"type": "MultiPolygon", "coordinates": [[[[72.29350927524543, 34.17319810425014], [72.29350950342484, 34.173218122420344], [72.29333254237662, 34.17321998636579], [72.2933334502993, 34.17327643983428], [72.29332422888645, 34.17327650675436], [72.29332528442214, 34.17334531392727], [72.29360532153943, 34.17334229915292], [72.29360312659281, 34.173197110410946], [72.29350927524543, 34.17319810425014]]]]}, "properties": {"id": "Pakistan_123102310_206295", "height": 5.87705135345459, "hmax": 0.08, "ratio": 0.014, "vulnClass": "none"}}, {"type": "Feature", "geometry": {"type": "MultiPolygon", "coordinates": [[[[72.29311098811145, 34.17339205916881], [72.29310812374332, 34.173325555952864], [72.2930572073901, 34.17332704639262], [72.29306007171812, 34.173393549607816], [72.29311098811145, 34.17339205916881]]]]}, "properties": {"id": "Pakistan_123102310_315489", "height": 4.241514682769775, "hmax": 0.0, "ratio": 0.0, "vulnClass": "none"}}, {"type": "Feature", "geometry": {"type": "MultiPolygon", "coordinates": [[[[72.29306112515074, 34.1734590212082], [72.29318052605487, 34.17346291882849], [72.29318373411482, 34.173396459497404], [72.29306433330385, 34.1733925618847], [72.29306112515074, 34.1734590212082]]]]}, "properties": {"id": "Pakistan_123102310_604150", "height": 3.750520467758179, "hmax": 0.08, "ratio": 0.021, "vulnClass": "none"}}, {"type": "Feature", "geometry": {"type": "MultiPolygon", "coordinates": [[[[72.2933395760705, 34.1735973260563], [72.29333753202877, 34.17373259495692], [72.29340193646597, 34.17373329523368], [72.29340225123237, 34.1737098633771], [72.29346394600029, 34.17371050381637], [72.29346453036703, 34.17367184268647], [72.29357989640229, 34.17367303654642], [72.2935808309392, 34.17360643687454], [72.29369500176992, 34.17360769439568], [72.29369580283159, 34.173558851177695], [72.2936862619839, 34.17355873077638], [72.29368674649072, 34.17351979699051], [72.29356498300616, 34.17351855219855], [72.2935636935012, 34.17359965806624], [72.2933395760705, 34.1735973260563]]]]}, "properties": {"id": "Pakistan_123102310_656381", "height": 5.390746593475342, "hmax": 0.0, "ratio": 0.0, "vulnClass": "none"}}, {"type": "Feature", "geometry": {"type": "MultiPolygon", "coordinates": [[[[72.29380230517862, 34.173494581154245], [72.29380150247748, 34.17342803328755], [72.29342329816166, 34.17343131597593], [72.29342420895108, 34.17349786622293], [72.29380230517862, 34.173494581154245]]]]}, "properties": {"id": "Pakistan_123102310_666062", "height": 4.412195205688477, "hmax": 0.08, "ratio": 0.018, "vulnClass": "none"}}, {"type": "Feature", "geometry": {"type": "MultiPolygon", "coordinates": [[[[72.29353143119887, 34.17334995382047], [72.2933410981348, 34.17335278474524], [72.29334199083084, 34.17339274056462], [72.29353232686286, 34.173389819557066], [72.29353143119887, 34.17334995382047]]]]}, "properties": {"id": "Pakistan_123102310_784810", "height": 5.87705135345459, "hmax": 0.08, "ratio": 0.014, "vulnClass": "none"}}, {"type": "Feature", "geometry": {"type": "MultiPolygon", "coordinates": [[[[72.29334100780405, 34.17350838035131], [72.29338120171467, 34.17350980836693], [72.29338727208032, 34.17339788683], [72.2933471894864, 34.17339637112536], [72.29334100780405, 34.17350838035131]]]]}, "properties": {"id": "Pakistan_123102310_6610", "height": 2.998573541641235, "hmax": 0.08, "ratio": 0.027, "vulnClass": "none"}}, {"type": "Feature", "geometry": {"type": "MultiPolygon", "coordinates": [[[[72.29353702696626, 34.17335133940607], [72.29353547375409, 34.17341693378327], [72.29357948703431, 34.17341763468119], [72.29358104021247, 34.17335204030179], [72.29353702696626, 34.17335133940607]]]]}, "properties": {"id": "Pakistan_123102310_495270", "height": 3.765768766403198, "hmax": 0.0, "ratio": 0.0, "vulnClass": "none"}}, {"type": "Feature", "geometry": {"type": "MultiPolygon", "coordinates": [[[[72.29403944298059, 34.17336431959308], [72.29379679021828, 34.173358243922465], [72.29379405645356, 34.17343363852561], [72.29403670943105, 34.17343971421193], [72.29403944298059, 34.17336431959308]]]]}, "properties": {"id": "Pakistan_123102310_206301", "height": 4.270793437957764, "hmax": 0.0, "ratio": 0.0, "vulnClass": "none"}}, {"type": "Feature", "geometry": {"type": "MultiPolygon", "coordinates": [[[[72.29385328692564, 34.173443509756545], [72.29380779266492, 34.1734450300069], [72.29381046960407, 34.17350044072493], [72.29385607515822, 34.173498832781], [72.29385328692564, 34.173443509756545]]]]}, "properties": {"id": "Pakistan_123102310_186358", "height": 4.301444053649902, "hmax": 0.0, "ratio": 0.0, "vulnClass": "none"}}, {"type": "Feature", "geometry": {"type": "MultiPolygon", "coordinates": [[[[72.29369100607164, 34.173546034276356], [72.29379532424697, 34.17355013934459], [72.29379775198353, 34.17350809321501], [72.2936934338596, 34.17350398815132], [72.29369100607164, 34.173546034276356]]]]}, "properties": {"id": "Pakistan_123102310_187095", "height": 4.356324672698975, "hmax": 0.0, "ratio": 0.0, "vulnClass": "none"}}, {"type": "Feature", "geometry": {"type": "MultiPolygon", "coordinates": [[[[72.29369050871463, 34.173700809569844], [72.29359792100067, 34.17369957761758], [72.2935967611106, 34.173756255898276], [72.29368934888643, 34.17375748785439], [72.29369050871463, 34.173700809569844]]]]}, "properties": {"id": "Pakistan_123102310_789409", "height": 3.932751893997192, "hmax": 0.0, "ratio": 0.0, "vulnClass": "none"}}, {"type": "Feature", "geometry": {"type": "MultiPolygon", "coordinates": [[[[72.29369438454856, 34.1737526407744], [72.29372658390457, 34.17375308090941], [72.29372788374928, 34.17369541407194], [72.29369568441517, 34.17369497393833], [72.29369438454856, 34.1737526407744]]]]}, "properties": {"id": "Pakistan_123102310_101002", "height": 3.842432737350464, "hmax": 0.0, "ratio": 0.0, "vulnClass": "none"}}, {"type": "Feature", "geometry": {"type": "MultiPolygon", "coordinates": [[[[72.29358604660887, 34.173670648097826], [72.29403661563431, 34.17367355933421], [72.29403705681467, 34.17362578995951], [72.29358649092116, 34.17362278865118], [72.29358604660887, 34.173670648097826]]]]}, "properties": {"id": "Pakistan_123102310_855624", "height": 5.689872264862061, "hmax": 0.0, "ratio": 0.0, "vulnClass": "none"}}, {"type": "Feature", "geometry": {"type": "MultiPolygon", "coordinates": [[[[72.29373515810454, 34.17369178833402], [72.29373612292339, 34.173729492013976], [72.29388773419568, 34.17372670753012], [72.29388676930915, 34.173689003848104], [72.29373515810454, 34.17369178833402]]]]}, "properties": {"id": "Pakistan_123102310_414737", "height": 4.291286468505859, "hmax": 0.0, "ratio": 0.0, "vulnClass": "none"}}, {"type": "Feature", "geometry": {"type": "MultiPolygon", "coordinates": [[[[72.29377633305862, 34.17381529996316], [72.29377906305388, 34.173733234236714], [72.29373083117278, 34.17373216986232], [72.29372810113094, 34.17381423558546], [72.29377633305862, 34.17381529996316]]]]}, "properties": {"id": "Pakistan_123102310_16062", "height": 3.59976863861084, "hmax": 0.0, "ratio": 0.0, "vulnClass": "none"}}, {"type": "Feature", "geometry": {"type": "MultiPolygon", "coordinates": [[[[72.29353401100684, 34.17379543820183], [72.2935339647435, 34.17383762702868], [72.29360370610279, 34.17383763364223], [72.29360375233138, 34.173795444813685], [72.29353401100684, 34.17379543820183]]]]}, "properties": {"id": "Pakistan_123102310_931300", "height": 3.440316200256348, "hmax": 0.0, "ratio": 0.0, "vulnClass": "none"}}, {"type": "Feature", "geometry": {"type": "MultiPolygon", "coordinates": [[[[72.29338513917055, 34.17391277224433], [72.29338214467295, 34.174040447628244], [72.29349890008336, 34.1740423032871], [72.29350189440532, 34.17391462789193], [72.29338513917055, 34.17391277224433]]]]}, "properties": {"id": "Pakistan_123102310_528393", "height": 4.362068176269531, "hmax": 0.0, "ratio": 0.0, "vulnClass": "none"}}, {"type": "Feature", "geometry": {"type": "MultiPolygon", "coordinates": [[[[72.2935779825799, 34.17393325519148], [72.29357494910559, 34.1740485792804], [72.29365419125246, 34.17404996748647], [72.2936561664937, 34.17397455615644], [72.29371784419834, 34.17397573699165], [72.29371890229477, 34.17393582422372], [72.2935779825799, 34.17393325519148]]]]}, "properties": {"id": "Pakistan_123102310_253417", "height": 3.58021354675293, "hmax": 0.0, "ratio": 0.0, "vulnClass": "none"}}, {"type": "Feature", "geometry": {"type": "MultiPolygon", "coordinates": [[[[72.29378940641236, 34.173881397417084], [72.293790450837, 34.17393019121126], [72.29404513325595, 34.173926435660924], [72.29404334722264, 34.173846524005995], [72.29383423913306, 34.1738496625808], [72.29383498339534, 34.173880690348454], [72.29378940641236, 34.173881397417084]]]]}, "properties": {"id": "Pakistan_123102310_186356", "height": 4.471340656280518, "hmax": 0.0, "ratio": 0.0, "vulnClass": "none"}}, {"type": "Feature", "geometry": {"type": "MultiPolygon", "coordinates": [[[[72.293768037826, 34.17393916227871], [72.29377095840019, 34.173980154489996], [72.29383505036158, 34.173977061379404], [72.29383212975627, 34.17393606916814], [72.293768037826, 34.17393916227871]]]]}, "properties": {"id": "Pakistan_123102310_167642", "height": 3.428022146224976, "hmax": 0.0, "ratio": 0.0, "vulnClass": "none"}}, {"type": "Feature", "geometry": {"type": "MultiPolygon", "coordinates": [[[[72.29375362189344, 34.17412220772668], [72.29403784651919, 34.17412739787192], [72.2940427180701, 34.1739443220713], [72.293847057354, 34.173940725743115], [72.29384581802407, 34.173986313917396], [72.29389795772676, 34.17398728418477], [72.29389581004159, 34.174068100674155], [72.29375510686066, 34.174065536618336], [72.29375362189344, 34.17412220772668]]]]}, "properties": {"id": "Pakistan_123102310_765932", "height": 3.479870319366455, "hmax": 0.0, "ratio": 0.0, "vulnClass": "none"}}, {"type": "Feature", "geometry": {"type": "MultiPolygon", "coordinates": [[[[72.29261531029645, 34.174454523837476], [72.29256179197871, 34.17445595660841], [72.29256506419563, 34.17454022821677], [72.29232656616605, 34.17454659171511], [72.29232998581553, 34.17463303015901], [72.29262200251526, 34.17462523389715], [72.29261531029645, 34.174454523837476]]]]}, "properties": {"id": "Pakistan_123102310_73729", "height": 3.915115833282471, "hmax": 0.0, "ratio": 0.0, "vulnClass": "none"}}, {"type": "Feature", "geometry": {"type": "MultiPolygon", "coordinates": [[[[72.29249432952724, 34.17443553583127], [72.29261701231242, 34.17442841814113], [72.29262135558582, 34.174479177887974], [72.29268666321641, 34.17447539103505], [72.29269476963621, 34.174571308466426], [72.29275225330494, 34.17456797989674], [72.2927367452119, 34.1743846346218], [72.29267665174343, 34.17438817601896], [72.29266672612657, 34.17427112350581], [72.29262543548398, 34.17427345730085], [72.29263156630363, 34.174346343070475], [72.2924874767088, 34.17435470098721], [72.29249432952724, 34.17443553583127]]]]}, "properties": {"id": "Pakistan_123102310_177020", "height": 3.145395278930664, "hmax": 0.0, "ratio": 0.0, "vulnClass": "none"}}, {"type": "Feature", "geometry": {"type": "MultiPolygon", "coordinates": [[[[72.29277206841262, 34.17415156734459], [72.29276851097312, 34.174076214209194], [72.29261585167929, 34.17408122788186], [72.29261941186148, 34.17415649092944], [72.29277206841262, 34.17415156734459]]]]}, "properties": {"id": "Pakistan_123102310_666055", "height": 2.727874755859375, "hmax": 0.0, "ratio": 0.0, "vulnClass": "none"}}, {"type": "Feature", "geometry": {"type": "MultiPolygon", "coordinates": [[[[72.29261418480951, 34.17383472311283], [72.29245611528032, 34.173839346706735], [72.29245809800597, 34.17388590747848], [72.29261617050132, 34.173881193800575], [72.29261418480951, 34.17383472311283]]]]}, "properties": {"id": "Pakistan_123102310_533108", "height": 3.782928228378296, "hmax": 0.0, "ratio": 0.0, "vulnClass": "none"}}, {"type": "Feature", "geometry": {"type": "MultiPolygon", "coordinates": [[[[72.29233589445718, 34.17400022302538], [72.29259962297826, 34.17399171201752], [72.2926036961226, 34.17407807474476], [72.29270163068536, 34.17407491803881], [72.29269726783976, 34.17398404145547], [72.29262615090484, 34.17398634783304], [72.29262497727116, 34.17396198163296], [72.2927642789072, 34.1739574844031], [72.29276083748485, 34.17388528905011], [72.29260285896832, 34.17389045573584], [72.29260355603232, 34.17390597679115], [72.29233190117849, 34.17391476355109], [72.29233589445718, 34.17400022302538]]]]}, "properties": {"id": "Pakistan_123102310_466866", "height": 4.00810432434082, "hmax": 0.0, "ratio": 0.0, "vulnClass": "none"}}, {"type": "Feature", "geometry": {"type": "MultiPolygon", "coordinates": [[[[72.29229433018415, 34.173878775802315], [72.29223552537164, 34.17387594485119], [72.29223291276874, 34.173913569534186], [72.29229171760714, 34.17391640048779], [72.29229433018415, 34.173878775802315]]]]}, "properties": {"id": "Pakistan_123102310_140043", "height": 2.969917774200439, "hmax": 0.0, "ratio": 0.0, "vulnClass": "none"}}, {"type": "Feature", "geometry": {"type": "MultiPolygon", "coordinates": [[[[72.29217049879341, 34.173989719715415], [72.2920015981859, 34.173987071915796], [72.29199923823747, 34.17408465138932], [72.29231025974501, 34.174089625933085], [72.29231216337793, 34.174009705614495], [72.29217003992648, 34.17400746897718], [72.29217049879341, 34.173989719715415]]]]}, "properties": {"id": "Pakistan_123102310_637368", "height": 4.598517417907715, "hmax": 0.052, "ratio": 0.011, "vulnClass": "none"}}, {"type": "Feature", "geometry": {"type": "MultiPolygon", "coordinates": [[[[72.29043288535088, 34.177120802911126], [72.29069301740664, 34.17712330514922], [72.2906935351188, 34.17708338052222], [72.29055138075165, 34.17708195253178], [72.29055363582717, 34.17692667540875], [72.2906179370595, 34.176927284783766], [72.29061880565895, 34.176869608530595], [72.29043642169235, 34.176867832454256], [72.29043288535088, 34.177120802911126]]]]}, "properties": {"id": "Pakistan_123102310_72208", "height": 3.601212978363037, "hmax": 0.057, "ratio": 0.016, "vulnClass": "none"}}, {"type": "Feature", "geometry": {"type": "MultiPolygon", "coordinates": [[[[72.2919488083523, 34.17616436134843], [72.2922236325993, 34.17616862709615], [72.29222567103317, 34.176077711579254], [72.29213189429922, 34.176076271897884], [72.29213224482645, 34.176058520249086], [72.29203705906244, 34.17605704938165], [72.29203748160468, 34.17603704559435], [72.29195172859724, 34.17603569281129], [72.2919488083523, 34.17616436134843]]]]}, "properties": {"id": "Pakistan_123102310_685034", "height": 5.393528938293457, "hmax": 0.0, "ratio": 0.0, "vulnClass": "none"}}, {"type": "Feature", "geometry": {"type": "MultiPolygon", "coordinates": [[[[72.29386755742011, 34.17841907066099], [72.29386192211484, 34.17820502223489], [72.29373505071986, 34.17820727068311], [72.29376860158983, 34.17817564756116], [72.29370348296305, 34.17817682476149], [72.29372479482802, 34.17819216972306], [72.29372624767386, 34.17824854503816], [72.29367960616624, 34.17829268042575], [72.29365183204484, 34.17827250507531], [72.2936489532667, 34.17816570488711], [72.29333801036756, 34.178171372698685], [72.2933384216755, 34.178189051019025], [72.29351000806645, 34.178185986920056], [72.29351304965758, 34.178301264724595], [72.29332279369038, 34.1783047280765], [72.29332609674681, 34.17843218178927], [72.2934373427085, 34.1784301297877], [72.29345398895235, 34.178442126446285], [72.29347384776166, 34.17844184356974], [72.29347600140777, 34.178520411050904], [72.29343801515118, 34.17852110516417], [72.29341038728951, 34.17854726967113], [72.29337587533497, 34.1785478601516], [72.29337987840607, 34.17870093168163], [72.29352097010329, 34.17869836643801], [72.2935164949858, 34.178529508378475], [72.29354108934353, 34.178547359849745], [72.29354213835498, 34.17858921222831], [72.29359423293187, 34.178588288568875], [72.29358986119632, 34.178426374275865], [72.29371749453757, 34.178424052653526], [72.29371745810265, 34.17842179811941], [72.29386755742011, 34.17841907066099]]]]}, "properties": {"id": "Pakistan_123102310_798858", "height": 3.192127704620361, "hmax": 0.0, "ratio": 0.0, "vulnClass": "none"}}, {"type": "Feature", "geometry": {"type": "MultiPolygon", "coordinates": [[[[72.2935461408268, 34.178735522557346], [72.29371771394808, 34.17873290864887], [72.29371622475999, 34.1786640919458], [72.29354464889995, 34.17866679594457], [72.2935461408268, 34.178735522557346]]]]}, "properties": {"id": "Pakistan_123102310_6612", "height": 2.931864976882935, "hmax": 0.0, "ratio": 0.0, "vulnClass": "none"}}, {"type": "Feature", "geometry": {"type": "MultiPolygon", "coordinates": [[[[72.29390575935317, 34.17864249209362], [72.29372351212554, 34.178646493383454], [72.29372594708731, 34.17871965812105], [72.29390819447286, 34.17871565683519], [72.29390575935317, 34.17864249209362]]]]}, "properties": {"id": "Pakistan_123102310_428831", "height": 2.817147493362427, "hmax": 0.0, "ratio": 0.0, "vulnClass": "none"}}, {"type": "Feature", "geometry": {"type": "MultiPolygon", "coordinates": [[[[72.29443985635322, 34.178516980186025], [72.29443625721052, 34.17843270140476], [72.29410143143559, 34.178442351645515], [72.29410492185153, 34.17852662802869], [72.29443985635322, 34.178516980186025]]]]}, "properties": {"id": "Pakistan_123102310_618420", "height": 3.391962289810181, "hmax": 0.0, "ratio": 0.0, "vulnClass": "none"}}, {"type": "Feature", "geometry": {"type": "MultiPolygon", "coordinates": [[[[72.29422218324459, 34.178546794612394], [72.29414876606106, 34.17854968206374], [72.29415162445788, 34.17859941735223], [72.29422493329217, 34.17859652750951], [72.29422218324459, 34.178546794612394]]]]}, "properties": {"id": "Pakistan_123102310_419441", "height": 2.535463094711304, "hmax": 0.0, "ratio": 0.0, "vulnClass": "none"}}, {"type": "Feature", "geometry": {"type": "MultiPolygon", "coordinates": [[[[72.29409753638714, 34.17867971871173], [72.29408873577269, 34.17857152576103], [72.29404864110289, 34.17857370607442], [72.29405729395172, 34.17867973218496], [72.29396493000002, 34.17868490590119], [72.29397318180652, 34.17878650585275], [72.29413878388088, 34.17877726884629], [72.2941365921044, 34.17875080676412], [72.2942637281244, 34.17874369570206], [72.29426675829805, 34.178781264635354], [72.29449745163697, 34.17876832487199], [72.29449277816393, 34.178710886857075], [72.29438857060383, 34.17871670107489], [72.29438429816557, 34.178663689217494], [72.29409753638714, 34.17867971871173]]]]}, "properties": {"id": "Pakistan_123102310_817868", "height": 2.786080121994019, "hmax": 0.0, "ratio": 0.0, "vulnClass": "none"}}, {"type": "Feature", "geometry": {"type": "MultiPolygon", "coordinates": [[[[72.2942701627286, 34.17855245090442], [72.29426834210194, 34.17858567579186], [72.29430420275426, 34.178587007952174], [72.29430602336694, 34.17855378306353], [72.2942701627286, 34.17855245090442]]]]}, "properties": {"id": "Pakistan_123102310_931304", "height": 2.860406637191772, "hmax": 0.0, "ratio": 0.0, "vulnClass": "none"}}, {"type": "Feature", "geometry": {"type": "MultiPolygon", "coordinates": [[[[72.29456742202004, 34.178934481104214], [72.29456118107582, 34.17886159299255], [72.29425689830991, 34.17887939986058], [72.29425050991586, 34.17880434490501], [72.29418650253479, 34.17880807104787], [72.29419329182228, 34.17888755216249], [72.29398246858364, 34.1788998480385], [72.29398830808819, 34.17896830999684], [72.29456742202004, 34.178934481104214]]]]}, "properties": {"id": "Pakistan_123102310_651506", "height": 2.878448724746704, "hmax": 0.113, "ratio": 0.039, "vulnClass": "low"}}, {"type": "Feature", "geometry": {"type": "MultiPolygon", "coordinates": [[[[72.29376759549238, 34.1787605133726], [72.29371144710211, 34.178762699874525], [72.29371393885464, 34.178806927972744], [72.29377008727435, 34.17880474147109], [72.29376759549238, 34.1787605133726]]]]}, "properties": {"id": "Pakistan_123102310_261964", "height": 3.544818878173828, "hmax": 0.0, "ratio": 0.0, "vulnClass": "none"}}, {"type": "Feature", "geometry": {"type": "MultiPolygon", "coordinates": [[[[72.2937179752908, 34.178806205712995], [72.29371944553156, 34.17884166679457], [72.29387111202271, 34.17883744140187], [72.29386964171825, 34.178801980319044], [72.2937179752908, 34.178806205712995]]]]}, "properties": {"id": "Pakistan_123102310_83209", "height": 3.708581209182739, "hmax": 0.0, "ratio": 0.0, "vulnClass": "none"}}, {"type": "Feature", "geometry": {"type": "MultiPolygon", "coordinates": [[[[72.29369492020945, 34.17881146644055], [72.29369187135535, 34.17874054188518], [72.29357298567786, 34.178744048178274], [72.29357603443202, 34.178814972731786], [72.29369492020945, 34.17881146644055]]]]}, "properties": {"id": "Pakistan_123102310_83205", "height": 3.862703323364258, "hmax": 0.0, "ratio": 0.0, "vulnClass": "none"}}, {"type": "Feature", "geometry": {"type": "MultiPolygon", "coordinates": [[[[72.29376646442638, 34.178924920545235], [72.29376598774904, 34.17891607540412], [72.2937409029414, 34.17891696418346], [72.2937384879068, 34.17887372942024], [72.29369841611913, 34.17887518892627], [72.29370119653245, 34.17892735652379], [72.29376646442638, 34.178924920545235]]]]}, "properties": {"id": "Pakistan_123102310_594734", "height": 2.921234130859375, "hmax": 0.0, "ratio": 0.0, "vulnClass": "none"}}, {"type": "Feature", "geometry": {"type": "MultiPolygon", "coordinates": [[[[72.29118714409626, 34.17881730569142], [72.29118948759331, 34.17886612813698], [72.29132597619353, 34.17886166076695], [72.29132373812915, 34.1788129308], [72.29118714409626, 34.17881730569142]]]]}, "properties": {"id": "Pakistan_123102310_53516", "height": 2.769300937652588, "hmax": 0.0, "ratio": 0.0, "vulnClass": "none"}}, {"type": "Feature", "geometry": {"type": "MultiPolygon", "coordinates": [[[[72.29116334814857, 34.178442120255454], [72.29131322878229, 34.178436055585266], [72.2913172608977, 34.178503305755754], [72.29140284386546, 34.17849987738758], [72.29139742164557, 34.178408256246044], [72.29131976579193, 34.1784114089708], [72.29131654571466, 34.178356076422695], [72.29126408869593, 34.17835816304788], [72.29126650066779, 34.178398062244064], [72.29116104173666, 34.17840231353968], [72.29116334814857, 34.178442120255454]]]]}, "properties": {"id": "Pakistan_123102310_822504", "height": 2.792128324508667, "hmax": 0.057, "ratio": 0.021, "vulnClass": "none"}}, {"type": "Feature", "geometry": {"type": "MultiPolygon", "coordinates": [[[[72.29138343377846, 34.17853361516798], [72.29133089418444, 34.17853488865277], [72.29133273505893, 34.17858586357595], [72.29120670441618, 34.17858893929915], [72.29120707243365, 34.17859778204332], [72.29111860023173, 34.178599974507435], [72.29112066134631, 34.178657625330715], [72.2913875927447, 34.178651171355256], [72.29138343377846, 34.17853361516798]]]]}, "properties": {"id": "Pakistan_123102310_926530", "height": 4.082584381103516, "hmax": 0.0, "ratio": 0.0, "vulnClass": "none"}}, {"type": "Feature", "geometry": {"type": "MultiPolygon", "coordinates": [[[[72.29115164139587, 34.17827229113406], [72.29115015106619, 34.178186616537175], [72.29103220251501, 34.17818797750137], [72.29103055065085, 34.17809039965166], [72.2908133173509, 34.17809290254333], [72.29081634768102, 34.17827624265927], [72.29115164139587, 34.17827229113406]]]]}, "properties": {"id": "Pakistan_123102310_832001", "height": 2.839620351791382, "hmax": 0.094, "ratio": 0.033, "vulnClass": "none"}}, {"type": "Feature", "geometry": {"type": "MultiPolygon", "coordinates": [[[[72.28877176423059, 34.179064392051124], [72.28877054864297, 34.17902442914234], [72.28872333155273, 34.179025458583425], [72.28872455000166, 34.179065331406306], [72.28877176423059, 34.179064392051124]]]]}, "properties": {"id": "Pakistan_123102310_110510", "height": 3.469223022460938, "hmax": 0.0, "ratio": 0.0, "vulnClass": "none"}}, {"type": "Feature", "geometry": {"type": "MultiPolygon", "coordinates": [[[[72.288620003602, 34.17901055303364], [72.28861663641297, 34.179071689786674], [72.28866853052337, 34.17907364857097], [72.2886718976752, 34.17901251181473], [72.288620003602, 34.17901055303364]]]]}, "properties": {"id": "Pakistan_123102310_689733", "height": 2.919147729873657, "hmax": 0.0, "ratio": 0.0, "vulnClass": "none"}}, {"type": "Feature", "geometry": {"type": "MultiPolygon", "coordinates": [[[[72.28887526034013, 34.1789723844085], [72.28887498861218, 34.17906559252824], [72.28891783253675, 34.17906563828077], [72.28891820972657, 34.178972522640436], [72.28887526034013, 34.1789723844085]]]]}, "properties": {"id": "Pakistan_123102310_627891", "height": 3.728216648101807, "hmax": 0.0, "ratio": 0.0, "vulnClass": "none"}}, {"type": "Feature", "geometry": {"type": "MultiPolygon", "coordinates": [[[[72.28907297310117, 34.17914605548337], [72.28906618037891, 34.178999052486006], [72.28900559353009, 34.17900095839828], [72.28901249165617, 34.179148053875586], [72.28907297310117, 34.17914605548337]]]]}, "properties": {"id": "Pakistan_123102310_765905", "height": 4.683692455291748, "hmax": 0.0, "ratio": 0.0, "vulnClass": "none"}}, {"type": "Feature", "geometry": {"type": "MultiPolygon", "coordinates": [[[[72.28893832301644, 34.17895412616863], [72.28893726244125, 34.17899403875492], [72.28907125005227, 34.1789965502421], [72.28907231056446, 34.17895663765162], [72.28893832301644, 34.17895412616863]]]]}, "properties": {"id": "Pakistan_123102310_723135", "height": 3.247087955474854, "hmax": 0.0, "ratio": 0.0, "vulnClass": "none"}}, {"type": "Feature", "geometry": {"type": "MultiPolygon", "coordinates": [[[[72.28833271334496, 34.17663742693501], [72.28817848090071, 34.176633835993954], [72.28817304528926, 34.176793459934785], [72.28832727802319, 34.17679705089657], [72.28833271334496, 34.17663742693501]]]]}, "properties": {"id": "Pakistan_123102310_936004", "height": 4.300802230834961, "hmax": 0.0, "ratio": 0.0, "vulnClass": "none"}}, {"type": "Feature", "geometry": {"type": "MultiPolygon", "coordinates": [[[[72.28810676921245, 34.176553009091435], [72.2880995628697, 34.17679165459675], [72.28816655344563, 34.17679295577528], [72.28817375671613, 34.17655440034229], [72.28810676921245, 34.176553009091435]]]]}, "properties": {"id": "Pakistan_123102310_6564", "height": 5.469088077545166, "hmax": 0.0, "ratio": 0.0, "vulnClass": "none"}}, {"type": "Feature", "geometry": {"type": "MultiPolygon", "coordinates": [[[[72.28831603187895, 34.17984528254971], [72.28831850176682, 34.179927372790175], [72.28871348572702, 34.17991924901311], [72.28871101545515, 34.179837158762076], [72.28831603187895, 34.17984528254971]]]]}, "properties": {"id": "Pakistan_123102310_315461", "height": 3.938135147094727, "hmax": 0.0, "ratio": 0.0, "vulnClass": "none"}}, {"type": "Feature", "geometry": {"type": "MultiPolygon", "coordinates": [[[[72.28901205207494, 34.17986328678073], [72.28885482530512, 34.17986494913444], [72.28885403646764, 34.1798116536052], [72.28873869297995, 34.17981288959733], [72.28874039213198, 34.17992245825762], [72.28901295976026, 34.17991965000654], [72.28901205207494, 34.17986328678073]]]]}, "properties": {"id": "Pakistan_123102310_91346", "height": 2.567367315292358, "hmax": 0.0, "ratio": 0.0, "vulnClass": "none"}}, {"type": "Feature", "geometry": {"type": "MultiPolygon", "coordinates": [[[[72.28863808457247, 34.18041439315984], [72.28863339729745, 34.180252471993484], [72.28832242708145, 34.18025875728728], [72.28832722215448, 34.18042068083386], [72.28863808457247, 34.18041439315984]]]]}, "properties": {"id": "Pakistan_123102310_850830", "height": 3.546728372573853, "hmax": 0.0, "ratio": 0.0, "vulnClass": "none"}}, {"type": "Feature", "geometry": {"type": "MultiPolygon", "coordinates": [[[[72.28775109324314, 34.18195967363801], [72.28768954726702, 34.181957591071004], [72.28768711926602, 34.182006307968926], [72.28774866527736, 34.182008390538854], [72.28775109324314, 34.18195967363801]]]]}, "properties": {"id": "Pakistan_123102310_817825", "height": 2.495128631591797, "hmax": 0.816, "ratio": 0.327, "vulnClass": "moderate"}}, {"type": "Feature", "geometry": {"type": "MultiPolygon", "coordinates": [[[[72.28811199397859, 34.18226082056925], [72.28810122700274, 34.18211264792851], [72.28799431680422, 34.18211803620798], [72.28799884452275, 34.18217988841413], [72.28766475491027, 34.1821965685334], [72.2876711049196, 34.18228280128135], [72.28811199397859, 34.18226082056925]]]]}, "properties": {"id": "Pakistan_123102310_860261", "height": 2.639831066131592, "hmax": 0.0, "ratio": 0.0, "vulnClass": "none"}}, {"type": "Feature", "geometry": {"type": "MultiPolygon", "coordinates": [[[[72.29324498080273, 34.18705892585595], [72.29317806536054, 34.18700750601395], [72.29293732656933, 34.18722197453893], [72.29300413649315, 34.18727330203312], [72.29324498080273, 34.18705892585595]]]]}, "properties": {"id": "Pakistan_123102310_704023", "height": 4.724169731140137, "hmax": 0.133, "ratio": 0.028, "vulnClass": "low"}}, {"type": "Feature", "geometry": {"type": "MultiPolygon", "coordinates": [[[[72.29360796567921, 34.18713662384899], [72.29364473498255, 34.18717412613982], [72.2937856281253, 34.18707978479047], [72.29367753335289, 34.18696931014058], [72.29351070091425, 34.18708101845978], [72.29358213469628, 34.18715399334596], [72.29360796567921, 34.18713662384899]]]]}, "properties": {"id": "Pakistan_123102310_261962", "height": 4.019766330718994, "hmax": 0.2, "ratio": 0.05, "vulnClass": "low"}}, {"type": "Feature", "geometry": {"type": "MultiPolygon", "coordinates": [[[[72.2934812323429, 34.186859232238064], [72.29323870698663, 34.187051575427574], [72.29327565750519, 34.1870834024325], [72.29351807447574, 34.18689105677822], [72.2934812323429, 34.186859232238064]]]]}, "properties": {"id": "Pakistan_123102310_495269", "height": 4.27700138092041, "hmax": 0.0, "ratio": 0.0, "vulnClass": "none"}}, {"type": "Feature", "geometry": {"type": "MultiPolygon", "coordinates": [[[[72.2932122370697, 34.187116078712585], [72.29326903240168, 34.187134551008924], [72.29329229689662, 34.18708548259232], [72.29323560999426, 34.1870670127011], [72.2932122370697, 34.187116078712585]]]]}, "properties": {"id": "Pakistan_123102310_334436", "height": 3.584232807159424, "hmax": 0.0, "ratio": 0.0, "vulnClass": "none"}}, {"type": "Feature", "geometry": {"type": "MultiPolygon", "coordinates": [[[[72.2935338929668, 34.187112271238334], [72.29344550474046, 34.187176038837876], [72.29349204266003, 34.18722015739531], [72.29358043090204, 34.18715638976312], [72.2935338929668, 34.187112271238334]]]]}, "properties": {"id": "Pakistan_123102310_685043", "height": 3.160281658172607, "hmax": 0.0, "ratio": 0.0, "vulnClass": "none"}}, {"type": "Feature", "geometry": {"type": "MultiPolygon", "coordinates": [[[[72.29340260698676, 34.18716057788176], [72.29317706105107, 34.18733075846119], [72.29322112968569, 34.187370675747815], [72.29312008238999, 34.18744696479944], [72.29315613699492, 34.187479673553725], [72.29338234820734, 34.187309056968], [72.29353457820856, 34.18744719024705], [72.29363650966005, 34.18737037946472], [72.29342018441473, 34.18717403751718], [72.29341862933278, 34.187175175127436], [72.29340260698676, 34.18716057788176]]]]}, "properties": {"id": "Pakistan_123102310_167640", "height": 5.299389839172363, "hmax": 0.0, "ratio": 0.0, "vulnClass": "none"}}, {"type": "Feature", "geometry": {"type": "MultiPolygon", "coordinates": [[[[72.29301039376206, 34.18248625217207], [72.29301124250891, 34.1822900162423], [72.29294963550996, 34.18228982809683], [72.29294922051454, 34.18237068270824], [72.29278826113979, 34.18237019416305], [72.29278842016853, 34.18233467891715], [72.292733645046, 34.18233455134941], [72.292733051806, 34.18248544789033], [72.29301039376206, 34.18248625217207]]]]}, "properties": {"id": "Pakistan_123102310_780040", "height": 3.358375787734985, "hmax": 0.104, "ratio": 0.031, "vulnClass": "low"}}, {"type": "Feature", "geometry": {"type": "MultiPolygon", "coordinates": [[[[72.29286927971515, 34.1822382015826], [72.29287068497538, 34.182289257016585], [72.293007335476, 34.182286684619605], [72.29300426601394, 34.182172307750974], [72.2929227533469, 34.182173843723334], [72.29292441452546, 34.182237255239315], [72.29286927971515, 34.1822382015826]]]]}, "properties": {"id": "Pakistan_123102310_685040", "height": 5.099922180175781, "hmax": 0.0, "ratio": 0.0, "vulnClass": "none"}}, {"type": "Feature", "geometry": {"type": "MultiPolygon", "coordinates": [[[[72.2926050059954, 34.182059370574585], [72.29262798340659, 34.18230427219167], [72.29274265913608, 34.182296887735454], [72.29273813532352, 34.18224837777313], [72.29269280992463, 34.182251253449195], [72.29268153831458, 34.182132188030366], [72.29284958354583, 34.18212138420462], [72.29284228989951, 34.1820441456672], [72.2926050059954, 34.182059370574585]]]]}, "properties": {"id": "Pakistan_123102310_770549", "height": 4.217217922210693, "hmax": 0.0, "ratio": 0.0, "vulnClass": "none"}}, {"type": "Feature", "geometry": {"type": "MultiPolygon", "coordinates": [[[[72.2902328379528, 34.18075984843661], [72.29015346003621, 34.180762511562165], [72.2901569786728, 34.180835610072265], [72.29023635665817, 34.18083294694773], [72.2902328379528, 34.18075984843661]]]]}, "properties": {"id": "Pakistan_123102310_381694", "height": 2.865618228912354, "hmax": 0.0, "ratio": 0.0, "vulnClass": "none"}}, {"type": "Feature", "geometry": {"type": "MultiPolygon", "coordinates": [[[[72.29078308363634, 34.1802555427818], [72.29078097628131, 34.18029768599939], [72.29088813798548, 34.18030131568573], [72.29089024240598, 34.18025926254921], [72.29078308363634, 34.1802555427818]]]]}, "properties": {"id": "Pakistan_123102310_860274", "height": 5.078933715820312, "hmax": 0.101, "ratio": 0.02, "vulnClass": "low"}}, {"type": "Feature", "geometry": {"type": "MultiPolygon", "coordinates": [[[[72.30160055902567, 34.184872712779736], [72.30159863263766, 34.18477657118492], [72.30118971524034, 34.18478208544161], [72.30118882839925, 34.18473843364451], [72.30113651883086, 34.18473917541069], [72.30113733239737, 34.184778318128046], [72.30098984886868, 34.18478030045343], [72.30099185067485, 34.18488086101704], [72.30160055902567, 34.184872712779736]]]]}, "properties": {"id": "Pakistan_123102310_262941", "height": 3.04070258140564, "hmax": 0.0, "ratio": 0.0, "vulnClass": "none"}}, {"type": "Feature", "geometry": {"type": "MultiPolygon", "coordinates": [[[[72.30227377058434, 34.17425746709586], [72.30243152232153, 34.17434459601199], [72.30257030145665, 34.17417257837138], [72.30241243861651, 34.17408553734241], [72.30227377058434, 34.17425746709586]]]]}, "properties": {"id": "Pakistan_123102310_907721", "height": 6.081629753112793, "hmax": 0.0, "ratio": 0.0, "vulnClass": "none"}}, {"type": "Feature", "geometry": {"type": "MultiPolygon", "coordinates": [[[[72.30071449198627, 34.17324323098214], [72.3007225523583, 34.173201308603375], [72.3006634689065, 34.173193607504196], [72.30065540850649, 34.17323552987777], [72.30071449198627, 34.17324323098214]]]]}, "properties": {"id": "Pakistan_123102310_310819", "height": 2.664389133453369, "hmax": 0.0, "ratio": 0.0, "vulnClass": "none"}}, {"type": "Feature", "geometry": {"type": "MultiPolygon", "coordinates": [[[[72.30081728413899, 34.172948000277486], [72.30078371224859, 34.172922560405986], [72.30076774235899, 34.172936993415234], [72.3008012058638, 34.17296243090553], [72.30081728413899, 34.172948000277486]]]]}, "properties": {"id": "Pakistan_123102310_618451", "height": 2.944746732711792, "hmax": 0.0, "ratio": 0.0, "vulnClass": "none"}}, {"type": "Feature", "geometry": {"type": "MultiPolygon", "coordinates": [[[[72.30071660419227, 34.1729216242217], [72.30076935243183, 34.17294433095951], [72.30085389759057, 34.172809885814104], [72.30080114940709, 34.17278717911515], [72.30071660419227, 34.1729216242217]]]]}, "properties": {"id": "Pakistan_123102310_594767", "height": 3.077306032180786, "hmax": 0.0, "ratio": 0.0, "vulnClass": "none"}}, {"type": "Feature", "geometry": {"type": "MultiPolygon", "coordinates": [[[[72.30079607311959, 34.17271161228776], [72.30074408234685, 34.172695773595464], [72.30067878469227, 34.17284227160434], [72.30073077553894, 34.17285811032772], [72.30079607311959, 34.17271161228776]]]]}, "properties": {"id": "Pakistan_123102310_315523", "height": 2.639929056167603, "hmax": 0.0, "ratio": 0.0, "vulnClass": "none"}}, {"type": "Feature", "geometry": {"type": "MultiPolygon", "coordinates": [[[[72.30264031644325, 34.172859287914605], [72.3025242145616, 34.17279606357693], [72.30248975425098, 34.17283938869278], [72.30260574777583, 34.172902610680325], [72.30264031644325, 34.172859287914605]]]]}, "properties": {"id": "Pakistan_123102310_504753", "height": 3.312428951263428, "hmax": 0.0, "ratio": 0.0, "vulnClass": "none"}}, {"type": "Feature", "geometry": {"type": "MultiPolygon", "coordinates": [[[[72.3008780631835, 34.17286162258091], [72.30084085294655, 34.17284484714492], [72.30078795870658, 34.17292544850454], [72.30082527735215, 34.17294222634316], [72.3008780631835, 34.17286162258091]]]]}, "properties": {"id": "Pakistan_123102310_580596", "height": 3.077306032180786, "hmax": 0.0, "ratio": 0.0, "vulnClass": "none"}}]}