{"type": "FeatureCollection", "features": [{"type": "Feature", "geometry": {"type": "MultiPolygon", "coordinates": [[[[72.36731045249206, 34.29128540767475], [72.36728708017773, 34.291212965514696], [72.3671643693184, 34.29123998625279], [72.3671877415316, 34.291312428431475], [72.36731045249206, 34.29128540767475]]]]}, "properties": {"id": "Pakistan_123102310_808976", "height": 2.935933589935303, "hmax": 0.0, "ratio": 0.0, "vulnClass": "none"}}, {"type": "Feature", "geometry": {"type": "MultiPolygon", "coordinates": [[[[72.36333573576513, 34.29130319158508], [72.36328631483144, 34.29130320913129], [72.36328638993889, 34.29135639912119], [72.36333581090375, 34.2913563815764], [72.36333573576513, 34.29130319158508]]]]}, "properties": {"id": "Pakistan_123102310_752196", "height": 3.131693840026855, "hmax": 0.0, "ratio": 0.0, "vulnClass": "none"}}, {"type": "Feature", "geometry": {"type": "MultiPolygon", "coordinates": [[[[72.36334440430868, 34.29144283997238], [72.36350271120794, 34.2914446261845], [72.36350333688745, 34.29140028596121], [72.36334513579843, 34.29139859218028], [72.36334440430868, 34.29144283997238]]]]}, "properties": {"id": "Pakistan_123102310_856154", "height": 5.849363803863525, "hmax": 0.0, "ratio": 0.0, "vulnClass": "none"}}, {"type": "Feature", "geometry": {"type": "MultiPolygon", "coordinates": [[[[72.36276247585364, 34.28970466016521], [72.36277093853886, 34.28972927303075], [72.36262606963092, 34.289763294414996], [72.36264728194202, 34.289824782721524], [72.36288395492426, 34.28976911933169], [72.36285427973831, 34.28968301819791], [72.36276247585364, 34.28970466016521]]]]}, "properties": {"id": "Pakistan_123102310_112667", "height": 2.548033952713013, "hmax": 0.0, "ratio": 0.0, "vulnClass": "none"}}, {"type": "Feature", "geometry": {"type": "MultiPolygon", "coordinates": [[[[72.36340851810311, 34.28929793419644], [72.36337120705531, 34.289146851036215], [72.36330689660578, 34.289157636427525], [72.36332395403507, 34.28922696834254], [72.36236593549759, 34.28938825716271], [72.36238618245731, 34.2894701887157], [72.36340851810311, 34.28929793419644]]]]}, "properties": {"id": "Pakistan_123102310_808950", "height": 3.033156871795654, "hmax": 0.133, "ratio": 0.044, "vulnClass": "low"}}, {"type": "Feature", "geometry": {"type": "MultiPolygon", "coordinates": [[[[72.3629202254933, 34.28907448497364], [72.3623814636378, 34.28909659651199], [72.3623857675466, 34.28916736665586], [72.36292452985585, 34.28914525511972], [72.3629202254933, 34.28907448497364]]]]}, "properties": {"id": "Pakistan_123102310_368060", "height": 2.840630531311035, "hmax": 0.0, "ratio": 0.0, "vulnClass": "none"}}, {"type": "Feature", "geometry": {"type": "MultiPolygon", "coordinates": [[[[72.36506900738266, 34.28928391558776], [72.36512617128092, 34.28942541888586], [72.3654408186664, 34.28933870397796], [72.3653964541212, 34.2892290286676], [72.36533619679699, 34.28924567193315], [72.365344961705, 34.289267586646545], [72.36520987597028, 34.28930488674347], [72.3651880970536, 34.28925104937997], [72.36506900738266, 34.28928391558776]]]]}, "properties": {"id": "Pakistan_123102310_27723", "height": 6.676159858703613, "hmax": 0.0, "ratio": 0.0, "vulnClass": "none"}}, {"type": "Feature", "geometry": {"type": "MultiPolygon", "coordinates": [[[[72.36532082290705, 34.28918845656496], [72.36529677708718, 34.289155034460094], [72.36526313194285, 34.28917161926776], [72.36528706921258, 34.289205039043225], [72.36532082290705, 34.28918845656496]]]]}, "properties": {"id": "Pakistan_123102310_84403", "height": 6.649455547332764, "hmax": 0.0, "ratio": 0.0, "vulnClass": "none"}}, {"type": "Feature", "geometry": {"type": "MultiPolygon", "coordinates": [[[[72.37045446143391, 34.29236895897925], [72.37048375109292, 34.29241195849202], [72.37053665606258, 34.29238731178219], [72.37050736638345, 34.292344312281095], [72.37045446143391, 34.29236895897925]]]]}, "properties": {"id": "Pakistan_123102310_188331", "height": 3.22584342956543, "hmax": 0.0, "ratio": 0.0, "vulnClass": "none"}}, {"type": "Feature", "geometry": {"type": "MultiPolygon", "coordinates": [[[[72.3740774154754, 34.290202246709086], [72.37404216599138, 34.29015875960265], [72.37398469730509, 34.290190522027174], [72.37401994677053, 34.290234009149195], [72.3740774154754, 34.290202246709086]]]]}, "properties": {"id": "Pakistan_123102310_946074", "height": 2.480945825576782, "hmax": 0.0, "ratio": 0.0, "vulnClass": "none"}}, {"type": "Feature", "geometry": {"type": "MultiPolygon", "coordinates": [[[[72.36763746733229, 34.28889877809854], [72.36765334710455, 34.28893635140647], [72.36771220404157, 34.288919316275695], [72.36769632424523, 34.288881742974255], [72.36763746733229, 34.28889877809854]]]]}, "properties": {"id": "Pakistan_123102310_557271", "height": 2.879447221755981, "hmax": 0.0, "ratio": 0.0, "vulnClass": "none"}}, {"type": "Feature", "geometry": {"type": "MultiPolygon", "coordinates": [[[[72.36816820434687, 34.28851415820428], [72.36816677146406, 34.28847653487831], [72.36802742368235, 34.28847994032021], [72.36802874515192, 34.28851765140138], [72.36816820434687, 34.28851415820428]]]]}, "properties": {"id": "Pakistan_123102310_56159", "height": 2.857261180877686, "hmax": 0.0, "ratio": 0.0, "vulnClass": "none"}}, {"type": "Feature", "geometry": {"type": "MultiPolygon", "coordinates": [[[[72.36952944872364, 34.28705124640635], [72.36947475949867, 34.28704962079266], [72.36947283468517, 34.2870939332413], [72.36952752393873, 34.28709555885717], [72.36952944872364, 34.28705124640635]]]]}, "properties": {"id": "Pakistan_123102310_7758", "height": 2.522004127502441, "hmax": 0.0, "ratio": 0.0, "vulnClass": "none"}}, {"type": "Feature", "geometry": {"type": "MultiPolygon", "coordinates": [[[[72.37359505499184, 34.28163404021198], [72.3733472332432, 34.281696427579114], [72.3733729692513, 34.2817663050777], [72.373620899725, 34.28170391999542], [72.37359505499184, 34.28163404021198]]]]}, "properties": {"id": "Pakistan_123102310_149876", "height": 3.000016212463379, "hmax": 0.0, "ratio": 0.0, "vulnClass": "none"}}, {"type": "Feature", "geometry": {"type": "MultiPolygon", "coordinates": [[[[72.36759938746339, 34.28351970308419], [72.36759577140899, 34.283451111357316], [72.36749139097849, 34.28345490748715], [72.36749500694773, 34.28352349921314], [72.36759938746339, 34.28351970308419]]]]}, "properties": {"id": "Pakistan_123102310_363366", "height": 2.611001253128052, "hmax": 0.0, "ratio": 0.0, "vulnClass": "none"}}, {"type": "Feature", "geometry": {"type": "MultiPolygon", "coordinates": [[[[72.36684396906887, 34.28474311359977], [72.3668467246424, 34.28479401742908], [72.3669002223239, 34.28479201256174], [72.36689746671796, 34.28474110873212], [72.36684396906887, 34.28474311359977]]]]}, "properties": {"id": "Pakistan_123102310_273355", "height": 3.29899263381958, "hmax": 0.0, "ratio": 0.0, "vulnClass": "none"}}, {"type": "Feature", "geometry": {"type": "MultiPolygon", "coordinates": [[[[72.36518861163104, 34.28417138470203], [72.3651674109261, 34.28408168010654], [72.36508859918328, 34.28409440826547], [72.36510969127157, 34.28418411053531], [72.36518861163104, 34.28417138470203]]]]}, "properties": {"id": "Pakistan_123102310_557258", "height": 2.541551113128662, "hmax": 0.0, "ratio": 0.0, "vulnClass": "none"}}, {"type": "Feature", "geometry": {"type": "MultiPolygon", "coordinates": [[[[72.3628072536966, 34.28444366972403], [72.36283061803827, 34.284523144178486], [72.36297881848704, 34.284493431090866], [72.36295545682596, 34.28441386656903], [72.3628072536966, 34.28444366972403]]]]}, "properties": {"id": "Pakistan_123102310_93871", "height": 2.557000637054443, "hmax": 0.0, "ratio": 0.0, "vulnClass": "none"}}, {"type": "Feature", "geometry": {"type": "MultiPolygon", "coordinates": [[[[72.36273376766407, 34.28466124134787], [72.36274669963886, 34.284730484498354], [72.36312649984596, 34.28468186929946], [72.36311356756127, 34.28461262617447], [72.36273376766407, 34.28466124134787]]]]}, "properties": {"id": "Pakistan_123102310_571562", "height": 4.343679428100586, "hmax": 0.0, "ratio": 0.0, "vulnClass": "none"}}, {"type": "Feature", "geometry": {"type": "MultiPolygon", "coordinates": [[[[72.36326663099851, 34.286682607455994], [72.36339545650817, 34.28669259343086], [72.36340041508086, 34.286648616928346], [72.36327158682136, 34.28663872105093], [72.36326663099851, 34.286682607455994]]]]}, "properties": {"id": "Pakistan_123102310_851347", "height": 6.495455265045166, "hmax": 0.0, "ratio": 0.0, "vulnClass": "none"}}, {"type": "Feature", "geometry": {"type": "MultiPolygon", "coordinates": [[[[72.36326661046306, 34.28658596638752], [72.36319575417392, 34.28658732538464], [72.36319773572866, 34.28665597208077], [72.36326859207563, 34.2866546130852], [72.36326661046306, 34.28658596638752]]]]}, "properties": {"id": "Pakistan_123102310_73370", "height": 4.377641677856445, "hmax": 0.0, "ratio": 0.0, "vulnClass": "none"}}, {"type": "Feature", "geometry": {"type": "MultiPolygon", "coordinates": [[[[72.36260136228111, 34.28519667433012], [72.36261860766338, 34.28527385342857], [72.36282606545632, 34.285242081308496], [72.3628088198867, 34.2851649022304], [72.36260136228111, 34.28519667433012]]]]}, "properties": {"id": "Pakistan_123102310_297029", "height": 2.628144502639771, "hmax": 0.0, "ratio": 0.0, "vulnClass": "none"}}, {"type": "Feature", "geometry": {"type": "MultiPolygon", "coordinates": [[[[72.36297911831043, 34.28559921559217], [72.36299138712997, 34.28564103888365], [72.36306997069217, 34.285625242115394], [72.36305759329912, 34.28558341649269], [72.36297911831043, 34.28559921559217]]]]}, "properties": {"id": "Pakistan_123102310_566781", "height": 3.891655206680298, "hmax": 0.0, "ratio": 0.0, "vulnClass": "none"}}, {"type": "Feature", "geometry": {"type": "MultiPolygon", "coordinates": [[[[72.36321012388048, 34.28546734271585], [72.36319921928317, 34.2853471184499], [72.36314317708518, 34.28535059943936], [72.36316149327573, 34.28555338027052], [72.36367903514878, 34.28552143226926], [72.36366643056412, 34.285382600557035], [72.36353846051811, 34.28539048300632], [72.36353440763041, 34.28534640261262], [72.36349305714758, 34.285348937989184], [72.3635020824166, 34.28544937895634], [72.36321012388048, 34.28546734271585]]]]}, "properties": {"id": "Pakistan_123102310_169523", "height": 3.328293323516846, "hmax": 0.0, "ratio": 0.0, "vulnClass": "none"}}, {"type": "Feature", "geometry": {"type": "MultiPolygon", "coordinates": [[[[72.36347864837155, 34.28596290886189], [72.36340922201273, 34.28596718357975], [72.36341559744241, 34.286037727887965], [72.3634849153231, 34.28603345083227], [72.36347864837155, 34.28596290886189]]]]}, "properties": {"id": "Pakistan_123102310_472166", "height": 2.446809053421021, "hmax": 0.0, "ratio": 0.0, "vulnClass": "none"}}, {"type": "Feature", "geometry": {"type": "MultiPolygon", "coordinates": [[[[72.3634880647089, 34.28604388587593], [72.36348981916983, 34.28610243090489], [72.36368403008916, 34.28609840875422], [72.36368227549305, 34.286039863721754], [72.3634880647089, 34.28604388587593]]]]}, "properties": {"id": "Pakistan_123102310_709364", "height": 5.486658096313477, "hmax": 0.0, "ratio": 0.0, "vulnClass": "none"}}, {"type": "Feature", "geometry": {"type": "MultiPolygon", "coordinates": [[[[72.36349798586741, 34.28633807815071], [72.36351951431473, 34.28647980649799], [72.36369647094759, 34.286461439613866], [72.36369016276605, 34.28642001516752], [72.36361617621866, 34.286427707657296], [72.36360095855915, 34.28632731367923], [72.36349798586741, 34.28633807815071]]]]}, "properties": {"id": "Pakistan_123102310_8573", "height": 2.78887152671814, "hmax": 0.0, "ratio": 0.0, "vulnClass": "none"}}, {"type": "Feature", "geometry": {"type": "MultiPolygon", "coordinates": [[[[72.36347663982721, 34.28645463303837], [72.36341936229718, 34.28646286547895], [72.36343730952383, 34.286548894271235], [72.36349469564877, 34.286540664161954], [72.36347663982721, 34.28645463303837]]]]}, "properties": {"id": "Pakistan_123102310_903565", "height": 3.371358394622803, "hmax": 0.0, "ratio": 0.0, "vulnClass": "none"}}, {"type": "Feature", "geometry": {"type": "MultiPolygon", "coordinates": [[[[72.36344631693562, 34.28659082759599], [72.36344487415671, 34.28657096356464], [72.3633806908626, 34.28657426934859], [72.36338468201106, 34.28662727324475], [72.3635194692629, 34.28662025898749], [72.3635136276927, 34.28654305509288], [72.36348044787066, 34.2865447747271], [72.36348373817006, 34.286588928846584], [72.36344631693562, 34.28659082759599]]]]}, "properties": {"id": "Pakistan_123102310_477014", "height": 3.893444061279297, "hmax": 0.0, "ratio": 0.0, "vulnClass": "none"}}, {"type": "Feature", "geometry": {"type": "MultiPolygon", "coordinates": [[[[72.3634990893133, 34.28668157282113], [72.3634976953476, 34.28671922544141], [72.36359145748932, 34.2867216949993], [72.36359295995058, 34.2866840447129], [72.3634990893133, 34.28668157282113]]]]}, "properties": {"id": "Pakistan_123102310_396457", "height": 4.389473438262939, "hmax": 0.0, "ratio": 0.0, "vulnClass": "none"}}, {"type": "Feature", "geometry": {"type": "MultiPolygon", "coordinates": [[[[72.3643482036745, 34.28687627589314], [72.36430989343587, 34.286691094801064], [72.3642056025863, 34.28670579808031], [72.36421900796118, 34.28677036349213], [72.36419664238515, 34.28677357820039], [72.3642061719396, 34.2868196696111], [72.36394707801921, 34.28685628226734], [72.36396245565835, 34.28693071649445], [72.3643482036745, 34.28687627589314]]]]}, "properties": {"id": "Pakistan_123102310_841922", "height": 3.048823833465576, "hmax": 0.1, "ratio": 0.033, "vulnClass": "low"}}, {"type": "Feature", "geometry": {"type": "MultiPolygon", "coordinates": [[[[72.3641330094095, 34.28676274269451], [72.36412947826314, 34.28672976198294], [72.36408157545335, 34.286733418591645], [72.36408521511834, 34.286766401640186], [72.3641330094095, 34.28676274269451]]]]}, "properties": {"id": "Pakistan_123102310_894013", "height": 3.44600510597229, "hmax": 0.099, "ratio": 0.029, "vulnClass": "none"}}, {"type": "Feature", "geometry": {"type": "MultiPolygon", "coordinates": [[[[72.36348124030211, 34.287617574867134], [72.36338476934539, 34.28761486657239], [72.36338145005666, 34.28769674129363], [72.36353141653211, 34.2877010521964], [72.36353257274894, 34.28767448289088], [72.36347896598606, 34.28767296804324], [72.36348124030211, 34.287617574867134]]]]}, "properties": {"id": "Pakistan_123102310_557237", "height": 2.884994029998779, "hmax": 0.0, "ratio": 0.0, "vulnClass": "none"}}, {"type": "Feature", "geometry": {"type": "MultiPolygon", "coordinates": [[[[72.36382360205621, 34.28786375303052], [72.3638246409028, 34.28783051010559], [72.36356620174587, 34.28782521629264], [72.36356527133648, 34.28785846154766], [72.36382360205621, 34.28786375303052]]]]}, "properties": {"id": "Pakistan_123102310_690320", "height": 5.869636535644531, "hmax": 0.0, "ratio": 0.0, "vulnClass": "none"}}, {"type": "Feature", "geometry": {"type": "MultiPolygon", "coordinates": [[[[72.3634381538215, 34.287884121667794], [72.36343609111142, 34.28790841770622], [72.36348683096183, 34.287911313243306], [72.36348889365748, 34.28788701720335], [72.3634381538215, 34.287884121667794]]]]}, "properties": {"id": "Pakistan_123102310_320847", "height": 2.660622596740723, "hmax": 0.0, "ratio": 0.0, "vulnClass": "none"}}, {"type": "Feature", "geometry": {"type": "MultiPolygon", "coordinates": [[[[72.3653152485253, 34.28868187467319], [72.36527105496484, 34.28861890063166], [72.36502428459842, 34.28873718593479], [72.36499516538873, 34.28869581155926], [72.36494422351194, 34.2887202276953], [72.36501764464201, 34.28882457855869], [72.3653152485253, 34.28868187467319]]]]}, "properties": {"id": "Pakistan_123102310_396470", "height": 3.095712900161743, "hmax": 0.0, "ratio": 0.0, "vulnClass": "none"}}, {"type": "Feature", "geometry": {"type": "MultiPolygon", "coordinates": [[[[72.36377494124146, 34.28845814504315], [72.36376190814985, 34.28832606539018], [72.36363935214099, 34.28833433484397], [72.36364174521565, 34.288358546522815], [72.36364707772424, 34.28835821058704], [72.36364888840465, 34.288376730287176], [72.36360360930142, 34.28837981212559], [72.36361244121979, 34.28846907031526], [72.36377494124146, 34.28845814504315]]]]}, "properties": {"id": "Pakistan_123102310_168648", "height": 2.552122831344604, "hmax": 0.0, "ratio": 0.0, "vulnClass": "none"}}, {"type": "Feature", "geometry": {"type": "MultiPolygon", "coordinates": [[[[72.36360958454038, 34.28813302039986], [72.36360848675015, 34.28817509673359], [72.3637281138119, 34.28817713147517], [72.3637292115426, 34.2881350551376], [72.36360958454038, 34.28813302039986]]]]}, "properties": {"id": "Pakistan_123102310_150607", "height": 2.607247829437256, "hmax": 0.0, "ratio": 0.0, "vulnClass": "none"}}, {"type": "Feature", "geometry": {"type": "MultiPolygon", "coordinates": [[[[72.36271824434348, 34.288909938558454], [72.36262975605345, 34.28890893411324], [72.36262862753317, 34.28897976754387], [72.36271711589744, 34.28898077199334], [72.36271824434348, 34.288909938558454]]]]}, "properties": {"id": "Pakistan_123102310_709354", "height": 2.76123833656311, "hmax": 0.0, "ratio": 0.0, "vulnClass": "none"}}, {"type": "Feature", "geometry": {"type": "MultiPolygon", "coordinates": [[[[72.36317520871906, 34.28817586380499], [72.36337986567094, 34.28818180338996], [72.3633831246031, 34.288105336364175], [72.363588321302, 34.28811137736825], [72.36359175051994, 34.288032930701625], [72.36338915894596, 34.288026945803715], [72.36338747739569, 34.28806684596751], [72.36326051774007, 34.288063120450495], [72.36326269085413, 34.28801097049941], [72.3631823917649, 34.288008610275504], [72.36317520871906, 34.28817586380499]]]]}, "properties": {"id": "Pakistan_123102310_443508", "height": 3.187914133071899, "hmax": 0.0, "ratio": 0.0, "vulnClass": "none"}}, {"type": "Feature", "geometry": {"type": "MultiPolygon", "coordinates": [[[[72.36703576039247, 34.279923221634775], [72.36703356539122, 34.27988567203401], [72.3669409245592, 34.27988926946277], [72.36694301099021, 34.279926816729756], [72.36703576039247, 34.279923221634775]]]]}, "properties": {"id": "Pakistan_123102310_292223", "height": 3.190054178237915, "hmax": 0.0, "ratio": 0.0, "vulnClass": "none"}}, {"type": "Feature", "geometry": {"type": "MultiPolygon", "coordinates": [[[[72.36591221995184, 34.27969541082558], [72.36583993603215, 34.279697461994466], [72.36584132976812, 34.27973283076906], [72.36591372224675, 34.27973078193519], [72.36591221995184, 34.27969541082558]]]]}, "properties": {"id": "Pakistan_123102310_865618", "height": 5.796124458312988, "hmax": 0.0, "ratio": 0.0, "vulnClass": "none"}}, {"type": "Feature", "geometry": {"type": "MultiPolygon", "coordinates": [[[[72.36414198041548, 34.27856668652829], [72.36414945339473, 34.27859515446161], [72.36425199609319, 34.27857698764146], [72.36420615000516, 34.27840020847004], [72.36413178186447, 34.27841339239065], [72.364138373765, 34.27843877626196], [72.36402807798247, 34.278458308656546], [72.36405996739853, 34.2785812384024], [72.36414198041548, 34.27856668652829]]]]}, "properties": {"id": "Pakistan_123102310_244070", "height": 3.13087272644043, "hmax": 0.0, "ratio": 0.0, "vulnClass": "none"}}, {"type": "Feature", "geometry": {"type": "MultiPolygon", "coordinates": [[[[72.36466828649343, 34.27846135949469], [72.36441460277929, 34.27847510201106], [72.36442084827321, 34.27855330629216], [72.36467453222332, 34.278539563773904], [72.36466828649343, 34.27846135949469]]]]}, "properties": {"id": "Pakistan_123102310_292208", "height": 3.467874050140381, "hmax": 0.0, "ratio": 0.0, "vulnClass": "none"}}, {"type": "Feature", "geometry": {"type": "MultiPolygon", "coordinates": [[[[72.36464040508842, 34.278112690455735], [72.36462725436402, 34.278053900122686], [72.36453493754628, 34.27806805029509], [72.36454819673351, 34.2781268429706], [72.36464040508842, 34.278112690455735]]]]}, "properties": {"id": "Pakistan_123102310_666579", "height": 2.670329570770264, "hmax": 0.0, "ratio": 0.0, "vulnClass": "none"}}, {"type": "Feature", "geometry": {"type": "MultiPolygon", "coordinates": [[[[72.36464298095923, 34.27833622766905], [72.36463789487216, 34.27825218859435], [72.36455383789333, 34.278255698528405], [72.36455491434235, 34.27827339108809], [72.36450141519339, 34.278275575300185], [72.36450542470519, 34.27834192181457], [72.36464298095923, 34.27833622766905]]]]}, "properties": {"id": "Pakistan_123102310_159142", "height": 3.649296522140503, "hmax": 0.0, "ratio": 0.0, "vulnClass": "none"}}, {"type": "Feature", "geometry": {"type": "MultiPolygon", "coordinates": [[[[72.3640038697652, 34.27795736517418], [72.36400892853376, 34.277990108348234], [72.3640869427693, 34.27798187106995], [72.36407656431841, 34.27791430566143], [72.36405924114563, 34.27791609639108], [72.36405146968437, 34.27786589588687], [72.36391679974089, 34.277880035460385], [72.36392988789746, 34.277965148298705], [72.3640038697652, 34.27795736517418]]]]}, "properties": {"id": "Pakistan_123102310_875065", "height": 2.49299168586731, "hmax": 0.0, "ratio": 0.0, "vulnClass": "none"}}, {"type": "Feature", "geometry": {"type": "MultiPolygon", "coordinates": [[[[72.36403762306064, 34.27812144342867], [72.36401744192206, 34.27805132311866], [72.36395035095461, 34.27806448327571], [72.36397053203906, 34.27813460359421], [72.36403762306064, 34.27812144342867]]]]}, "properties": {"id": "Pakistan_123102310_281904", "height": 2.890725374221802, "hmax": 0.0, "ratio": 0.0, "vulnClass": "none"}}, {"type": "Feature", "geometry": {"type": "MultiPolygon", "coordinates": [[[[72.36403157957893, 34.278071550568306], [72.3640372790051, 34.27811855122436], [72.36429597597844, 34.27809725461655], [72.3642902764079, 34.278050253965766], [72.36403157957893, 34.278071550568306]]]]}, "properties": {"id": "Pakistan_123102310_334983", "height": 2.942824840545654, "hmax": 0.0, "ratio": 0.0, "vulnClass": "none"}}, {"type": "Feature", "geometry": {"type": "MultiPolygon", "coordinates": [[[[72.36416297079874, 34.27789119392514], [72.36415149668265, 34.27778916765212], [72.364071699598, 34.277795383302774], [72.36409780486112, 34.27802699954732], [72.36413775777733, 34.27802389289315], [72.36413231755888, 34.27797554556968], [72.36420939040524, 34.277969631849345], [72.36420020205789, 34.27788829911905], [72.36416297079874, 34.27789119392514]]]]}, "properties": {"id": "Pakistan_123102310_344473", "height": 3.198818683624268, "hmax": 0.0, "ratio": 0.0, "vulnClass": "none"}}, {"type": "Feature", "geometry": {"type": "MultiPolygon", "coordinates": [[[[72.36417386189972, 34.277771979636775], [72.36417527427143, 34.277799776225024], [72.36424757060448, 34.27779727551821], [72.36424615820886, 34.27776947892967], [72.36417386189972, 34.277771979636775]]]]}, "properties": {"id": "Pakistan_123102310_187396", "height": 2.766743421554565, "hmax": 0.0, "ratio": 0.0, "vulnClass": "none"}}, {"type": "Feature", "geometry": {"type": "MultiPolygon", "coordinates": [[[[72.36468734110763, 34.27786858270997], [72.36467860200867, 34.27776589412594], [72.36472396983277, 34.277763264401074], [72.36471747606821, 34.2776860464292], [72.36455460785176, 34.27769552316685], [72.36454943869201, 34.277635011440886], [72.36427995371466, 34.277650577291006], [72.36430035467424, 34.27789099558506], [72.36468734110763, 34.27786858270997]]]]}, "properties": {"id": "Pakistan_123102310_453130", "height": 2.488410949707031, "hmax": 0.0, "ratio": 0.0, "vulnClass": "none"}}, {"type": "Feature", "geometry": {"type": "MultiPolygon", "coordinates": [[[[72.37356487236481, 34.27823527161741], [72.3735672893226, 34.27827625164829], [72.37364492923234, 34.278273048635185], [72.37364240370945, 34.27823206627661], [72.37356487236481, 34.27823527161741]]]]}, "properties": {"id": "Pakistan_123102310_813672", "height": 4.369941234588623, "hmax": 0.0, "ratio": 0.0, "vulnClass": "none"}}, {"type": "Feature", "geometry": {"type": "MultiPolygon", "coordinates": [[[[72.37657821261486, 34.28542668865385], [72.37660808580085, 34.285492867859126], [72.37669044298046, 34.28546740688686], [72.37666067547154, 34.28540132011432], [72.37657821261486, 34.28542668865385]]]]}, "properties": {"id": "Pakistan_123102310_94071", "height": 3.635645866394043, "hmax": 0.0, "ratio": 0.0, "vulnClass": "none"}}, {"type": "Feature", "geometry": {"type": "MultiPolygon", "coordinates": [[[[72.37749013050434, 34.28689295311676], [72.37760141011938, 34.287041199408094], [72.37764478844038, 34.287018869648165], [72.37753350597269, 34.286870713483886], [72.37749013050434, 34.28689295311676]]]]}, "properties": {"id": "Pakistan_123102310_18443", "height": 4.200878620147705, "hmax": 0.0, "ratio": 0.0, "vulnClass": "none"}}, {"type": "Feature", "geometry": {"type": "MultiPolygon", "coordinates": [[[[72.37752942070996, 34.286869363887526], [72.37747124008285, 34.286773910855786], [72.37742205397895, 34.28679440331354], [72.37748023456138, 34.28688985636647], [72.37752942070996, 34.286869363887526]]]]}, "properties": {"id": "Pakistan_123102310_609512", "height": 4.200878620147705, "hmax": 0.0, "ratio": 0.0, "vulnClass": "none"}}, {"type": "Feature", "geometry": {"type": "MultiPolygon", "coordinates": [[[[72.3760971707024, 34.2894427587911], [72.3760821506955, 34.28938789608354], [72.37600054309894, 34.28940309548065], [72.37601545451218, 34.28945795586973], [72.3760971707024, 34.2894427587911]]]]}, "properties": {"id": "Pakistan_123102310_704647", "height": 2.683509588241577, "hmax": 0.0, "ratio": 0.0, "vulnClass": "none"}}]}