{"type": "FeatureCollection", "features": [{"type": "Feature", "geometry": {"type": "MultiPolygon", "coordinates": [[[[71.83273809593254, 34.32068567363653], [71.83266167990003, 34.32066954446126], [71.83264868259259, 34.32071184135725], [71.83272509865971, 34.320727970542556], [71.83273809593254, 34.32068567363653]]]]}, "properties": {"id": "8J6H8RCM+73GR", "height": 3.135560989379883, "hmax": 0.0, "ratio": 0.0, "vulnClass": "none"}}, {"type": "Feature", "geometry": {"type": "MultiPolygon", "coordinates": [[[[71.8326862002842, 34.32060393076334], [71.83260301790624, 34.320582849296706], [71.8325846149238, 34.32063311830225], [71.83266779734481, 34.32065419978376], [71.8326862002842, 34.32060393076334]]]]}, "properties": {"id": "8J6H8RCM+63RM", "height": 3.057069540023804, "hmax": 0.0, "ratio": 0.0, "vulnClass": "none"}}, {"type": "Feature", "geometry": {"type": "MultiPolygon", "coordinates": [[[[71.83304765785356, 34.320600307851166], [71.8329284632666, 34.320569100808015], [71.83291472635646, 34.32060506921617], [71.83303402613117, 34.320636369130575], [71.83304765785356, 34.320600307851166]]]]}, "properties": {"id": "8J6H8RCM+65X3", "height": 2.453912973403931, "hmax": 0.0, "ratio": 0.0, "vulnClass": "none"}}, {"type": "Feature", "geometry": {"type": "MultiPolygon", "coordinates": [[[[71.83290618898678, 34.32053742803055], [71.83284892879803, 34.320526121248434], [71.8328340600517, 34.32057774365661], [71.83289142880221, 34.32058905325673], [71.83290618898678, 34.32053742803055]]]]}, "properties": {"id": "8J6H8RCM+64H9", "height": 2.516555070877075, "hmax": 0.0, "ratio": 0.0, "vulnClass": "none"}}, {"type": "Feature", "geometry": {"type": "MultiPolygon", "coordinates": [[[[71.83284892879803, 34.320526121248434], [71.83280288121715, 34.32051708763273], [71.83278187506502, 34.32059036357884], [71.83282792268247, 34.32059939720448], [71.83284892879803, 34.320526121248434]]]]}, "properties": {"id": "8J6H8RCM+64G6", "height": 2.516555070877075, "hmax": 0.0, "ratio": 0.0, "vulnClass": "none"}}, {"type": "Feature", "geometry": {"type": "MultiPolygon", "coordinates": [[[[71.8328949097157, 34.32049936994162], [71.83285867739085, 34.32049221282456], [71.83284892879803, 34.320526121248434], [71.83288516113618, 34.320533278369126], [71.8328949097157, 34.32049936994162]]]]}, "properties": {"id": "8J6H8RCM+645H", "height": 2.516555070877075, "hmax": 0.0, "ratio": 0.0, "vulnClass": "none"}}, {"type": "Feature", "geometry": {"type": "MultiPolygon", "coordinates": [[[[71.83289451045825, 34.32040598082952], [71.8328148077458, 34.32038192502721], [71.83279044294211, 34.320437628050186], [71.83283620249217, 34.3204514313131], [71.83280613728365, 34.320520056204444], [71.83283997198224, 34.320530305962336], [71.83289451045825, 34.32040598082952]]]]}, "properties": {"id": "8J6H8RCM+54GX", "height": 2.516555070877075, "hmax": 0.0, "ratio": 0.0, "vulnClass": "none"}}, {"type": "Feature", "geometry": {"type": "MultiPolygon", "coordinates": [[[[71.83301656400059, 34.320439154713114], [71.83289543643524, 34.32040735680761], [71.83287916647778, 34.32045001969181], [71.8330002940958, 34.320481817616326], [71.83301656400059, 34.320439154713114]]]]}, "properties": {"id": "8J6H8RCM+55GM", "height": 2.453284025192261, "hmax": 0.0, "ratio": 0.0, "vulnClass": "none"}}, {"type": "Feature", "geometry": {"type": "MultiPolygon", "coordinates": [[[[71.83275138625417, 34.320387133495174], [71.83271213548424, 34.32037935739709], [71.83267962758646, 34.32049271559538], [71.83275338778792, 34.320507243729004], [71.8327813824345, 34.320409902657], [71.83274676794416, 34.32040305778876], [71.83275138625417, 34.320387133495174]]]]}, "properties": {"id": "8J6H8RCM+53HV", "height": 2.516740322113037, "hmax": 0.0, "ratio": 0.0, "vulnClass": "none"}}, {"type": "Feature", "geometry": {"type": "MultiPolygon", "coordinates": [[[[71.83279750576936, 34.32035380603249], [71.8327236405472, 34.320339185076534], [71.83271213548424, 34.32037935739709], [71.83278600073857, 34.320393978361786], [71.83279750576936, 34.32035380603249]]]]}, "properties": {"id": "8J6H8RCM+44RJ", "height": 3.072981595993042, "hmax": 0.0, "ratio": 0.0, "vulnClass": "none"}}, {"type": "Feature", "geometry": {"type": "MultiPolygon", "coordinates": [[[[71.83271213548424, 34.32037935739709], [71.83266662726234, 34.32037042782856], [71.83265088360481, 34.320425092118434], [71.83269638846755, 34.3204341117406], [71.83271213548424, 34.32037935739709]]]]}, "properties": {"id": "8J6H8RCM+5375", "height": 2.523304224014282, "hmax": 0.0, "ratio": 0.0, "vulnClass": "none"}}, {"type": "Feature", "geometry": {"type": "MultiPolygon", "coordinates": [[[[71.83272513926133, 34.32050155511637], [71.83264198406012, 34.320479753310714], [71.83260268893086, 34.32058293091438], [71.83268584421955, 34.32060473275155], [71.83272513926133, 34.32050155511637]]]]}, "properties": {"id": "8J6H8RCM+637J", "height": 2.629050731658936, "hmax": 0.0, "ratio": 0.0, "vulnClass": "none"}}, {"type": "Feature", "geometry": {"type": "MultiPolygon", "coordinates": [[[[71.83080408228743, 34.32062441743848], [71.83073465004556, 34.320610360774154], [71.83070447921077, 34.32071350363457], [71.83077391491814, 34.320727470274186], [71.83080408228743, 34.32062441743848]]]]}, "properties": {"id": "8J6H8RCJ+786J", "height": 2.807351112365723, "hmax": 0.0, "ratio": 0.0, "vulnClass": "none"}}, {"type": "Feature", "geometry": {"type": "MultiPolygon", "coordinates": [[[[71.8307919839698, 34.32051576313493], [71.83053992843612, 34.320527891821555], [71.83054487912682, 34.32059841462443], [71.8307969348727, 34.32058628593945], [71.8307919839698, 34.32051576313493]]]]}, "properties": {"id": "8J6H8RCJ+67F7", "height": 3.083234786987305, "hmax": 0.0, "ratio": 0.0, "vulnClass": "none"}}, {"type": "Feature", "geometry": {"type": "MultiPolygon", "coordinates": [[[[71.8305682344217, 34.32033862283992], [71.83052017642551, 34.32033972142348], [71.8305220538026, 34.3203937602498], [71.83057000330048, 34.32039265885591], [71.8305682344217, 34.32033862283992]]]]}, "properties": {"id": "8J6H8RCJ+46VM", "height": 2.786630392074585, "hmax": 0.0, "ratio": 0.0, "vulnClass": "none"}}, {"type": "Feature", "geometry": {"type": "MultiPolygon", "coordinates": [[[[71.83075717551282, 34.32076236916612], [71.83057750936179, 34.32070129142969], [71.83055657818473, 34.320743652954214], [71.83073624440603, 34.32080473072526], [71.83075717551282, 34.32076236916612]]]]}, "properties": {"id": "8J6H8RCJ+8732", "height": 4.49300479888916, "hmax": 0.0, "ratio": 0.0, "vulnClass": "none"}}, {"type": "Feature", "geometry": {"type": "MultiPolygon", "coordinates": [[[[71.82970723464831, 34.32041546382465], [71.82958639720414, 34.320396198793475], [71.82954229461485, 34.320586590428896], [71.82966313231532, 34.32060585551783], [71.82967052511064, 34.32057395942418], [71.82972322308811, 34.32058235532646], [71.82974370240879, 34.320494284383635], [71.82969089595375, 34.320485885680924], [71.82970723464831, 34.32041546382465]]]]}, "properties": {"id": "8J6H8RCH+6V27", "height": 3.636773347854614, "hmax": 0.0, "ratio": 0.0, "vulnClass": "none"}}, {"type": "Feature", "geometry": {"type": "MultiPolygon", "coordinates": [[[[71.82963732596893, 34.32060167161711], [71.82954207416655, 34.320586674850404], [71.82952388370298, 34.320665881810925], [71.82964656651218, 34.32068519473081], [71.8296591647983, 34.3206304493889], [71.82963173389237, 34.32062613325831], [71.82963732596893, 34.32060167161711]]]]}, "properties": {"id": "8J6H8RCH+7R4H", "height": 3.016539573669434, "hmax": 0.0, "ratio": 0.0, "vulnClass": "none"}}, {"type": "Feature", "geometry": {"type": "MultiPolygon", "coordinates": [[[[71.83019005317622, 34.320399851387954], [71.83017834669086, 34.320324106059], [71.8301031973526, 34.32033207386335], [71.83009784112998, 34.320298315163484], [71.83005224552844, 34.32030326298051], [71.83005760173275, 34.320337021681354], [71.82993533395019, 34.32034998786197], [71.8299473658043, 34.320425741637564], [71.83019005317622, 34.320399851387954]]]]}, "properties": {"id": "8J6H8RCJ+42WR", "height": 5.321642398834229, "hmax": 0.0, "ratio": 0.0, "vulnClass": "none"}}, {"type": "Feature", "geometry": {"type": "MultiPolygon", "coordinates": [[[[71.82991978606712, 34.32018581180265], [71.82987149439937, 34.32019600759876], [71.82991957019252, 34.320353184791344], [71.8299678585587, 34.320343079027246], [71.82991978606712, 34.32018581180265]]]]}, "properties": {"id": "8J6H8RCH+4X3M", "height": 2.844930648803711, "hmax": 0.0, "ratio": 0.0, "vulnClass": "none"}}, {"type": "Feature", "geometry": {"type": "MultiPolygon", "coordinates": [[[[71.8302772985303, 34.320232119136456], [71.83021883893768, 34.32023826603504], [71.83022537912872, 34.32028097865711], [71.83028383875106, 34.32027483175706], [71.8302772985303, 34.320232119136456]]]]}, "properties": {"id": "8J6H8RCJ+4426", "height": 2.496779918670654, "hmax": 0.0, "ratio": 0.0, "vulnClass": "none"}}, {"type": "Feature", "geometry": {"type": "MultiPolygon", "coordinates": [[[[71.83080535935592, 34.32031330833493], [71.83079844431943, 34.32023146791769], [71.83068260008045, 34.32023829186558], [71.83068011980289, 34.32020893410599], [71.83062992867305, 34.320211870292255], [71.830632408933, 34.320241228051884], [71.83039996071321, 34.32025485583879], [71.83040687536034, 34.32033669625685], [71.83080535935592, 34.32031330833493]]]]}, "properties": {"id": "8J6H8RCJ+4697", "height": 4.389773368835449, "hmax": 0.0, "ratio": 0.0, "vulnClass": "none"}}, {"type": "Feature", "geometry": {"type": "MultiPolygon", "coordinates": [[[[71.83085593062488, 34.32022808968098], [71.83079844431943, 34.32023146791769], [71.83080535935592, 34.32031330833493], [71.83086295424671, 34.32030993290918], [71.83085593062488, 34.32022808968098]]]]}, "properties": {"id": "8J6H8RCJ+484W", "height": 3.029149055480957, "hmax": 0.0, "ratio": 0.0, "vulnClass": "none"}}, {"type": "Feature", "geometry": {"type": "MultiPolygon", "coordinates": [[[[71.83092507652891, 34.320298833071085], [71.83095219861741, 34.32021318728386], [71.83093119129798, 34.320208497019095], [71.83090395727321, 34.32029423003571], [71.83092507652891, 34.320298833071085]]]]}, "properties": {"id": "8J6H8RCJ+4934", "height": 2.587394714355469, "hmax": 0.0, "ratio": 0.0, "vulnClass": "none"}}, {"type": "Feature", "geometry": {"type": "MultiPolygon", "coordinates": [[[[71.83091783963246, 34.320315049997134], [71.83088703067203, 34.32030812290584], [71.83087242505941, 34.32035272141344], [71.83090312550515, 34.32035964569818], [71.83091783963246, 34.320315049997134]]]]}, "properties": {"id": "8J6H8RCJ+49J8", "height": 2.789372444152832, "hmax": 0.0, "ratio": 0.0, "vulnClass": "none"}}, {"type": "Feature", "geometry": {"type": "MultiPolygon", "coordinates": [[[[71.8311030453698, 34.320335710435856], [71.83093271750111, 34.32029497495389], [71.83090738219914, 34.32036777786773], [71.8310778187266, 34.320408516203], [71.8311030453698, 34.320335710435856]]]]}, "properties": {"id": "8J6H8RCJ+4CR2", "height": 2.587394714355469, "hmax": 0.0, "ratio": 0.0, "vulnClass": "none"}}, {"type": "Feature", "geometry": {"type": "MultiPolygon", "coordinates": [[[[71.83107279611198, 34.32016664700248], [71.83103550593971, 34.320158740883315], [71.83102412885464, 34.320195491248725], [71.83106141904159, 34.32020339737217], [71.83107279611198, 34.32016664700248]]]]}, "properties": {"id": "8J6H8RCJ+3CF8", "height": 2.964655160903931, "hmax": 0.0, "ratio": 0.0, "vulnClass": "none"}}, {"type": "Feature", "geometry": {"type": "MultiPolygon", "coordinates": [[[[71.83100040830861, 34.320190730723056], [71.83095221113942, 34.32018686851066], [71.83094919368334, 34.32021220811505], [71.83099749939579, 34.32021607314035], [71.83100040830861, 34.320190730723056]]]]}, "properties": {"id": "8J6H8RCJ+39Q2", "height": 2.780057191848755, "hmax": 0.0, "ratio": 0.0, "vulnClass": "none"}}, {"type": "Feature", "geometry": {"type": "MultiPolygon", "coordinates": [[[[71.83102618517756, 34.32013794894657], [71.8309793138683, 34.32012772157885], [71.83096204978392, 34.32018234624123], [71.83100881259142, 34.32019257080615], [71.83102618517756, 34.32013794894657]]]]}, "properties": {"id": "8J6H8RCJ+399H", "height": 3.322286128997803, "hmax": 0.0, "ratio": 0.0, "vulnClass": "none"}}, {"type": "Feature", "geometry": {"type": "MultiPolygon", "coordinates": [[[[71.83115121478693, 34.32008043690455], [71.8310044588322, 34.320048424073555], [71.8309793138683, 34.32012772157885], [71.83112606994688, 34.32015973444684], [71.83115121478693, 34.32008043690455]]]]}, "properties": {"id": "8J6H8RCJ+2CW2", "height": 3.322286128997803, "hmax": 0.0, "ratio": 0.0, "vulnClass": "none"}}, {"type": "Feature", "geometry": {"type": "MultiPolygon", "coordinates": [[[[71.83156039340813, 34.32003551104462], [71.83165507687161, 34.31987211648237], [71.83156570870163, 34.31983645272876], [71.8314710251159, 34.31999984721516], [71.83156039340813, 34.32003551104462]]]]}, "properties": {"id": "8J6H8R9J+XJGC", "height": 2.547065019607544, "hmax": 0.0, "ratio": 0.0, "vulnClass": "none"}}, {"type": "Feature", "geometry": {"type": "MultiPolygon", "coordinates": [[[[71.83400230165824, 34.3188269306704], [71.83396819459318, 34.318708333125684], [71.83388129272764, 34.31872555341488], [71.83391539967327, 34.318844150977135], [71.83400230165824, 34.3188269306704]]]]}, "properties": {"id": "8J6H8R9M+GH82", "height": 3.077757358551025, "hmax": 0.0, "ratio": 0.0, "vulnClass": "none"}}, {"type": "Feature", "geometry": {"type": "MultiPolygon", "coordinates": [[[[71.83388305285938, 34.31872496802229], [71.83381507514318, 34.31873871204997], [71.83384173902276, 34.31882989655891], [71.83390971681068, 34.31881615252043], [71.83388305285938, 34.31872496802229]]]]}, "properties": {"id": "8J6H8R9M+GG94", "height": 2.904899835586548, "hmax": 0.0, "ratio": 0.0, "vulnClass": "none"}}, {"type": "Feature", "geometry": {"type": "MultiPolygon", "coordinates": [[[[71.83419880793365, 34.31883300662807], [71.83418671731815, 34.3187905110816], [71.83391539967327, 34.318844150977135], [71.83394987989061, 34.318964380601855], [71.83403678199667, 34.31894716027739], [71.83401450071052, 34.31886942903817], [71.83419880793365, 34.31883300662807]]]]}, "properties": {"id": "8J6H8R9M+GJRQ", "height": 3.782155990600586, "hmax": 0.0, "ratio": 0.0, "vulnClass": "none"}}, {"type": "Feature", "geometry": {"type": "MultiPolygon", "coordinates": [[[[71.83392395911694, 34.31896902778739], [71.83389353911491, 34.31885638434137], [71.83383698016965, 34.31886690862482], [71.83386762053775, 34.318979467650955], [71.83392395911694, 34.31896902778739]]]]}, "properties": {"id": "8J6H8R9M+HH6J", "height": 4.000400543212891, "hmax": 0.0, "ratio": 0.0, "vulnClass": "none"}}, {"type": "Feature", "geometry": {"type": "MultiPolygon", "coordinates": [[[[71.83419945845391, 34.31903825860491], [71.83416868631464, 34.31893786433114], [71.83412652746001, 34.31894677838547], [71.83415033840932, 34.31902427878382], [71.83408551117192, 34.31903801433753], [71.83406170028047, 34.3189605139298], [71.83396007944192, 34.31898204038465], [71.83402280041072, 34.319186194421086], [71.83407973929347, 34.31917423774423], [71.83405903236299, 34.31910664225676], [71.83423402023499, 34.31906961813623], [71.83422288986597, 34.3190333666846], [71.83419945845391, 34.31903825860491]]]]}, "properties": {"id": "8J6H8R9M+JJG4", "height": 3.910470962524414, "hmax": 0.0, "ratio": 0.0, "vulnClass": "none"}}, {"type": "Feature", "geometry": {"type": "MultiPolygon", "coordinates": [[[[71.83277927363001, 34.320145304916565], [71.83273376552354, 34.320136375379406], [71.83270688653234, 34.320230049832794], [71.83279164200927, 34.3202468455107], [71.8328001495355, 34.320217051126264], [71.83276089545184, 34.320209365094115], [71.83277927363001, 34.320145304916565]]]]}, "properties": {"id": "8J6H8RCM+34CR", "height": 3.052332639694214, "hmax": 0.0, "ratio": 0.0, "vulnClass": "none"}}, {"type": "Feature", "geometry": {"type": "MultiPolygon", "coordinates": [[[[71.83268625277502, 34.32023564480779], [71.83255707112076, 34.320210037595956], [71.83253505439805, 34.32028707296253], [71.8326641310169, 34.32031258734782], [71.83268625277502, 34.32023564480779]]]]}, "properties": {"id": "8J6H8RCM+425G", "height": 2.876410007476807, "hmax": 0.0, "ratio": 0.0, "vulnClass": "none"}}, {"type": "Feature", "geometry": {"type": "MultiPolygon", "coordinates": [[[[71.83279164200927, 34.3202468455107], [71.83270688653234, 34.320230049832794], [71.83268214029347, 34.32031611810136], [71.83285100703888, 34.32034951249484], [71.83285750382643, 34.320326966908496], [71.83277339265746, 34.320310368220035], [71.83279164200927, 34.3202468455107]]]]}, "properties": {"id": "8J6H8RCM+446J", "height": 3.416214942932129, "hmax": 0.0, "ratio": 0.0, "vulnClass": "none"}}, {"type": "Feature", "geometry": {"type": "MultiPolygon", "coordinates": [[[[71.83292731689315, 34.32029911993568], [71.83288289682307, 34.3202814756209], [71.83283664800823, 34.320361579293674], [71.83292934111606, 34.32039840981856], [71.83295374397392, 34.320356137709275], [71.83290547436908, 34.320336861481834], [71.83292731689315, 34.32029911993568]]]]}, "properties": {"id": "8J6H8RCM+45JP", "height": 2.458842039108276, "hmax": 0.0, "ratio": 0.0, "vulnClass": "none"}}, {"type": "Feature", "geometry": {"type": "MultiPolygon", "coordinates": [[[[71.83419392769957, 34.31982128988947], [71.83398848665816, 34.31978118241457], [71.83397746040364, 34.319820195524784], [71.83418290153206, 34.31986030302302], [71.83419392769957, 34.31982128988947]]]]}, "properties": {"id": "8J6H8R9M+WJGW", "height": 2.872478008270264, "hmax": 0.0, "ratio": 0.0, "vulnClass": "none"}}, {"type": "Feature", "geometry": {"type": "MultiPolygon", "coordinates": [[[[71.83387536024087, 34.31975040373768], [71.83376632839011, 34.3197320792719], [71.83375683160023, 34.319770861536234], [71.83386586011301, 34.31978927605947], [71.83387536024087, 34.31975040373768]]]]}, "properties": {"id": "8J6H8R9M+WG4C", "height": 2.531953811645508, "hmax": 0.0, "ratio": 0.0, "vulnClass": "none"}}, {"type": "Feature", "geometry": {"type": "MultiPolygon", "coordinates": [[[[71.83402604652875, 34.31972122371241], [71.83398615195007, 34.31971901967853], [71.83398388858154, 34.31974744345544], [71.83402378317354, 34.319749647490795], [71.83402604652875, 34.31972122371241]]]]}, "properties": {"id": "8J6H8R9M+VJR6", "height": 5.023116111755371, "hmax": 0.0, "ratio": 0.0, "vulnClass": "none"}}, {"type": "Feature", "geometry": {"type": "MultiPolygon", "coordinates": [[[[71.8338768303068, 34.31958991313409], [71.83383344977462, 34.31959374795943], [71.83383859085998, 34.319633269549705], [71.83388186288398, 34.31962943191536], [71.8338768303068, 34.31958991313409]]]]}, "properties": {"id": "8J6H8R9M+RGXF", "height": 3.496546745300293, "hmax": 0.0, "ratio": 0.0, "vulnClass": "none"}}, {"type": "Feature", "geometry": {"type": "MultiPolygon", "coordinates": [[[[71.83384220002793, 34.31964129473492], [71.83384133555754, 34.31960071206804], [71.83373720271301, 34.319602343830326], [71.833738070518, 34.31964283644876], [71.83384220002793, 34.31964129473492]]]]}, "properties": {"id": "8J6H8R9M+RGVV", "height": 3.314419269561768, "hmax": 0.0, "ratio": 0.0, "vulnClass": "none"}}, {"type": "Feature", "geometry": {"type": "MultiPolygon", "coordinates": [[[[71.83375068707629, 34.31941413246215], [71.83371646342026, 34.319414238309356], [71.83371654042402, 34.31944686880701], [71.83375076409332, 34.319446762960524], [71.83375068707629, 34.31941413246215]]]]}, "properties": {"id": "8J6H8R9M+QFH7", "height": 3.116126775741577, "hmax": 0.0, "ratio": 0.0, "vulnClass": "none"}}, {"type": "Feature", "geometry": {"type": "MultiPolygon", "coordinates": [[[[71.83375076409332, 34.319446762960524], [71.83371654042402, 34.31944686880701], [71.83371671199318, 34.31947409371224], [71.83375082714517, 34.31947398505786], [71.83375076409332, 34.319446762960524]]]]}, "properties": {"id": "8J6H8R9M+QFQF", "height": 3.665294170379639, "hmax": 0.0, "ratio": 0.0, "vulnClass": "none"}}, {"type": "Feature", "geometry": {"type": "MultiPolygon", "coordinates": [[[[71.8338003828026, 34.31955152078272], [71.8337277099583, 34.31955721145248], [71.83373260706777, 34.31960033209193], [71.83380527994946, 34.31959464142134], [71.8338003828026, 34.31955152078272]]]]}, "properties": {"id": "8J6H8R9M+RGJ4", "height": 3.043286085128784, "hmax": 0.0, "ratio": 0.0, "vulnClass": "none"}}, {"type": "Feature", "geometry": {"type": "MultiPolygon", "coordinates": [[[[71.83375082714517, 34.31947398505786], [71.83371671199318, 34.31947409371224], [71.83371676635628, 34.319521776000244], [71.83375099005606, 34.31952167015539], [71.83375082714517, 34.31947398505786]]]]}, "properties": {"id": "8J6H8R9M+QFXV", "height": 3.693371534347534, "hmax": 0.0, "ratio": 0.0, "vulnClass": "none"}}, {"type": "Feature", "geometry": {"type": "MultiPolygon", "coordinates": [[[[71.83397301800497, 34.3194701803955], [71.83396434737926, 34.319400282455284], [71.83376240834856, 34.319417320066336], [71.83377097027754, 34.31948721520306], [71.83397301800497, 34.3194701803955]]]]}, "properties": {"id": "8J6H8R9M+QGHQ", "height": 2.853038787841797, "hmax": 0.0, "ratio": 0.0, "vulnClass": "none"}}, {"type": "Feature", "geometry": {"type": "MultiPolygon", "coordinates": [[[[71.83413476372408, 34.31953114999113], [71.83401491734605, 34.31952309161241], [71.83400770245062, 34.31959654440191], [71.83412765746006, 34.31960460560151], [71.83413476372408, 34.31953114999113]]]]}, "properties": {"id": "8J6H8R9M+RJGF", "height": 4.656791210174561, "hmax": 0.0, "ratio": 0.0, "vulnClass": "none"}}, {"type": "Feature", "geometry": {"type": "MultiPolygon", "coordinates": [[[[71.83412380326021, 34.31915221343827], [71.83408212172941, 34.31915131521747], [71.83408108314197, 34.31918472806055], [71.83412276130481, 34.31918571632908], [71.83412380326021, 34.31915221343827]]]]}, "properties": {"id": "8J6H8R9M+MJ9M", "height": 2.751467227935791, "hmax": 0.0, "ratio": 0.0, "vulnClass": "none"}}, {"type": "Feature", "geometry": {"type": "MultiPolygon", "coordinates": [[[[71.83417557790028, 34.31915337279344], [71.83412380326021, 34.31915221343827], [71.83412276130481, 34.31918571632908], [71.83417453934979, 34.31918678563938], [71.83417557790028, 34.31915337279344]]]]}, "properties": {"id": "8J6H8R9M+MM6Q", "height": 2.890154361724854, "hmax": 0.0, "ratio": 0.0, "vulnClass": "none"}}, {"type": "Feature", "geometry": {"type": "MultiPolygon", "coordinates": [[[[71.83428435582545, 34.319100394301024], [71.8341739693414, 34.31909789875798], [71.83417094777003, 34.31918696311308], [71.8342813343704, 34.31918945866531], [71.83428435582545, 34.319100394301024]]]]}, "properties": {"id": "8J6H8R9M+MM5M", "height": 2.865741968154907, "hmax": 0.0, "ratio": 0.0, "vulnClass": "none"}}, {"type": "Feature", "geometry": {"type": "MultiPolygon", "coordinates": [[[[71.83435656694691, 34.31905205795115], [71.8343229709033, 34.31905281114888], [71.83432453801925, 34.31909782856764], [71.8343580255529, 34.3190970725626], [71.83435656694691, 34.31905205795115]]]]}, "properties": {"id": "8J6H8R9M+JPGX", "height": 2.837476253509521, "hmax": 0.0, "ratio": 0.0, "vulnClass": "none"}}, {"type": "Feature", "geometry": {"type": "MultiPolygon", "coordinates": [[[[71.83413818776663, 34.31895158678694], [71.83409988761744, 34.3189503253954], [71.83409721954897, 34.31900686051782], [71.83413551972372, 34.319008121911615], [71.83413818776663, 34.31895158678694]]]]}, "properties": {"id": "8J6H8R9M+HJX5", "height": 2.769552230834961, "hmax": 0.0, "ratio": 0.0, "vulnClass": "none"}}, {"type": "Feature", "geometry": {"type": "MultiPolygon", "coordinates": [[[[71.8341804955342, 34.31893871068505], [71.83417496327479, 34.31888647008572], [71.83412833743535, 34.31888995065687], [71.83413386966569, 34.31894219125669], [71.8341804955342, 34.31893871068505]]]]}, "properties": {"id": "8J6H8R9M+HM6H", "height": 2.803369522094727, "hmax": 0.0, "ratio": 0.0, "vulnClass": "none"}}, {"type": "Feature", "geometry": {"type": "MultiPolygon", "coordinates": [[[[71.83425680423677, 34.31889985434832], [71.83418089982673, 34.318904830757255], [71.83418476941512, 34.318946392523465], [71.8342607823906, 34.31894141892217], [71.83425680423677, 34.31889985434832]]]]}, "properties": {"id": "8J6H8R9M+HM9R", "height": 2.658891916275024, "hmax": 0.0, "ratio": 0.0, "vulnClass": "none"}}, {"type": "Feature", "geometry": {"type": "MultiPolygon", "coordinates": [[[[71.8374094815675, 34.317620177903784], [71.83735616368557, 34.31763989117644], [71.83741709419321, 34.31775305210165], [71.83753827191859, 34.31770823274894], [71.83750253168944, 34.317641691359924], [71.83743456004674, 34.317666884641376], [71.8374094815675, 34.317620177903784]]]]}, "properties": {"id": "8J6H8R9P+3XGC", "height": 2.875869989395142, "hmax": 0.0, "ratio": 0.0, "vulnClass": "none"}}, {"type": "Feature", "geometry": {"type": "MultiPolygon", "coordinates": [[[[71.83714604925555, 34.317542072626324], [71.8371072728974, 34.317553508797886], [71.83718796691203, 34.31774208215323], [71.83726365454265, 34.31771970234692], [71.83719124452696, 34.31755063186921], [71.83715433678387, 34.317561485418125], [71.83714604925555, 34.317542072626324]]]]}, "properties": {"id": "8J6H8R9P+3V3Q", "height": 3.603567600250244, "hmax": 0.0, "ratio": 0.0, "vulnClass": "none"}}, {"type": "Feature", "geometry": {"type": "MultiPolygon", "coordinates": [[[[71.83732030677113, 34.31779056996223], [71.83728705130338, 34.317712825974645], [71.83718796691203, 34.31774208215323], [71.8372212256764, 34.31781973611629], [71.83732030677113, 34.31779056996223]]]]}, "properties": {"id": "8J6H8R9P+4W2J", "height": 3.58926796913147, "hmax": 0.0, "ratio": 0.0, "vulnClass": "none"}}, {"type": "Feature", "geometry": {"type": "MultiPolygon", "coordinates": [[[[71.8365142676327, 34.3179060158214], [71.8364325369175, 34.31793599043957], [71.83657398924002, 34.31820175755991], [71.83665572017824, 34.318171782859785], [71.8365142676327, 34.3179060158214]]]]}, "properties": {"id": "8J6H8R9P+6JF3", "height": 3.279052019119263, "hmax": 0.0, "ratio": 0.0, "vulnClass": "none"}}, {"type": "Feature", "geometry": {"type": "MultiPolygon", "coordinates": [[[[71.83655024757046, 34.3181570681698], [71.8364892240584, 34.31817946611465], [71.83654696182366, 34.31828794805849], [71.83660798202202, 34.31826564013532], [71.83655024757046, 34.3181570681698]]]]}, "properties": {"id": "8J6H8R9P+7JMW", "height": 2.585539817810059, "hmax": 0.0, "ratio": 0.0, "vulnClass": "none"}}]}