{"type": "FeatureCollection", "features": [{"type": "Feature", "geometry": {"type": "MultiPolygon", "coordinates": [[[[71.82758138464023, 34.47558334591299], [71.82759857685528, 34.475497265697136], [71.82722003530489, 34.47544578866553], [71.82720273399005, 34.47553186598232], [71.82758138464023, 34.47558334591299]]]]}, "properties": {"id": "Pakistan_123102132_369712", "height": 3.026537418365479, "hmax": 0.0, "ratio": 0.0, "vulnClass": "none"}}, {"type": "Feature", "geometry": {"type": "MultiPolygon", "coordinates": [[[[71.82756772397386, 34.47575144804934], [71.82756139067567, 34.47579508774022], [71.82760107660023, 34.475799003111156], [71.82760730114865, 34.475755360592075], [71.82756772397386, 34.47575144804934]]]]}, "properties": {"id": "Pakistan_123102132_486994", "height": 3.841297149658203, "hmax": 0.058, "ratio": 0.015, "vulnClass": "none"}}, {"type": "Feature", "geometry": {"type": "MultiPolygon", "coordinates": [[[[71.82294699110209, 34.48063254759483], [71.82294364514583, 34.480692037777175], [71.82307211255936, 34.48069691296946], [71.82307546184178, 34.480637332735505], [71.82294699110209, 34.48063254759483]]]]}, "properties": {"id": "Pakistan_123102132_305239", "height": 2.8204026222229, "hmax": 0.0, "ratio": 0.0, "vulnClass": "none"}}, {"type": "Feature", "geometry": {"type": "MultiPolygon", "coordinates": [[[[71.823910589052, 34.48151017759492], [71.82397759481789, 34.481511289782816], [71.82397925670793, 34.481441660960975], [71.82378357110407, 34.481438372869945], [71.82378229681726, 34.48148917417652], [71.8237260594321, 34.48148825190185], [71.82372418893792, 34.48156337333951], [71.823909215197, 34.48156647436766], [71.823910589052, 34.48151017759492]]]]}, "properties": {"id": "Pakistan_123102132_77036", "height": 2.567519664764404, "hmax": 0.0, "ratio": 0.0, "vulnClass": "none"}}, {"type": "Feature", "geometry": {"type": "MultiPolygon", "coordinates": [[[[71.82266775228409, 34.4817640083589], [71.8225768074899, 34.4817455078699], [71.82256423250705, 34.48178718209791], [71.82265528607931, 34.48180568542843], [71.82266775228409, 34.4817640083589]]]]}, "properties": {"id": "Pakistan_123102132_443817", "height": 3.8792884349823, "hmax": 0.0, "ratio": 0.0, "vulnClass": "none"}}, {"type": "Feature", "geometry": {"type": "MultiPolygon", "coordinates": [[[[71.82329029445678, 34.482063583382335], [71.82314755033694, 34.48218533284008], [71.82331543131735, 34.48231904059016], [71.8233535678535, 34.482286413654855], [71.82331056555289, 34.48225221630798], [71.8233354234267, 34.48223105115979], [71.8233035174334, 34.482205614939694], [71.82328270736947, 34.48222337025785], [71.82324467570702, 34.48219299763698], [71.82334523548906, 34.4821072848379], [71.82329029445678, 34.482063583382335]]]]}, "properties": {"id": "Pakistan_123102132_129474", "height": 3.349936246871948, "hmax": 0.0, "ratio": 0.0, "vulnClass": "none"}}, {"type": "Feature", "geometry": {"type": "MultiPolygon", "coordinates": [[[[71.82270599769073, 34.484332502915116], [71.82285617614379, 34.484330462582506], [71.8228547000346, 34.484257507412586], [71.82270452171285, 34.484259547750646], [71.82270599769073, 34.484332502915116]]]]}, "properties": {"id": "Pakistan_123102132_419167", "height": 2.732353687286377, "hmax": 0.0, "ratio": 0.0, "vulnClass": "none"}}, {"type": "Feature", "geometry": {"type": "MultiPolygon", "coordinates": [[[[71.82285301355824, 34.48413560511275], [71.82279152353799, 34.484138241069274], [71.8227962133355, 34.48421542594473], [71.82285770341275, 34.48421278998899], [71.82285301355824, 34.48413560511275]]]]}, "properties": {"id": "Pakistan_123102132_64778", "height": 3.159327983856201, "hmax": 0.0, "ratio": 0.0, "vulnClass": "none"}}, {"type": "Feature", "geometry": {"type": "MultiPolygon", "coordinates": [[[[71.8233160265378, 34.4830520094245], [71.82335896610378, 34.483079264983026], [71.8234348591333, 34.48299822811029], [71.8233155064443, 34.482922295961764], [71.82325447660254, 34.48298740561907], [71.82333088975598, 34.48303608227554], [71.8233160265378, 34.4830520094245]]]]}, "properties": {"id": "Pakistan_123102132_234276", "height": 4.224807739257812, "hmax": 0.0, "ratio": 0.0, "vulnClass": "none"}}, {"type": "Feature", "geometry": {"type": "MultiPolygon", "coordinates": [[[[71.8230472019199, 34.483071422968365], [71.82309129675441, 34.48308257505742], [71.82310826288524, 34.48303704923738], [71.82306405591572, 34.48302598436906], [71.8230472019199, 34.483071422968365]]]]}, "properties": {"id": "Pakistan_123102132_286688", "height": 4.139273166656494, "hmax": 0.0, "ratio": 0.0, "vulnClass": "none"}}, {"type": "Feature", "geometry": {"type": "MultiPolygon", "coordinates": [[[[71.82327066011284, 34.48286497682376], [71.82304742492494, 34.4827557865785], [71.82300571127408, 34.48281382767118], [71.82305240983692, 34.48283667455156], [71.82302115859214, 34.48288002599331], [71.8230855968304, 34.48291153650022], [71.82310444139478, 34.48288534780338], [71.82326216829517, 34.48296254906868], [71.82334110171755, 34.48285301952465], [71.82329547335813, 34.482830651259285], [71.82327066011284, 34.48286497682376]]]]}, "properties": {"id": "Pakistan_123102132_563289", "height": 3.882810592651367, "hmax": 0.0, "ratio": 0.0, "vulnClass": "none"}}, {"type": "Feature", "geometry": {"type": "MultiPolygon", "coordinates": [[[[71.82287927384418, 34.48301063036931], [71.82304602873654, 34.48305931475441], [71.82305748253825, 34.48303284361009], [71.82301452979604, 34.483020279118094], [71.82302718375327, 34.482990864852404], [71.82292825082614, 34.482961971803505], [71.82295439853468, 34.48290109210773], [71.82287818059065, 34.4828788289728], [71.8228106097974, 34.483035973186325], [71.82286196211014, 34.48305091950576], [71.82287927384418, 34.48301063036931]]]]}, "properties": {"id": "Pakistan_123102132_326627", "height": 5.033808708190918, "hmax": 0.0, "ratio": 0.0, "vulnClass": "none"}}, {"type": "Feature", "geometry": {"type": "MultiPolygon", "coordinates": [[[[71.82270292376361, 34.48291077148396], [71.82271374728535, 34.48295539809473], [71.82277311074351, 34.482945676515456], [71.8227622871905, 34.48290104990822], [71.82270292376361, 34.48291077148396]]]]}, "properties": {"id": "Pakistan_123102132_372646", "height": 3.234028100967407, "hmax": 0.0, "ratio": 0.0, "vulnClass": "none"}}, {"type": "Feature", "geometry": {"type": "MultiPolygon", "coordinates": [[[[71.82337087909889, 34.48249281569231], [71.82327677124566, 34.48243430492698], [71.82311437714222, 34.482612055778326], [71.82320848847866, 34.482670476629224], [71.82337087909889, 34.48249281569231]]]]}, "properties": {"id": "Pakistan_123102132_406769", "height": 3.695853471755981, "hmax": 0.0, "ratio": 0.0, "vulnClass": "none"}}, {"type": "Feature", "geometry": {"type": "MultiPolygon", "coordinates": [[[[71.8264390679006, 34.4829249358785], [71.82667229870574, 34.48295434255571], [71.82668637615602, 34.48287872710712], [71.82652648522509, 34.48285852755337], [71.82656544931316, 34.48264899179813], [71.8264920010778, 34.48263978191921], [71.8264390679006, 34.4829249358785]]]]}, "properties": {"id": "Pakistan_123102132_265182", "height": 2.880871057510376, "hmax": 0.0, "ratio": 0.0, "vulnClass": "none"}}, {"type": "Feature", "geometry": {"type": "MultiPolygon", "coordinates": [[[[71.82804190940473, 34.482529178934186], [71.82804023330345, 34.48260214242097], [71.82815423574111, 34.48260393256047], [71.8281546050581, 34.48258843942669], [71.82820409818898, 34.482589274596045], [71.82820540484015, 34.48253180423362], [71.82804190940473, 34.482529178934186]]]]}, "properties": {"id": "Pakistan_123102132_578696", "height": 2.639182567596436, "hmax": 0.0, "ratio": 0.0, "vulnClass": "none"}}, {"type": "Feature", "geometry": {"type": "MultiPolygon", "coordinates": [[[[71.827998860393, 34.482654155329094], [71.8280401839768, 34.48243395456453], [71.82793803602394, 34.48242093541381], [71.82788946827543, 34.482680065262485], [71.82789466726221, 34.48268074113724], [71.82785538364439, 34.482890178979645], [71.82791831874975, 34.482898213570934], [71.82795637791742, 34.48269523340429], [71.82809514003057, 34.48271289923396], [71.82810371687428, 34.482667515202685], [71.827998860393, 34.482654155329094]]]]}, "properties": {"id": "Pakistan_123102132_268323", "height": 3.295993089675903, "hmax": 0.0, "ratio": 0.0, "vulnClass": "none"}}, {"type": "Feature", "geometry": {"type": "MultiPolygon", "coordinates": [[[[71.82632178574701, 34.48209375353158], [71.82630040273573, 34.48216683559498], [71.82651440621676, 34.48220953290411], [71.82653579247123, 34.48213636075051], [71.82632178574701, 34.48209375353158]]]]}, "properties": {"id": "Pakistan_123102132_255850", "height": 2.862699031829834, "hmax": 0.0, "ratio": 0.0, "vulnClass": "none"}}, {"type": "Feature", "geometry": {"type": "MultiPolygon", "coordinates": [[[[71.82657357381707, 34.48222792556535], [71.8266344188223, 34.48223365317251], [71.82665165091551, 34.48210926811741], [71.82659080599822, 34.48210354052367], [71.82657357381707, 34.48222792556535]]]]}, "properties": {"id": "Pakistan_123102132_191327", "height": 3.043084621429443, "hmax": 0.0, "ratio": 0.0, "vulnClass": "none"}}, {"type": "Feature", "geometry": {"type": "MultiPolygon", "coordinates": [[[[71.82666842909418, 34.4823213343932], [71.82666409527988, 34.482389722142855], [71.82680851621464, 34.48239590946194], [71.82681284991199, 34.48232752170073], [71.82666842909418, 34.4823213343932]]]]}, "properties": {"id": "Pakistan_123102132_194422", "height": 3.242235660552979, "hmax": 0.0, "ratio": 0.0, "vulnClass": "none"}}, {"type": "Feature", "geometry": {"type": "MultiPolygon", "coordinates": [[[[71.826611517776, 34.48250471605606], [71.82663817659025, 34.48239869258724], [71.82654311794204, 34.48238243152258], [71.82651645901576, 34.4824884549645], [71.826611517776, 34.48250471605606]]]]}, "properties": {"id": "Pakistan_123102132_514567", "height": 3.95707893371582, "hmax": 0.0, "ratio": 0.0, "vulnClass": "none"}}, {"type": "Feature", "geometry": {"type": "MultiPolygon", "coordinates": [[[[71.82657789901798, 34.482332050430635], [71.82653659560002, 34.48233052616236], [71.82653407999513, 34.48237678867022], [71.82657538002249, 34.48237840298398], [71.82657789901798, 34.482332050430635]]]]}, "properties": {"id": "Pakistan_123102132_323545", "height": 4.210207939147949, "hmax": 0.0, "ratio": 0.0, "vulnClass": "none"}}, {"type": "Feature", "geometry": {"type": "MultiPolygon", "coordinates": [[[[71.82562539704713, 34.48161146871767], [71.82573577705742, 34.48181497261615], [71.82579064230941, 34.481794677256474], [71.8256802587703, 34.481591263444486], [71.82562539704713, 34.48161146871767]]]]}, "properties": {"id": "Pakistan_123102132_277477", "height": 4.131418704986572, "hmax": 0.0, "ratio": 0.0, "vulnClass": "none"}}, {"type": "Feature", "geometry": {"type": "MultiPolygon", "coordinates": [[[[71.82593149078477, 34.482090276945634], [71.82592590134014, 34.48201090553215], [71.8258510956589, 34.48201454887999], [71.8258472010414, 34.481959376924976], [71.82588994223993, 34.48195742365071], [71.82588486477806, 34.48188464518815], [71.8258367749972, 34.48188700019678], [71.82583156204217, 34.48181205504033], [71.8257284097159, 34.48181694423664], [71.82574819055148, 34.482099031134], [71.82593149078477, 34.482090276945634]]]]}, "properties": {"id": "Pakistan_123102132_110795", "height": 2.832803964614868, "hmax": 0.0, "ratio": 0.0, "vulnClass": "none"}}, {"type": "Feature", "geometry": {"type": "MultiPolygon", "coordinates": [[[[71.82590068599252, 34.48165395785959], [71.82583782398667, 34.481681346064846], [71.82588920199734, 34.48176163752778], [71.82595217278825, 34.48173425212571], [71.82590068599252, 34.48165395785959]]]]}, "properties": {"id": "Pakistan_123102132_323540", "height": 3.509598970413208, "hmax": 0.0, "ratio": 0.0, "vulnClass": "none"}}, {"type": "Feature", "geometry": {"type": "MultiPolygon", "coordinates": [[[[71.82571132651331, 34.48157566716806], [71.8257436697131, 34.48162977614108], [71.82585576927448, 34.48158410944476], [71.82582342601503, 34.48153000049809], [71.82571132651331, 34.48157566716806]]]]}, "properties": {"id": "Pakistan_123102132_175822", "height": 4.210766315460205, "hmax": 0.0, "ratio": 0.0, "vulnClass": "none"}}, {"type": "Feature", "geometry": {"type": "MultiPolygon", "coordinates": [[[[71.82574483970853, 34.478908989107985], [71.82593408055477, 34.47891273725563], [71.82593692066563, 34.47881772171202], [71.82574768003357, 34.47881397358059], [71.82574483970853, 34.478908989107985]]]]}, "properties": {"id": "Pakistan_123102132_274417", "height": 3.043313264846802, "hmax": 0.0, "ratio": 0.0, "vulnClass": "none"}}, {"type": "Feature", "geometry": {"type": "MultiPolygon", "coordinates": [[[[71.82697732205054, 34.47730431603609], [71.8270422877919, 34.47742236497049], [71.82714904874317, 34.47738241672926], [71.82708408287304, 34.477264367844455], [71.82697732205054, 34.47730431603609]]]]}, "properties": {"id": "Pakistan_123102132_37074", "height": 2.487983226776123, "hmax": 0.0, "ratio": 0.0, "vulnClass": "none"}}, {"type": "Feature", "geometry": {"type": "MultiPolygon", "coordinates": [[[[71.83082470369918, 34.47765985628695], [71.83079911740916, 34.47787001154675], [71.83088938882482, 34.477877492213594], [71.83090720345498, 34.4777317600535], [71.83087530422993, 34.47772912943058], [71.83088318442479, 34.47766470912542], [71.83082470369918, 34.47765985628695]]]]}, "properties": {"id": "Pakistan_123102132_385236", "height": 3.527427196502686, "hmax": 0.0, "ratio": 0.0, "vulnClass": "none"}}, {"type": "Feature", "geometry": {"type": "MultiPolygon", "coordinates": [[[[71.83100931312664, 34.47734017174349], [71.83101278413108, 34.47726283819788], [71.8309029852557, 34.47725944753886], [71.83089951415039, 34.477336781075806], [71.83100931312664, 34.47734017174349]]]]}, "properties": {"id": "Pakistan_123102132_129514", "height": 2.613306045532227, "hmax": 0.0, "ratio": 0.0, "vulnClass": "none"}}, {"type": "Feature", "geometry": {"type": "MultiPolygon", "coordinates": [[[[71.8310056206985, 34.47720767157583], [71.83098761709367, 34.47700756127234], [71.83083172493377, 34.47701712496809], [71.83083609935649, 34.47706545928417], [71.83093057116518, 34.47705970934377], [71.83094431228474, 34.4772113981108], [71.8310056206985, 34.47720767157583]]]]}, "properties": {"id": "Pakistan_123102132_326672", "height": 2.891144990921021, "hmax": 0.0, "ratio": 0.0, "vulnClass": "none"}}, {"type": "Feature", "geometry": {"type": "MultiPolygon", "coordinates": [[[[71.8297560918875, 34.48029939724515], [71.82995665058, 34.4803406577243], [71.82997991963607, 34.48026365804857], [71.82987386389583, 34.48024179629909], [71.82991043490225, 34.480121067367065], [71.82981604097598, 34.48010167154322], [71.8297560918875, 34.48029939724515]]]]}, "properties": {"id": "Pakistan_123102132_572576", "height": 2.651277780532837, "hmax": 0.0, "ratio": 0.0, "vulnClass": "none"}}, {"type": "Feature", "geometry": {"type": "MultiPolygon", "coordinates": [[[[71.82813048468844, 34.48293202742032], [71.82837869123925, 34.48296551533975], [71.82839551079525, 34.4828806872729], [71.82821520065144, 34.48285644431415], [71.82823122462297, 34.48277538115415], [71.82816332510653, 34.4827662262967], [71.82813048468844, 34.48293202742032]]]]}, "properties": {"id": "Pakistan_123102132_225039", "height": 2.825114727020264, "hmax": 0.0, "ratio": 0.0, "vulnClass": "none"}}, {"type": "Feature", "geometry": {"type": "MultiPolygon", "coordinates": [[[[71.8308522372727, 34.484100790338296], [71.83077841314729, 34.48409283509025], [71.8307714349019, 34.484136277930496], [71.83090325138222, 34.4841506057115], [71.83092206391393, 34.484033201111004], [71.83086395952495, 34.484026915818525], [71.8308522372727, 34.484100790338296]]]]}, "properties": {"id": "Pakistan_123102132_271353", "height": 2.7130126953125, "hmax": 0.0, "ratio": 0.0, "vulnClass": "none"}}, {"type": "Feature", "geometry": {"type": "MultiPolygon", "coordinates": [[[[71.8342312815035, 34.47616830103138], [71.83423625637835, 34.47611444071204], [71.83402289645475, 34.47610106700652], [71.8340256917419, 34.476070314208556], [71.83395783033342, 34.47606603085442], [71.83395005996867, 34.47615064394756], [71.8342312815035, 34.47616830103138]]]]}, "properties": {"id": "Pakistan_123102132_557254", "height": 2.985387325286865, "hmax": 0.0, "ratio": 0.0, "vulnClass": "none"}}, {"type": "Feature", "geometry": {"type": "MultiPolygon", "coordinates": [[[[71.8287483318837, 34.47585918068587], [71.82888719515127, 34.47587675779515], [71.82889622974758, 34.475827870371205], [71.82882289921217, 34.475818574983805], [71.8288555351025, 34.475643664749704], [71.82879000257897, 34.47563538306708], [71.8287483318837, 34.47585918068587]]]]}, "properties": {"id": "Pakistan_123102132_104578", "height": 2.753653049468994, "hmax": 0.0, "ratio": 0.0, "vulnClass": "none"}}, {"type": "Feature", "geometry": {"type": "MultiPolygon", "coordinates": [[[[71.83661182403142, 34.486361515928415], [71.83646743747968, 34.486316764263265], [71.83640773977447, 34.48644762173094], [71.8364017147439, 34.486445753084666], [71.83637346488945, 34.486507753143805], [71.83646642307806, 34.48653657081588], [71.83648671997813, 34.4864920305916], [71.83646089693983, 34.48648406071153], [71.83650955232166, 34.486377523214856], [71.83659272017157, 34.48640329298797], [71.83661182403142, 34.486361515928415]]]]}, "properties": {"id": "Pakistan_123102132_471492", "height": 2.889322996139526, "hmax": 0.0, "ratio": 0.0, "vulnClass": "none"}}, {"type": "Feature", "geometry": {"type": "MultiPolygon", "coordinates": [[[[71.83604680663021, 34.486553727602384], [71.83601236940125, 34.48665270173899], [71.8361411861466, 34.486683170063124], [71.83617562324143, 34.48658419588288], [71.83604680663021, 34.486553727602384]]]]}, "properties": {"id": "Pakistan_123102132_231299", "height": 2.526023864746094, "hmax": 0.0, "ratio": 0.0, "vulnClass": "none"}}, {"type": "Feature", "geometry": {"type": "MultiPolygon", "coordinates": [[[[71.83554238478918, 34.48721322103671], [71.83566961393957, 34.48726266664796], [71.83569863188893, 34.48721204336303], [71.83557129745243, 34.487162504922146], [71.83554238478918, 34.48721322103671]]]]}, "properties": {"id": "Pakistan_123102132_317635", "height": 2.916896343231201, "hmax": 0.0, "ratio": 0.0, "vulnClass": "none"}}, {"type": "Feature", "geometry": {"type": "MultiPolygon", "coordinates": [[[[71.83580276532328, 34.48706043588017], [71.83591794893894, 34.487085864216276], [71.83595639087305, 34.48696734506144], [71.83584131614825, 34.48694191958808], [71.83580276532328, 34.48706043588017]]]]}, "properties": {"id": "Pakistan_123102132_459311", "height": 3.374174118041992, "hmax": 0.0, "ratio": 0.0, "vulnClass": "none"}}, {"type": "Feature", "geometry": {"type": "MultiPolygon", "coordinates": [[[[71.83570847456542, 34.48687394169685], [71.8358012370786, 34.48688202437103], [71.8358083089274, 34.486827407202405], [71.83571554987729, 34.48681923449275], [71.83570847456542, 34.48687394169685]]]]}, "properties": {"id": "Pakistan_123102132_280627", "height": 3.065460681915283, "hmax": 0.0, "ratio": 0.0, "vulnClass": "none"}}, {"type": "Feature", "geometry": {"type": "MultiPolygon", "coordinates": [[[[71.83593592630841, 34.486912645127916], [71.8358463155533, 34.486878776262145], [71.83588193353779, 34.48681480413574], [71.8358420080292, 34.486799798818595], [71.83578408115164, 34.48690393252729], [71.83591350873795, 34.48695280393073], [71.83593592630841, 34.486912645127916]]]]}, "properties": {"id": "Pakistan_123102132_222083", "height": 3.694737911224365, "hmax": 0.0, "ratio": 0.0, "vulnClass": "none"}}, {"type": "Feature", "geometry": {"type": "MultiPolygon", "coordinates": [[[[71.83578895081088, 34.48663402225176], [71.83564771284273, 34.48661539946794], [71.83563796333563, 34.486665981397884], [71.83586552715947, 34.486695945011846], [71.83587190438496, 34.48666258106653], [71.83578557864357, 34.48665124025841], [71.83578895081088, 34.48663402225176]]]]}, "properties": {"id": "Pakistan_123102132_98435", "height": 2.691597700119019, "hmax": 0.0, "ratio": 0.0, "vulnClass": "none"}}, {"type": "Feature", "geometry": {"type": "MultiPolygon", "coordinates": [[[[71.83335223434791, 34.48473718986466], [71.83333197904366, 34.48479786429661], [71.83342047648999, 34.48481791581078], [71.83344073173723, 34.48475724136103], [71.83335223434791, 34.48473718986466]]]]}, "properties": {"id": "Pakistan_123102132_471473", "height": 3.028575420379639, "hmax": 0.0, "ratio": 0.0, "vulnClass": "none"}}, {"type": "Feature", "geometry": {"type": "MultiPolygon", "coordinates": [[[[71.83263870829849, 34.48484711863081], [71.83269341463036, 34.484859804460655], [71.83272893597037, 34.48475527126092], [71.83267422969894, 34.48474258545029], [71.83263870829849, 34.48484711863081]]]]}, "properties": {"id": "Pakistan_123102132_437739", "height": 3.024964809417725, "hmax": 0.0, "ratio": 0.0, "vulnClass": "none"}}, {"type": "Feature", "geometry": {"type": "MultiPolygon", "coordinates": [[[[71.83344296103135, 34.48623772188301], [71.83391645621168, 34.48640764386391], [71.83395479132274, 34.48633518023432], [71.8338194767685, 34.48628660478876], [71.833805755763, 34.486312657693304], [71.83371007058062, 34.4862782692261], [71.8337581434016, 34.48618722056893], [71.83368919839016, 34.486162448699766], [71.83363620061883, 34.486262833481796], [71.83358336280405, 34.48624388725105], [71.83363389647674, 34.48614821559421], [71.8335131876407, 34.486104885783234], [71.83344296103135, 34.48623772188301]]]]}, "properties": {"id": "Pakistan_123102132_329864", "height": 3.734917163848877, "hmax": 0.0, "ratio": 0.0, "vulnClass": "none"}}, {"type": "Feature", "geometry": {"type": "MultiPolygon", "coordinates": [[[[71.83052802157864, 34.48629601568974], [71.83047334810162, 34.486288196861416], [71.83046288207973, 34.48633749783567], [71.83051755217774, 34.48634540671402], [71.83052802157864, 34.48629601568974]]]]}, "properties": {"id": "Pakistan_123102132_499219", "height": 3.024950981140137, "hmax": 0.0, "ratio": 0.0, "vulnClass": "none"}}, {"type": "Feature", "geometry": {"type": "MultiPolygon", "coordinates": [[[[71.83016916907405, 34.48651085734419], [71.83027339394334, 34.486535285350726], [71.83029600754482, 34.486469895742374], [71.8302573841206, 34.48646078102475], [71.83031949324794, 34.48628086742958], [71.83037905261358, 34.48629476190345], [71.8303904137104, 34.48626206849682], [71.83026525654884, 34.48623277076784], [71.83016916907405, 34.48651085734419]]]]}, "properties": {"id": "Pakistan_123102132_249832", "height": 3.452598333358765, "hmax": 0.0, "ratio": 0.0, "vulnClass": "none"}}, {"type": "Feature", "geometry": {"type": "MultiPolygon", "coordinates": [[[[71.8302018720268, 34.485972085166175], [71.8303223164117, 34.4859935993538], [71.83034331752631, 34.48591329605194], [71.83022286983858, 34.485891871934555], [71.8302018720268, 34.485972085166175]]]]}, "properties": {"id": "Pakistan_123102132_203684", "height": 3.347051620483398, "hmax": 0.0, "ratio": 0.0, "vulnClass": "none"}}, {"type": "Feature", "geometry": {"type": "MultiPolygon", "coordinates": [[[[71.8303914653656, 34.485765737891676], [71.83033466171526, 34.485756691987184], [71.83032480493603, 34.48579852779925], [71.83038171735602, 34.485807576533084], [71.8303914653656, 34.485765737891676]]]]}, "properties": {"id": "Pakistan_123102132_185220", "height": 3.401215314865112, "hmax": 0.0, "ratio": 0.0, "vulnClass": "none"}}, {"type": "Feature", "geometry": {"type": "MultiPolygon", "coordinates": [[[[71.83064678737868, 34.4858530348365], [71.83038110544865, 34.48580936328974], [71.8303307647649, 34.48601770372973], [71.83051390912252, 34.48604778580352], [71.83055094522054, 34.48589471142615], [71.83063348327003, 34.48590830100979], [71.83064678737868, 34.4858530348365]]]]}, "properties": {"id": "Pakistan_123102132_594040", "height": 3.550950050354004, "hmax": 0.0, "ratio": 0.0, "vulnClass": "none"}}, {"type": "Feature", "geometry": {"type": "MultiPolygon", "coordinates": [[[[71.83078756630371, 34.48579458841409], [71.83068815987869, 34.485778037325986], [71.83070746124748, 34.48569949246517], [71.83063531497318, 34.4856874345678], [71.83063004850328, 34.485708659174435], [71.83065470892862, 34.485712814535034], [71.83064196938129, 34.485764670344174], [71.8306806948203, 34.48577108361498], [71.83067464634335, 34.48579571294541], [71.83050969285785, 34.485768176439024], [71.83051960032324, 34.48572787417211], [71.83044485786888, 34.48571538823157], [71.8304219420499, 34.48580889127696], [71.83076980854199, 34.48586686410666], [71.83078756630371, 34.48579458841409]]]]}, "properties": {"id": "Pakistan_123102132_43245", "height": 5.929407119750977, "hmax": 0.0, "ratio": 0.0, "vulnClass": "none"}}, {"type": "Feature", "geometry": {"type": "MultiPolygon", "coordinates": [[[[71.83057387209345, 34.48551918502367], [71.83053271551027, 34.48557985708598], [71.83078904606911, 34.485698005116156], [71.8308302025383, 34.48563733296129], [71.83057387209345, 34.48551918502367]]]]}, "properties": {"id": "Pakistan_123102132_154118", "height": 4.33057689666748, "hmax": 0.0, "ratio": 0.0, "vulnClass": "none"}}, {"type": "Feature", "geometry": {"type": "MultiPolygon", "coordinates": [[[[71.82901702736307, 34.486058577373896], [71.82932216628919, 34.48610084310765], [71.82935450554312, 34.48594250964184], [71.829436476187, 34.48595383199283], [71.82947243332353, 34.485777566013695], [71.82941125620941, 34.485769037025], [71.829394661562, 34.485850806565516], [71.82919379948764, 34.485822966618514], [71.82917857174036, 34.48589738078911], [71.82912908425038, 34.48589059738423], [71.82911880089009, 34.4859408042892], [71.8290431101273, 34.48593036589695], [71.82901702736307, 34.486058577373896]]]]}, "properties": {"id": "Pakistan_123102132_46318", "height": 3.890938758850098, "hmax": 0.087, "ratio": 0.022, "vulnClass": "none"}}, {"type": "Feature", "geometry": {"type": "MultiPolygon", "coordinates": [[[[71.82977866229291, 34.485693313334046], [71.8297652489091, 34.485748576559786], [71.82985298243459, 34.48576293250651], [71.82986628702142, 34.48570766644442], [71.82977866229291, 34.485693313334046]]]]}, "properties": {"id": "Pakistan_123102132_545127", "height": 4.509782314300537, "hmax": 0.0, "ratio": 0.0, "vulnClass": "none"}}, {"type": "Feature", "geometry": {"type": "MultiPolygon", "coordinates": [[[[71.82989039307229, 34.48610009692702], [71.82999965515293, 34.4861380856464], [71.83006559787431, 34.48600928653481], [71.82992206287805, 34.485959411799676], [71.82989043408169, 34.486021412613866], [71.82992460181252, 34.48603320583826], [71.82989039307229, 34.48610009692702]]]]}, "properties": {"id": "Pakistan_123102132_572577", "height": 2.589653015136719, "hmax": 0.0, "ratio": 0.0, "vulnClass": "none"}}, {"type": "Feature", "geometry": {"type": "MultiPolygon", "coordinates": [[[[71.82972507474851, 34.485978722297965], [71.82970174888237, 34.48605716246091], [71.82988387605609, 34.48609397897586], [71.82990720176721, 34.486015538769635], [71.82972507474851, 34.485978722297965]]]]}, "properties": {"id": "Pakistan_123102132_101499", "height": 2.608094692230225, "hmax": 0.0, "ratio": 0.0, "vulnClass": "none"}}, {"type": "Feature", "geometry": {"type": "MultiPolygon", "coordinates": [[[[71.83027361434247, 34.486141413481995], [71.83009055664841, 34.48609754307191], [71.83006261952141, 34.48617703529628], [71.83024556862458, 34.48622090293314], [71.83027361434247, 34.486141413481995]]]]}, "properties": {"id": "Pakistan_123102132_299060", "height": 2.691919803619385, "hmax": 0.0, "ratio": 0.0, "vulnClass": "none"}}, {"type": "Feature", "geometry": {"type": "MultiPolygon", "coordinates": [[[[71.82991845925288, 34.48633048247101], [71.8298983283149, 34.48640503981862], [71.82998156654425, 34.48642027041582], [71.8300016940038, 34.486345803094366], [71.82991845925288, 34.48633048247101]]]]}, "properties": {"id": "Pakistan_123102132_197499", "height": 2.502665996551514, "hmax": 0.0, "ratio": 0.0, "vulnClass": "none"}}, {"type": "Feature", "geometry": {"type": "MultiPolygon", "coordinates": [[[[71.8286961472192, 34.487566625061554], [71.82931886821619, 34.48783444907615], [71.82937501734504, 34.487745865395944], [71.82929693578019, 34.487712291196864], [71.82928593640624, 34.487729671411195], [71.82917347636504, 34.48768123375009], [71.82920427191424, 34.48763264121222], [71.82915232525819, 34.487610291190194], [71.82912198854874, 34.487658264707456], [71.8289469732733, 34.487583055157764], [71.82893667066763, 34.4875992817205], [71.82878061359861, 34.48753222561573], [71.82880851669306, 34.48748815478351], [71.82875924792953, 34.48746695574662], [71.8286961472192, 34.487566625061554]]]]}, "properties": {"id": "Pakistan_123102132_265203", "height": 2.911844968795776, "hmax": 0.0, "ratio": 0.0, "vulnClass": "none"}}, {"type": "Feature", "geometry": {"type": "MultiPolygon", "coordinates": [[[[71.82487251816028, 34.48746570474817], [71.8249531486702, 34.4874865492789], [71.82499679795481, 34.4873717747627], [71.82491616412437, 34.487351020309156], [71.82487251816028, 34.48746570474817]]]]}, "properties": {"id": "Pakistan_123102132_228132", "height": 3.139438152313232, "hmax": 0.0, "ratio": 0.0, "vulnClass": "none"}}, {"type": "Feature", "geometry": {"type": "MultiPolygon", "coordinates": [[[[71.82530100096473, 34.487467474590844], [71.82548422315733, 34.487521361143536], [71.82550593738229, 34.48747118147221], [71.82554070675077, 34.487481459325316], [71.82561026888372, 34.48732057986593], [71.8255579483855, 34.487305248918645], [71.82553372863087, 34.487361222031076], [71.8254814081245, 34.48734589105042], [71.82545504648762, 34.487406675576544], [71.82534179812266, 34.4873733561276], [71.82530100096473, 34.487467474590844]]]]}, "properties": {"id": "Pakistan_123102132_514560", "height": 3.222646713256836, "hmax": 0.0, "ratio": 0.0, "vulnClass": "none"}}, {"type": "Feature", "geometry": {"type": "MultiPolygon", "coordinates": [[[[71.82557439691662, 34.48695190846751], [71.82551067721514, 34.486927177760194], [71.82548689180358, 34.48696883117199], [71.82555061152777, 34.486993561892966], [71.82557439691662, 34.48695190846751]]]]}, "properties": {"id": "Pakistan_123102132_311429", "height": 6.277304649353027, "hmax": 0.0, "ratio": 0.0, "vulnClass": "none"}}, {"type": "Feature", "geometry": {"type": "MultiPolygon", "coordinates": [[[[71.82526914918444, 34.48721382599998], [71.82562816657952, 34.48730788597861], [71.82565291791148, 34.48724363452142], [71.82534358787171, 34.48716258390455], [71.82536170272331, 34.48711546527592], [71.82539974791338, 34.487125467823425], [71.82543149977477, 34.48704310165887], [71.82543979793974, 34.48704530034889], [71.82547384466905, 34.48695695500115], [71.8253779197088, 34.48693183742567], [71.82526914918444, 34.48721382599998]]]]}, "properties": {"id": "Pakistan_123102132_391391", "height": 5.096298217773438, "hmax": 0.0, "ratio": 0.0, "vulnClass": "none"}}, {"type": "Feature", "geometry": {"type": "MultiPolygon", "coordinates": [[[[71.82455358953382, 34.48658466136866], [71.82454572644617, 34.48665133477655], [71.82466792229084, 34.48666109281146], [71.82467578528323, 34.48659441939045], [71.82455358953382, 34.48658466136866]]]]}, "properties": {"id": "Pakistan_123102132_372655", "height": 2.660537719726562, "hmax": 0.0, "ratio": 0.0, "vulnClass": "none"}}, {"type": "Feature", "geometry": {"type": "MultiPolygon", "coordinates": [[[[71.8247843197427, 34.48625555192977], [71.82473659578092, 34.48625106591092], [71.82472747237863, 34.486316534842096], [71.82477519637673, 34.48632102086651], [71.8247843197427, 34.48625555192977]]]]}, "properties": {"id": "Pakistan_123102132_292858", "height": 2.777478933334351, "hmax": 0.0, "ratio": 0.0, "vulnClass": "none"}}, {"type": "Feature", "geometry": {"type": "MultiPolygon", "coordinates": [[[[71.82341138375224, 34.48627869153296], [71.8233973971758, 34.48638909976967], [71.82355775379747, 34.486402916349235], [71.82357174016744, 34.48629250808279], [71.82341138375224, 34.48627869153296]]]]}, "properties": {"id": "Pakistan_123102132_110774", "height": 2.517828702926636, "hmax": 0.0, "ratio": 0.0, "vulnClass": "none"}}, {"type": "Feature", "geometry": {"type": "MultiPolygon", "coordinates": [[[[71.8232947787739, 34.48636542879584], [71.82331782543959, 34.48628590119301], [71.82309709222713, 34.486242482106604], [71.82307404878769, 34.48632191961427], [71.8232947787739, 34.48636542879584]]]]}, "properties": {"id": "Pakistan_123102132_280547", "height": 2.652769565582275, "hmax": 0.0, "ratio": 0.0, "vulnClass": "none"}}, {"type": "Feature", "geometry": {"type": "MultiPolygon", "coordinates": [[[[71.82280980593448, 34.48581886656267], [71.82269274370093, 34.485805815297724], [71.82267830246069, 34.48589376874673], [71.82250303353536, 34.485874245124194], [71.82249370997914, 34.48593060530623], [71.82274138311537, 34.48595823244602], [71.82275187038215, 34.485894151179934], [71.8227966340049, 34.48589919184816], [71.82280980593448, 34.48581886656267]]]]}, "properties": {"id": "Pakistan_123102132_394476", "height": 6.490365982055664, "hmax": 0.0, "ratio": 0.0, "vulnClass": "none"}}, {"type": "Feature", "geometry": {"type": "MultiPolygon", "coordinates": [[[[71.82348833511597, 34.484460298445896], [71.82357255660826, 34.484469610212514], [71.82357822851323, 34.484434876709955], [71.82349389831417, 34.484425562119775], [71.82348833511597, 34.484460298445896]]]]}, "properties": {"id": "Pakistan_123102132_27871", "height": 2.497668981552124, "hmax": 0.0, "ratio": 0.0, "vulnClass": "none"}}, {"type": "Feature", "geometry": {"type": "MultiPolygon", "coordinates": [[[[71.82261013477209, 34.4845553378729], [71.82256162484661, 34.48477805321333], [71.82272528232775, 34.484802321883286], [71.82274347385845, 34.48471879234712], [71.82265125391434, 34.484705125764634], [71.82268157546035, 34.48456584986059], [71.82261013477209, 34.4845553378729]]]]}, "properties": {"id": "Pakistan_123102132_357454", "height": 3.84152364730835, "hmax": 0.0, "ratio": 0.0, "vulnClass": "none"}}, {"type": "Feature", "geometry": {"type": "MultiPolygon", "coordinates": [[[[71.82278937885296, 34.48484860532702], [71.82275259626886, 34.48497743806293], [71.82293444910785, 34.48501272544197], [71.82295027276362, 34.4849571652892], [71.82283087252011, 34.484934048700055], [71.8228517259647, 34.48486068320087], [71.82278937885296, 34.48484860532702]]]]}, "properties": {"id": "Pakistan_123102132_172717", "height": 5.115327835083008, "hmax": 0.0, "ratio": 0.0, "vulnClass": "none"}}, {"type": "Feature", "geometry": {"type": "MultiPolygon", "coordinates": [[[[71.8230345112582, 34.48503200381642], [71.82305713332876, 34.48496652578377], [71.8229950992718, 34.48495193246405], [71.82297247715844, 34.48501741048287], [71.8230345112582, 34.48503200381642]]]]}, "properties": {"id": "Pakistan_123102132_566339", "height": 3.815969944000244, "hmax": 0.0, "ratio": 0.0, "vulnClass": "none"}}, {"type": "Feature", "geometry": {"type": "MultiPolygon", "coordinates": [[[[71.8232681317678, 34.484876296231114], [71.8232228768428, 34.48494731434481], [71.82328177552573, 34.484972822063845], [71.82332703383508, 34.48490171388349], [71.8232681317678, 34.484876296231114]]]]}, "properties": {"id": "Pakistan_123102132_83123", "height": 2.857591390609741, "hmax": 0.0, "ratio": 0.0, "vulnClass": "none"}}, {"type": "Feature", "geometry": {"type": "MultiPolygon", "coordinates": [[[[71.82317099814844, 34.484989227715964], [71.82306199592496, 34.484967463509854], [71.82304299307569, 34.48503222453884], [71.82323928767252, 34.48507131230066], [71.8232692948155, 34.48496898215605], [71.8232251101306, 34.48496017119716], [71.82323186037051, 34.484937182933116], [71.82318875628401, 34.484928580344196], [71.82317099814844, 34.484989227715964]]]]}, "properties": {"id": "Pakistan_123102132_286690", "height": 3.919219970703125, "hmax": 0.0, "ratio": 0.0, "vulnClass": "none"}}, {"type": "Feature", "geometry": {"type": "MultiPolygon", "coordinates": [[[[71.82212705917216, 34.48594611831679], [71.82208208688468, 34.486052655285135], [71.82236453256114, 34.48613346488186], [71.82230806145986, 34.48626764353051], [71.82265166909843, 34.486365997836295], [71.8225997440836, 34.486489388981724], [71.82279701670136, 34.48654580833089], [71.82284067945417, 34.48644221135858], [71.82283346544313, 34.486440130842155], [71.82284758221122, 34.4864066086243], [71.82275185301442, 34.486379240815104], [71.82278343556625, 34.48630426181475], [71.82283609133033, 34.48631933225302], [71.82285355705383, 34.4862778754477], [71.82305707154558, 34.48633616931852], [71.82310361024469, 34.4862256167864], [71.82300917239311, 34.48619864331495], [71.8229917067647, 34.486240100148194], [71.82291999493293, 34.48621948646783], [71.82292825349008, 34.48619978223227], [71.8223763923575, 34.486041839014426], [71.82238549083542, 34.486020083646345], [71.82212705917216, 34.48594611831679]]]]}, "properties": {"id": "Pakistan_123102132_18700", "height": 5.035801410675049, "hmax": 0.0, "ratio": 0.0, "vulnClass": "none"}}, {"type": "Feature", "geometry": {"type": "MultiPolygon", "coordinates": [[[[71.822818264239, 34.48680332745105], [71.82281186844835, 34.48685138158141], [71.82265283660571, 34.48683705768637], [71.82263714809523, 34.48695499258248], [71.82287037631387, 34.48697611461664], [71.82288132291232, 34.4868941991789], [71.82297667618226, 34.48690280967712], [71.82298122696575, 34.486868948367146], [71.82323983959388, 34.486892352668434], [71.82324653806792, 34.486842053086484], [71.822818264239, 34.48680332745105]]]]}, "properties": {"id": "Pakistan_123102132_280542", "height": 3.226110696792603, "hmax": 0.0, "ratio": 0.0, "vulnClass": "none"}}, {"type": "Feature", "geometry": {"type": "MultiPolygon", "coordinates": [[[[71.82313612518816, 34.48669965563231], [71.82324750361035, 34.48669615459029], [71.82324498682054, 34.48664200993019], [71.82313360505321, 34.48664560101692], [71.82313612518816, 34.48669965563231]]]]}, "properties": {"id": "Pakistan_123102132_166515", "height": 3.326024055480957, "hmax": 0.0, "ratio": 0.0, "vulnClass": "none"}}, {"type": "Feature", "geometry": {"type": "MultiPolygon", "coordinates": [[[[71.82322953079944, 34.48646990637331], [71.82322690686001, 34.48653617520747], [71.8230956606376, 34.48653257958554], [71.82309362098609, 34.48658345105582], [71.82327163032028, 34.486588173412024], [71.82327617818882, 34.486471210352], [71.82322953079944, 34.48646990637331]]]]}, "properties": {"id": "Pakistan_123102132_480762", "height": 3.328221321105957, "hmax": 0.0, "ratio": 0.0, "vulnClass": "none"}}, {"type": "Feature", "geometry": {"type": "MultiPolygon", "coordinates": [[[[71.82311935763774, 34.48652769820311], [71.82322111052233, 34.48653115724991], [71.82322502133178, 34.48645392580509], [71.8231232685405, 34.486450466766705], [71.82311935763774, 34.48652769820311]]]]}, "properties": {"id": "Pakistan_123102132_182075", "height": 3.545222043991089, "hmax": 0.0, "ratio": 0.0, "vulnClass": "none"}}, {"type": "Feature", "geometry": {"type": "MultiPolygon", "coordinates": [[[[71.82281619498147, 34.486536663336985], [71.82302236711251, 34.48656510264327], [71.82303389262493, 34.48650807866369], [71.82309279601138, 34.486516281289205], [71.82310817218884, 34.486440970589825], [71.82295679189181, 34.486420086332416], [71.82294649110575, 34.48647065267702], [71.82283279618025, 34.486454895062096], [71.82281619498147, 34.486536663336985]]]]}, "properties": {"id": "Pakistan_123102132_584805", "height": 4.072142601013184, "hmax": 0.0, "ratio": 0.0, "vulnClass": "none"}}, {"type": "Feature", "geometry": {"type": "MultiPolygon", "coordinates": [[[[71.82319794912806, 34.48639860136913], [71.8232921865097, 34.48641078784529], [71.82329923882342, 34.486374107387824], [71.82320500148123, 34.48636192091928], [71.82319794912806, 34.48639860136913]]]]}, "properties": {"id": "Pakistan_123102132_388299", "height": 2.652386426925659, "hmax": 0.0, "ratio": 0.0, "vulnClass": "none"}}, {"type": "Feature", "geometry": {"type": "MultiPolygon", "coordinates": [[[[71.82361800975698, 34.486427107270124], [71.82332278516921, 34.486390403052745], [71.8233089179306, 34.486466113577926], [71.82348616222554, 34.486488121041866], [71.82347586736908, 34.48654427577556], [71.82352158617168, 34.48654997196562], [71.82351664287184, 34.48657697306207], [71.8235716794512, 34.486583812998184], [71.82358457684259, 34.48651357525273], [71.82367373766898, 34.486524728031824], [71.82369641610244, 34.486400395182486], [71.82362448062946, 34.486391403112954], [71.82361800975698, 34.486427107270124]]]]}, "properties": {"id": "Pakistan_123102132_77033", "height": 4.002056121826172, "hmax": 0.0, "ratio": 0.0, "vulnClass": "none"}}, {"type": "Feature", "geometry": {"type": "MultiPolygon", "coordinates": [[[[71.82423766063067, 34.48648540999698], [71.82445830700298, 34.48649385357943], [71.82446563896323, 34.486363713441996], [71.82420488381227, 34.48635377584381], [71.82419990466572, 34.48644197565742], [71.8242400104106, 34.48644355975224], [71.82423766063067, 34.48648540999698]]]]}, "properties": {"id": "Pakistan_123102132_157191", "height": 2.580674171447754, "hmax": 0.0, "ratio": 0.0, "vulnClass": "none"}}, {"type": "Feature", "geometry": {"type": "MultiPolygon", "coordinates": [[[[71.8237107203448, 34.48667458825576], [71.82362112941313, 34.48667189671251], [71.82362296253243, 34.48663219621388], [71.82353989283955, 34.486629764418595], [71.8235384622928, 34.48666172404126], [71.82350094923179, 34.48666065783349], [71.82349581350478, 34.48677877732767], [71.82359867125588, 34.48678181415674], [71.82359997877275, 34.48675309608255], [71.82370707408504, 34.48675633320818], [71.8237107203448, 34.48667458825576]]]]}, "properties": {"id": "Pakistan_123102132_342077", "height": 4.261100769042969, "hmax": 0.0, "ratio": 0.0, "vulnClass": "none"}}, {"type": "Feature", "geometry": {"type": "MultiPolygon", "coordinates": [[[[71.82349083288749, 34.48664326953648], [71.82345528868035, 34.486636215703214], [71.82343727519658, 34.4866978479044], [71.82347281942756, 34.48670490174423], [71.82349083288749, 34.48664326953648]]]]}, "properties": {"id": "Pakistan_123102132_434644", "height": 3.320688962936401, "hmax": 0.0, "ratio": 0.0, "vulnClass": "none"}}, {"type": "Feature", "geometry": {"type": "MultiPolygon", "coordinates": [[[[71.82313833727162, 34.48709737532403], [71.82283545846484, 34.48707299901744], [71.82281995776692, 34.487203196770395], [71.82312283361708, 34.48722766318385], [71.82313833727162, 34.48709737532403]]]]}, "properties": {"id": "Pakistan_123102132_243529", "height": 5.758210182189941, "hmax": 0.0, "ratio": 0.0, "vulnClass": "none"}}]}