{"type": "FeatureCollection", "features": [{"type": "Feature", "geometry": {"type": "MultiPolygon", "coordinates": [[[[72.07446577660873, 34.51040188994503], [72.07464243527916, 34.51050978412723], [72.0747373799973, 34.51040416284194], [72.07469750472184, 34.51037986112337], [72.07466600786981, 34.51041489156668], [72.07452933018416, 34.510331391879305], [72.07446577660873, 34.51040188994503]]]]}, "properties": {"id": "Pakistan_123102132_334409", "height": 3.213069915771484, "hmax": 0.0, "ratio": 0.0, "vulnClass": "none"}}, {"type": "Feature", "geometry": {"type": "MultiPolygon", "coordinates": [[[[72.07445046610785, 34.5106590509183], [72.07488836507716, 34.51090679233562], [72.07504717001702, 34.51081532068072], [72.07504989460985, 34.51081214095593], [72.0749060928671, 34.510642748482994], [72.07498905886013, 34.51068971618648], [72.0751139706203, 34.51061771356342], [72.07513067916194, 34.51059765232046], [72.07511948793507, 34.51058449423056], [72.07497159995464, 34.51050081653389], [72.07489625246696, 34.51054426083162], [72.07493500998225, 34.51049777635346], [72.07486570915303, 34.510458617660156], [72.07489060407183, 34.51042865703189], [72.074858810883, 34.51039120843047], [72.07484836322396, 34.510397267806724], [72.07481995061694, 34.510431290532765], [72.07474260062722, 34.51047594869553], [72.07472839586644, 34.51049291501336], [72.07469016547901, 34.510514984308124], [72.07467072929536, 34.51050406234067], [72.07449547568235, 34.51060505459902], [72.07445046610785, 34.5106590509183]]]]}, "properties": {"id": "Pakistan_123102132_580198", "height": 3.763220071792603, "hmax": 0.0, "ratio": 0.0, "vulnClass": "none"}}, {"type": "Feature", "geometry": {"type": "MultiPolygon", "coordinates": [[[[72.07689798938098, 34.51165685057036], [72.07693563045854, 34.51185416563033], [72.07704687683456, 34.51183979337502], [72.07706850768834, 34.511953075689675], [72.07717844226478, 34.51193885218228], [72.07711927846736, 34.51162825746659], [72.07689798938098, 34.51165685057036]]]]}, "properties": {"id": "Pakistan_123102132_235783", "height": 3.065594434738159, "hmax": 0.0, "ratio": 0.0, "vulnClass": "none"}}, {"type": "Feature", "geometry": {"type": "MultiPolygon", "coordinates": [[[[72.07563441159638, 34.511849588155066], [72.07585405328203, 34.51184322231725], [72.07585166609401, 34.511786918197984], [72.07592393384233, 34.511784863637004], [72.07592019976494, 34.51169544612294], [72.07562818199122, 34.511703863925256], [72.07563441159638, 34.511849588155066]]]]}, "properties": {"id": "Pakistan_123102132_118589", "height": 4.479792594909668, "hmax": 0.0, "ratio": 0.0, "vulnClass": "none"}}, {"type": "Feature", "geometry": {"type": "MultiPolygon", "coordinates": [[[[72.07589062210859, 34.51138592025652], [72.07564349291356, 34.51142479890253], [72.07566128032202, 34.51150157305524], [72.07590841288992, 34.51146260432083], [72.07589062210859, 34.51138592025652]]]]}, "properties": {"id": "Pakistan_123102132_29410", "height": 4.15318489074707, "hmax": 0.0, "ratio": 0.0, "vulnClass": "none"}}, {"type": "Feature", "geometry": {"type": "MultiPolygon", "coordinates": [[[[72.07484230382777, 34.51167583855736], [72.07486417166136, 34.51183518803693], [72.07510910966923, 34.51181230330329], [72.07508602051486, 34.51164427121638], [72.07523306875792, 34.51163057826062], [72.07524504410055, 34.51171784963136], [72.07532446718751, 34.511710468383015], [72.07531041277814, 34.511607913659525], [72.07523098978876, 34.51161529490373], [72.07522708266825, 34.51158689754297], [72.07513564115533, 34.51159543296589], [72.07513123244054, 34.51156269689731], [72.07464529355336, 34.511608019522654], [72.07465690867349, 34.51169311895891], [72.07484230382777, 34.51167583855736]]]]}, "properties": {"id": "Pakistan_123102132_306781", "height": 4.116164684295654, "hmax": 0.0, "ratio": 0.0, "vulnClass": "none"}}, {"type": "Feature", "geometry": {"type": "MultiPolygon", "coordinates": [[[[72.07416818839626, 34.51167473467146], [72.07417760327748, 34.51171065550049], [72.07425057854887, 34.51169771204092], [72.0742411636369, 34.51166179121594], [72.07416818839626, 34.51167473467146]]]]}, "properties": {"id": "Pakistan_123102132_546580", "height": 3.373621225357056, "hmax": 0.0, "ratio": 0.0, "vulnClass": "none"}}, {"type": "Feature", "geometry": {"type": "MultiPolygon", "coordinates": [[[[72.07356909738097, 34.511679932793925], [72.07356354769766, 34.511648701697], [72.0735163060561, 34.511654419621856], [72.0735218557218, 34.51168565072001], [72.07356909738097, 34.511679932793925]]]]}, "properties": {"id": "Pakistan_123102132_180517", "height": 2.958829402923584, "hmax": 0.0, "ratio": 0.0, "vulnClass": "none"}}, {"type": "Feature", "geometry": {"type": "MultiPolygon", "coordinates": [[[[72.07446171307346, 34.51131814847662], [72.07447462345004, 34.51138489056001], [72.07461453596858, 34.51136661048696], [72.07462430480804, 34.511417322612076], [72.07513310083978, 34.51135046363324], [72.07511373921385, 34.51125021547648], [72.07501692443941, 34.511262948747714], [72.07500235759258, 34.51118751364252], [72.07452496159885, 34.51125016702809], [72.07452034691298, 34.511226439934084], [72.07348974478202, 34.51136164149102], [72.07350560973805, 34.51144350774984], [72.07446171307346, 34.51131814847662]]]]}, "properties": {"id": "Pakistan_123102132_171176", "height": 2.479987621307373, "hmax": 0.0, "ratio": 0.0, "vulnClass": "none"}}, {"type": "Feature", "geometry": {"type": "MultiPolygon", "coordinates": [[[[72.07418412176418, 34.51309003250319], [72.07412788627303, 34.51308823377275], [72.07412564394598, 34.51313676507454], [72.07418187946958, 34.51313856380767], [72.07418412176418, 34.51309003250319]]]]}, "properties": {"id": "Pakistan_123102132_488432", "height": 2.513318300247192, "hmax": 0.0, "ratio": 0.0, "vulnClass": "none"}}, {"type": "Feature", "geometry": {"type": "MultiPolygon", "coordinates": [[[[72.0741205693809, 34.51317909901415], [72.07411423319724, 34.512968021289545], [72.07406203462826, 34.51296911361867], [72.07406712986064, 34.5131347314154], [72.0739733021842, 34.51313671868851], [72.07396966866476, 34.513016475973345], [72.07390919158193, 34.51301764019484], [72.0739106152623, 34.51306409603404], [72.07384621178052, 34.51306543651243], [72.07384285775868, 34.51295277219417], [72.07375044788417, 34.51295470315169], [72.07375757845335, 34.513186622079175], [72.0741205693809, 34.51317909901415]]]]}, "properties": {"id": "Pakistan_123102132_69362", "height": 2.894491910934448, "hmax": 0.0, "ratio": 0.0, "vulnClass": "none"}}, {"type": "Feature", "geometry": {"type": "MultiPolygon", "coordinates": [[[[72.07355686558049, 34.51302226347906], [72.07369908957138, 34.513006473720246], [72.07369200676028, 34.51296303707712], [72.07344964658422, 34.51298994678998], [72.07351915049281, 34.51341544791379], [72.07361928726091, 34.51340432792432], [72.07355686558049, 34.51302226347906]]]]}, "properties": {"id": "Pakistan_123102132_285118", "height": 3.156126976013184, "hmax": 0.0, "ratio": 0.0, "vulnClass": "none"}}, {"type": "Feature", "geometry": {"type": "MultiPolygon", "coordinates": [[[[72.07402164188319, 34.51281328609443], [72.07411963071303, 34.512966257751984], [72.0742958857286, 34.51288971795009], [72.07419789664496, 34.51273674642068], [72.07402164188319, 34.51281328609443]]]]}, "properties": {"id": "Pakistan_123102132_124785", "height": 2.54600977897644, "hmax": 0.0, "ratio": 0.0, "vulnClass": "none"}}, {"type": "Feature", "geometry": {"type": "MultiPolygon", "coordinates": [[[[72.07381824319077, 34.51262299358037], [72.07389738559414, 34.51274504651613], [72.07395577872543, 34.5127194046016], [72.07387663940655, 34.51259726163649], [72.07381824319077, 34.51262299358037]]]]}, "properties": {"id": "Pakistan_123102132_130980", "height": 3.378168821334839, "hmax": 0.0, "ratio": 0.0, "vulnClass": "none"}}, {"type": "Feature", "geometry": {"type": "MultiPolygon", "coordinates": [[[[72.07405212761267, 34.51267646440964], [72.07402747771047, 34.51260601558316], [72.07392590896757, 34.51263008165933], [72.07393797919718, 34.51266480421], [72.07393666096185, 34.51266513316506], [72.07394912859866, 34.512700946912666], [72.07405212761267, 34.51267646440964]]]]}, "properties": {"id": "Pakistan_123102132_322050", "height": 3.11474609375, "hmax": 0.0, "ratio": 0.0, "vulnClass": "none"}}, {"type": "Feature", "geometry": {"type": "MultiPolygon", "coordinates": [[[[72.07465988390774, 34.51253581218511], [72.07460357157755, 34.51241169285711], [72.07427520199752, 34.51251289076917], [72.07426812143387, 34.51249739737364], [72.07422342778874, 34.51251119903029], [72.07424718788478, 34.51256350850225], [72.07418961622159, 34.5125812379993], [72.07416585615822, 34.51252892851781], [72.07406348200836, 34.51256045696398], [72.07406782337388, 34.51257020593417], [72.07401839758776, 34.512585426442676], [72.07407733949209, 34.51271528782682], [72.07465988390774, 34.51253581218511]]]]}, "properties": {"id": "Pakistan_123102132_11012", "height": 2.839753866195679, "hmax": 0.0, "ratio": 0.0, "vulnClass": "none"}}, {"type": "Feature", "geometry": {"type": "MultiPolygon", "coordinates": [[[[72.07430213771653, 34.51246819637058], [72.0742281214568, 34.51230543347714], [72.07398351463904, 34.512381055792375], [72.07405763926984, 34.51254382141991], [72.07430213771653, 34.51246819637058]]]]}, "properties": {"id": "Pakistan_123102132_183612", "height": 3.092982530593872, "hmax": 0.0, "ratio": 0.0, "vulnClass": "none"}}, {"type": "Feature", "geometry": {"type": "MultiPolygon", "coordinates": [[[[72.07416922359593, 34.51226769553761], [72.07387141017945, 34.51231409904173], [72.07388417004235, 34.51236957015695], [72.07418198365404, 34.5123231666317], [72.07416922359593, 34.51226769553761]]]]}, "properties": {"id": "Pakistan_123102132_38512", "height": 3.275277614593506, "hmax": 0.0, "ratio": 0.0, "vulnClass": "none"}}, {"type": "Feature", "geometry": {"type": "MultiPolygon", "coordinates": [[[[72.07385656300555, 34.512816269392076], [72.07379164302611, 34.51266742548967], [72.07380352605517, 34.51266392452577], [72.07376934884316, 34.512585675548536], [72.07371950354843, 34.51260043518035], [72.07366909812447, 34.51248493016159], [72.07355620321118, 34.51251836928311], [72.07362867465095, 34.51268479122181], [72.07361448154715, 34.51268895789694], [72.0736708336627, 34.512818126395004], [72.07372441935767, 34.51280228465211], [72.07374488028424, 34.512849287041675], [72.07385656300555, 34.512816269392076]]]]}, "properties": {"id": "Pakistan_123102132_509978", "height": 2.90891170501709, "hmax": 0.0, "ratio": 0.0, "vulnClass": "none"}}, {"type": "Feature", "geometry": {"type": "MultiPolygon", "coordinates": [[[[72.07372425959818, 34.51249562712874], [72.07379603171643, 34.5126229117798], [72.07385651575807, 34.51259975379816], [72.07378485236467, 34.51247247178705], [72.07372425959818, 34.51249562712874]]]]}, "properties": {"id": "Pakistan_123102132_396044", "height": 3.260061979293823, "hmax": 0.0, "ratio": 0.0, "vulnClass": "none"}}, {"type": "Feature", "geometry": {"type": "MultiPolygon", "coordinates": [[[[72.07356234930738, 34.511829221872325], [72.0736795485715, 34.51181589682597], [72.07366530115465, 34.51173136518986], [72.07348502108445, 34.51175183116411], [72.07349340320306, 34.51180169885876], [72.07335794270622, 34.51181719990842], [72.07336829923251, 34.5118791034692], [72.07346571096556, 34.511868008355314], [72.0734705714921, 34.51189714972919], [72.07351528562702, 34.51189209234018], [72.07353204992422, 34.511991827726185], [72.07358857141456, 34.511985430897866], [72.07356234930738, 34.511829221872325]]]]}, "properties": {"id": "Pakistan_123102132_322044", "height": 3.281771659851074, "hmax": 0.0, "ratio": 0.0, "vulnClass": "none"}}, {"type": "Feature", "geometry": {"type": "MultiPolygon", "coordinates": [[[[72.07386594795729, 34.51177926206115], [72.0736547542696, 34.51180872222145], [72.07366507916517, 34.51185908718104], [72.07375371574219, 34.511846699780435], [72.0737747504592, 34.51194888114112], [72.07389730784483, 34.511931808356515], [72.07386594795729, 34.51177926206115]]]]}, "properties": {"id": "Pakistan_123102132_44742", "height": 2.788266181945801, "hmax": 0.0, "ratio": 0.0, "vulnClass": "none"}}, {"type": "Feature", "geometry": {"type": "MultiPolygon", "coordinates": [[[[72.0734523171295, 34.51217920842567], [72.07351580506871, 34.51216666892053], [72.07347206929714, 34.51201616943791], [72.07331340724804, 34.512047429335134], [72.07345023765168, 34.51251871306473], [72.07352008366145, 34.51250497392257], [72.07346586401007, 34.51231798710199], [72.07349119268812, 34.51231300576366], [72.0734523171295, 34.51217920842567]]]]}, "properties": {"id": "Pakistan_123102132_325085", "height": 2.466660499572754, "hmax": 0.0, "ratio": 0.0, "vulnClass": "none"}}, {"type": "Feature", "geometry": {"type": "MultiPolygon", "coordinates": [[[[72.0736728057486, 34.512151774275225], [72.073600369376, 34.512167975307726], [72.07367302659571, 34.51238821480253], [72.07374546315154, 34.51237201373635], [72.0736728057486, 34.512151774275225]]]]}, "properties": {"id": "Pakistan_123102132_411394", "height": 3.485820531845093, "hmax": 0.0, "ratio": 0.0, "vulnClass": "none"}}, {"type": "Feature", "geometry": {"type": "MultiPolygon", "coordinates": [[[[72.07369024854859, 34.5121449813239], [72.0736989363092, 34.51217989321955], [72.07380442474604, 34.51216205075746], [72.073795845744, 34.51212714147548], [72.07369024854859, 34.5121449813239]]]]}, "properties": {"id": "Pakistan_123102132_306764", "height": 2.695311069488525, "hmax": 0.0, "ratio": 0.0, "vulnClass": "none"}}, {"type": "Feature", "geometry": {"type": "MultiPolygon", "coordinates": [[[[72.07363651829854, 34.51198757197265], [72.07354317803532, 34.5120067872297], [72.0735683622607, 34.51208995858748], [72.07351538239074, 34.51210094728094], [72.07353686387461, 34.51217168079074], [72.07368329301957, 34.512141479414545], [72.07363651829854, 34.51198757197265]]]]}, "properties": {"id": "Pakistan_123102132_158669", "height": 2.565820455551147, "hmax": 0.0, "ratio": 0.0, "vulnClass": "none"}}, {"type": "Feature", "geometry": {"type": "MultiPolygon", "coordinates": [[[[72.0741398571387, 34.51223868786828], [72.07409221010472, 34.51205366162547], [72.07411784617481, 34.51204922835762], [72.07408113754448, 34.511906379071284], [72.07399644467303, 34.5119212048697], [72.07403228737478, 34.51206078840647], [72.07394507614156, 34.512076004490694], [72.07396578563426, 34.5121563643279], [72.07401848487413, 34.512147171495634], [72.07404629109853, 34.512255013637905], [72.0741398571387, 34.51223868786828]]]]}, "properties": {"id": "Pakistan_123102132_583273", "height": 2.984153747558594, "hmax": 0.0, "ratio": 0.0, "vulnClass": "none"}}, {"type": "Feature", "geometry": {"type": "MultiPolygon", "coordinates": [[[[72.07389289778233, 34.512101434844475], [72.07388401588054, 34.511956908976714], [72.07378892339254, 34.51196084888536], [72.07379791393113, 34.51210537736002], [72.07389289778233, 34.512101434844475]]]]}, "properties": {"id": "Pakistan_123102132_491548", "height": 3.357603788375854, "hmax": 0.0, "ratio": 0.0, "vulnClass": "none"}}, {"type": "Feature", "geometry": {"type": "MultiPolygon", "coordinates": [[[[72.07396253600263, 34.51175435549202], [72.07400646644292, 34.51190242572992], [72.07405712979453, 34.51189228267914], [72.0740552799682, 34.51188601872695], [72.07437539857769, 34.51182140039532], [72.07436175733663, 34.5117755530972], [72.07420745751075, 34.51180664832266], [72.07419936587013, 34.5117795928622], [72.0740689737668, 34.511805852631795], [72.07404851374442, 34.51173703661378], [72.07396253600263, 34.51175435549202]]]]}, "properties": {"id": "Pakistan_123102132_371170", "height": 3.696786403656006, "hmax": 0.0, "ratio": 0.0, "vulnClass": "none"}}, {"type": "Feature", "geometry": {"type": "MultiPolygon", "coordinates": [[[[72.0749401800917, 34.512028194975635], [72.07494468251099, 34.51185586642586], [72.07464704388079, 34.51185062626506], [72.0746433281502, 34.51199421921378], [72.07477337466929, 34.51199652470129], [72.07477269621512, 34.51202526287092], [72.0749401800917, 34.512028194975635]]]]}, "properties": {"id": "Pakistan_123102132_87623", "height": 3.173243284225464, "hmax": 0.0, "ratio": 0.0, "vulnClass": "none"}}, {"type": "Feature", "geometry": {"type": "MultiPolygon", "coordinates": [[[[72.07492653720278, 34.51217542603239], [72.07512008726475, 34.51215852094354], [72.07510795083859, 34.512063403589025], [72.07504164978323, 34.5120692062137], [72.07503993045806, 34.512056094816195], [72.07477199986431, 34.51207941988744], [72.0747941661713, 34.512252026997636], [72.07493473948814, 34.51223980176377], [72.07492653720278, 34.51217542603239]]]]}, "properties": {"id": "Pakistan_123102132_195897", "height": 4.27521800994873, "hmax": 0.092, "ratio": 0.021, "vulnClass": "none"}}, {"type": "Feature", "geometry": {"type": "MultiPolygon", "coordinates": [[[[72.07549918655216, 34.51232237389105], [72.07548909548562, 34.512240375768705], [72.07554479561216, 34.51223567099951], [72.07552550790726, 34.5120803495605], [72.07544730964027, 34.512086949024166], [72.07544018898548, 34.512028999122236], [72.07523967277939, 34.51204582794678], [72.07525104917254, 34.51213777220532], [72.07520059365075, 34.512141971539684], [72.07520152590818, 34.51214956557895], [72.07510596189437, 34.51215764162036], [72.07511225887275, 34.51220800009728], [72.07511225887275, 34.51220800009728], [72.07513025709741, 34.51235346549783], [72.07549918655216, 34.51232237389105]]]]}, "properties": {"id": "Pakistan_123102132_574079", "height": 2.962181329727173, "hmax": 0.092, "ratio": 0.031, "vulnClass": "none"}}, {"type": "Feature", "geometry": {"type": "MultiPolygon", "coordinates": [[[[72.07422071053603, 34.512031683182414], [72.0742831028666, 34.512262132457245], [72.07447982981364, 34.51222601474216], [72.07443855835774, 34.51207350142267], [72.07433751210378, 34.51209199175336], [72.07431649959261, 34.51201405846649], [72.07422071053603, 34.512031683182414]]]]}, "properties": {"id": "Pakistan_123102132_380414", "height": 3.562289237976074, "hmax": 0.0, "ratio": 0.0, "vulnClass": "none"}}, {"type": "Feature", "geometry": {"type": "MultiPolygon", "coordinates": [[[[72.07422706502182, 34.512730955579684], [72.07427986039987, 34.51284976268932], [72.07458152301723, 34.51275874141598], [72.07457032170039, 34.51273341423124], [72.07492271809771, 34.512627112565326], [72.07490626214786, 34.51259012165537], [72.07482218249632, 34.51261541886371], [72.07479704368701, 34.5125589300458], [72.07422706502182, 34.512730955579684]]]]}, "properties": {"id": "Pakistan_123102132_561735", "height": 2.947187900543213, "hmax": 0.0, "ratio": 0.0, "vulnClass": "none"}}, {"type": "Feature", "geometry": {"type": "MultiPolygon", "coordinates": [[[[72.074738853325, 34.51275935727603], [72.07474604500626, 34.51283082979481], [72.07477541064179, 34.512828739259916], [72.07479041079404, 34.512975845481506], [72.07496615708637, 34.51296365194176], [72.07497378588586, 34.513038199661594], [72.0748352610296, 34.513047859957446], [72.0748314482658, 34.51301054106455], [72.0744544135917, 34.513036658904376], [72.07446293002133, 34.51312006156598], [72.07502760896668, 34.513080953558855], [72.07501610256688, 34.51296782344836], [72.07513737654773, 34.51295946220483], [72.07513235052032, 34.512910125719955], [72.07500714710218, 34.51291875335179], [72.07500269063064, 34.5128749290081], [72.07527973658622, 34.512855697909245], [72.07527242934351, 34.51278440291939], [72.07512452267278, 34.51279455986396], [72.07511493132465, 34.512701396427836], [72.07520433371654, 34.51269515581302], [72.07519784684928, 34.51263154231663], [72.07495278792057, 34.512648475072844], [72.07496091202123, 34.512727541628635], [72.07478778694511, 34.51273952757659], [72.07478939283295, 34.51275588127095], [72.074738853325, 34.51275935727603]]]]}, "properties": {"id": "Pakistan_123102132_399184", "height": 3.758547782897949, "hmax": 0.0, "ratio": 0.0, "vulnClass": "none"}}, {"type": "Feature", "geometry": {"type": "MultiPolygon", "coordinates": [[[[72.07480643152697, 34.51242439681996], [72.07481551139385, 34.51247301921467], [72.07486790181542, 34.51246643265582], [72.07485882191818, 34.51241781026345], [72.07480643152697, 34.51242439681996]]]]}, "properties": {"id": "Pakistan_123102132_460753", "height": 2.447408676147461, "hmax": 0.0, "ratio": 0.0, "vulnClass": "none"}}, {"type": "Feature", "geometry": {"type": "MultiPolygon", "coordinates": [[[[72.07512755162709, 34.51236232445565], [72.07510641389278, 34.51221633312599], [72.07505494760365, 34.512221409570124], [72.07506230737712, 34.512272514631185], [72.0747688078175, 34.51230144656053], [72.07478258535494, 34.51239633284954], [72.07512755162709, 34.51236232445565]]]]}, "properties": {"id": "Pakistan_123102132_288199", "height": 2.964860200881958, "hmax": 0.092, "ratio": 0.031, "vulnClass": "none"}}, {"type": "Feature", "geometry": {"type": "MultiPolygon", "coordinates": [[[[72.07561810014562, 34.512555889459236], [72.07538307910315, 34.51259406604224], [72.07543411764892, 34.51280675573742], [72.07561482032573, 34.51277737326274], [72.0755755722676, 34.51261364134319], [72.07562978546426, 34.51260475450827], [72.07561810014562, 34.512555889459236]]]]}, "properties": {"id": "Pakistan_123102132_208310", "height": 4.062744140625, "hmax": 0.0, "ratio": 0.0, "vulnClass": "none"}}, {"type": "Feature", "geometry": {"type": "MultiPolygon", "coordinates": [[[[72.07666911883433, 34.512637583713754], [72.07665742409239, 34.51252354779024], [72.07645231642525, 34.51253774471705], [72.07645459786754, 34.51255970321731], [72.07600715146758, 34.512590899847424], [72.0759959624588, 34.51248111254681], [72.07592664611218, 34.51248594201875], [72.07593045936109, 34.5125232609038], [72.07592249157906, 34.51252379113787], [72.0759425580339, 34.51271915303489], [72.07604101940552, 34.512712317571385], [72.07603656554066, 34.512668403173336], [72.07637212110926, 34.51264507268736], [72.07637351424161, 34.51265817625778], [72.07666911883433, 34.512637583713754]]]]}, "properties": {"id": "Pakistan_123102132_343585", "height": 2.939690113067627, "hmax": 0.0, "ratio": 0.0, "vulnClass": "none"}}, {"type": "Feature", "geometry": {"type": "MultiPolygon", "coordinates": [[[[72.07678599859773, 34.51198227572045], [72.07680163070044, 34.51214255727775], [72.07702941545118, 34.51212755070208], [72.07701979953754, 34.512028798126146], [72.07691993401312, 34.51203533036068], [72.07691776125407, 34.512013374467614], [72.07697233225608, 34.51200981380976], [72.07696848843548, 34.51197024072752], [72.07678599859773, 34.51198227572045]]]]}, "properties": {"id": "Pakistan_123102132_134085", "height": 2.491352796554565, "hmax": 0.0, "ratio": 0.0, "vulnClass": "none"}}, {"type": "Feature", "geometry": {"type": "MultiPolygon", "coordinates": [[[[72.07702629768742, 34.512356970798464], [72.0771978630955, 34.51235531031311], [72.07719723380683, 34.51230788194942], [72.0771314415812, 34.51230846981347], [72.07712926433072, 34.512152656891594], [72.0770234945909, 34.512153639461154], [72.07702629768742, 34.512356970798464]]]]}, "properties": {"id": "Pakistan_123102132_41677", "height": 2.491575241088867, "hmax": 0.0, "ratio": 0.0, "vulnClass": "none"}}, {"type": "Feature", "geometry": {"type": "MultiPolygon", "coordinates": [[[[72.07705655478556, 34.51194611914184], [72.0770545008513, 34.511886487849765], [72.0770276915178, 34.511887107792774], [72.07702634875099, 34.511850749481646], [72.07694057690456, 34.5118528418584], [72.07694397348763, 34.511948831458454], [72.07705655478556, 34.51194611914184]]]]}, "properties": {"id": "Pakistan_123102132_223474", "height": 3.426997900009155, "hmax": 0.0, "ratio": 0.0, "vulnClass": "none"}}, {"type": "Feature", "geometry": {"type": "MultiPolygon", "coordinates": [[[[72.07682350063457, 34.512641551550125], [72.07682794272397, 34.51269204581957], [72.07690945459962, 34.51268723748506], [72.07690501560859, 34.512636653152136], [72.07682350063457, 34.512641551550125]]]]}, "properties": {"id": "Pakistan_123102132_152556", "height": 2.97956371307373, "hmax": 0.0, "ratio": 0.0, "vulnClass": "none"}}, {"type": "Feature", "geometry": {"type": "MultiPolygon", "coordinates": [[[[72.07706460901298, 34.51285293348815], [72.07703652526794, 34.51275914702362], [72.07665989560228, 34.512836029881896], [72.07660078297535, 34.512639282173865], [72.0764805780026, 34.51266380543509], [72.07649531032393, 34.51271274339622], [72.07655486568946, 34.51270055880938], [72.07657300949322, 34.51276093602652], [72.07654262865272, 34.51276714908992], [72.0765726738222, 34.51286711210599], [72.07644380379843, 34.512893410846274], [72.07646829564912, 34.512974672170074], [72.07706460901298, 34.51285293348815]]]]}, "properties": {"id": "Pakistan_123102132_558706", "height": 3.813998460769653, "hmax": 0.0, "ratio": 0.0, "vulnClass": "none"}}, {"type": "Feature", "geometry": {"type": "MultiPolygon", "coordinates": [[[[72.07655115102963, 34.51270714014766], [72.07651562498798, 34.51271413136286], [72.07653176270937, 34.51276959301288], [72.07656728877393, 34.512762601794165], [72.07655115102963, 34.51270714014766]]]]}, "properties": {"id": "Pakistan_123102132_420716", "height": 3.615180969238281, "hmax": 0.0, "ratio": 0.0, "vulnClass": "none"}}, {"type": "Feature", "geometry": {"type": "MultiPolygon", "coordinates": [[[[72.0765442033045, 34.51306789157099], [72.07651970405186, 34.51299618485097], [72.076428802653, 34.51301726350738], [72.07642109679175, 34.51299472438223], [72.07629583138929, 34.513023813478284], [72.07630698955428, 34.51305662104752], [72.07620006106711, 34.513081371891396], [72.07622634220098, 34.51315816915316], [72.07633821101605, 34.513132274675975], [72.07635845978015, 34.51319162066937], [72.07656836535521, 34.513143015504134], [72.07655778748796, 34.51311229505945], [72.07674068788214, 34.51306989335861], [72.07672556776612, 34.51302581365944], [72.0765442033045, 34.51306789157099]]]]}, "properties": {"id": "Pakistan_123102132_72457", "height": 3.652895927429199, "hmax": 0.0, "ratio": 0.0, "vulnClass": "none"}}, {"type": "Feature", "geometry": {"type": "MultiPolygon", "coordinates": [[[[72.07717043091779, 34.5130717118567], [72.07714875107835, 34.51298474907689], [72.07696231184926, 34.513016249933735], [72.07693834833343, 34.51291985794193], [72.07688281364771, 34.512929164406096], [72.0769039127773, 34.51301404011429], [72.07689361600919, 34.51301577658528], [72.07690545185281, 34.513063473324486], [72.07676129697997, 34.513087783834386], [72.07677400180539, 34.5131386562725], [72.07717043091779, 34.5130717118567]]]]}, "properties": {"id": "Pakistan_123102132_78507", "height": 3.662878036499023, "hmax": 0.0, "ratio": 0.0, "vulnClass": "none"}}, {"type": "Feature", "geometry": {"type": "MultiPolygon", "coordinates": [[[[72.07641570618081, 34.513192541193405], [72.07619230981473, 34.51323144843634], [72.07622518359182, 34.513359512607586], [72.07625082313635, 34.51335498884284], [72.07627805216016, 34.51346074351718], [72.07652445849016, 34.51341779016301], [72.07650193717355, 34.5133299958785], [72.07658520413464, 34.51331549477054], [72.07656594134099, 34.51324039804594], [72.07643391681583, 34.51326346632807], [72.07641570618081, 34.513192541193405]]]]}, "properties": {"id": "Pakistan_123102132_543558", "height": 4.317030429840088, "hmax": 0.0, "ratio": 0.0, "vulnClass": "none"}}, {"type": "Feature", "geometry": {"type": "MultiPolygon", "coordinates": [[[[72.07612892540178, 34.51384215619579], [72.07610032728972, 34.51364163229642], [72.07606590915591, 34.51364495419718], [72.07604814843957, 34.51352067733124], [72.07573335228153, 34.51355126463633], [72.07575793019001, 34.51372347868581], [72.07586905638863, 34.513712620135365], [72.07587282174352, 34.51373885073744], [72.07570083963536, 34.5137554624158], [72.07571895949127, 34.51388191126369], [72.07612892540178, 34.51384215619579]]]]}, "properties": {"id": "Pakistan_123102132_127883", "height": 4.007460117340088, "hmax": 0.0, "ratio": 0.0, "vulnClass": "none"}}, {"type": "Feature", "geometry": {"type": "MultiPolygon", "coordinates": [[[[72.07619898355007, 34.51315580114687], [72.07619580829726, 34.51310957376069], [72.07619199073211, 34.51310975273068], [72.07618924160171, 34.513070025581825], [72.07609423772949, 34.513074510218324], [72.07609681329004, 34.513112971259936], [72.07613956813152, 34.513111020861054], [72.07614281122359, 34.513158421683926], [72.07619898355007, 34.51315580114687]]]]}, "properties": {"id": "Pakistan_123102132_322068", "height": 4.000494956970215, "hmax": 0.0, "ratio": 0.0, "vulnClass": "none"}}, {"type": "Feature", "geometry": {"type": "MultiPolygon", "coordinates": [[[[72.07604341827059, 34.51274960257103], [72.07603242712712, 34.5127120215982], [72.07593614563045, 34.512731258361434], [72.0759472455348, 34.51276884194729], [72.07604341827059, 34.51274960257103]]]]}, "properties": {"id": "Pakistan_123102132_592398", "height": 2.460123538970947, "hmax": 0.0, "ratio": 0.0, "vulnClass": "none"}}, {"type": "Feature", "geometry": {"type": "MultiPolygon", "coordinates": [[[[72.07585963861877, 34.51303517799804], [72.07581998050699, 34.512911187752806], [72.07574470545835, 34.512927592463534], [72.07578436346259, 34.51305158272768], [72.07585963861877, 34.51303517799804]]]]}, "properties": {"id": "Pakistan_123102132_506964", "height": 2.960470199584961, "hmax": 0.0, "ratio": 0.0, "vulnClass": "none"}}, {"type": "Feature", "geometry": {"type": "MultiPolygon", "coordinates": [[[[72.07550125363866, 34.51280511932688], [72.0753326632117, 34.512811986619525], [72.07534182706335, 34.51296409089196], [72.07551030584584, 34.51295731105924], [72.07550125363866, 34.51280511932688]]]]}, "properties": {"id": "Pakistan_123102132_223461", "height": 2.964385986328125, "hmax": 0.0, "ratio": 0.0, "vulnClass": "none"}}, {"type": "Feature", "geometry": {"type": "MultiPolygon", "coordinates": [[[[72.07503316620502, 34.513090190799375], [72.07512961774208, 34.51308790502638], [72.07512797721579, 34.51303828911238], [72.07503142008281, 34.513040482215864], [72.07503316620502, 34.513090190799375]]]]}, "properties": {"id": "Pakistan_123102132_522166", "height": 2.619589805603027, "hmax": 0.0, "ratio": 0.0, "vulnClass": "none"}}, {"type": "Feature", "geometry": {"type": "MultiPolygon", "coordinates": [[[[72.07513037240047, 34.51300093870911], [72.07513358703989, 34.51309584226054], [72.075498138791, 34.51308727080457], [72.07549481493324, 34.51299236463468], [72.07513037240047, 34.51300093870911]]]]}, "properties": {"id": "Pakistan_123102132_346670", "height": 3.061300277709961, "hmax": 0.0, "ratio": 0.0, "vulnClass": "none"}}, {"type": "Feature", "geometry": {"type": "MultiPolygon", "coordinates": [[[[72.07478492675264, 34.51294272307919], [72.07478207724184, 34.51289965835722], [72.07473932251244, 34.512901608284075], [72.07474206634826, 34.51294458033454], [72.07478492675264, 34.51294272307919]]]]}, "properties": {"id": "Pakistan_123102132_99898", "height": 3.749867677688599, "hmax": 0.0, "ratio": 0.0, "vulnClass": "none"}}, {"type": "Feature", "geometry": {"type": "MultiPolygon", "coordinates": [[[[72.07482150304445, 34.51388330147908], [72.07570901482651, 34.51389537417354], [72.07570994291976, 34.51385014648907], [72.07558814680014, 34.51384849029856], [72.07559033806183, 34.5137391137133], [72.07549923748459, 34.51373783233227], [72.07549749903609, 34.51382180048593], [72.0753404378025, 34.51381965963253], [72.07534254606199, 34.51371577956693], [72.0752701629831, 34.51371485637752], [72.07526846983826, 34.51379440878325], [72.07523897444936, 34.51379397241927], [72.07523775201714, 34.51385695047675], [72.0751481714465, 34.51385579539227], [72.07514910614066, 34.51381038759964], [72.07517968957545, 34.513810850058455], [72.07518119525727, 34.513733546645966], [72.07523213448528, 34.51373422645777], [72.07523290390486, 34.5136966568188], [72.07508280954798, 34.51369459244439], [72.0750798859345, 34.51384045785606], [72.0750288378435, 34.51383977537003], [72.07503187494409, 34.51369066766801], [72.07482539808326, 34.513687882774725], [72.07482150304445, 34.51388330147908]]]]}, "properties": {"id": "Pakistan_123102132_457694", "height": 3.248239040374756, "hmax": 0.09, "ratio": 0.028, "vulnClass": "none"}}, {"type": "Feature", "geometry": {"type": "MultiPolygon", "coordinates": [[[[72.07660494768642, 34.51508396000191], [72.07647347085562, 34.51508504737491], [72.07647307615012, 34.515049613178554], [72.07639900308988, 34.5150502726566], [72.07640053104774, 34.51518723083802], [72.0766060749234, 34.515185664126896], [72.07660494768642, 34.51508396000191]]]]}, "properties": {"id": "Pakistan_123102132_355953", "height": 3.504670143127441, "hmax": 0.0, "ratio": 0.0, "vulnClass": "none"}}, {"type": "Feature", "geometry": {"type": "MultiPolygon", "coordinates": [[[[72.07645609814496, 34.51500260449159], [72.07645791609384, 34.51505339645864], [72.07656516062717, 34.515050827296456], [72.0765633426129, 34.51500003532769], [72.07645609814496, 34.51500260449159]]]]}, "properties": {"id": "Pakistan_123102132_137158", "height": 4.703490734100342, "hmax": 0.0, "ratio": 0.0, "vulnClass": "none"}}, {"type": "Feature", "geometry": {"type": "MultiPolygon", "coordinates": [[[[72.07716823252763, 34.515178575751094], [72.0772218676862, 34.51518004042858], [72.07722431884478, 34.515119255089196], [72.07717068372503, 34.51511779041474], [72.07716823252763, 34.515178575751094]]]]}, "properties": {"id": "Pakistan_123102132_242043", "height": 3.420581817626953, "hmax": 0.0, "ratio": 0.0, "vulnClass": "none"}}, {"type": "Feature", "geometry": {"type": "MultiPolygon", "coordinates": [[[[72.07599213049448, 34.51486123894742], [72.07641597063288, 34.514860845737104], [72.076415832617, 34.51473708118054], [72.07649892366679, 34.51473699824598], [72.07649882211597, 34.51469940772662], [72.0759918917838, 34.51469988391406], [72.07599213049448, 34.51486123894742]]]]}, "properties": {"id": "Pakistan_123102132_198997", "height": 4.586842060089111, "hmax": 0.0, "ratio": 0.0, "vulnClass": "none"}}, {"type": "Feature", "geometry": {"type": "MultiPolygon", "coordinates": [[[[72.07580282156884, 34.5148625626307], [72.07580029751809, 34.514716746949006], [72.0757118372639, 34.51471778243794], [72.07571436116002, 34.51486359811361], [72.07580282156884, 34.5148625626307]]]]}, "properties": {"id": "Pakistan_123102132_130998", "height": 4.418429374694824, "hmax": 0.0, "ratio": 0.0, "vulnClass": "none"}}, {"type": "Feature", "geometry": {"type": "MultiPolygon", "coordinates": [[[[72.07596932571722, 34.514865650277834], [72.07596858145901, 34.51480596024392], [72.07589080609463, 34.5148066208619], [72.0758915534464, 34.51486622082963], [72.07596932571722, 34.514865650277834]]]]}, "properties": {"id": "Pakistan_123102132_60234", "height": 2.446471691131592, "hmax": 0.0, "ratio": 0.0, "vulnClass": "none"}}, {"type": "Feature", "geometry": {"type": "MultiPolygon", "coordinates": [[[[72.07572561105407, 34.51503080558189], [72.07571605918326, 34.51488977918569], [72.07555735954963, 34.51489706392721], [72.07555154464177, 34.51481111201657], [72.07561404140178, 34.51480828275854], [72.07560791231748, 34.51471574315386], [72.07539391637766, 34.51472548863713], [72.07539529390073, 34.51474526214383], [72.07534981178631, 34.51474732718576], [72.07535925423268, 34.51488835097411], [72.07527636036272, 34.51489213356127], [72.07526593339996, 34.51473567236499], [72.07520070711051, 34.51473870645505], [72.07521057219563, 34.514886320541954], [72.07522126349555, 34.5148857654854], [72.07523250294942, 34.51505324314003], [72.07572561105407, 34.51503080558189]]]]}, "properties": {"id": "Pakistan_123102132_174244", "height": 3.363277196884155, "hmax": 0.0, "ratio": 0.0, "vulnClass": "none"}}, {"type": "Feature", "geometry": {"type": "MultiPolygon", "coordinates": [[[[72.07469319790943, 34.51502968213685], [72.074792423922, 34.5150290856953], [72.0747920847048, 34.5149827459936], [72.07469286189774, 34.51498325237394], [72.07469319790943, 34.51502968213685]]]]}, "properties": {"id": "Pakistan_123102132_161772", "height": 3.270681381225586, "hmax": 0.0, "ratio": 0.0, "vulnClass": "none"}}, {"type": "Feature", "geometry": {"type": "MultiPolygon", "coordinates": [[[[72.0742492817725, 34.51532686725475], [72.07407351730737, 34.51532076092249], [72.07406961672842, 34.51539800686607], [72.07414085956732, 34.51540043584077], [72.07413317824593, 34.51555150531526], [72.07423759456584, 34.51555509003078], [72.0742492817725, 34.51532686725475]]]]}, "properties": {"id": "Pakistan_123102132_309854", "height": 2.600707769393921, "hmax": 0.0, "ratio": 0.0, "vulnClass": "none"}}, {"type": "Feature", "geometry": {"type": "MultiPolygon", "coordinates": [[[[72.07685822557421, 34.515688821564694], [72.07653237299239, 34.515683450758615], [72.07649778084622, 34.51569172625131], [72.07539103865538, 34.51567341427934], [72.07539091437711, 34.515680081606234], [72.07536446805692, 34.51567962817715], [72.0753262537023, 34.51568871793047], [72.0753274721544, 34.515641424019734], [72.07522560081998, 34.51563979414545], [72.0752246343085, 34.515679882950955], [72.07520025558146, 34.51568569864075], [72.07519929220567, 34.515725697381406], [72.07518732202348, 34.51572856540691], [72.07492611664405, 34.51572428876646], [72.07490828301901, 34.51567374395116], [72.074871386909, 34.51568250459635], [72.07482219371512, 34.51568168617], [72.07482075783093, 34.51574141407145], [72.0747027830271, 34.51573939780981], [72.07470119582705, 34.51580344876363], [72.07690869926203, 34.51583993204522], [72.07687026944498, 34.51573057409009], [72.07687040934674, 34.51572345643625], [72.07685822557421, 34.515688821564694]]]]}, "properties": {"id": "Pakistan_123102132_60240", "height": 2.92571234703064, "hmax": 0.0, "ratio": 0.0, "vulnClass": "none"}}, {"type": "Feature", "geometry": {"type": "MultiPolygon", "coordinates": [[[[72.07540919236179, 34.51631888576138], [72.07540024244524, 34.516120184676886], [72.07535914336833, 34.516121453335614], [72.07536069980392, 34.51615790688795], [72.07531523896755, 34.516159341431084], [72.07531180430503, 34.51608318160229], [72.07513770848314, 34.51608847429228], [72.07514277033194, 34.516202171040476], [72.07509458614047, 34.51620363037685], [72.07510013721316, 34.516328245695824], [72.07540919236179, 34.51631888576138]]]]}, "properties": {"id": "Pakistan_123102132_509987", "height": 2.492419242858887, "hmax": 0.0, "ratio": 0.0, "vulnClass": "none"}}, {"type": "Feature", "geometry": {"type": "MultiPolygon", "coordinates": [[[[72.07541290187703, 34.516296890532765], [72.0754140863156, 34.51637200490797], [72.07578579450458, 34.51636784100353], [72.07578670060914, 34.51641978292559], [72.07599859609044, 34.516417287828276], [72.07599650174069, 34.516290321568654], [72.07541290187703, 34.516296890532765]]]]}, "properties": {"id": "Pakistan_123102132_63256", "height": 2.475845813751221, "hmax": 0.098, "ratio": 0.04, "vulnClass": "none"}}, {"type": "Feature", "geometry": {"type": "MultiPolygon", "coordinates": [[[[72.0757217401235, 34.5165677675505], [72.07572436565502, 34.51663282085921], [72.07584231001681, 34.51662951721946], [72.07583729731569, 34.516508159820575], [72.07586672895914, 34.51650733258835], [72.07586513908441, 34.516468714894565], [72.07576332998917, 34.51647150375789], [72.0757671980374, 34.516566422930595], [72.0757217401235, 34.5165677675505]]]]}, "properties": {"id": "Pakistan_123102132_325101", "height": 2.844009876251221, "hmax": 0.098, "ratio": 0.034, "vulnClass": "none"}}, {"type": "Feature", "geometry": {"type": "MultiPolygon", "coordinates": [[[[72.07601234610722, 34.51655661198386], [72.07598033488725, 34.51668726812678], [72.07604475760147, 34.51669791557644], [72.07607028422098, 34.5165938754267], [72.07616924341536, 34.51661030784189], [72.07617802023468, 34.516574191972786], [72.07606715204801, 34.51655576162073], [72.07607654537321, 34.516517587326035], [72.07589768297994, 34.516487882995236], [72.0759115208059, 34.516431607065336], [72.07589863882602, 34.51642940551511], [72.07587310891147, 34.516533535686854], [72.07601234610722, 34.51655661198386]]]]}, "properties": {"id": "Pakistan_123102132_174247", "height": 3.051718235015869, "hmax": 0.098, "ratio": 0.032, "vulnClass": "none"}}, {"type": "Feature", "geometry": {"type": "MultiPolygon", "coordinates": [[[[72.07616320639062, 34.5167487072718], [72.07663469724505, 34.516865193897736], [72.07668264706052, 34.51673338694901], [72.07656550331917, 34.51670444071563], [72.07655670389013, 34.51672874782938], [72.07627858063476, 34.51666006989506], [72.07629364589545, 34.51661851602101], [72.07619917579423, 34.516595160382074], [72.07618265993996, 34.516640825899685], [72.07624409304542, 34.516655998728034], [72.07622975302817, 34.516695496765244], [72.07618645794172, 34.51668481470655], [72.07616320639062, 34.5167487072718]]]]}, "properties": {"id": "Pakistan_123102132_81637", "height": 3.996268272399902, "hmax": 0.0, "ratio": 0.0, "vulnClass": "none"}}, {"type": "Feature", "geometry": {"type": "MultiPolygon", "coordinates": [[[[72.07572480557978, 34.516533047244856], [72.07555996949239, 34.516525762598384], [72.07555498521631, 34.516602892508075], [72.07571971264653, 34.51661017456192], [72.07572480557978, 34.516533047244856]]]]}, "properties": {"id": "Pakistan_123102132_140239", "height": 2.50784707069397, "hmax": 0.098, "ratio": 0.039, "vulnClass": "none"}}, {"type": "Feature", "geometry": {"type": "MultiPolygon", "coordinates": [[[[72.07550387397563, 34.516463844916345], [72.07537460557657, 34.516457772820786], [72.07536612228482, 34.516578896964795], [72.07552756964786, 34.516586551374836], [72.07553373766662, 34.51649737117096], [72.07557385622924, 34.51649923383824], [72.07557688509031, 34.516456219849616], [72.07550469347791, 34.5164528675642], [72.07550387397563, 34.516463844916345]]]]}, "properties": {"id": "Pakistan_123102132_81630", "height": 3.134429454803467, "hmax": 0.0, "ratio": 0.0, "vulnClass": "none"}}, {"type": "Feature", "geometry": {"type": "MultiPolygon", "coordinates": [[[[72.07615651083611, 34.51689971041971], [72.07606917461815, 34.51709276965729], [72.07628584421585, 34.5171593450157], [72.07634072596676, 34.51703798015647], [72.07626067163798, 34.51701343750842], [72.07629312890184, 34.516941652915044], [72.07615651083611, 34.51689971041971]]]]}, "properties": {"id": "Pakistan_123102132_371185", "height": 3.068338394165039, "hmax": 0.0, "ratio": 0.0, "vulnClass": "none"}}, {"type": "Feature", "geometry": {"type": "MultiPolygon", "coordinates": [[[[72.07537994421965, 34.51661961055239], [72.07536777222649, 34.516771473924756], [72.07604351750025, 34.51680812618472], [72.07605107399473, 34.51671348071127], [72.07595596770953, 34.51670831777235], [72.07595421685537, 34.51673035994466], [72.07586237165546, 34.516725365199356], [72.07586356305313, 34.51670997993037], [72.07583149932125, 34.516708220199504], [72.0758366700885, 34.51664443535093], [72.07537994421965, 34.51661961055239]]]]}, "properties": {"id": "Pakistan_123102132_168049", "height": 2.770915746688843, "hmax": 0.0, "ratio": 0.0, "vulnClass": "none"}}, {"type": "Feature", "geometry": {"type": "MultiPolygon", "coordinates": [[[[72.07729088249457, 34.51588495999486], [72.07732163315073, 34.51596790340708], [72.07751631552387, 34.51591884211804], [72.07748894937008, 34.51584499372229], [72.07759189621194, 34.51581897469187], [72.07757617455967, 34.51577650319227], [72.0773922563689, 34.51582293788447], [72.07740459325639, 34.51585631442453], [72.07729088249457, 34.51588495999486]]]]}, "properties": {"id": "Pakistan_123102132_223478", "height": 3.536467552185059, "hmax": 0.0, "ratio": 0.0, "vulnClass": "none"}}, {"type": "Feature", "geometry": {"type": "MultiPolygon", "coordinates": [[[[72.07729040508745, 34.516291206411026], [72.07739051724515, 34.51626529996647], [72.07740897522953, 34.51631360592608], [72.07757007681899, 34.51627194313574], [72.07755711529718, 34.516237740400484], [72.07768898430622, 34.51620367030603], [72.07765526978473, 34.51611515751345], [72.07749658748314, 34.51615615724146], [72.0774360402738, 34.51599723406234], [72.07724560116267, 34.51604639682907], [72.07727083150844, 34.516112802705386], [72.07722687413674, 34.51612418929026], [72.07729040508745, 34.516291206411026]]]]}, "properties": {"id": "Pakistan_123102132_99927", "height": 3.087793827056885, "hmax": 0.0, "ratio": 0.0, "vulnClass": "none"}}, {"type": "Feature", "geometry": {"type": "MultiPolygon", "coordinates": [[[[72.07746042182737, 34.51594148081243], [72.07749947609781, 34.51606103929631], [72.07764950307775, 34.516027764580684], [72.07762737885002, 34.51595972049966], [72.07763484069149, 34.51595809637687], [72.07761801924528, 34.515906584617454], [72.07746042182737, 34.51594148081243]]]]}, "properties": {"id": "Pakistan_123102132_534447", "height": 4.143146514892578, "hmax": 0.0, "ratio": 0.0, "vulnClass": "none"}}]}