{"type": "FeatureCollection", "features": [{"type": "Feature", "geometry": {"type": "MultiPolygon", "coordinates": [[[[72.10759189185383, 34.07924619677329], [72.10752306311156, 34.07925043473289], [72.10752816541812, 34.07930743641231], [72.10759699420676, 34.07930319845223], [72.10759189185383, 34.07924619677329]]]]}, "properties": {"id": "8J6J34H5+P275", "height": 3.753968238830566, "hmax": 0.0, "ratio": 0.0, "vulnClass": "none"}}, {"type": "Feature", "geometry": {"type": "MultiPolygon", "coordinates": [[[[72.10759503159953, 34.07919849390104], [72.10757090249115, 34.079191254746036], [72.10755938086973, 34.079217846523846], [72.10758350998437, 34.07922508568142], [72.10759503159953, 34.07919849390104]]]]}, "properties": {"id": "8J6J34H5+M2P7", "height": 4.921588897705078, "hmax": 0.0, "ratio": 0.0, "vulnClass": "none"}}, {"type": "Feature", "geometry": {"type": "MultiPolygon", "coordinates": [[[[72.10675412446489, 34.07814832438631], [72.10670828522306, 34.07813282102161], [72.10667508972288, 34.07820099967604], [72.10672082381197, 34.07821641043107], [72.10675412446489, 34.07814832438631]]]]}, "properties": {"id": "8J6J34H4+7M8X", "height": 2.450056076049805, "hmax": 0.0, "ratio": 0.0, "vulnClass": "none"}}, {"type": "Feature", "geometry": {"type": "MultiPolygon", "coordinates": [[[[72.10589092494588, 34.07877828634766], [72.10581797671179, 34.07876034074776], [72.10578420954968, 34.07885482797184], [72.10585704960698, 34.07887277104381], [72.10589092494588, 34.07877828634766]]]]}, "properties": {"id": "8J6J34H4+G8GQ", "height": 2.603349208831787, "hmax": 0.0, "ratio": 0.0, "vulnClass": "none"}}, {"type": "Feature", "geometry": {"type": "MultiPolygon", "coordinates": [[[[72.10597916864144, 34.07893884113265], [72.10576978773581, 34.078896585696114], [72.10574855546491, 34.0789697336015], [72.10595782828688, 34.07901198653108], [72.10597916864144, 34.07893884113265]]]]}, "properties": {"id": "8J6J34H4+H8Q4", "height": 2.472024440765381, "hmax": 0.0, "ratio": 0.0, "vulnClass": "none"}}, {"type": "Feature", "geometry": {"type": "MultiPolygon", "coordinates": [[[[72.10754274305, 34.079659074788594], [72.10733896996553, 34.079687537583844], [72.10735369587248, 34.07976099208871], [72.1075574691319, 34.07973252927812], [72.10754274305, 34.079659074788594]]]]}, "properties": {"id": "8J6J34H4+VXPF", "height": 2.513361930847168, "hmax": 0.0, "ratio": 0.0, "vulnClass": "none"}}, {"type": "Feature", "geometry": {"type": "MultiPolygon", "coordinates": [[[[72.10740444982433, 34.079804015093316], [72.10739758984515, 34.07976364882236], [72.10735332403576, 34.079768735795135], [72.10736018092898, 34.07980919214022], [72.10740444982433, 34.079804015093316]]]]}, "properties": {"id": "8J6J34H4+WX6C", "height": 2.513361930847168, "hmax": 0.0, "ratio": 0.0, "vulnClass": "none"}}, {"type": "Feature", "geometry": {"type": "MultiPolygon", "coordinates": [[[[72.10414135520422, 34.081416860598914], [72.10413304719052, 34.08134590093469], [72.10398844674562, 34.08135772469972], [72.10399686288912, 34.08142868692083], [72.10414135520422, 34.081416860598914]]]]}, "properties": {"id": "8J6J34J3+HJ4C", "height": 3.622044563293457, "hmax": 0.0, "ratio": 0.0, "vulnClass": "none"}}, {"type": "Feature", "geometry": {"type": "MultiPolygon", "coordinates": [[[[72.10422914268868, 34.08155261598349], [72.10421537687259, 34.081486034839195], [72.10407112803918, 34.08150661103846], [72.10408489374309, 34.081573192193076], [72.10422914268868, 34.08155261598349]]]]}, "properties": {"id": "8J6J34J3+JM65", "height": 2.555800914764404, "hmax": 0.0, "ratio": 0.0, "vulnClass": "none"}}, {"type": "Feature", "geometry": {"type": "MultiPolygon", "coordinates": [[[[72.09920539366718, 34.078454290047084], [72.09900987227039, 34.07843461636687], [72.09899088272802, 34.07856568884925], [72.09907649499145, 34.078574382342836], [72.09907278615614, 34.07860052683063], [72.09913540335644, 34.078606874083995], [72.09913922349338, 34.07858064207874], [72.09918629617079, 34.0785853600173], [72.09920539366718, 34.078454290047084]]]]}, "properties": {"id": "8J6J33HX+CJ5C", "height": 4.247365951538086, "hmax": 0.0, "ratio": 0.0, "vulnClass": "none"}}, {"type": "Feature", "geometry": {"type": "MultiPolygon", "coordinates": [[[[72.09902782388562, 34.0785720605035], [72.09897879049181, 34.07856765675613], [72.09897059244231, 34.07863011363926], [72.09901973411813, 34.0786345199493], [72.09902782388562, 34.0785720605035]]]]}, "properties": {"id": "8J6J33HX+CHX5", "height": 3.489185810089111, "hmax": 0.0, "ratio": 0.0, "vulnClass": "none"}}, {"type": "Feature", "geometry": {"type": "MultiPolygon", "coordinates": [[[[72.09594785062008, 34.07931839462047], [72.09594268866589, 34.079282394964345], [72.09582681074977, 34.0792938969326], [72.09583197573194, 34.079329806519205], [72.09594785062008, 34.07931839462047]]]]}, "properties": {"id": "8J6J33HW+P9C7", "height": 3.988904476165771, "hmax": 0.0, "ratio": 0.0, "vulnClass": "none"}}, {"type": "Feature", "geometry": {"type": "MultiPolygon", "coordinates": [[[[72.09444663517819, 34.08190842837567], [72.0943760522191, 34.081903693039315], [72.0943685083971, 34.08198175997547], [72.09443909141999, 34.08198649531947], [72.09444663517819, 34.08190842837567]]]]}, "properties": {"id": "8J6J33JV+QQFR", "height": 3.35712456703186, "hmax": 0.0, "ratio": 0.0, "vulnClass": "none"}}, {"type": "Feature", "geometry": {"type": "MultiPolygon", "coordinates": [[[[72.09453422260157, 34.08185307908646], [72.09448127220121, 34.08184912166424], [72.09447667971993, 34.08189156121135], [72.09452963014623, 34.08189551863687], [72.09453422260157, 34.08185307908646]]]]}, "properties": {"id": "8J6J33JV+PRRR", "height": 2.727181673049927, "hmax": 0.0, "ratio": 0.0, "vulnClass": "none"}}, {"type": "Feature", "geometry": {"type": "MultiPolygon", "coordinates": [[[[72.09449398992386, 34.0819873438055], [72.09443978143912, 34.08198849482956], [72.09444136019619, 34.082037390540194], [72.09449556871222, 34.082036239517066], [72.09449398992386, 34.0819873438055]]]]}, "properties": {"id": "8J6J33JV+RQ4H", "height": 2.751360416412354, "hmax": 0.0, "ratio": 0.0, "vulnClass": "none"}}, {"type": "Feature", "geometry": {"type": "MultiPolygon", "coordinates": [[[[72.09429042270222, 34.08198099367413], [72.09424176676504, 34.08198768469593], [72.09424917670408, 34.08202445875674], [72.09429783266218, 34.0820177677331], [72.09429042270222, 34.08198099367413]]]]}, "properties": {"id": "8J6J33JV+RP24", "height": 3.903814315795898, "hmax": 0.0, "ratio": 0.0, "vulnClass": "none"}}, {"type": "Feature", "geometry": {"type": "MultiPolygon", "coordinates": [[[[72.09443909141999, 34.08198649531947], [72.09429555002824, 34.0819767880845], [72.09429071419707, 34.08202634328117], [72.0944342587501, 34.082035960454334], [72.09443909141999, 34.08198649531947]]]]}, "properties": {"id": "8J6J33JV+RP58", "height": 3.910818815231323, "hmax": 0.0, "ratio": 0.0, "vulnClass": "none"}}, {"type": "Feature", "geometry": {"type": "MultiPolygon", "coordinates": [[[[72.09423010061425, 34.0820088629892], [72.09416364343696, 34.08200386459747], [72.0941530527767, 34.08210133062211], [72.09421951002878, 34.08210632902342], [72.09423010061425, 34.0820088629892]]]]}, "properties": {"id": "8J6J33JV+RMG6", "height": 2.542432308197021, "hmax": 0.0, "ratio": 0.0, "vulnClass": "none"}}, {"type": "Feature", "geometry": {"type": "MultiPolygon", "coordinates": [[[[72.09413038169829, 34.081915186418726], [72.09405558315115, 34.08191017083273], [72.09404221174921, 34.08204777549374], [72.09411700733631, 34.082052881165716], [72.09411151360446, 34.08210900133185], [72.09415312551157, 34.08211187925525], [72.09416763324712, 34.08196321369412], [72.09412602141163, 34.08196033577931], [72.09413038169829, 34.081915186418726]]]]}, "properties": {"id": "8J6J33JV+RJ53", "height": 2.657073736190796, "hmax": 0.0, "ratio": 0.0, "vulnClass": "none"}}, {"type": "Feature", "geometry": {"type": "MultiPolygon", "coordinates": [[[[72.09420648542313, 34.08192005256081], [72.09415935898461, 34.081916863850424], [72.09415498947554, 34.08196228342783], [72.09420211593884, 34.08196547214117], [72.09420648542313, 34.08192005256081]]]]}, "properties": {"id": "8J6J33JV+QMFQ", "height": 3.283990383148193, "hmax": 0.0, "ratio": 0.0, "vulnClass": "none"}}, {"type": "Feature", "geometry": {"type": "MultiPolygon", "coordinates": [[[[72.09437827929726, 34.081905097914415], [72.09420873280423, 34.08189234123054], [72.09420044955124, 34.08196984978422], [72.09436989102431, 34.08198251385375], [72.09437827929726, 34.081905097914415]]]]}, "properties": {"id": "8J6J33JV+QPFF", "height": 3.910818815231323, "hmax": 0.0, "ratio": 0.0, "vulnClass": "none"}}, {"type": "Feature", "geometry": {"type": "MultiPolygon", "coordinates": [[[[72.09448228411307, 34.08211110568868], [72.09442175907571, 34.08210687883358], [72.09441673451339, 34.0821556182688], [72.09447736475693, 34.08215993776165], [72.09448228411307, 34.08211110568868]]]]}, "properties": {"id": "8J6J33JV+VQ47", "height": 2.58104419708252, "hmax": 0.0, "ratio": 0.0, "vulnClass": "none"}}, {"type": "Feature", "geometry": {"type": "MultiPolygon", "coordinates": [[[[72.09291683299655, 34.081783692956044], [72.09285738115732, 34.081776606123384], [72.09284916059487, 34.08182373733763], [72.09290860938532, 34.08183091424746], [72.09291683299655, 34.081783692956044]]]]}, "properties": {"id": "8J6J33JV+P5C3", "height": 2.772339105606079, "hmax": 0.0, "ratio": 0.0, "vulnClass": "none"}}, {"type": "Feature", "geometry": {"type": "MultiPolygon", "coordinates": [[[[72.0927302400706, 34.08173086702503], [72.09261656068053, 34.08171916062454], [72.09261305033584, 34.08174260521224], [72.09264328029782, 34.08174566483205], [72.09263918908029, 34.08177342260136], [72.09272263856522, 34.081782069391], [72.0927302400706, 34.08173086702503]]]]}, "properties": {"id": "8J6J33JV+M3VW", "height": 3.497217178344727, "hmax": 0.0, "ratio": 0.0, "vulnClass": "none"}}, {"type": "Feature", "geometry": {"type": "MultiPolygon", "coordinates": [[[[72.09403218150824, 34.06777728435186], [72.09399881152699, 34.06762216694214], [72.09394426701269, 34.067630251196334], [72.09396827864744, 34.067742238277916], [72.09368228042216, 34.06778441835175], [72.0936758373709, 34.067754247680945], [72.09352363870147, 34.06777669724924], [72.09351849240831, 34.067752957536655], [72.09348615650036, 34.06775778115349], [72.0935070017062, 34.06785463919994], [72.09403218150824, 34.06777728435186]]]]}, "properties": {"id": "Pakistan_123102310_465697", "height": 2.945741415023804, "hmax": 0.0, "ratio": 0.0, "vulnClass": "none"}}, {"type": "Feature", "geometry": {"type": "MultiPolygon", "coordinates": [[[[72.09709461295203, 34.068224629279975], [72.09708531092302, 34.06837972884231], [72.09717508951933, 34.06838347376506], [72.0971843944603, 34.06822828411542], [72.09709461295203, 34.068224629279975]]]]}, "properties": {"id": "Pakistan_123102310_250112", "height": 2.593145132064819, "hmax": 0.0, "ratio": 0.0, "vulnClass": "none"}}, {"type": "Feature", "geometry": {"type": "MultiPolygon", "coordinates": [[[[72.0960871105791, 34.06814563951168], [72.09617110610166, 34.068429778882425], [72.09625716672689, 34.06841234268546], [72.096173170925, 34.068128203358924], [72.0960871105791, 34.06814563951168]]]]}, "properties": {"id": "Pakistan_123102310_347550", "height": 2.465072154998779, "hmax": 0.0, "ratio": 0.0, "vulnClass": "none"}}, {"type": "Feature", "geometry": {"type": "MultiPolygon", "coordinates": [[[[72.10353822257947, 34.07776718160383], [72.10320730146056, 34.077747024798924], [72.10320179129548, 34.07781017649025], [72.10353260441059, 34.07783033076892], [72.10353822257947, 34.07776718160383]]]]}, "properties": {"id": "8J6J34H3+489H", "height": 2.493534088134766, "hmax": 0.0, "ratio": 0.0, "vulnClass": "none"}}, {"type": "Feature", "geometry": {"type": "MultiPolygon", "coordinates": [[[[72.10425556766616, 34.07759335526353], [72.10420711426836, 34.07757192991147], [72.10415709854979, 34.07765043837797], [72.1042055519768, 34.07767186375121], [72.10425556766616, 34.07759335526353]]]]}, "properties": {"id": "8J6J34H3+2MWW", "height": 2.673794269561768, "hmax": 0.0, "ratio": 0.0, "vulnClass": "none"}}, {"type": "Feature", "geometry": {"type": "MultiPolygon", "coordinates": [[[[72.10421509742011, 34.07754110834827], [72.10416729219604, 34.077526098555765], [72.10411902229306, 34.077632863532656], [72.104166830634, 34.077647783273875], [72.10421509742011, 34.07754110834827]]]]}, "properties": {"id": "8J6J34H3+2MMF", "height": 3.010287284851074, "hmax": 0.0, "ratio": 0.0, "vulnClass": "none"}}, {"type": "Feature", "geometry": {"type": "MultiPolygon", "coordinates": [[[[72.10392996285492, 34.077503012796214], [72.10388155289732, 34.0774930367438], [72.10387226147554, 34.07752409785808], [72.10392067144923, 34.07753407391496], [72.10392996285492, 34.077503012796214]]]]}, "properties": {"id": "8J6J34H3+2H2H", "height": 3.119256734848022, "hmax": 0.0, "ratio": 0.0, "vulnClass": "none"}}, {"type": "Feature", "geometry": {"type": "MultiPolygon", "coordinates": [[[[72.10418970719712, 34.07769177265521], [72.10416018187964, 34.07768395485327], [72.10414555750995, 34.07772210180248], [72.10417508283884, 34.077729919608494], [72.10418970719712, 34.07769177265521]]]]}, "properties": {"id": "8J6J34H3+3MM7", "height": 2.482399225234985, "hmax": 0.0, "ratio": 0.0, "vulnClass": "none"}}, {"type": "Feature", "geometry": {"type": "MultiPolygon", "coordinates": [[[[72.1053763882342, 34.07778087294409], [72.10528337804216, 34.07775082538812], [72.105225990492, 34.07787405268611], [72.10531889561256, 34.07790400766636], [72.1053763882342, 34.07778087294409]]]]}, "properties": {"id": "8J6J34H4+44M4", "height": 2.559897661209106, "hmax": 0.0, "ratio": 0.0, "vulnClass": "none"}}, {"type": "Feature", "geometry": {"type": "MultiPolygon", "coordinates": [[[[72.1047611100479, 34.077381627583435], [72.10452414328672, 34.077360624864355], [72.10450699747545, 34.0774950773054], [72.10474385942402, 34.07751598745129], [72.1047611100479, 34.077381627583435]]]]}, "properties": {"id": "8J6J34G3+XVCF", "height": 2.972245931625366, "hmax": 0.0, "ratio": 0.0, "vulnClass": "none"}}, {"type": "Feature", "geometry": {"type": "MultiPolygon", "coordinates": [[[[72.10677601085582, 34.078094122125364], [72.10671960424746, 34.078080352945456], [72.10670521369984, 34.07812121008756], [72.10676162033201, 34.07813497927528], [72.10677601085582, 34.078094122125364]]]]}, "properties": {"id": "8J6J34H4+6MX8", "height": 2.450056076049805, "hmax": 0.0, "ratio": 0.0, "vulnClass": "none"}}]}