{"type": "FeatureCollection", "features": [{"type": "Feature", "geometry": {"type": "MultiPolygon", "coordinates": [[[[72.34622420654274, 34.14224879805659], [72.34621643173926, 34.14210916620755], [72.3461013631592, 34.14211361884866], [72.34610392045822, 34.14216010195672], [72.3460370496638, 34.14216271225655], [72.34603453309974, 34.14211839365439], [72.34593292534217, 34.14212232595436], [72.34594055626876, 34.142259610769734], [72.34622420654274, 34.14224879805659]]]]}, "properties": {"id": "Pakistan_123102310_44914", "height": 3.497096061706543, "hmax": 0.0, "ratio": 0.0, "vulnClass": "none"}}, {"type": "Feature", "geometry": {"type": "MultiPolygon", "coordinates": [[[[72.34674241861862, 34.14185540788975], [72.3467405977452, 34.14178883702112], [72.34638822558097, 34.14179564040871], [72.34639015452727, 34.14186221361293], [72.34674241861862, 34.14185540788975]]]]}, "properties": {"id": "Pakistan_123102310_637758", "height": 3.612073659896851, "hmax": 0.0, "ratio": 0.0, "vulnClass": "none"}}, {"type": "Feature", "geometry": {"type": "MultiPolygon", "coordinates": [[[[72.34689541004641, 34.1414843189075], [72.34690741218449, 34.14161015889852], [72.34710199383986, 34.14159750817029], [72.34708168977691, 34.14138350122086], [72.34701769994774, 34.14138761678473], [72.3470261070482, 34.14147587618262], [72.34689541004641, 34.1414843189075]]]]}, "properties": {"id": "Pakistan_123102310_467244", "height": 2.551200389862061, "hmax": 0.0, "ratio": 0.0, "vulnClass": "none"}}, {"type": "Feature", "geometry": {"type": "MultiPolygon", "coordinates": [[[[72.34572673902125, 34.14187517888258], [72.34570305948131, 34.14177261561688], [72.34566350570182, 34.14177888183205], [72.3456347166703, 34.141732191811435], [72.34562583548022, 34.14169377562743], [72.34558442850793, 34.14170036232875], [72.3455890062443, 34.141720384748524], [72.34544946203874, 34.14177938954045], [72.34558435776489, 34.14175805746483], [72.34559323330215, 34.141796653830994], [72.34563202300482, 34.1417905514104], [72.34564167515171, 34.1418320494086], [72.34565735780573, 34.1418575408368], [72.345633713321, 34.14186126639663], [72.34548295929638, 34.141925077156806], [72.34549450926505, 34.141923253576984], [72.34529101379944, 34.14200936224406], [72.34530075158854, 34.14205158332568], [72.34531557182528, 34.14204919946641], [72.34572673902125, 34.14187517888258]]]]}, "properties": {"id": "Pakistan_123102310_396282", "height": 2.821357488632202, "hmax": 0.0, "ratio": 0.0, "vulnClass": "none"}}, {"type": "Feature", "geometry": {"type": "MultiPolygon", "coordinates": [[[[72.34559196560733, 34.14207275903807], [72.34559700076274, 34.14219249840052], [72.34593190626181, 34.14218261495912], [72.34592456272772, 34.142011890320816], [72.34586302940947, 34.142013714480186], [72.3458670924799, 34.14210909203101], [72.3456875960626, 34.14211431413153], [72.34568394488426, 34.142030034069016], [72.34563304680677, 34.14203154729206], [72.34563483450167, 34.14207143272775], [72.34559196560733, 34.14207275903807]]]]}, "properties": {"id": "Pakistan_123102310_83939", "height": 4.186727046966553, "hmax": 0.0, "ratio": 0.0, "vulnClass": "none"}}, {"type": "Feature", "geometry": {"type": "MultiPolygon", "coordinates": [[[[72.34530443047312, 34.142231964985804], [72.34528704777686, 34.14213954466663], [72.34518906992224, 34.142152209388534], [72.34520645533212, 34.1422445396265], [72.34530443047312, 34.142231964985804]]]]}, "properties": {"id": "Pakistan_123102310_55761", "height": 2.556378841400146, "hmax": 0.0, "ratio": 0.0, "vulnClass": "none"}}, {"type": "Feature", "geometry": {"type": "MultiPolygon", "coordinates": [[[[72.34537983161715, 34.14220276480263], [72.3453816896796, 34.14224039798496], [72.34546472168869, 34.14223759680729], [72.34546286358926, 34.14219996362449], [72.34537983161715, 34.14220276480263]]]]}, "properties": {"id": "Pakistan_123102310_111352", "height": 2.981597423553467, "hmax": 0.0, "ratio": 0.0, "vulnClass": "none"}}, {"type": "Feature", "geometry": {"type": "MultiPolygon", "coordinates": [[[[72.34491187668065, 34.1422407794693], [72.34487022629008, 34.142154685407405], [72.34468900944145, 34.14221486092502], [72.34473077084004, 34.142300867295404], [72.34491187668065, 34.1422407794693]]]]}, "properties": {"id": "Pakistan_123102310_728225", "height": 3.30053186416626, "hmax": 0.0, "ratio": 0.0, "vulnClass": "none"}}, {"type": "Feature", "geometry": {"type": "MultiPolygon", "coordinates": [[[[72.33448286347847, 34.142580610991594], [72.33448411048562, 34.142534030156575], [72.3343152898458, 34.142530722860634], [72.33431091279722, 34.14268379384039], [72.3343672577316, 34.142684927904085], [72.33437027925991, 34.14257843539436], [72.33448286347847, 34.142580610991594]]]]}, "properties": {"id": "Pakistan_123102310_7170", "height": 3.13922119140625, "hmax": 0.0, "ratio": 0.0, "vulnClass": "none"}}, {"type": "Feature", "geometry": {"type": "MultiPolygon", "coordinates": [[[[72.33615280059416, 34.14220119533522], [72.3360700400344, 34.14220570894846], [72.3360762435799, 34.14228436497183], [72.33615911256655, 34.142279853710576], [72.33615280059416, 34.14220119533522]]]]}, "properties": {"id": "Pakistan_123102310_481442", "height": 2.812482118606567, "hmax": 0.0, "ratio": 0.0, "vulnClass": "none"}}, {"type": "Feature", "geometry": {"type": "MultiPolygon", "coordinates": [[[[72.33642605783668, 34.14220370231478], [72.33638722450166, 34.14196603312011], [72.33633183980925, 34.141972313209685], [72.33636768590347, 34.14219116620018], [72.33616595669345, 34.14221383163912], [72.33617523721132, 34.142270467526295], [72.33637174313141, 34.14224840988219], [72.33636556074632, 34.14221050248094], [72.33642605783668, 34.14220370231478]]]]}, "properties": {"id": "Pakistan_123102310_448168", "height": 3.834350109100342, "hmax": 0.0, "ratio": 0.0, "vulnClass": "none"}}, {"type": "Feature", "geometry": {"type": "MultiPolygon", "coordinates": [[[[72.33795018049426, 34.14117038726997], [72.33789628795138, 34.14107041262002], [72.33786184242625, 34.141083187855], [72.3378987245148, 34.1411516913942], [72.33781239672993, 34.141183534668606], [72.3378294071224, 34.141215005803424], [72.33795018049426, 34.14117038726997]]]]}, "properties": {"id": "Pakistan_123102310_291937", "height": 2.898336410522461, "hmax": 0.0, "ratio": 0.0, "vulnClass": "none"}}, {"type": "Feature", "geometry": {"type": "MultiPolygon", "coordinates": [[[[72.33826165162915, 34.14117813658934], [72.33828368575138, 34.14121882188917], [72.33836639833709, 34.14118816196342], [72.33834436418111, 34.14114747667678], [72.33826165162915, 34.14117813658934]]]]}, "properties": {"id": "Pakistan_123102310_557002", "height": 2.578320026397705, "hmax": 0.0, "ratio": 0.0, "vulnClass": "none"}}, {"type": "Feature", "geometry": {"type": "MultiPolygon", "coordinates": [[[[72.33879083037452, 34.14161801269699], [72.33878731701445, 34.141522647032915], [72.33870420005924, 34.14152472064447], [72.33870782167477, 34.141620088656694], [72.33879083037452, 34.14161801269699]]]]}, "properties": {"id": "Pakistan_123102310_671064", "height": 2.548596143722534, "hmax": 0.0, "ratio": 0.0, "vulnClass": "none"}}, {"type": "Feature", "geometry": {"type": "MultiPolygon", "coordinates": [[[[72.33861981811589, 34.14132176371363], [72.3386226482677, 34.141390520057385], [72.33877533546757, 34.14138616919787], [72.33877250519157, 34.141317412851755], [72.33861981811589, 34.14132176371363]]]]}, "properties": {"id": "Pakistan_123102310_243594", "height": 3.356918573379517, "hmax": 0.0, "ratio": 0.0, "vulnClass": "none"}}, {"type": "Feature", "geometry": {"type": "MultiPolygon", "coordinates": [[[[72.33859008489038, 34.14152990812302], [72.33858504483092, 34.14127241810228], [72.33849544981409, 34.14127362984882], [72.33850048960093, 34.14153111986031], [72.33859008489038, 34.14152990812302]]]]}, "properties": {"id": "Pakistan_123102310_728189", "height": 3.052759170532227, "hmax": 0.0, "ratio": 0.0, "vulnClass": "none"}}, {"type": "Feature", "geometry": {"type": "MultiPolygon", "coordinates": [[[[72.33889633762347, 34.14135498716664], [72.33889157663197, 34.1412129864417], [72.33894246284083, 34.14121183635803], [72.3389415630138, 34.141185222335764], [72.33888796245108, 34.141186493848096], [72.33888773820512, 34.141179817820216], [72.33879008873002, 34.14118202704829], [72.33879597357065, 34.14135731781793], [72.33889633762347, 34.14135498716664]]]]}, "properties": {"id": "Pakistan_123102310_311077", "height": 3.960748672485352, "hmax": 0.0, "ratio": 0.0, "vulnClass": "none"}}, {"type": "Feature", "geometry": {"type": "MultiPolygon", "coordinates": [[[[72.33903855862448, 34.14117966322344], [72.33903628499424, 34.14112426127787], [72.33887557198187, 34.14112870885123], [72.33887784268045, 34.141184200884354], [72.33903855862448, 34.14117966322344]]]]}, "properties": {"id": "Pakistan_123102310_139752", "height": 4.008588314056396, "hmax": 0.0, "ratio": 0.0, "vulnClass": "none"}}, {"type": "Feature", "geometry": {"type": "MultiPolygon", "coordinates": [[[[72.33968253599222, 34.14065930399999], [72.33949786799742, 34.140705063009825], [72.33952002246835, 34.140766124812], [72.33970458224059, 34.140720363425636], [72.33968253599222, 34.14065930399999]]]]}, "properties": {"id": "Pakistan_123102310_713971", "height": 3.266687393188477, "hmax": 0.0, "ratio": 0.0, "vulnClass": "none"}}, {"type": "Feature", "geometry": {"type": "MultiPolygon", "coordinates": [[[[72.33987491828684, 34.14075822385293], [72.3397834894696, 34.14076606796352], [72.33978989397231, 34.14081768298757], [72.3398813228453, 34.14080983887487], [72.33987491828684, 34.14075822385293]]]]}, "properties": {"id": "Pakistan_123102310_149276", "height": 2.520858764648438, "hmax": 0.0, "ratio": 0.0, "vulnClass": "none"}}, {"type": "Feature", "geometry": {"type": "MultiPolygon", "coordinates": [[[[72.34184289439636, 34.13991370094078], [72.34186931627356, 34.13999432742306], [72.34199302806266, 34.139966536534864], [72.34196660607282, 34.13988591007377], [72.34184289439636, 34.13991370094078]]]]}, "properties": {"id": "Pakistan_123102310_382034", "height": 2.552266359329224, "hmax": 0.0, "ratio": 0.0, "vulnClass": "none"}}, {"type": "Feature", "geometry": {"type": "MultiPolygon", "coordinates": [[[[72.34328965843758, 34.13987922641036], [72.3432828901012, 34.139828775595326], [72.34325516277498, 34.139831330489514], [72.34323605587521, 34.13969019104474], [72.3431870163669, 34.13969471851378], [72.3432038112224, 34.13981967087043], [72.34293360307413, 34.139844651144124], [72.34292929300842, 34.1398126443537], [72.34289895688154, 34.13981541312338], [72.34290290127282, 34.1398452483716], [72.3427797035149, 34.139856643844844], [72.34276931446881, 34.139779880656576], [72.34268461000642, 34.13978769229906], [72.34269525628609, 34.139866624687315], [72.34245679823597, 34.13988868550427], [72.34246576673205, 34.13995541118353], [72.34328965843758, 34.13987922641036]]]]}, "properties": {"id": "Pakistan_123102310_922163", "height": 2.979914426803589, "hmax": 0.0, "ratio": 0.0, "vulnClass": "none"}}, {"type": "Feature", "geometry": {"type": "MultiPolygon", "coordinates": [[[[72.342936736675, 34.13954731087947], [72.34287784724883, 34.13955478020072], [72.34289731258382, 34.1396602276573], [72.34285409842953, 34.13966569250785], [72.34287097871947, 34.13975674997577], [72.3431880670909, 34.139716557808136], [72.34317999244259, 34.13967320063036], [72.34296511628988, 34.13970046094893], [72.342936736675, 34.13954731087947]]]]}, "properties": {"id": "Pakistan_123102310_547542", "height": 3.402671098709106, "hmax": 0.0, "ratio": 0.0, "vulnClass": "none"}}, {"type": "Feature", "geometry": {"type": "MultiPolygon", "coordinates": [[[[72.34332646981282, 34.13960046522961], [72.343299191684, 34.139495209260616], [72.34318896448845, 34.13951481930038], [72.34312927577623, 34.13928472354648], [72.34307541675958, 34.139294285220444], [72.34316238325825, 34.13962963698955], [72.34332646981282, 34.13960046522961]]]]}, "properties": {"id": "Pakistan_123102310_344252", "height": 2.534223079681396, "hmax": 0.0, "ratio": 0.0, "vulnClass": "none"}}, {"type": "Feature", "geometry": {"type": "MultiPolygon", "coordinates": [[[[72.34337342288178, 34.13916749493355], [72.34341581019207, 34.139223044224266], [72.34350024250388, 34.139178895308], [72.34345785515637, 34.139123346044556], [72.34337342288178, 34.13916749493355]]]]}, "properties": {"id": "Pakistan_123102310_528726", "height": 2.454574108123779, "hmax": 0.0, "ratio": 0.0, "vulnClass": "none"}}, {"type": "Feature", "geometry": {"type": "MultiPolygon", "coordinates": [[[[72.34406027617322, 34.13895238971664], [72.34418987700289, 34.13890957865136], [72.34418819072599, 34.138897642214076], [72.34417220984393, 34.13886439116879], [72.34395300025311, 34.13893663499904], [72.34383077618878, 34.13894814279782], [72.3437482859321, 34.13897529545424], [72.34375409402102, 34.1390183330819], [72.34378954187207, 34.13901504369819], [72.34397720393797, 34.13895311567943], [72.34398426102591, 34.13900474468456], [72.34394326495301, 34.13900863522736], [72.3439632787209, 34.13915547374643], [72.34402156119907, 34.13915006422814], [72.34403726746778, 34.139264805876955], [72.34411012206658, 34.13925799889003], [72.34409918612667, 34.139177888353444], [72.34408788173035, 34.139154564989305], [72.34406027617322, 34.13895238971664]]]]}, "properties": {"id": "Pakistan_123102310_262624", "height": 2.553353309631348, "hmax": 0.083, "ratio": 0.032, "vulnClass": "none"}}, {"type": "Feature", "geometry": {"type": "MultiPolygon", "coordinates": [[[[72.3432823816996, 34.13891030613473], [72.34328465983971, 34.13896219229484], [72.34334890802542, 34.13896015770622], [72.34334662702452, 34.13890836163536], [72.3432823816996, 34.13891030613473]]]]}, "properties": {"id": "Pakistan_123102310_604461", "height": 2.578382015228271, "hmax": 0.0, "ratio": 0.0, "vulnClass": "none"}}, {"type": "Feature", "geometry": {"type": "MultiPolygon", "coordinates": [[[[72.34033758494172, 34.14007950124817], [72.3402866864747, 34.1400948955089], [72.34034268476728, 34.14022114873922], [72.34027295551866, 34.140242355200975], [72.34024825312406, 34.14018646703935], [72.34021037787792, 34.140197996642925], [72.3402546297925, 34.140297761350425], [72.34046140287431, 34.14023508119761], [72.34044064909975, 34.14018811345364], [72.34039226799766, 34.14020275096647], [72.34033758494172, 34.14007950124817]]]]}, "properties": {"id": "Pakistan_123102310_747292", "height": 2.980909585952759, "hmax": 0.0, "ratio": 0.0, "vulnClass": "none"}}, {"type": "Feature", "geometry": {"type": "MultiPolygon", "coordinates": [[[[72.34060098120587, 34.14016463367606], [72.34099098890088, 34.14002920568697], [72.34096995425816, 34.1399877311454], [72.34057994672946, 34.140123159075834], [72.34060098120587, 34.14016463367606]]]]}, "properties": {"id": "Pakistan_123102310_860586", "height": 2.467239141464233, "hmax": 0.0, "ratio": 0.0, "vulnClass": "none"}}, {"type": "Feature", "geometry": {"type": "MultiPolygon", "coordinates": [[[[72.3409974921411, 34.13987708169206], [72.3410097622295, 34.13992837303933], [72.34118522637432, 34.13989945075734], [72.34117295335776, 34.13984824951236], [72.3409974921411, 34.13987708169206]]]]}, "properties": {"id": "Pakistan_123102310_860589", "height": 2.784087896347046, "hmax": 0.075, "ratio": 0.027, "vulnClass": "none"}}, {"type": "Feature", "geometry": {"type": "MultiPolygon", "coordinates": [[[[72.34164815734172, 34.14001099177079], [72.34164416606129, 34.139948070077494], [72.34153450937282, 34.13995290620648], [72.3415384977482, 34.140015917989224], [72.34164815734172, 34.14001099177079]]]]}, "properties": {"id": "Pakistan_123102310_367871", "height": 2.602307319641113, "hmax": 0.0, "ratio": 0.0, "vulnClass": "none"}}, {"type": "Feature", "geometry": {"type": "MultiPolygon", "coordinates": [[[[72.33751157509789, 34.13850484580749], [72.33751852756977, 34.138694403629245], [72.33759893025669, 34.1386923620047], [72.33759197477713, 34.138502894268484], [72.33751157509789, 34.13850484580749]]]]}, "properties": {"id": "Pakistan_123102310_481452", "height": 2.903831481933594, "hmax": 0.109, "ratio": 0.037, "vulnClass": "low"}}, {"type": "Feature", "geometry": {"type": "MultiPolygon", "coordinates": [[[[72.33783875696201, 34.13848841583929], [72.33783713696698, 34.13843293790553], [72.33764141951731, 34.1384370752362], [72.3376431477291, 34.138492555517416], [72.33783875696201, 34.13848841583929]]]]}, "properties": {"id": "Pakistan_123102310_448178", "height": 2.927103042602539, "hmax": 0.061, "ratio": 0.021, "vulnClass": "none"}}, {"type": "Feature", "geometry": {"type": "MultiPolygon", "coordinates": [[[[72.33784415294609, 34.138772508148094], [72.33783355256595, 34.138495334685445], [72.33772906068258, 34.138498025740034], [72.33773648842238, 34.13869318322803], [72.33767214346993, 34.13869485216975], [72.33767531287792, 34.138776958225414], [72.33784415294609, 34.138772508148094]]]]}, "properties": {"id": "Pakistan_123102310_898538", "height": 3.636844158172607, "hmax": 0.111, "ratio": 0.031, "vulnClass": "low"}}, {"type": "Feature", "geometry": {"type": "MultiPolygon", "coordinates": [[[[72.34202901953746, 34.13337448321646], [72.34202756047183, 34.133421059699025], [72.34211325384541, 34.13342300607703], [72.34211482120313, 34.133376431937954], [72.34202901953746, 34.13337448321646]]]]}, "properties": {"id": "Pakistan_123102310_505030", "height": 2.702435970306396, "hmax": 0.0, "ratio": 0.0, "vulnClass": "none"}}, {"type": "Feature", "geometry": {"type": "MultiPolygon", "coordinates": [[[[72.34202221297781, 34.13341526434799], [72.34202141260035, 34.13338198127637], [72.34189970666364, 34.133384122869096], [72.34190050699324, 34.13341740593923], [72.34202221297781, 34.13341526434799]]]]}, "properties": {"id": "Pakistan_123102310_552336", "height": 2.702435970306396, "hmax": 0.0, "ratio": 0.0, "vulnClass": "none"}}, {"type": "Feature", "geometry": {"type": "MultiPolygon", "coordinates": [[[[72.34154418045453, 34.1333024067201], [72.34154292298896, 34.13328371821341], [72.34142958013567, 34.133288835214266], [72.34143640378447, 34.13339283703995], [72.34162465308978, 34.13338447474402], [72.34161908951404, 34.133299071334626], [72.34154418045453, 34.1333024067201]]]]}, "properties": {"id": "Pakistan_123102310_737778", "height": 2.639831781387329, "hmax": 0.0, "ratio": 0.0, "vulnClass": "none"}}, {"type": "Feature", "geometry": {"type": "MultiPolygon", "coordinates": [[[[72.34165594147859, 34.133271652450574], [72.34165355939543, 34.133212732219285], [72.34143122893167, 34.13321891374122], [72.34143361368271, 34.13327774387961], [72.34165594147859, 34.133271652450574]]]]}, "properties": {"id": "Pakistan_123102310_26262", "height": 3.083253383636475, "hmax": 0.0, "ratio": 0.0, "vulnClass": "none"}}, {"type": "Feature", "geometry": {"type": "MultiPolygon", "coordinates": [[[[72.34155302704148, 34.133148079519984], [72.34155012935199, 34.13319904222371], [72.34162776870755, 34.13320198640483], [72.34163066352815, 34.133151113786965], [72.34155302704148, 34.133148079519984]]]]}, "properties": {"id": "Pakistan_123102310_609175", "height": 2.550590991973877, "hmax": 0.0, "ratio": 0.0, "vulnClass": "none"}}, {"type": "Feature", "geometry": {"type": "MultiPolygon", "coordinates": [[[[72.33279033876707, 34.133922712967056], [72.3327966034255, 34.13377860788789], [72.33268406784852, 34.13377526013565], [72.33268308366293, 34.13379966960333], [72.33274200576419, 34.1338014011914], [72.33273683069059, 34.133921189238855], [72.33279033876707, 34.133922712967056]]]]}, "properties": {"id": "Pakistan_123102310_836989", "height": 4.07348108291626, "hmax": 0.0, "ratio": 0.0, "vulnClass": "none"}}, {"type": "Feature", "geometry": {"type": "MultiPolygon", "coordinates": [[[[72.33569708166655, 34.13833897629502], [72.33569825473762, 34.1383913793894], [72.33575726506574, 34.1383904070001], [72.33575598361334, 34.138338001551936], [72.33569708166655, 34.13833897629502]]]]}, "properties": {"id": "Pakistan_123102310_922111", "height": 3.173177242279053, "hmax": 0.0, "ratio": 0.0, "vulnClass": "none"}}, {"type": "Feature", "geometry": {"type": "MultiPolygon", "coordinates": [[[[72.33399911912885, 34.13162552513099], [72.33398037133045, 34.13162529810531], [72.33398123231254, 34.131587543608646], [72.33367296547377, 34.131582468303975], [72.33367123604529, 34.13165130596191], [72.33399835927501, 34.13165661066264], [72.33399911912885, 34.13162552513099]]]]}, "properties": {"id": "Pakistan_123102310_874790", "height": 2.64673113822937, "hmax": 0.0, "ratio": 0.0, "vulnClass": "none"}}, {"type": "Feature", "geometry": {"type": "MultiPolygon", "coordinates": [[[[72.33380948663167, 34.132033394231854], [72.33356035504512, 34.132026628517664], [72.33355838728615, 34.13207544750526], [72.33380751901544, 34.132082213230184], [72.33380948663167, 34.132033394231854]]]]}, "properties": {"id": "Pakistan_123102310_54068", "height": 3.430476188659668, "hmax": 0.0, "ratio": 0.0, "vulnClass": "none"}}, {"type": "Feature", "geometry": {"type": "MultiPolygon", "coordinates": [[[[72.33382128386239, 34.131906357587184], [72.33375489836403, 34.13190067804687], [72.33374301411932, 34.13199597969937], [72.33380939969061, 34.13200165924954], [72.33382128386239, 34.131906357587184]]]]}, "properties": {"id": "Pakistan_123102310_325325", "height": 2.873501062393188, "hmax": 0.0, "ratio": 0.0, "vulnClass": "none"}}, {"type": "Feature", "geometry": {"type": "MultiPolygon", "coordinates": [[[[72.33277109790274, 34.12937184248927], [72.33277237052101, 34.129403783546444], [72.33295997012256, 34.12939857552132], [72.33295721016876, 34.12933117285755], [72.3327991226049, 34.12933557993752], [72.33280060980327, 34.129371041541454], [72.33277109790274, 34.12937184248927]]]]}, "properties": {"id": "Pakistan_123102310_590304", "height": 3.239032983779907, "hmax": 0.0, "ratio": 0.0, "vulnClass": "none"}}, {"type": "Feature", "geometry": {"type": "MultiPolygon", "coordinates": [[[[72.33368491874558, 34.12926305656788], [72.33339043968772, 34.12928866119173], [72.33340330803348, 34.129389729484856], [72.33350668671403, 34.129380707085105], [72.33349948412689, 34.1293235752325], [72.33363210339124, 34.12931203283835], [72.33364018276185, 34.12937576474973], [72.33368529670463, 34.12937178671847], [72.33370485683652, 34.12952555834152], [72.33377377794697, 34.12951948319343], [72.333758235806, 34.12939654032458], [72.33385248335524, 34.129388310891], [72.3338468144568, 34.12934446455264], [72.33369691074417, 34.12935752478486], [72.33368491874558, 34.12926305656788]]]]}, "properties": {"id": "Pakistan_123102310_945727", "height": 4.577607154846191, "hmax": 0.0, "ratio": 0.0, "vulnClass": "none"}}, {"type": "Feature", "geometry": {"type": "MultiPolygon", "coordinates": [[[[72.33391048546149, 34.12931916326964], [72.33385567818058, 34.12932112776002], [72.33386123215153, 34.129423840115805], [72.33391603949902, 34.129421875626115], [72.33391048546149, 34.12931916326964]]]]}, "properties": {"id": "Pakistan_123102310_766215", "height": 5.117754459381104, "hmax": 0.0, "ratio": 0.0, "vulnClass": "none"}}, {"type": "Feature", "geometry": {"type": "MultiPolygon", "coordinates": [[[[72.33446441286182, 34.12978267259933], [72.33471630213842, 34.12971178614403], [72.33455770123292, 34.12971870855339], [72.3343027501805, 34.12979042967446], [72.33429057003889, 34.129760595591634], [72.33412869655966, 34.12980612107179], [72.33410926519666, 34.12980696103606], [72.33410507901775, 34.12974006829815], [72.33409389738314, 34.129712960416256], [72.33405384019977, 34.129714704532375], [72.33405862413424, 34.12979017458999], [72.33407131473233, 34.12982101144322], [72.33407578138646, 34.129892778421166], [72.33410997730537, 34.1298912675667], [72.33422788191727, 34.129858129264306], [72.33421854539813, 34.12985855749157], [72.33449241956426, 34.12978147794721], [72.33446441286182, 34.12978267259933]]]]}, "properties": {"id": "Pakistan_123102310_92018", "height": 3.241904258728027, "hmax": 0.0, "ratio": 0.0, "vulnClass": "none"}}, {"type": "Feature", "geometry": {"type": "MultiPolygon", "coordinates": [[[[72.33470454977346, 34.129454330403554], [72.3347710907906, 34.12951022680589], [72.3348125913147, 34.12947632993305], [72.33474605029372, 34.129420433552916], [72.33470454977346, 34.129454330403554]]]]}, "properties": {"id": "Pakistan_123102310_931585", "height": 2.470839262008667, "hmax": 0.0, "ratio": 0.0, "vulnClass": "none"}}, {"type": "Feature", "geometry": {"type": "MultiPolygon", "coordinates": [[[[72.33550836762647, 34.1295344417292], [72.33551326896176, 34.129305835297586], [72.33544890488207, 34.12930488846269], [72.33544400337368, 34.12953349488354], [72.33550836762647, 34.1295344417292]]]]}, "properties": {"id": "Pakistan_123102310_102897", "height": 3.071343183517456, "hmax": 0.0, "ratio": 0.0, "vulnClass": "none"}}, {"type": "Feature", "geometry": {"type": "MultiPolygon", "coordinates": [[[[72.33664333943071, 34.12928745608202], [72.33662551717502, 34.12922666812981], [72.33657489711912, 34.12923683830661], [72.33653867060899, 34.12911308612722], [72.33643983090185, 34.1291329375884], [72.3364938794241, 34.129317477759095], [72.33664333943071, 34.12928745608202]]]]}, "properties": {"id": "Pakistan_123102310_187733", "height": 2.930507898330688, "hmax": 0.0, "ratio": 0.0, "vulnClass": "none"}}, {"type": "Feature", "geometry": {"type": "MultiPolygon", "coordinates": [[[[72.33767959152374, 34.12893536556206], [72.33767843250415, 34.12905524121096], [72.33775083575959, 34.12905564007368], [72.3377519946769, 34.12893576441925], [72.33767959152374, 34.12893536556206]]]]}, "properties": {"id": "Pakistan_123102310_348983", "height": 3.090511322021484, "hmax": 0.0, "ratio": 0.0, "vulnClass": "none"}}, {"type": "Feature", "geometry": {"type": "MultiPolygon", "coordinates": [[[[72.34142443756205, 34.13289936150197], [72.34142798174956, 34.13275510649039], [72.34136784278616, 34.13275416409037], [72.34136677897683, 34.13279849534792], [72.34130241479582, 34.13279746136788], [72.34130341760417, 34.13275853785173], [72.34122561952749, 34.13275721275476], [72.34122355950863, 34.13284371310342], [72.34114575853555, 34.13284247804201], [72.34114768418993, 34.1327637277733], [72.34102816746935, 34.1327617690122], [72.34102493209501, 34.13289268833565], [72.34142443756205, 34.13289936150197]]]]}, "properties": {"id": "Pakistan_123102310_874851", "height": 2.514561414718628, "hmax": 0.0, "ratio": 0.0, "vulnClass": "none"}}, {"type": "Feature", "geometry": {"type": "MultiPolygon", "coordinates": [[[[72.34062971490079, 34.130576888370165], [72.34064053314698, 34.13072289704832], [72.34100927614176, 34.13070420323028], [72.34100257970971, 34.1306134563243], [72.34073535937384, 34.130627048071226], [72.34073123992063, 34.13057169621079], [72.34062971490079, 34.130576888370165]]]]}, "properties": {"id": "Pakistan_123102310_349009", "height": 3.48340368270874, "hmax": 0.0, "ratio": 0.0, "vulnClass": "none"}}, {"type": "Feature", "geometry": {"type": "MultiPolygon", "coordinates": [[[[72.3408163862807, 34.13047338361025], [72.34080991796539, 34.130437633776125], [72.34078369062318, 34.13044085175323], [72.34079004776912, 34.13047668933036], [72.3408163862807, 34.13047338361025]]]]}, "properties": {"id": "Pakistan_123102310_396242", "height": 3.001651287078857, "hmax": 0.0, "ratio": 0.0, "vulnClass": "none"}}, {"type": "Feature", "geometry": {"type": "MultiPolygon", "coordinates": [[[[72.3409822898645, 34.13053097920789], [72.34096754131271, 34.13037199377503], [72.34076365153012, 34.13038497459658], [72.34076526770775, 34.130402589073874], [72.34072920446789, 34.13040487267695], [72.34073221344059, 34.13043685135352], [72.34096152152323, 34.130422257765055], [72.34096401325378, 34.130449988130614], [72.34091871892133, 34.13045279296484], [72.34092623924319, 34.130534542623714], [72.3409822898645, 34.13053097920789]]]]}, "properties": {"id": "Pakistan_123102310_704352", "height": 3.725739479064941, "hmax": 0.0, "ratio": 0.0, "vulnClass": "none"}}, {"type": "Feature", "geometry": {"type": "MultiPolygon", "coordinates": [[[[72.34067359181883, 34.129986268144506], [72.34066974224274, 34.12982544540553], [72.34060412091242, 34.12982654749658], [72.34060610561373, 34.129911963547194], [72.34017312065494, 34.129918986548255], [72.34017487386096, 34.12999448096267], [72.34067359181883, 34.129986268144506]]]]}, "properties": {"id": "Pakistan_123102310_557020", "height": 2.633709669113159, "hmax": 0.0, "ratio": 0.0, "vulnClass": "none"}}, {"type": "Feature", "geometry": {"type": "MultiPolygon", "coordinates": [[[[72.34333791398687, 34.12886858909458], [72.34341697760239, 34.128870931819506], [72.34341879682947, 34.128830132741236], [72.34333962491847, 34.1288277876739], [72.34333791398687, 34.12886858909458]]]]}, "properties": {"id": "Pakistan_123102310_44872", "height": 3.114107608795166, "hmax": 0.0, "ratio": 0.0, "vulnClass": "none"}}, {"type": "Feature", "geometry": {"type": "MultiPolygon", "coordinates": [[[[72.34356449518877, 34.12871239418838], [72.34356270631747, 34.12878339455911], [72.3436338897401, 34.12878466504241], [72.34363568137195, 34.12871357457776], [72.34356449518877, 34.12871239418838]]]]}, "properties": {"id": "Pakistan_123102310_178461", "height": 2.53663969039917, "hmax": 0.0, "ratio": 0.0, "vulnClass": "none"}}, {"type": "Feature", "geometry": {"type": "MultiPolygon", "coordinates": [[[[72.34369055178766, 34.128730358497236], [72.34369230018432, 34.12879918166389], [72.34380890230317, 34.1287971079451], [72.34380704547847, 34.12872828243067], [72.34369055178766, 34.128730358497236]]]]}, "properties": {"id": "Pakistan_123102310_234258", "height": 3.634142637252808, "hmax": 0.0, "ratio": 0.0, "vulnClass": "none"}}, {"type": "Feature", "geometry": {"type": "MultiPolygon", "coordinates": [[[[72.34382025576747, 34.12871838129653], [72.34381773810954, 34.128642960443706], [72.34368636342116, 34.12864597651661], [72.34368888096195, 34.128721397366576], [72.34382025576747, 34.12871838129653]]]]}, "properties": {"id": "Pakistan_123102310_344256", "height": 2.683396339416504, "hmax": 0.0, "ratio": 0.0, "vulnClass": "none"}}, {"type": "Feature", "geometry": {"type": "MultiPolygon", "coordinates": [[[[72.34361264193042, 34.12862535878078], [72.34361083906677, 34.12857213058137], [72.34347555040743, 34.12857551245965], [72.34347746151903, 34.12862874300225], [72.34361264193042, 34.12862535878078]]]]}, "properties": {"id": "Pakistan_123102310_54200", "height": 2.546281814575195, "hmax": 0.0, "ratio": 0.0, "vulnClass": "none"}}, {"type": "Feature", "geometry": {"type": "MultiPolygon", "coordinates": [[[[72.34309482373061, 34.12880761266264], [72.34322926481295, 34.128817465080246], [72.34324170068933, 34.12870071815793], [72.34340264377332, 34.12871240627066], [72.34340848640524, 34.1286573602641], [72.3432887534563, 34.12864863783965], [72.34328646568018, 34.12866977382509], [72.34316013569845, 34.128660547844845], [72.34316381311183, 34.128626189733794], [72.34311449222291, 34.12862259765032], [72.34309482373061, 34.12880761266264]]]]}, "properties": {"id": "Pakistan_123102310_234244", "height": 3.378022193908691, "hmax": 0.0, "ratio": 0.0, "vulnClass": "none"}}, {"type": "Feature", "geometry": {"type": "MultiPolygon", "coordinates": [[[[72.34307048391346, 34.12858089649642], [72.34301425743206, 34.128583194980884], [72.34301816797547, 34.128648729367875], [72.34295249672898, 34.12865145438121], [72.34294835996178, 34.12858275980586], [72.34285088515256, 34.128586779454935], [72.34285757913094, 34.128698441336184], [72.3430769490818, 34.128689488280834], [72.34307048391346, 34.12858089649642]]]]}, "properties": {"id": "Pakistan_123102310_737786", "height": 3.646010637283325, "hmax": 0.0, "ratio": 0.0, "vulnClass": "none"}}, {"type": "Feature", "geometry": {"type": "MultiPolygon", "coordinates": [[[[72.3424368247827, 34.128637042197894], [72.34243335131656, 34.12868564857123], [72.34252957476706, 34.12869043696719], [72.34253305099975, 34.12864174049856], [72.3424368247827, 34.128637042197894]]]]}, "properties": {"id": "Pakistan_123102310_766277", "height": 2.661589622497559, "hmax": 0.0, "ratio": 0.0, "vulnClass": "none"}}, {"type": "Feature", "geometry": {"type": "MultiPolygon", "coordinates": [[[[72.34336530110535, 34.12801797499658], [72.34318024984901, 34.128014599725056], [72.34317925656724, 34.12805325305656], [72.34336420239555, 34.128056535898175], [72.34336530110535, 34.12801797499658]]]]}, "properties": {"id": "Pakistan_123102310_794474", "height": 3.137040615081787, "hmax": 0.0, "ratio": 0.0, "vulnClass": "none"}}, {"type": "Feature", "geometry": {"type": "MultiPolygon", "coordinates": [[[[72.34380277122875, 34.128279507658256], [72.34338610439087, 34.12828842802706], [72.3433872005341, 34.12832613493268], [72.34334283324647, 34.12832706759128], [72.34334397167346, 34.12836342314501], [72.34380500618275, 34.128353570127764], [72.34380277122875, 34.128279507658256]]]]}, "properties": {"id": "Pakistan_123102310_235213", "height": 3.925572395324707, "hmax": 0.0, "ratio": 0.0, "vulnClass": "none"}}, {"type": "Feature", "geometry": {"type": "MultiPolygon", "coordinates": [[[[72.34346237080031, 34.128165400067935], [72.34345745872419, 34.12803141928486], [72.34337294377522, 34.12803355629803], [72.34337774738502, 34.128167534732846], [72.34346237080031, 34.128165400067935]]]]}, "properties": {"id": "Pakistan_123102310_908022", "height": 3.142894268035889, "hmax": 0.0, "ratio": 0.0, "vulnClass": "none"}}, {"type": "Feature", "geometry": {"type": "MultiPolygon", "coordinates": [[[[72.34157017251611, 34.127991539822105], [72.34169871191688, 34.12799594711656], [72.34170195794889, 34.1279303874371], [72.34157341582478, 34.12792607024067], [72.34157017251611, 34.127991539822105]]]]}, "properties": {"id": "Pakistan_123102310_685377", "height": 2.80558443069458, "hmax": 0.0, "ratio": 0.0, "vulnClass": "none"}}, {"type": "Feature", "geometry": {"type": "MultiPolygon", "coordinates": [[[[72.34165062053323, 34.127797384271275], [72.34165591045766, 34.127766937645355], [72.34160741622259, 34.12776119925031], [72.34160223179119, 34.127791738310144], [72.34165062053323, 34.127797384271275]]]]}, "properties": {"id": "Pakistan_123102310_552331", "height": 2.610530614852905, "hmax": 0.0, "ratio": 0.0, "vulnClass": "none"}}, {"type": "Feature", "geometry": {"type": "MultiPolygon", "coordinates": [[[[72.34156305537122, 34.1279868780835], [72.34155960175613, 34.12776836716891], [72.3414588599195, 34.127769430121475], [72.34146172186577, 34.12794799128179], [72.34133831302817, 34.12794937441592], [72.3413351801965, 34.12775178551108], [72.34122793001694, 34.12775297772021], [72.34123165389848, 34.12799051635668], [72.34156305537122, 34.1279868780835]]]]}, "properties": {"id": "Pakistan_123102310_349016", "height": 3.560157537460327, "hmax": 0.0, "ratio": 0.0, "vulnClass": "none"}}, {"type": "Feature", "geometry": {"type": "MultiPolygon", "coordinates": [[[[72.34082498019615, 34.12782240754824], [72.34081876903355, 34.127622768627575], [72.3407518409589, 34.1276241129782], [72.34075794080884, 34.1278238396371], [72.34082498019615, 34.12782240754824]]]]}, "properties": {"id": "Pakistan_123102310_680660", "height": 2.705870628356934, "hmax": 0.0, "ratio": 0.0, "vulnClass": "none"}}, {"type": "Feature", "geometry": {"type": "MultiPolygon", "coordinates": [[[[72.33807206731214, 34.127955915288844], [72.33807480305495, 34.12800348420814], [72.33821665833158, 34.12799808709269], [72.33821392250894, 34.12795051817276], [72.33807206731214, 34.127955915288844]]]]}, "properties": {"id": "Pakistan_123102310_82458", "height": 3.302414655685425, "hmax": 0.0, "ratio": 0.0, "vulnClass": "none"}}, {"type": "Feature", "geometry": {"type": "MultiPolygon", "coordinates": [[[[72.33801900240015, 34.12888386027611], [72.33800867556444, 34.128622108247676], [72.33793370188984, 34.12862417801284], [72.33794403131954, 34.1288858399469], [72.33801900240015, 34.12888386027611]]]]}, "properties": {"id": "Pakistan_123102310_898539", "height": 4.006864547729492, "hmax": 0.0, "ratio": 0.0, "vulnClass": "none"}}, {"type": "Feature", "geometry": {"type": "MultiPolygon", "coordinates": [[[[72.3381364776971, 34.12856709380498], [72.3381363845699, 34.128611536223254], [72.33820348764799, 34.12861154938448], [72.33820347240749, 34.12856710461461], [72.3381364776971, 34.12856709380498]]]]}, "properties": {"id": "Pakistan_123102310_367851", "height": 2.688943862915039, "hmax": 0.0, "ratio": 0.0, "vulnClass": "none"}}, {"type": "Feature", "geometry": {"type": "MultiPolygon", "coordinates": [[[[72.33831672799077, 34.128578396028864], [72.33835299017862, 34.128576658338815], [72.33835615561944, 34.12862090098596], [72.338556581213, 34.12861109437447], [72.33855087380311, 34.12853037559324], [72.33831418340318, 34.12854200998427], [72.33831672799077, 34.128578396028864]]]]}, "properties": {"id": "Pakistan_123102310_632934", "height": 3.225366115570068, "hmax": 0.0, "ratio": 0.0, "vulnClass": "none"}}, {"type": "Feature", "geometry": {"type": "MultiPolygon", "coordinates": [[[[72.33776643524786, 34.12877263398681], [72.33778175146348, 34.12888222925675], [72.33792202089506, 34.12886868452835], [72.33790670167215, 34.128759179356926], [72.33776643524786, 34.12877263398681]]]]}, "properties": {"id": "Pakistan_123102310_150147", "height": 3.274833679199219, "hmax": 0.0, "ratio": 0.0, "vulnClass": "none"}}, {"type": "Feature", "geometry": {"type": "MultiPolygon", "coordinates": [[[[72.33779943271307, 34.128529401308526], [72.33780550296105, 34.12867801166677], [72.33788980741805, 34.12867569364853], [72.33788373702194, 34.12852708328742], [72.33779943271307, 34.128529401308526]]]]}, "properties": {"id": "Pakistan_123102310_671054", "height": 3.06351637840271, "hmax": 0.057, "ratio": 0.018, "vulnClass": "none"}}, {"type": "Feature", "geometry": {"type": "MultiPolygon", "coordinates": [[[[72.33649084302252, 34.128599089150384], [72.33650893563575, 34.12864780276269], [72.33668782530015, 34.12860228275168], [72.33666984092262, 34.12855357151228], [72.33649084302252, 34.128599089150384]]]]}, "properties": {"id": "Pakistan_123102310_215140", "height": 4.13401985168457, "hmax": 0.0, "ratio": 0.0, "vulnClass": "none"}}, {"type": "Feature", "geometry": {"type": "MultiPolygon", "coordinates": [[[[72.33680562264098, 34.1285724751467], [72.3367829197733, 34.12851176159178], [72.3367070755509, 34.12853121084796], [72.33672977554029, 34.128592014504015], [72.33680562264098, 34.1285724751467]]]]}, "properties": {"id": "Pakistan_123102310_263425", "height": 2.878008842468262, "hmax": 0.0, "ratio": 0.0, "vulnClass": "none"}}, {"type": "Feature", "geometry": {"type": "MultiPolygon", "coordinates": [[[[72.33633686722317, 34.12794756165769], [72.33629674885171, 34.12794092116425], [72.33628541179652, 34.12798782401864], [72.33632552736113, 34.12799455460632], [72.33633686722317, 34.12794756165769]]]]}, "properties": {"id": "Pakistan_123102310_344207", "height": 2.90776538848877, "hmax": 0.0, "ratio": 0.0, "vulnClass": "none"}}, {"type": "Feature", "geometry": {"type": "MultiPolygon", "coordinates": [[[[72.33663843648374, 34.12805165061076], [72.33628348846288, 34.1280249244592], [72.3362754620922, 34.12809759219584], [72.33663041041153, 34.128124318384614], [72.33663843648374, 34.12805165061076]]]]}, "properties": {"id": "Pakistan_123102310_931600", "height": 3.022682189941406, "hmax": 0.0, "ratio": 0.0, "vulnClass": "none"}}, {"type": "Feature", "geometry": {"type": "MultiPolygon", "coordinates": [[[[72.33776768359512, 34.12776179808281], [72.33778296658012, 34.12811434955353], [72.3379677525628, 34.128108892430724], [72.33796593064415, 34.128066752394396], [72.33788823786169, 34.12806912376233], [72.3378748874676, 34.12775862457983], [72.33776768359512, 34.12776179808281]]]]}, "properties": {"id": "Pakistan_123102310_311071", "height": 2.662324666976929, "hmax": 0.0, "ratio": 0.0, "vulnClass": "none"}}, {"type": "Feature", "geometry": {"type": "MultiPolygon", "coordinates": [[[[72.33781584117783, 34.127612380830904], [72.33781944436798, 34.127756700587234], [72.3379374559482, 34.127754572852986], [72.33793567168186, 34.12768358531313], [72.33811257775004, 34.12768048123361], [72.3381117788091, 34.12764719818386], [72.33816004559701, 34.127646351998976], [72.33815901958543, 34.12760648300025], [72.33781584117783, 34.127612380830904]]]]}, "properties": {"id": "Pakistan_123102310_63398", "height": 5.11617374420166, "hmax": 0.0, "ratio": 0.0, "vulnClass": "none"}}, {"type": "Feature", "geometry": {"type": "MultiPolygon", "coordinates": [[[[72.33652448265478, 34.12793829163223], [72.33638898637416, 34.12792759764436], [72.33638601670926, 34.12795313605472], [72.33652162418893, 34.1279637423095], [72.33652448265478, 34.12793829163223]]]]}, "properties": {"id": "Pakistan_123102310_599745", "height": 2.468587398529053, "hmax": 0.0, "ratio": 0.0, "vulnClass": "none"}}, {"type": "Feature", "geometry": {"type": "MultiPolygon", "coordinates": [[[[72.33662573473718, 34.12795897020144], [72.33662001072027, 34.12798246551745], [72.33668849031396, 34.127993868392984], [72.3367412449861, 34.12777747907787], [72.33670112665347, 34.127770838718895], [72.33667076672127, 34.12789539948416], [72.33648258494166, 34.12786399936387], [72.33649092041436, 34.127829832773145], [72.33644196131868, 34.127821648174674], [72.33643312746858, 34.12785787741595], [72.33621550714281, 34.12782151065923], [72.33619944832436, 34.12788760331084], [72.33662573473718, 34.12795897020144]]]]}, "properties": {"id": "Pakistan_123102310_16616", "height": 2.928745746612549, "hmax": 0.0, "ratio": 0.0, "vulnClass": "none"}}, {"type": "Feature", "geometry": {"type": "MultiPolygon", "coordinates": [[[[72.33632032854138, 34.127721554833634], [72.33678351119131, 34.12777785547116], [72.33681590821824, 34.12759528165868], [72.33678599378183, 34.12759165745797], [72.33676782961717, 34.127693764892506], [72.336334561861, 34.127641088535206], [72.33632032854138, 34.127721554833634]]]]}, "properties": {"id": "Pakistan_123102310_140671", "height": 3.47251033782959, "hmax": 0.0, "ratio": 0.0, "vulnClass": "none"}}, {"type": "Feature", "geometry": {"type": "MultiPolygon", "coordinates": [[[[72.33818442402561, 34.12789560741283], [72.33818284878579, 34.12784905532769], [72.3381454235195, 34.12784986623636], [72.33814689040706, 34.12789641597111], [72.33818442402561, 34.12789560741283]]]]}, "properties": {"id": "Pakistan_123102310_178399", "height": 2.660514831542969, "hmax": 0.0, "ratio": 0.0, "vulnClass": "none"}}, {"type": "Feature", "geometry": {"type": "MultiPolygon", "coordinates": [[[[72.33862816309241, 34.12802927969026], [72.33858997053804, 34.12787825979073], [72.33853340171129, 34.127888031335495], [72.33855925334146, 34.1279901020521], [72.33834594543332, 34.12802703519405], [72.33832067905784, 34.127927050606566], [72.33824612524222, 34.127939947806176], [72.33828373219413, 34.12808888162172], [72.33862816309241, 34.12802927969026]]]]}, "properties": {"id": "Pakistan_123102310_528707", "height": 2.873391151428223, "hmax": 0.0, "ratio": 0.0, "vulnClass": "none"}}, {"type": "Feature", "geometry": {"type": "MultiPolygon", "coordinates": [[[[72.33845190958787, 34.127842180025745], [72.33845237279824, 34.127806670575204], [72.3384898696511, 34.12780703308789], [72.33849032905023, 34.127768187966595], [72.33840991315296, 34.12776752562869], [72.33840899048873, 34.12784188019748], [72.33845190958787, 34.127842180025745]]]]}, "properties": {"id": "Pakistan_123102310_874832", "height": 2.491133689880371, "hmax": 0.0, "ratio": 0.0, "vulnClass": "none"}}, {"type": "Feature", "geometry": {"type": "MultiPolygon", "coordinates": [[[[72.33933346111402, 34.12760707102697], [72.33927293875847, 34.127608102701515], [72.33927730610937, 34.12778345100219], [72.33933782859032, 34.12778241933144], [72.33933346111402, 34.12760707102697]]]]}, "properties": {"id": "Pakistan_123102310_699575", "height": 2.825567245483398, "hmax": 0.0, "ratio": 0.0, "vulnClass": "none"}}, {"type": "Feature", "geometry": {"type": "MultiPolygon", "coordinates": [[[[72.34391714138611, 34.12879900005178], [72.34456472678986, 34.12879669784582], [72.34456394533899, 34.128634589142386], [72.34451298646461, 34.12863483867549], [72.34451342627689, 34.12871778726319], [72.34429225163198, 34.12871859023346], [72.34429178222497, 34.12864005841676], [72.3442355150299, 34.12864019295303], [72.34423587161119, 34.12872232837303], [72.34391137364757, 34.12872350885204], [72.34391099200366, 34.12864218425702], [72.34386003314131, 34.128642433518436], [72.34386103846718, 34.12884583626146], [72.34391741694067, 34.12884561415825], [72.34391714138611, 34.12879900005178]]]]}, "properties": {"id": "Pakistan_123102310_349038", "height": 3.286331176757812, "hmax": 0.0, "ratio": 0.0, "vulnClass": "none"}}, {"type": "Feature", "geometry": {"type": "MultiPolygon", "coordinates": [[[[72.34435658373435, 34.128523092341744], [72.34435719825522, 34.12855195401208], [72.34450470035306, 34.1285497369681], [72.34450366613446, 34.128503106435495], [72.3444286151297, 34.12850418684839], [72.34442892642838, 34.12852195336414], [72.34435658373435, 34.128523092341744]]]]}, "properties": {"id": "Pakistan_123102310_140753", "height": 2.461913585662842, "hmax": 0.0, "ratio": 0.0, "vulnClass": "none"}}, {"type": "Feature", "geometry": {"type": "MultiPolygon", "coordinates": [[[[72.3440990725565, 34.13458937738588], [72.3442210654048, 34.134595443608774], [72.34421649969774, 34.13465818009549], [72.34425124608383, 34.13465992380747], [72.3442641572467, 34.13448296621412], [72.34410644318146, 34.13447513519695], [72.34410132677256, 34.13454507184517], [72.3441023018386, 34.13454509295048], [72.3440990725565, 34.13458937738588]]]]}, "properties": {"id": "Pakistan_123102310_614023", "height": 3.438800811767578, "hmax": 0.0, "ratio": 0.0, "vulnClass": "none"}}, {"type": "Feature", "geometry": {"type": "MultiPolygon", "coordinates": [[[[72.34396688186703, 34.13455929041324], [72.34397410758555, 34.13475444360685], [72.34424741885505, 34.13474755797858], [72.34424539904278, 34.134694325121124], [72.34402839863826, 34.13469981526723], [72.34402596746058, 34.134635484922136], [72.34409833792758, 34.13463362566675], [72.34409545452537, 34.13455603332341], [72.34396688186703, 34.13455929041324]]]]}, "properties": {"id": "Pakistan_123102310_756748", "height": 3.509795427322388, "hmax": 0.0, "ratio": 0.0, "vulnClass": "none"}}, {"type": "Feature", "geometry": {"type": "MultiPolygon", "coordinates": [[[[72.34748354580866, 34.13671163358136], [72.34751679689582, 34.13678203924133], [72.3476959795438, 34.13672406895504], [72.34766272832395, 34.13665366333713], [72.34748354580866, 34.13671163358136]]]]}, "properties": {"id": "Pakistan_123102310_443355", "height": 3.671491384506226, "hmax": 0.056, "ratio": 0.015, "vulnClass": "none"}}, {"type": "Feature", "geometry": {"type": "MultiPolygon", "coordinates": [[[[72.34670108720047, 34.13718351525293], [72.34665030445325, 34.13708090692082], [72.34656067020072, 34.13711124265073], [72.34661155837915, 34.13721394344842], [72.34670108720047, 34.13718351525293]]]]}, "properties": {"id": "Pakistan_123102310_799257", "height": 3.555296421051025, "hmax": 0.057, "ratio": 0.016, "vulnClass": "none"}}, {"type": "Feature", "geometry": {"type": "MultiPolygon", "coordinates": [[[[72.34718572721592, 34.137092935013804], [72.34710628603256, 34.13699493600661], [72.34694906151448, 34.137082228557645], [72.34702850258407, 34.13718022766074], [72.34718572721592, 34.137092935013804]]]]}, "properties": {"id": "Pakistan_123102310_761553", "height": 3.835754156112671, "hmax": 0.0, "ratio": 0.0, "vulnClass": "none"}}, {"type": "Feature", "geometry": {"type": "MultiPolygon", "coordinates": [[[[72.34676550771175, 34.137203659737736], [72.3467524078244, 34.137168397827274], [72.34669251955057, 34.137183600434035], [72.34670561659689, 34.13721895243995], [72.34676550771175, 34.137203659737736]]]]}, "properties": {"id": "Pakistan_123102310_632997", "height": 3.485592126846313, "hmax": 0.0, "ratio": 0.0, "vulnClass": "none"}}, {"type": "Feature", "geometry": {"type": "MultiPolygon", "coordinates": [[[[72.3468701895761, 34.13723991031709], [72.3468134470919, 34.13726545823267], [72.34683590126546, 34.137299750445585], [72.34689275492909, 34.13727411477304], [72.3468701895761, 34.13723991031709]]]]}, "properties": {"id": "Pakistan_123102310_315851", "height": 3.483786106109619, "hmax": 0.0, "ratio": 0.0, "vulnClass": "none"}}, {"type": "Feature", "geometry": {"type": "MultiPolygon", "coordinates": [[[[72.3452412598347, 34.13811502236953], [72.34518811304758, 34.13813650035139], [72.34522878653989, 34.138205264164284], [72.34516059618856, 34.13823281736107], [72.34518880833457, 34.138280576807745], [72.34531003721855, 34.13823154324392], [72.3452412598347, 34.13811502236953]]]]}, "properties": {"id": "Pakistan_123102310_632984", "height": 3.373764991760254, "hmax": 0.0, "ratio": 0.0, "vulnClass": "none"}}, {"type": "Feature", "geometry": {"type": "MultiPolygon", "coordinates": [[[[72.34423032141216, 34.13833456924064], [72.34424410096383, 34.13841735570488], [72.34450469988312, 34.13838747658224], [72.34449081173231, 34.13830468779024], [72.34423032141216, 34.13833456924064]]]]}, "properties": {"id": "Pakistan_123102310_490859", "height": 2.817080497741699, "hmax": 0.121, "ratio": 0.043, "vulnClass": "low"}}, {"type": "Feature", "geometry": {"type": "MultiPolygon", "coordinates": [[[[72.34463618234591, 34.13845423926845], [72.34465694584897, 34.138490568746356], [72.34453291618, 34.1385390001199], [72.34453599735055, 34.1385444758677], [72.34441317626553, 34.13859239236655], [72.34443485840988, 34.13863054478362], [72.34475415086486, 34.13850592459199], [72.34470862389105, 34.13842596701509], [72.34463618234591, 34.13845423926845]]]]}, "properties": {"id": "Pakistan_123102310_495635", "height": 2.49884033203125, "hmax": 0.0, "ratio": 0.0, "vulnClass": "none"}}, {"type": "Feature", "geometry": {"type": "MultiPolygon", "coordinates": [[[[72.3442205981073, 34.13866593431013], [72.3442498058646, 34.13871651019325], [72.34437528674351, 34.13866675826277], [72.34434597057854, 34.1386161800614], [72.3442205981073, 34.13866593431013]]]]}, "properties": {"id": "Pakistan_123102310_566597", "height": 3.301151990890503, "hmax": 0.133, "ratio": 0.04, "vulnClass": "low"}}, {"type": "Feature", "geometry": {"type": "MultiPolygon", "coordinates": [[[[72.3450388901678, 34.1387335874317], [72.34504416161292, 34.138773007361124], [72.34512364177807, 34.13876580221912], [72.34511837311544, 34.13872629220129], [72.3450388901678, 34.1387335874317]]]]}, "properties": {"id": "Pakistan_123102310_519462", "height": 2.482091426849365, "hmax": 0.0, "ratio": 0.0, "vulnClass": "none"}}]}