{"type": "FeatureCollection", "features": [{"type": "Feature", "geometry": {"type": "MultiPolygon", "coordinates": [[[[71.98708826469004, 34.19645991502141], [71.98705087206422, 34.19645593111859], [71.98704603264912, 34.19648826258595], [71.9870834284951, 34.19649215642971], [71.98708826469004, 34.19645991502141]]]]}, "properties": {"id": "8J6H5XWP+HRPR", "height": 2.538645267486572, "hmax": 0.134, "ratio": 0.053, "vulnClass": "low"}}, {"type": "Feature", "geometry": {"type": "MultiPolygon", "coordinates": [[[[71.98736145288868, 34.195624000360105], [71.98735401833974, 34.195674386221505], [71.98747485967849, 34.1956867307945], [71.98748218577241, 34.19563634225824], [71.98736145288868, 34.195624000360105]]]]}, "properties": {"id": "8J6H5XWP+7X77", "height": 3.621494770050049, "hmax": 0.088, "ratio": 0.024, "vulnClass": "none"}}, {"type": "Feature", "geometry": {"type": "MultiPolygon", "coordinates": [[[[71.98684265015278, 34.18927511975343], [71.98672584340213, 34.189265488051205], [71.98671445096797, 34.18936003543333], [71.9868802469108, 34.18937384593642], [71.98688824509024, 34.18930760924777], [71.98683925285748, 34.18930352053107], [71.98684265015278, 34.18927511975343]]]]}, "properties": {"id": "8J6H5XQP+PPFW", "height": 2.629930973052979, "hmax": 0.0, "ratio": 0.0, "vulnClass": "none"}}, {"type": "Feature", "geometry": {"type": "MultiPolygon", "coordinates": [[[[71.98660843252162, 34.18877918035355], [71.98655446171429, 34.1887747888681], [71.98653765317366, 34.1889178787668], [71.98673503967161, 34.18893399839821], [71.9867427858796, 34.188868747065555], [71.98664349501902, 34.18886071767754], [71.98664863269089, 34.188816945722955], [71.98660450166885, 34.18881342711765], [71.98660843252162, 34.18877918035355]]]]}, "properties": {"id": "8J6H5XQP+GJXX", "height": 3.223647594451904, "hmax": 0.052, "ratio": 0.016, "vulnClass": "none"}}, {"type": "Feature", "geometry": {"type": "MultiPolygon", "coordinates": [[[[71.98761303637275, 34.18861007001481], [71.98748255871239, 34.188585320125966], [71.98747047900164, 34.18862910181042], [71.98760095351922, 34.18865394177681], [71.98761303637275, 34.18861007001481]]]]}, "properties": {"id": "8J6H5XQQ+C2VM", "height": 2.669811248779297, "hmax": 0.221, "ratio": 0.083, "vulnClass": "low"}}, {"type": "Feature", "geometry": {"type": "MultiPolygon", "coordinates": [[[[71.98717453207371, 34.187907828383324], [71.98718579546961, 34.1878168833569], [71.98713432105748, 34.18781246335734], [71.98712976527973, 34.187849038434905], [71.98697317772164, 34.18783563496318], [71.98696646995117, 34.18789000489065], [71.98717453207371, 34.187907828383324]]]]}, "properties": {"id": "8J6H5XQP+4RWP", "height": 3.578433275222778, "hmax": 0.0, "ratio": 0.0, "vulnClass": "none"}}, {"type": "Feature", "geometry": {"type": "MultiPolygon", "coordinates": [[[[71.98656340093522, 34.18782889769323], [71.98649007326047, 34.18782285854211], [71.98648296569596, 34.18788235659438], [71.98655629342113, 34.187888395752424], [71.98656340093522, 34.18782889769323]]]]}, "properties": {"id": "8J6H5XQP+4JR8", "height": 2.77564811706543, "hmax": 0.0, "ratio": 0.0, "vulnClass": "none"}}, {"type": "Feature", "geometry": {"type": "MultiPolygon", "coordinates": [[[[71.98670301885018, 34.18782232414736], [71.98656555614423, 34.18781101278345], [71.98655629342113, 34.187888395752424], [71.98669386783097, 34.18789961973586], [71.98670301885018, 34.18782232414736]]]]}, "properties": {"id": "8J6H5XQP+4MR6", "height": 2.77564811706543, "hmax": 0.0, "ratio": 0.0, "vulnClass": "none"}}, {"type": "Feature", "geometry": {"type": "MultiPolygon", "coordinates": [[[[71.9866623872054, 34.187918586599764], [71.98646647928791, 34.187900610322444], [71.98645848225203, 34.18796071748731], [71.98665439030509, 34.18797869378463], [71.9866623872054, 34.187918586599764]]]]}, "properties": {"id": "8J6H5XQP+5JFH", "height": 2.508359909057617, "hmax": 0.0, "ratio": 0.0, "vulnClass": "none"}}, {"type": "Feature", "geometry": {"type": "MultiPolygon", "coordinates": [[[[71.98718766034337, 34.188108893180875], [71.98715551767118, 34.18810684124352], [71.98715133007035, 34.188151357703376], [71.98718358113481, 34.188153412306264], [71.98718766034337, 34.188108893180875]]]]}, "properties": {"id": "8J6H5XQP+7V37", "height": 2.973354339599609, "hmax": 0.0, "ratio": 0.0, "vulnClass": "none"}}, {"type": "Feature", "geometry": {"type": "MultiPolygon", "coordinates": [[[[71.98717636944684, 34.18816098711786], [71.98713793516087, 34.188155896060266], [71.98712690784942, 34.18821277389804], [71.98716534216004, 34.188217864960365], [71.98717636944684, 34.18816098711786]]]]}, "properties": {"id": "8J6H5XQP+7VCH", "height": 2.643301486968994, "hmax": 0.0, "ratio": 0.0, "vulnClass": "none"}}, {"type": "Feature", "geometry": {"type": "MultiPolygon", "coordinates": [[[[71.98560280442501, 34.18794427658275], [71.98541936127727, 34.18792047561134], [71.98540556243199, 34.187994231447504], [71.98558900893954, 34.18801794238642], [71.98560280442501, 34.18794427658275]]]]}, "properties": {"id": "8J6H5XQP+56JJ", "height": 2.933055400848389, "hmax": 0.0, "ratio": 0.0, "vulnClass": "none"}}, {"type": "Feature", "geometry": {"type": "MultiPolygon", "coordinates": [[[[71.98521234559283, 34.18784282184673], [71.98511768557265, 34.18782967701774], [71.9850902651339, 34.18796610573347], [71.98541202634536, 34.188010705764654], [71.98542692818286, 34.187936436211224], [71.98519993570146, 34.187904983740836], [71.98521234559283, 34.18784282184673]]]]}, "properties": {"id": "8J6H5XQP+53H8", "height": 2.582186460494995, "hmax": 0.0, "ratio": 0.0, "vulnClass": "none"}}, {"type": "Feature", "geometry": {"type": "MultiPolygon", "coordinates": [[[[71.98478944498993, 34.187799519560315], [71.9847208090595, 34.18779575811478], [71.98471689653032, 34.187844698086735], [71.98487474048588, 34.187853267776106], [71.98488105683882, 34.18777337872773], [71.98479184893608, 34.187768570497205], [71.98478944498993, 34.187799519560315]]]]}, "properties": {"id": "8J6H5XQM+4WFH", "height": 2.460885524749756, "hmax": 0.0, "ratio": 0.0, "vulnClass": "none"}}, {"type": "Feature", "geometry": {"type": "MultiPolygon", "coordinates": [[[[71.98630280631812, 34.18859508256414], [71.98630704700659, 34.18855822936541], [71.98613884608895, 34.18854498998506], [71.98612195291813, 34.188693486138256], [71.98617982518091, 34.188697973731664], [71.98619258268651, 34.18858642348336], [71.98630280631812, 34.18859508256414]]]]}, "properties": {"id": "8J6H5XQP+CFW6", "height": 2.652274131774902, "hmax": 0.0, "ratio": 0.0, "vulnClass": "none"}}, {"type": "Feature", "geometry": {"type": "MultiPolygon", "coordinates": [[[[71.98617375677206, 34.188725227134924], [71.98610011542597, 34.18872188422086], [71.98609770420553, 34.18875914294893], [71.9861713423774, 34.18876257592744], [71.98617375677206, 34.188725227134924]]]]}, "properties": {"id": "8J6H5XQP+FFRM", "height": 2.936895847320557, "hmax": 0.0, "ratio": 0.0, "vulnClass": "none"}}, {"type": "Feature", "geometry": {"type": "MultiPolygon", "coordinates": [[[[71.98617414424483, 34.188976367045015], [71.98608274880517, 34.1889689820134], [71.98606946777028, 34.189083043290914], [71.9861967738652, 34.18909329430317], [71.9862035117786, 34.18903504915848], [71.9861676012681, 34.1890321831974], [71.98617414424483, 34.188976367045015]]]]}, "properties": {"id": "8J6H5XQP+JF6C", "height": 4.041181087493896, "hmax": 0.0, "ratio": 0.0, "vulnClass": "none"}}, {"type": "Feature", "geometry": {"type": "MultiPolygon", "coordinates": [[[[71.98624288072683, 34.18903827055534], [71.9862035117786, 34.18903504915848], [71.9861967738652, 34.18909329430317], [71.98623614283996, 34.1890965157036], [71.98624288072683, 34.18903827055534]]]]}, "properties": {"id": "8J6H5XQP+JFHJ", "height": 3.711030244827271, "hmax": 0.0, "ratio": 0.0, "vulnClass": "none"}}, {"type": "Feature", "geometry": {"type": "MultiPolygon", "coordinates": [[[[71.9861967738652, 34.18909329430317], [71.98609477661728, 34.18908510778568], [71.98608665921503, 34.18915467665996], [71.98622791717463, 34.18916608192884], [71.98623071442864, 34.18914235370771], [71.98619134543301, 34.18913913230442], [71.9861967738652, 34.18909329430317]]]]}, "properties": {"id": "8J6H5XQP+MF25", "height": 4.398784160614014, "hmax": 0.0, "ratio": 0.0, "vulnClass": "none"}}, {"type": "Feature", "geometry": {"type": "MultiPolygon", "coordinates": [[[[71.98609521395537, 34.189112430994044], [71.98605125147428, 34.1891102684309], [71.98604761341812, 34.18916065744851], [71.98609157592512, 34.18916282001435], [71.98609521395537, 34.189112430994044]]]]}, "properties": {"id": "8J6H5XQP+MC4F", "height": 4.053469657897949, "hmax": 0.0, "ratio": 0.0, "vulnClass": "none"}}, {"type": "Feature", "geometry": {"type": "MultiPolygon", "coordinates": [[[[71.98704585527913, 34.19512813461824], [71.9870008346423, 34.195125135036704], [71.98699006210839, 34.195238807299994], [71.98703508601096, 34.19524171682739], [71.98704585527913, 34.19512813461824]]]]}, "properties": {"id": "8J6H5XWP+3RC8", "height": 4.084841728210449, "hmax": 0.0, "ratio": 0.0, "vulnClass": "none"}}, {"type": "Feature", "geometry": {"type": "MultiPolygon", "coordinates": [[[[71.98700114376476, 34.195125593335625], [71.98685371385346, 34.19511358625917], [71.98684033027467, 34.19522746473889], [71.98698776038015, 34.19523947184176], [71.98700114376476, 34.195125593335625]]]]}, "properties": {"id": "8J6H5XWP+3QF3", "height": 4.603670120239258, "hmax": 0.0, "ratio": 0.0, "vulnClass": "none"}}, {"type": "Feature", "geometry": {"type": "MultiPolygon", "coordinates": [[[[71.98637427371888, 34.19479261925123], [71.98597341011968, 34.1947631124648], [71.9859611888141, 34.194877830660346], [71.98636194135568, 34.19490742491156], [71.98637427371888, 34.19479261925123]]]]}, "properties": {"id": "8J6H5XVP+WFMF", "height": 4.514451026916504, "hmax": 0.0, "ratio": 0.0, "vulnClass": "none"}}, {"type": "Feature", "geometry": {"type": "MultiPolygon", "coordinates": [[[[71.98273469806752, 34.18911431364304], [71.98269338815989, 34.18911077292413], [71.98268022529646, 34.18921834652697], [71.98289154049642, 34.18923625744737], [71.98290470309736, 34.189128683807866], [71.98281094294659, 34.189120697292225], [71.98280776183152, 34.189146038479805], [71.98273162851665, 34.189139567434026], [71.98273469806752, 34.18911431364304]]]]}, "properties": {"id": "8J6H5XQM+M4F3", "height": 3.110084533691406, "hmax": 0.0, "ratio": 0.0, "vulnClass": "none"}}, {"type": "Feature", "geometry": {"type": "MultiPolygon", "coordinates": [[[[71.98290470309736, 34.189128683807866], [71.98293094150252, 34.18891596816201], [71.98288562817908, 34.18891214869807], [71.98286974767265, 34.18904119890862], [71.98270374633024, 34.18902710752699], [71.98269338815989, 34.18911077292413], [71.98290470309736, 34.189128683807866]]]]}, "properties": {"id": "8J6H5XQM+J4G4", "height": 3.141578197479248, "hmax": 0.0, "ratio": 0.0, "vulnClass": "none"}}, {"type": "Feature", "geometry": {"type": "MultiPolygon", "coordinates": [[[[71.98266185733029, 34.18858637346688], [71.98252582563728, 34.18857446178378], [71.98250197363296, 34.1887628081244], [71.98259172343145, 34.188770696151174], [71.98259538059256, 34.18874113010661], [71.98255310191259, 34.188737385219426], [71.98256774907252, 34.188621645421186], [71.98265652977013, 34.18862932926195], [71.98266185733029, 34.18858637346688]]]]}, "properties": {"id": "8J6H5XQM+F27H", "height": 3.36393141746521, "hmax": 0.0, "ratio": 0.0, "vulnClass": "none"}}, {"type": "Feature", "geometry": {"type": "MultiPolygon", "coordinates": [[[[71.98251798020752, 34.18859067414872], [71.98247466124833, 34.18859177119046], [71.98247537915519, 34.18861423372536], [71.98251880650167, 34.18861313935168], [71.98251798020752, 34.18859067414872]]]]}, "properties": {"id": "8J6H5XQJ+CXX5", "height": 3.632417917251587, "hmax": 0.0, "ratio": 0.0, "vulnClass": "none"}}, {"type": "Feature", "geometry": {"type": "MultiPolygon", "coordinates": [[[[71.98259269636684, 34.1878517426039], [71.98254505640308, 34.187849308001404], [71.98253952291532, 34.1879254302539], [71.98258705454658, 34.187927862193206], [71.98259269636684, 34.1878517426039]]]]}, "properties": {"id": "8J6H5XQM+524C", "height": 4.301229476928711, "hmax": 0.0, "ratio": 0.0, "vulnClass": "none"}}, {"type": "Feature", "geometry": {"type": "MultiPolygon", "coordinates": [[[[71.98275235184182, 34.1879829500562], [71.98271625334749, 34.1879823319708], [71.98271566364365, 34.18800800736363], [71.98275165056403, 34.18800871284334], [71.98275235184182, 34.1879829500562]]]]}, "properties": {"id": "8J6H5XQM+53XV", "height": 2.524989128112793, "hmax": 0.0, "ratio": 0.0, "vulnClass": "none"}}, {"type": "Feature", "geometry": {"type": "MultiPolygon", "coordinates": [[[[71.98271625334749, 34.1879823319708], [71.98267137648261, 34.187981497805325], [71.98266894759958, 34.18807094706548], [71.98271393609679, 34.188071693840854], [71.98271625334749, 34.1879823319708]]]]}, "properties": {"id": "8J6H5XQM+6382", "height": 3.279954433441162, "hmax": 0.0, "ratio": 0.0, "vulnClass": "none"}}, {"type": "Feature", "geometry": {"type": "MultiPolygon", "coordinates": [[[[71.9825935929216, 34.18797570720439], [71.98256226935273, 34.18797502632597], [71.98256133047063, 34.18800745362341], [71.98259265405144, 34.188008134502695], [71.9825935929216, 34.18797570720439]]]]}, "properties": {"id": "8J6H5XQM+52WM", "height": 3.265147686004639, "hmax": 0.0, "ratio": 0.0, "vulnClass": "none"}}, {"type": "Feature", "geometry": {"type": "MultiPolygon", "coordinates": [[[[71.98265776908598, 34.18789156368869], [71.98258999063694, 34.18788809257336], [71.98258705454658, 34.187927862193206], [71.98265483302711, 34.18793133331184], [71.98265776908598, 34.18789156368869]]]]}, "properties": {"id": "8J6H5XQM+5299", "height": 3.579205513000488, "hmax": 0.0, "ratio": 0.0, "vulnClass": "none"}}, {"type": "Feature", "geometry": {"type": "MultiPolygon", "coordinates": [[[[71.98283886421574, 34.188112086675304], [71.98266802648527, 34.188108963483316], [71.98266594502974, 34.188185621410206], [71.9828368912898, 34.18818874728074], [71.98283886421574, 34.188112086675304]]]]}, "properties": {"id": "8J6H5XQM+742R", "height": 3.467217445373535, "hmax": 0.0, "ratio": 0.0, "vulnClass": "none"}}, {"type": "Feature", "geometry": {"type": "MultiPolygon", "coordinates": [[[[71.98266594502974, 34.188185621410206], [71.98266802648527, 34.188108963483316], [71.98255745818558, 34.18810696303088], [71.98255537663017, 34.18818362095057], [71.98266594502974, 34.188185621410206]]]]}, "properties": {"id": "8J6H5XQM+725W", "height": 3.60436487197876, "hmax": 0.0, "ratio": 0.0, "vulnClass": "none"}}, {"type": "Feature", "geometry": {"type": "MultiPolygon", "coordinates": [[[[71.98240600740385, 34.18843026296902], [71.9823574615982, 34.18842888766609], [71.98235623280655, 34.188460316281095], [71.98240467025461, 34.188461688917684], [71.98240600740385, 34.18843026296902]]]]}, "properties": {"id": "8J6H5XQJ+9XCR", "height": 2.657940626144409, "hmax": 0.0, "ratio": 0.0, "vulnClass": "none"}}, {"type": "Feature", "geometry": {"type": "MultiPolygon", "coordinates": [[[[71.98252567939956, 34.18833207168204], [71.98241816138399, 34.188329695478565], [71.98241562370741, 34.188406973142214], [71.98252325019631, 34.188409352020834], [71.98252567939956, 34.18833207168204]]]]}, "properties": {"id": "8J6H5XQJ+8XXJ", "height": 2.442306756973267, "hmax": 0.0, "ratio": 0.0, "vulnClass": "none"}}, {"type": "Feature", "geometry": {"type": "MultiPolygon", "coordinates": [[[[71.98231717133922, 34.18810158900969], [71.98221323001334, 34.18809930068116], [71.98221081981113, 34.18817604063553], [71.98231465285575, 34.18817832630328], [71.98231717133922, 34.18810158900969]]]]}, "properties": {"id": "8J6H5XQJ+7W2F", "height": 2.774194955825806, "hmax": 0.065, "ratio": 0.023, "vulnClass": "none"}}, {"type": "Feature", "geometry": {"type": "MultiPolygon", "coordinates": [[[[71.98244008723279, 34.188031060491944], [71.98243487215329, 34.188006954873906], [71.98240859327325, 34.18801081499569], [71.98241369997031, 34.188034917946716], [71.98244008723279, 34.188031060491944]]]]}, "properties": {"id": "8J6H5XQJ+6X3W", "height": 2.612170219421387, "hmax": 0.065, "ratio": 0.025, "vulnClass": "none"}}, {"type": "Feature", "geometry": {"type": "MultiPolygon", "coordinates": [[[[71.98200431640369, 34.18787719054679], [71.98194622111241, 34.1878759405478], [71.98194483812681, 34.18792386098097], [71.98200282507605, 34.187925108314246], [71.98200431640369, 34.18787719054679]]]]}, "properties": {"id": "8J6H5XQJ+5Q92", "height": 2.455444812774658, "hmax": 0.0, "ratio": 0.0, "vulnClass": "none"}}, {"type": "Feature", "geometry": {"type": "MultiPolygon", "coordinates": [[[[71.98195245074325, 34.187710326450436], [71.9818493986101, 34.187710493498265], [71.98184954094549, 34.187788648384654], [71.98195259317389, 34.18778848134182], [71.98195245074325, 34.187710326450436]]]]}, "properties": {"id": "8J6H5XQJ+3QRX", "height": 2.641000747680664, "hmax": 0.0, "ratio": 0.0, "vulnClass": "none"}}, {"type": "Feature", "geometry": {"type": "MultiPolygon", "coordinates": [[[[71.98251550513315, 34.1886601111743], [71.9823979510391, 34.18865018655804], [71.98238905201447, 34.188723341463586], [71.98250660620783, 34.188733266093664], [71.98251550513315, 34.1886601111743]]]]}, "properties": {"id": "8J6H5XQJ+FXGM", "height": 3.459134340286255, "hmax": 0.0, "ratio": 0.0, "vulnClass": "none"}}, {"type": "Feature", "geometry": {"type": "MultiPolygon", "coordinates": [[[[71.97921805312482, 34.18888636597782], [71.97916823240885, 34.18888423686611], [71.97915911485273, 34.18903030925225], [71.97937713748631, 34.18903955779314], [71.97938379228678, 34.18893209471836], [71.97928934639906, 34.188928144915764], [71.97928738674004, 34.188958744195844], [71.9792137393566, 34.188955577266015], [71.97921805312482, 34.18888636597782]]]]}, "properties": {"id": "8J6H5XQH+HPR4", "height": 2.6102454662323, "hmax": 0.0, "ratio": 0.0, "vulnClass": "none"}}, {"type": "Feature", "geometry": {"type": "MultiPolygon", "coordinates": [[[[71.98040787570187, 34.18796181933548], [71.98035370356311, 34.187963098993855], [71.98036229436288, 34.18821489121805], [71.98041646666339, 34.18821361156454], [71.98040787570187, 34.18796181933548]]]]}, "properties": {"id": "8J6H5XQJ+65JF", "height": 3.68444561958313, "hmax": 0.0, "ratio": 0.0, "vulnClass": "none"}}, {"type": "Feature", "geometry": {"type": "MultiPolygon", "coordinates": [[[[71.9797687973544, 34.18761751557798], [71.97972155905457, 34.18761599117649], [71.97971631204048, 34.187729618502395], [71.9798941093764, 34.18773526089373], [71.97989649865934, 34.18768348929019], [71.97976605135301, 34.18767928392181], [71.9797687973544, 34.18761751557798]]]]}, "properties": {"id": "8J6H5XQH+3WFM", "height": 3.059190273284912, "hmax": 0.0, "ratio": 0.0, "vulnClass": "none"}}, {"type": "Feature", "geometry": {"type": "MultiPolygon", "coordinates": [[[[71.97855651521142, 34.18808936068674], [71.97853127033848, 34.18808855818017], [71.97853023070611, 34.188111608369084], [71.97859686508573, 34.188113701439256], [71.97859865272292, 34.188072731845594], [71.97855726324305, 34.188071441284265], [71.97855651521142, 34.18808936068674]]]]}, "properties": {"id": "8J6H5XQH+6CPJ", "height": 2.44630241394043, "hmax": 0.0, "ratio": 0.0, "vulnClass": "none"}}, {"type": "Feature", "geometry": {"type": "MultiPolygon", "coordinates": [[[[71.97785008506844, 34.188361836715714], [71.97777658849668, 34.188357500836], [71.9777667066175, 34.18847326721998], [71.97793026528925, 34.18848279804009], [71.97793482748125, 34.188427925187376], [71.9778882808645, 34.18842524529894], [71.97789037964976, 34.18839987759619], [71.97784708108624, 34.18839736790692], [71.97785008506844, 34.188361836715714]]]]}, "properties": {"id": "8J6H5XQH+94G5", "height": 2.481625556945801, "hmax": 0.0, "ratio": 0.0, "vulnClass": "none"}}, {"type": "Feature", "geometry": {"type": "MultiPolygon", "coordinates": [[[[71.97808309669489, 34.18781439256435], [71.97805884470068, 34.18793467230328], [71.97815480059624, 34.187947944654674], [71.97816259632422, 34.18790883583444], [71.97825423330893, 34.18792155094367], [71.97826333775707, 34.18787616458304], [71.9783055385544, 34.18788207237413], [71.97831277855326, 34.18784637515929], [71.97808309669489, 34.18781439256435]]]]}, "properties": {"id": "8J6H5XQH+5733", "height": 3.06591796875, "hmax": 0.0, "ratio": 0.0, "vulnClass": "none"}}, {"type": "Feature", "geometry": {"type": "MultiPolygon", "coordinates": [[[[71.97806041152587, 34.18770845981642], [71.9780402457068, 34.18780846866955], [71.97823376999854, 34.18783541362686], [71.97825393560015, 34.18773540473034], [71.97806041152587, 34.18770845981642]]]]}, "properties": {"id": "8J6H5XQH+472W", "height": 2.814288854598999, "hmax": 0.0, "ratio": 0.0, "vulnClass": "none"}}, {"type": "Feature", "geometry": {"type": "MultiPolygon", "coordinates": [[[[71.97810282547822, 34.18883877781181], [71.97802790994147, 34.1888346775111], [71.97802394523586, 34.188884967961606], [71.9780987524409, 34.188889065595454], [71.97810282547822, 34.18883877781181]]]]}, "properties": {"id": "8J6H5XQH+G6WC", "height": 3.119048118591309, "hmax": 0.0, "ratio": 0.0, "vulnClass": "none"}}, {"type": "Feature", "geometry": {"type": "MultiPolygon", "coordinates": [[[[71.97691630984066, 34.18904397638371], [71.97659220751346, 34.189001189204994], [71.97658193586325, 34.189054929621754], [71.9769061467628, 34.18909771951076], [71.97691630984066, 34.18904397638371]]]]}, "properties": {"id": "8J6H5XQG+JM9X", "height": 2.73195219039917, "hmax": 0.0, "ratio": 0.0, "vulnClass": "none"}}, {"type": "Feature", "geometry": {"type": "MultiPolygon", "coordinates": [[[[71.97299449747393, 34.19380428383166], [71.97291338646848, 34.193794348482946], [71.97284178722882, 34.19419784818202], [71.97296264143793, 34.19421273121209], [71.97298859907953, 34.19406626431399], [71.97294885309213, 34.19406140677182], [71.97299449747393, 34.19380428383166]]]]}, "properties": {"id": "8J6H5XVF+J53W", "height": 2.492048740386963, "hmax": 0.271, "ratio": 0.109, "vulnClass": "low"}}, {"type": "Feature", "geometry": {"type": "MultiPolygon", "coordinates": [[[[71.97316725110036, 34.19412115422326], [71.97310622792817, 34.194113698106094], [71.97308598526354, 34.19422776574298], [71.97326321852987, 34.19424953922886], [71.97326961365627, 34.1942132807164], [71.97315340046808, 34.1941990534307], [71.97316725110036, 34.19412115422326]]]]}, "properties": {"id": "8J6H5XVF+M7FJ", "height": 2.991368532180786, "hmax": 0.264, "ratio": 0.088, "vulnClass": "low"}}, {"type": "Feature", "geometry": {"type": "MultiPolygon", "coordinates": [[[[71.97291937591325, 34.19440636440872], [71.97278338034978, 34.1943811018839], [71.97275848149317, 34.1944736913576], [71.97289447719383, 34.19449895391733], [71.97291937591325, 34.19440636440872]]]]}, "properties": {"id": "8J6H5XVF+Q4GQ", "height": 3.026746988296509, "hmax": 0.282, "ratio": 0.093, "vulnClass": "low"}}, {"type": "Feature", "geometry": {"type": "MultiPolygon", "coordinates": [[[[71.97272620913999, 34.19448127730738], [71.97270594849724, 34.194556404086875], [71.9727970097635, 34.19457325566713], [71.97278938695754, 34.19460137125826], [71.97283594081097, 34.19461000257583], [71.97282555349237, 34.194648686374364], [71.97305325158545, 34.1946910865138], [71.97307126475106, 34.19462419701811], [71.97298796180294, 34.1946087991883], [71.97299858835417, 34.19456949030377], [71.97296151739445, 34.1945626256073], [71.97297114804859, 34.194526897717274], [71.9729287985862, 34.19451900126017], [71.97272620913999, 34.19448127730738]]]]}, "properties": {"id": "8J6H5XVF+R5J7", "height": 3.598413944244385, "hmax": 0.26, "ratio": 0.072, "vulnClass": "low"}}, {"type": "Feature", "geometry": {"type": "MultiPolygon", "coordinates": [[[[71.97297183903156, 34.19469259146973], [71.97285465323608, 34.19466914561972], [71.97282136546794, 34.194783972699476], [71.97297312322647, 34.194814401857165], [71.97299910467322, 34.19472490382266], [71.97296442450583, 34.194717917887026], [71.97297183903156, 34.19469259146973]]]]}, "properties": {"id": "8J6H5XVF+V5VJ", "height": 3.940898418426514, "hmax": 0.316, "ratio": 0.08, "vulnClass": "low"}}, {"type": "Feature", "geometry": {"type": "MultiPolygon", "coordinates": [[[[71.97302614606349, 34.19481201554305], [71.9730156995638, 34.19475226539318], [71.97299260004036, 34.194755120253106], [71.97297355276798, 34.19479935914262], [71.97297679099911, 34.194818007880954], [71.97302614606349, 34.19481201554305]]]]}, "properties": {"id": "8J6H5XVF+W66C", "height": 2.817962646484375, "hmax": 0.342, "ratio": 0.121, "vulnClass": "low"}}, {"type": "Feature", "geometry": {"type": "MultiPolygon", "coordinates": [[[[71.97273962331973, 34.19478862424575], [71.97272482080962, 34.19484459594107], [71.97284929743668, 34.19486741072236], [71.97286409987073, 34.194811439007985], [71.97273962331973, 34.19478862424575]]]]}, "properties": {"id": "8J6H5XVF+W4M3", "height": 2.778471946716309, "hmax": 0.368, "ratio": 0.132, "vulnClass": "low"}}, {"type": "Feature", "geometry": {"type": "MultiPolygon", "coordinates": [[[[71.97262213000285, 34.19496482988506], [71.97237398370685, 34.194917867568265], [71.97235402315307, 34.19499065805534], [71.9728149729697, 34.195077940497534], [71.9728349331589, 34.19500514991605], [71.97268796215718, 34.19497736271169], [71.97269370480483, 34.194956321726224], [71.97262821070007, 34.19494343669381], [71.97262213000285, 34.19496482988506]]]]}, "properties": {"id": "8J6H5XVF+X2XR", "height": 2.997760772705078, "hmax": 0.344, "ratio": 0.115, "vulnClass": "low"}}, {"type": "Feature", "geometry": {"type": "MultiPolygon", "coordinates": [[[[71.97271432842422, 34.1946435958111], [71.97265353895395, 34.19463262978429], [71.9726364440639, 34.19469809965415], [71.97269723679909, 34.19470897563168], [71.97271432842422, 34.1946435958111]]]]}, "properties": {"id": "8J6H5XVF+V37W", "height": 2.460449695587158, "hmax": 0.299, "ratio": 0.122, "vulnClass": "low"}}, {"type": "Feature", "geometry": {"type": "MultiPolygon", "coordinates": [[[[71.97269829008235, 34.19431256746916], [71.972518791914, 34.194278297952685], [71.9724777928703, 34.19442673684038], [71.97272883514941, 34.19447458168909], [71.97275600268269, 34.19437618917472], [71.97268445893755, 34.19436261393777], [71.97269829008235, 34.19431256746916]]]]}, "properties": {"id": "8J6H5XVF+Q254", "height": 3.808942079544067, "hmax": 0.302, "ratio": 0.079, "vulnClass": "low"}}]}