{"type": "FeatureCollection", "features": [{"type": "Feature", "geometry": {"type": "MultiPolygon", "coordinates": [[[[71.94150346883737, 34.23229058888001], [71.94138817928557, 34.2322825726829], [71.94138413317154, 34.23232240292448], [71.94149941951761, 34.2323305091852], [71.94150346883737, 34.23229058888001]]]]}, "properties": {"id": "8J6H6WJR+WHG6", "height": 2.693453073501587, "hmax": 0.0, "ratio": 0.0, "vulnClass": "none"}}, {"type": "Feature", "geometry": {"type": "MultiPolygon", "coordinates": [[[[71.93960025783248, 34.23179308943843], [71.93955245307913, 34.231785585547705], [71.93953544702687, 34.231859614890894], [71.9395833602464, 34.23186712149901], [71.93960025783248, 34.23179308943843]]]]}, "properties": {"id": "8J6H6WJQ+PRP2", "height": 3.313604354858398, "hmax": 0.249, "ratio": 0.075, "vulnClass": "low"}}, {"type": "Feature", "geometry": {"type": "MultiPolygon", "coordinates": [[[[71.93935288219328, 34.23190228645052], [71.9392656622316, 34.2318923555205], [71.93923321041386, 34.23209020938354], [71.93932043057248, 34.23210014034725], [71.93935288219328, 34.23190228645052]]]]}, "properties": {"id": "8J6H6WJQ+QPVV", "height": 2.513448715209961, "hmax": 0.271, "ratio": 0.108, "vulnClass": "low"}}, {"type": "Feature", "geometry": {"type": "MultiPolygon", "coordinates": [[[[71.93944123101029, 34.2315184316047], [71.93935008279026, 34.23151209827685], [71.939315215929, 34.2318545636932], [71.93940636125078, 34.23186098712329], [71.93944123101029, 34.2315184316047]]]]}, "properties": {"id": "8J6H6WJQ+MQCC", "height": 2.53612494468689, "hmax": 0.222, "ratio": 0.088, "vulnClass": "low"}}, {"type": "Feature", "geometry": {"type": "MultiPolygon", "coordinates": [[[[71.94046310299001, 34.230948682748696], [71.94038356573603, 34.23093939519617], [71.94038010525512, 34.230960040574246], [71.94045964252783, 34.230969328130044], [71.94046310299001, 34.230948682748696]]]]}, "properties": {"id": "8J6H6WJR+95M3", "height": 3.444238424301147, "hmax": 0.087, "ratio": 0.025, "vulnClass": "none"}}, {"type": "Feature", "geometry": {"type": "MultiPolygon", "coordinates": [[[[71.94038331386317, 34.2309433549895], [71.94036057622742, 34.23093891118785], [71.94032687632244, 34.23105741260841], [71.94045844926801, 34.23108323309856], [71.94048555156476, 34.230988092960516], [71.94037660797035, 34.23096671360203], [71.94038331386317, 34.2309433549895]]]]}, "properties": {"id": "8J6H6WJR+C52Q", "height": 2.730219602584839, "hmax": 0.087, "ratio": 0.032, "vulnClass": "none"}}, {"type": "Feature", "geometry": {"type": "MultiPolygon", "coordinates": [[[[71.93977907411909, 34.23108366143102], [71.93973721849078, 34.23108270604258], [71.93973359240293, 34.231194837576524], [71.93977545134743, 34.231195702912395], [71.93977907411909, 34.23108366143102]]]]}, "properties": {"id": "8J6H6WJQ+FW2C", "height": 2.632858514785767, "hmax": 0.137, "ratio": 0.052, "vulnClass": "low"}}, {"type": "Feature", "geometry": {"type": "MultiPolygon", "coordinates": [[[[71.93961098381594, 34.23122115986776], [71.93956934497795, 34.23122020983544], [71.9395683837744, 34.231249751165194], [71.93963789137607, 34.231251307236], [71.93963885255539, 34.2312217659044], [71.93977450652106, 34.23122479396384], [71.93977545134743, 34.231195702912395], [71.93961192869844, 34.231192068820604], [71.93961098381594, 34.23122115986776]]]]}, "properties": {"id": "8J6H6WJQ+FVMM", "height": 2.499709606170654, "hmax": 0.174, "ratio": 0.07, "vulnClass": "low"}}, {"type": "Feature", "geometry": {"type": "MultiPolygon", "coordinates": [[[[71.93980361379623, 34.23138001798738], [71.93972809942954, 34.23137650919588], [71.93972412680337, 34.23143527023114], [71.93979963796122, 34.23143886908468], [71.93980361379623, 34.23138001798738]]]]}, "properties": {"id": "8J6H6WJQ+HW67", "height": 3.422484397888184, "hmax": 0.217, "ratio": 0.064, "vulnClass": "low"}}, {"type": "Feature", "geometry": {"type": "MultiPolygon", "coordinates": [[[[71.94068566033638, 34.230892405736235], [71.94053827061771, 34.23087781834402], [71.9405278331484, 34.23095029927315], [71.94067532815573, 34.23096497944898], [71.94068085984867, 34.23092608771265], [71.94068566033638, 34.230892405736235]]]]}, "properties": {"id": "8J6H6WJR+969V", "height": 2.63123607635498, "hmax": 0.0, "ratio": 0.0, "vulnClass": "none"}}, {"type": "Feature", "geometry": {"type": "MultiPolygon", "coordinates": [[[[71.94244185603577, 34.22776166595408], [71.9421896017229, 34.227757173133035], [71.94218856194757, 34.227794915152344], [71.94221405085734, 34.227795280895975], [71.94221255030487, 34.22785176019314], [71.94245894686136, 34.227856196926346], [71.94246069857329, 34.2277837693992], [71.9424413962234, 34.227783377824124], [71.94244185603577, 34.22776166595408]]]]}, "properties": {"id": "8J6H6WHR+4WG8", "height": 2.945173263549805, "hmax": 0.0, "ratio": 0.0, "vulnClass": "none"}}, {"type": "Feature", "geometry": {"type": "MultiPolygon", "coordinates": [[[[71.94243953607301, 34.22785580264426], [71.94226471428605, 34.22785270154673], [71.94226277579111, 34.227927287724356], [71.94243759773197, 34.22793038883296], [71.94243953607301, 34.22785580264426]]]]}, "properties": {"id": "8J6H6WHR+5W5J", "height": 2.935781478881836, "hmax": 0.0, "ratio": 0.0, "vulnClass": "none"}}, {"type": "Feature", "geometry": {"type": "MultiPolygon", "coordinates": [[[[71.94222723498014, 34.22788980452716], [71.94216544096948, 34.22788808197533], [71.9421631023228, 34.22794372910745], [71.9422248931161, 34.227945541719706], [71.94222723498014, 34.22788980452716]]]]}, "properties": {"id": "8J6H6WHR+5V8J", "height": 2.549699068069458, "hmax": 0.0, "ratio": 0.0, "vulnClass": "none"}}, {"type": "Feature", "geometry": {"type": "MultiPolygon", "coordinates": [[[[71.94252220159115, 34.220862584938374], [71.94247793218464, 34.220703467584535], [71.94241116763013, 34.220716313840335], [71.94245543691379, 34.22087543121161], [71.94252220159115, 34.220862584938374]]]]}, "properties": {"id": "8J6H6WCR+8X8H", "height": 2.92209005355835, "hmax": 0.179, "ratio": 0.061, "vulnClass": "low"}}, {"type": "Feature", "geometry": {"type": "MultiPolygon", "coordinates": [[[[71.94258609404378, 34.22095017131757], [71.94255968360525, 34.22085531763334], [71.9424723744566, 34.22087215819088], [71.94249878479938, 34.22096701188871], [71.94258609404378, 34.22095017131757]]]]}, "properties": {"id": "8J6H6WCV+926H", "height": 2.930693864822388, "hmax": 0.178, "ratio": 0.061, "vulnClass": "low"}}, {"type": "Feature", "geometry": {"type": "MultiPolygon", "coordinates": [[[[71.9424200538771, 34.22090267145613], [71.942395220776, 34.22090223204246], [71.94239434983166, 34.22093231654517], [71.94241917968479, 34.22093284601665], [71.9424200538771, 34.22090267145613]]]]}, "properties": {"id": "8J6H6WCR+9X7J", "height": 2.591358184814453, "hmax": 0.178, "ratio": 0.069, "vulnClass": "low"}}, {"type": "Feature", "geometry": {"type": "MultiPolygon", "coordinates": [[[[71.94251866005925, 34.22103853693157], [71.94249878479938, 34.22096701188871], [71.94240426814815, 34.22098511475597], [71.9424242484863, 34.22105673257241], [71.94251866005925, 34.22103853693157]]]]}, "properties": {"id": "8J6H6WCR+CX4H", "height": 2.629835605621338, "hmax": 0.206, "ratio": 0.079, "vulnClass": "low"}}, {"type": "Feature", "geometry": {"type": "MultiPolygon", "coordinates": [[[[71.94251096776411, 34.22113722684549], [71.94246599207099, 34.22114466768964], [71.94248134465303, 34.221209229358344], [71.94252631712338, 34.22120187856758], [71.94251096776411, 34.22113722684549]]]]}, "properties": {"id": "8J6H6WCR+FX9X", "height": 2.501071929931641, "hmax": 0.225, "ratio": 0.09, "vulnClass": "low"}}, {"type": "Feature", "geometry": {"type": "MultiPolygon", "coordinates": [[[[71.94237137825394, 34.221084437804876], [71.94234061168243, 34.22108303906534], [71.9423361538282, 34.22114629513578], [71.94236702557902, 34.22114778664024], [71.94237137825394, 34.221084437804876]]]]}, "properties": {"id": "8J6H6WCR+CWXM", "height": 2.455008506774902, "hmax": 0.225, "ratio": 0.092, "vulnClass": "low"}}, {"type": "Feature", "geometry": {"type": "MultiPolygon", "coordinates": [[[[71.94232860292864, 34.22107904371282], [71.94219660025063, 34.22107151301927], [71.94219076176621, 34.22114293722292], [71.94232276781125, 34.22115037787157], [71.94232860292864, 34.22107904371282]]]]}, "properties": {"id": "8J6H6WCR+CWRF", "height": 2.455008506774902, "hmax": 0.217, "ratio": 0.088, "vulnClass": "low"}}, {"type": "Feature", "geometry": {"type": "MultiPolygon", "coordinates": [[[[71.94220082183955, 34.2210297941438], [71.94219507406535, 34.220981697060076], [71.94193908318746, 34.22100307092197], [71.94194483081544, 34.22105116800977], [71.94220082183955, 34.2210297941438]]]]}, "properties": {"id": "8J6H6WCR+CR4J", "height": 2.57774829864502, "hmax": 0.205, "ratio": 0.08, "vulnClass": "low"}}, {"type": "Feature", "geometry": {"type": "MultiPolygon", "coordinates": [[[[71.94218533690106, 34.22103490614541], [71.94215682748882, 34.22103410452056], [71.94215346014363, 34.22111820977166], [71.94218208125443, 34.221118924047246], [71.94218533690106, 34.22103490614541]]]]}, "properties": {"id": "8J6H6WCR+CVM3", "height": 2.57774829864502, "hmax": 0.213, "ratio": 0.083, "vulnClass": "low"}}, {"type": "Feature", "geometry": {"type": "MultiPolygon", "coordinates": [[[[71.94224937279786, 34.221025507325365], [71.94221021609603, 34.22102507097261], [71.94220956144609, 34.221064174711984], [71.94224860975277, 34.221064608360415], [71.94224937279786, 34.221025507325365]]]]}, "properties": {"id": "8J6H6WCR+CV9M", "height": 2.57774829864502, "hmax": 0.213, "ratio": 0.083, "vulnClass": "low"}}, {"type": "Feature", "geometry": {"type": "MultiPolygon", "coordinates": [[[[71.9424242484863, 34.22105673257241], [71.94240426814815, 34.22098511475597], [71.9423305095504, 34.22099931878231], [71.94235038141423, 34.22107093390202], [71.9424242484863, 34.22105673257241]]]]}, "properties": {"id": "8J6H6WCR+CX62", "height": 2.451296091079712, "hmax": 0.219, "ratio": 0.089, "vulnClass": "low"}}, {"type": "Feature", "geometry": {"type": "MultiPolygon", "coordinates": [[[[71.94232999728446, 34.221010483164065], [71.94230682323143, 34.22091616088928], [71.94225201230343, 34.22092551954088], [71.94218432068378, 34.2209369904545], [71.94220749134507, 34.221031402802275], [71.94232999728446, 34.221010483164065]]]]}, "properties": {"id": "8J6H6WCR+9WJR", "height": 2.777328252792358, "hmax": 0.178, "ratio": 0.064, "vulnClass": "low"}}, {"type": "Feature", "geometry": {"type": "MultiPolygon", "coordinates": [[[[71.9420787288498, 34.22076327252548], [71.94199248061408, 34.22076878177612], [71.9420051591002, 34.22089826655768], [71.94221724844405, 34.22088463052487], [71.9422108338877, 34.22081596523944], [71.94208434253756, 34.220824075784996], [71.9420787288498, 34.22076327252548]]]]}, "properties": {"id": "8J6H6WCR+8RPQ", "height": 2.945662260055542, "hmax": 0.162, "ratio": 0.055, "vulnClass": "low"}}, {"type": "Feature", "geometry": {"type": "MultiPolygon", "coordinates": [[[[71.94184779498057, 34.220922912918695], [71.94178574273147, 34.22091947124665], [71.94177878854278, 34.2210067319355], [71.94184096229786, 34.2210098160919], [71.94184779498057, 34.220922912918695]]]]}, "properties": {"id": "8J6H6WCR+9PPC", "height": 3.204355239868164, "hmax": 0.121, "ratio": 0.038, "vulnClass": "low"}}, {"type": "Feature", "geometry": {"type": "MultiPolygon", "coordinates": [[[[71.94176830473656, 34.220972578222494], [71.9417036091103, 34.22097321689736], [71.9417043811997, 34.221026868522934], [71.94176907360962, 34.22102631990698], [71.94176830473656, 34.220972578222494]]]]}, "properties": {"id": "8J6H6WCR+9MXW", "height": 3.204355239868164, "hmax": 0.143, "ratio": 0.044, "vulnClass": "low"}}, {"type": "Feature", "geometry": {"type": "MultiPolygon", "coordinates": [[[[71.94178161686204, 34.221048536613615], [71.94178106094692, 34.22102490647425], [71.94166890078738, 34.22102679417211], [71.94166934825789, 34.22105042160426], [71.94178161686204, 34.221048536613615]]]]}, "properties": {"id": "8J6H6WCR+CM9C", "height": 2.464001417160034, "hmax": 0.153, "ratio": 0.062, "vulnClass": "low"}}, {"type": "Feature", "geometry": {"type": "MultiPolygon", "coordinates": [[[[71.94157719643987, 34.2215190945908], [71.94150282732656, 34.221526161926214], [71.94150884602163, 34.22156975887182], [71.94158310675958, 34.22156268882871], [71.94157719643987, 34.2215190945908]]]]}, "properties": {"id": "8J6H6WCR+JJ7M", "height": 2.703371524810791, "hmax": 0.053, "ratio": 0.019, "vulnClass": "none"}}, {"type": "Feature", "geometry": {"type": "MultiPolygon", "coordinates": [[[[71.94166306010925, 34.22187521132626], [71.94133303449331, 34.22184633154112], [71.9413269776773, 34.22189377341241], [71.94165700021631, 34.22192274328068], [71.94166306010925, 34.22187521132626]]]]}, "properties": {"id": "8J6H6WCR+QH59", "height": 2.458762884140015, "hmax": 0.0, "ratio": 0.0, "vulnClass": "none"}}, {"type": "Feature", "geometry": {"type": "MultiPolygon", "coordinates": [[[[71.93905631288561, 34.22080714836432], [71.93903988868414, 34.22075427755255], [71.93882728929736, 34.22079998456445], [71.93884371337016, 34.220852855397716], [71.93905631288561, 34.22080714836432]]]]}, "properties": {"id": "8J6H6WCQ+8HG2", "height": 3.36411714553833, "hmax": 0.0, "ratio": 0.0, "vulnClass": "none"}}, {"type": "Feature", "geometry": {"type": "MultiPolygon", "coordinates": [[[[71.9390400863323, 34.22095862608249], [71.93900065814219, 34.2208308164632], [71.93885587432939, 34.22086163222089], [71.93889530230749, 34.22098944187518], [71.9390400863323, 34.22095862608249]]]]}, "properties": {"id": "8J6H6WCQ+9H8F", "height": 3.603916883468628, "hmax": 0.051, "ratio": 0.014, "vulnClass": "none"}}, {"type": "Feature", "geometry": {"type": "MultiPolygon", "coordinates": [[[[71.93909329647586, 34.220897579630076], [71.9390345091115, 34.22091485980266], [71.93905051187936, 34.220952396571015], [71.93910929926778, 34.22093511639208], [71.93909329647586, 34.220897579630076]]]]}, "properties": {"id": "8J6H6WCQ+9JG3", "height": 4.375251293182373, "hmax": 0.0, "ratio": 0.0, "vulnClass": "none"}}, {"type": "Feature", "geometry": {"type": "MultiPolygon", "coordinates": [[[[71.93957234277379, 34.22078145930952], [71.93956267261889, 34.2207518326733], [71.93947044956018, 34.22077251442151], [71.93948011642408, 34.220802231120224], [71.93957234277379, 34.22078145930952]]]]}, "properties": {"id": "8J6H6WCQ+8R64", "height": 2.806476831436157, "hmax": 0.0, "ratio": 0.0, "vulnClass": "none"}}, {"type": "Feature", "geometry": {"type": "MultiPolygon", "coordinates": [[[[71.93990442829023, 34.22117302176227], [71.93986907582922, 34.221172409252425], [71.93986760025163, 34.22122816803924], [71.93990295273589, 34.22122878055076], [71.93990442829023, 34.22117302176227]]]]}, "properties": {"id": "8J6H6WCQ+FXJ3", "height": 4.212372303009033, "hmax": 0.099, "ratio": 0.024, "vulnClass": "none"}}, {"type": "Feature", "geometry": {"type": "MultiPolygon", "coordinates": [[[[71.93979379774979, 34.221147634013604], [71.93970877907, 34.22114614155387], [71.9397048507465, 34.221299639180174], [71.93978997799358, 34.221301134358676], [71.93979379774979, 34.221147634013604]]]]}, "properties": {"id": "8J6H6WCQ+FVQX", "height": 3.128208160400391, "hmax": 0.099, "ratio": 0.032, "vulnClass": "none"}}, {"type": "Feature", "geometry": {"type": "MultiPolygon", "coordinates": [[[[71.93993068424102, 34.22114014602835], [71.93992035379596, 34.221053805901576], [71.93987496630909, 34.22105762996803], [71.93988529670763, 34.221143970096094], [71.93993068424102, 34.22114014602835]]]]}, "properties": {"id": "8J6H6WCQ+CXJX", "height": 3.725978374481201, "hmax": 0.099, "ratio": 0.026, "vulnClass": "none"}}, {"type": "Feature", "geometry": {"type": "MultiPolygon", "coordinates": [[[[71.9398716936514, 34.22106710289885], [71.93971087155336, 34.22106434819699], [71.93970877907, 34.22114614155387], [71.93986960132328, 34.221148896266854], [71.9398716936514, 34.22106710289885]]]]}, "properties": {"id": "8J6H6WCQ+CWV7", "height": 2.974948883056641, "hmax": 0.099, "ratio": 0.033, "vulnClass": "none"}}, {"type": "Feature", "geometry": {"type": "MultiPolygon", "coordinates": [[[[71.93969068753943, 34.221367159606075], [71.93967592192118, 34.22116352884313], [71.93953166656081, 34.221170742344704], [71.93954654024316, 34.22137437581402], [71.93969068753943, 34.221367159606075]]]]}, "properties": {"id": "8J6H6WCQ+GR5P", "height": 4.007160186767578, "hmax": 0.099, "ratio": 0.025, "vulnClass": "none"}}, {"type": "Feature", "geometry": {"type": "MultiPolygon", "coordinates": [[[[71.93997112408809, 34.22121606096146], [71.93992967439247, 34.22121601730146], [71.93992977049086, 34.22127632225948], [71.93997111180279, 34.221276363213505], [71.93997112408809, 34.22121606096146]]]]}, "properties": {"id": "8J6H6WCQ+FXWV", "height": 3.365044116973877, "hmax": 0.0, "ratio": 0.0, "vulnClass": "none"}}, {"type": "Feature", "geometry": {"type": "MultiPolygon", "coordinates": [[[[71.93978997799358, 34.221301134358676], [71.9397048507465, 34.221299639180174], [71.9397029961931, 34.221374858377885], [71.93978801510237, 34.221376350854044], [71.93978997799358, 34.221301134358676]]]]}, "properties": {"id": "8J6H6WCQ+GVQH", "height": 2.772708892822266, "hmax": 0.0, "ratio": 0.0, "vulnClass": "none"}}, {"type": "Feature", "geometry": {"type": "MultiPolygon", "coordinates": [[[[71.94146643344449, 34.22140735243825], [71.94136677945015, 34.22140847036221], [71.9413673625546, 34.2214463430443], [71.941394068147, 34.22144601816824], [71.9413947312569, 34.22148767866016], [71.94136792049558, 34.22148791077226], [71.94136855572573, 34.221524342540924], [71.94158012451956, 34.221522142246435], [71.94157893441049, 34.221444052684205], [71.94146701659369, 34.221445225122274], [71.94146643344449, 34.22140735243825]]]]}, "properties": {"id": "8J6H6WCR+HHPX", "height": 2.79680609703064, "hmax": 0.053, "ratio": 0.019, "vulnClass": "none"}}, {"type": "Feature", "geometry": {"type": "MultiPolygon", "coordinates": [[[[71.94088970233501, 34.2205194235746], [71.94087579214933, 34.220418031149656], [71.94083408778067, 34.220422037677125], [71.9408413175773, 34.22047413789499], [71.94061952037704, 34.220495190933605], [71.94064074553883, 34.22064931669923], [71.94072121433466, 34.22064159091858], [71.94074108634486, 34.22078513669438], [71.94094709928815, 34.22076549215434], [71.94091289518495, 34.220517208326484], [71.94088970233501, 34.2205194235746]]]]}, "properties": {"id": "8J6H6WCR+68VG", "height": 2.53949761390686, "hmax": 0.091, "ratio": 0.036, "vulnClass": "none"}}, {"type": "Feature", "geometry": {"type": "MultiPolygon", "coordinates": [[[[71.94116849923556, 34.22047049803139], [71.9411072924383, 34.22045869426007], [71.94109782152943, 34.220492530135466], [71.94115902834915, 34.220504333912714], [71.94116849923556, 34.22047049803139]]]]}, "properties": {"id": "8J6H6WCR+5FR7", "height": 2.756041526794434, "hmax": 0.112, "ratio": 0.041, "vulnClass": "low"}}, {"type": "Feature", "geometry": {"type": "MultiPolygon", "coordinates": [[[[71.9413150557796, 34.22045063048701], [71.94117673612051, 34.22044077770961], [71.9411689593682, 34.220514767472224], [71.94130749597107, 34.22052462567743], [71.9413150557796, 34.22045063048701]]]]}, "properties": {"id": "8J6H6WCR+5FX8", "height": 3.07742977142334, "hmax": 0.112, "ratio": 0.036, "vulnClass": "low"}}, {"type": "Feature", "geometry": {"type": "MultiPolygon", "coordinates": [[[[71.9412804702443, 34.21979292855502], [71.9412327693904, 34.219770735537594], [71.94121051910223, 34.2198038918565], [71.94125811155611, 34.219826082176894], [71.9412804702443, 34.21979292855502]]]]}, "properties": {"id": "8J6H6W9R+WF9X", "height": 2.919497728347778, "hmax": 0.116, "ratio": 0.04, "vulnClass": "low"}}, {"type": "Feature", "geometry": {"type": "MultiPolygon", "coordinates": [[[[71.94116709484366, 34.219768465088855], [71.94110219221555, 34.21976585332186], [71.94109767290337, 34.21984578340234], [71.94121838148921, 34.219850509409945], [71.94121967848355, 34.21982665510952], [71.94116387586031, 34.219824450818955], [71.94116709484366, 34.219768465088855]]]]}, "properties": {"id": "8J6H6W9R+WFCG", "height": 3.167139530181885, "hmax": 0.116, "ratio": 0.036, "vulnClass": "low"}}, {"type": "Feature", "geometry": {"type": "MultiPolygon", "coordinates": [[[[71.94108597936781, 34.21976409649907], [71.94096866604234, 34.21976450287958], [71.94096905770571, 34.219843654173076], [71.94108637114117, 34.219843247798146], [71.94108597936781, 34.21976409649907]]]]}, "properties": {"id": "8J6H6W9R+WCC5", "height": 3.167139530181885, "hmax": 0.099, "ratio": 0.031, "vulnClass": "none"}}, {"type": "Feature", "geometry": {"type": "MultiPolygon", "coordinates": [[[[71.94115750282504, 34.21986863981781], [71.9411051918282, 34.21985390328835], [71.94109400091824, 34.21988129640215], [71.94114631192934, 34.21989603293714], [71.94115750282504, 34.21986863981781]]]]}, "properties": {"id": "8J6H6W9R+WFRR", "height": 2.590963363647461, "hmax": 0.116, "ratio": 0.045, "vulnClass": "low"}}, {"type": "Feature", "geometry": {"type": "MultiPolygon", "coordinates": [[[[71.94086014738504, 34.219743765919446], [71.94083316686593, 34.219745706321575], [71.94084393390511, 34.21984999484792], [71.94087080278784, 34.21984814179564], [71.94086014738504, 34.219743765919446]]]]}, "properties": {"id": "8J6H6W9R+W89V", "height": 3.162872791290283, "hmax": 0.079, "ratio": 0.025, "vulnClass": "none"}}, {"type": "Feature", "geometry": {"type": "MultiPolygon", "coordinates": [[[[71.94078415566356, 34.21980172054478], [71.94074902057238, 34.2198011137331], [71.94074794733913, 34.21984877014722], [71.94078308570846, 34.219849286903234], [71.94078415566356, 34.21980172054478]]]]}, "properties": {"id": "8J6H6W9R+W8J4", "height": 2.881180047988892, "hmax": 0.079, "ratio": 0.027, "vulnClass": "none"}}, {"type": "Feature", "geometry": {"type": "MultiPolygon", "coordinates": [[[[71.94060295163776, 34.21985551580658], [71.94055376063099, 34.21985951559187], [71.94055940554391, 34.219907429884614], [71.94068107892747, 34.21989748795716], [71.9406709254838, 34.21981223394349], [71.94059855487842, 34.21981808873273], [71.94060295163776, 34.21985551580658]]]]}, "properties": {"id": "8J6H6W9R+W6XH", "height": 2.560349464416504, "hmax": 0.089, "ratio": 0.035, "vulnClass": "none"}}, {"type": "Feature", "geometry": {"type": "MultiPolygon", "coordinates": [[[[71.94094064122527, 34.21998725631031], [71.94089893944194, 34.21998819822547], [71.94090118350474, 34.220055136940964], [71.94094288857947, 34.22005410496978], [71.94094064122527, 34.21998725631031]]]]}, "properties": {"id": "8J6H6WCR+293V", "height": 2.968828201293945, "hmax": 0.089, "ratio": 0.03, "vulnClass": "none"}}, {"type": "Feature", "geometry": {"type": "MultiPolygon", "coordinates": [[[[71.94053830753941, 34.21986075223333], [71.94053390755019, 34.21982341521574], [71.94042192199457, 34.21983251724498], [71.94043196677454, 34.219917768558574], [71.94050771126354, 34.21991163756132], [71.94050206638002, 34.21986372326781], [71.94053830753941, 34.21986075223333]]]]}, "properties": {"id": "8J6H6W9R+W5XJ", "height": 2.501346349716187, "hmax": 0.089, "ratio": 0.035, "vulnClass": "none"}}, {"type": "Feature", "geometry": {"type": "MultiPolygon", "coordinates": [[[[71.94033686482456, 34.2197511616939], [71.94028328680159, 34.219750454767194], [71.9402800704085, 34.21994128753542], [71.94040534773205, 34.21994270317762], [71.9404069948988, 34.21984620610086], [71.9403352990596, 34.21984540734168], [71.94033686482456, 34.2197511616939]]]]}, "properties": {"id": "8J6H6W9R+W4WP", "height": 2.600693702697754, "hmax": 0.085, "ratio": 0.033, "vulnClass": "none"}}, {"type": "Feature", "geometry": {"type": "MultiPolygon", "coordinates": [[[[71.93990710415693, 34.22061639410624], [71.93986840743159, 34.220546291545794], [71.9397828044617, 34.22057894699918], [71.93982139597375, 34.22064895681874], [71.93990710415693, 34.22061639410624]]]]}, "properties": {"id": "8J6H6WCQ+6WQR", "height": 3.256500244140625, "hmax": 0.0, "ratio": 0.0, "vulnClass": "none"}}, {"type": "Feature", "geometry": {"type": "MultiPolygon", "coordinates": [[[[71.93982765228712, 34.22066497742236], [71.93973379527769, 34.22047298218953], [71.93964306026416, 34.22050352632445], [71.93973691709039, 34.220695521616705], [71.93982765228712, 34.22066497742236]]]]}, "properties": {"id": "8J6H6WCQ+6VQ8", "height": 3.256500244140625, "hmax": 0.0, "ratio": 0.0, "vulnClass": "none"}}, {"type": "Feature", "geometry": {"type": "MultiPolygon", "coordinates": [[[[71.93961064712566, 34.22074248475688], [71.93958834823457, 34.22063006610481], [71.93947155397707, 34.22064607791094], [71.93949385271361, 34.220758496575854], [71.93961064712566, 34.22074248475688]]]]}, "properties": {"id": "8J6H6WCQ+7RFM", "height": 2.806476831436157, "hmax": 0.0, "ratio": 0.0, "vulnClass": "none"}}, {"type": "Feature", "geometry": {"type": "MultiPolygon", "coordinates": [[[[71.93973546438403, 34.22068169416599], [71.93969687619212, 34.220611594265755], [71.93965374615553, 34.22062800387029], [71.93969233431699, 34.220698103782425], [71.93973546438403, 34.22068169416599]]]]}, "properties": {"id": "8J6H6WCQ+7V82", "height": 2.836629867553711, "hmax": 0.0, "ratio": 0.0, "vulnClass": "none"}}, {"type": "Feature", "geometry": {"type": "MultiPolygon", "coordinates": [[[[71.93966429554993, 34.22071128477914], [71.93963531132, 34.22064566123702], [71.93959021269167, 34.2206594977753], [71.93961939741605, 34.22072557702663], [71.93966429554993, 34.22071128477914]]]]}, "properties": {"id": "8J6H6WCQ+7VCC", "height": 2.505173683166504, "hmax": 0.0, "ratio": 0.0, "vulnClass": "none"}}, {"type": "Feature", "geometry": {"type": "MultiPolygon", "coordinates": [[[[71.93943548456807, 34.220665277809665], [71.9393711577781, 34.22067971563488], [71.9394202777423, 34.22083057223892], [71.9394846079027, 34.22081604433705], [71.93943548456807, 34.220665277809665]]]]}, "properties": {"id": "8J6H6WCQ+7QVW", "height": 2.46897554397583, "hmax": 0.0, "ratio": 0.0, "vulnClass": "none"}}, {"type": "Feature", "geometry": {"type": "MultiPolygon", "coordinates": [[[[71.93931273445669, 34.22075289081151], [71.9392820361085, 34.22065369291368], [71.93901794770838, 34.22070992219934], [71.93904853408355, 34.22080920749551], [71.93931273445669, 34.22075289081151]]]]}, "properties": {"id": "8J6H6WCQ+7MV7", "height": 4.086975574493408, "hmax": 0.0, "ratio": 0.0, "vulnClass": "none"}}, {"type": "Feature", "geometry": {"type": "MultiPolygon", "coordinates": [[[[71.93957528032206, 34.2204694737199], [71.93956535173069, 34.220431998592346], [71.93932559408199, 34.22047558594827], [71.93933551930908, 34.22051315114648], [71.93957528032206, 34.2204694737199]]]]}, "properties": {"id": "8J6H6WCQ+5QPV", "height": 2.682598114013672, "hmax": 0.0, "ratio": 0.0, "vulnClass": "none"}}, {"type": "Feature", "geometry": {"type": "MultiPolygon", "coordinates": [[[[71.93932352892128, 34.220397744972516], [71.93928914196262, 34.2204064406711], [71.93931481237529, 34.22047666870376], [71.93934920262102, 34.220467882942536], [71.93932352892128, 34.220397744972516]]]]}, "properties": {"id": "8J6H6WCQ+5PGC", "height": 3.164110898971558, "hmax": 0.0, "ratio": 0.0, "vulnClass": "none"}}, {"type": "Feature", "geometry": {"type": "MultiPolygon", "coordinates": [[[[71.93924345122929, 34.220334721008086], [71.93921839667469, 34.22034040482921], [71.93925762527668, 34.220458744877085], [71.93921648413186, 34.22046817321905], [71.93923223345304, 34.22051570898992], [71.93929853763414, 34.22050059952217], [71.93924345122929, 34.220334721008086]]]]}, "properties": {"id": "8J6H6WCQ+5PCJ", "height": 3.066749811172485, "hmax": 0.0, "ratio": 0.0, "vulnClass": "none"}}, {"type": "Feature", "geometry": {"type": "MultiPolygon", "coordinates": [[[[71.93919499988728, 34.220495128730384], [71.9392224330378, 34.22048968460984], [71.93920470208795, 34.220427947617125], [71.93911278417315, 34.22044620299134], [71.93912435261032, 34.22048633312643], [71.9391887290118, 34.220473519157196], [71.93919499988728, 34.220495128730384]]]]}, "properties": {"id": "8J6H6WCQ+5MMF", "height": 2.671996116638184, "hmax": 0.0, "ratio": 0.0, "vulnClass": "none"}}, {"type": "Feature", "geometry": {"type": "MultiPolygon", "coordinates": [[[[71.93907297258218, 34.22048784388364], [71.93906439406514, 34.220449050373496], [71.93896062901916, 34.22046484635319], [71.93896920748901, 34.220503639868014], [71.93907297258218, 34.22048784388364]]]]}, "properties": {"id": "8J6H6WCQ+5JR4", "height": 3.403890609741211, "hmax": 0.0, "ratio": 0.0, "vulnClass": "none"}}, {"type": "Feature", "geometry": {"type": "MultiPolygon", "coordinates": [[[[71.93924465520024, 34.22001070374085], [71.93919738449144, 34.220009613058444], [71.9391962671084, 34.22004347716293], [71.93924353783608, 34.220044567846784], [71.93924465520024, 34.22001070374085]]]]}, "properties": {"id": "8J6H6WCQ+2M92", "height": 2.85280704498291, "hmax": 0.0, "ratio": 0.0, "vulnClass": "none"}}, {"type": "Feature", "geometry": {"type": "MultiPolygon", "coordinates": [[[[71.93924388583845, 34.22019682020164], [71.93919620419923, 34.22019508828244], [71.93918783758046, 34.22035126930189], [71.93923562771917, 34.220353003937234], [71.93924388583845, 34.22019682020164]]]]}, "properties": {"id": "8J6H6WCQ+4M4X", "height": 2.498710632324219, "hmax": 0.0, "ratio": 0.0, "vulnClass": "none"}}, {"type": "Feature", "geometry": {"type": "MultiPolygon", "coordinates": [[[[71.93936110472568, 34.220139085147856], [71.93930245646203, 34.22014654386286], [71.93934621548337, 34.22038253745382], [71.93955421643153, 34.220355914109774], [71.93951527036091, 34.22014582036068], [71.93936592146973, 34.220164894893394], [71.93936110472568, 34.220139085147856]]]]}, "properties": {"id": "8J6H6WCQ+4Q3G", "height": 4.482717514038086, "hmax": 0.0, "ratio": 0.0, "vulnClass": "none"}}, {"type": "Feature", "geometry": {"type": "MultiPolygon", "coordinates": [[[[71.9394097000935, 34.21946507260199], [71.93935552481939, 34.21946588270763], [71.93935640464146, 34.21951052316939], [71.93941068835521, 34.21950971577283], [71.9394097000935, 34.21946507260199]]]]}, "properties": {"id": "8J6H6W9Q+QQRF", "height": 3.246674776077271, "hmax": 0.109, "ratio": 0.034, "vulnClass": "low"}}, {"type": "Feature", "geometry": {"type": "MultiPolygon", "coordinates": [[[[71.93895808397038, 34.21942016959274], [71.93896074239481, 34.219565539011114], [71.93912629736961, 34.21956336509994], [71.93912804946531, 34.219661839941104], [71.93946621307315, 34.219657487360145], [71.93946549544303, 34.2196173578672], [71.93924479252476, 34.21962022785394], [71.93924109564463, 34.219416603113864], [71.93895808397038, 34.21942016959274]]]]}, "properties": {"id": "8J6H6W9Q+RM6H", "height": 4.659919261932373, "hmax": 0.109, "ratio": 0.024, "vulnClass": "low"}}, {"type": "Feature", "geometry": {"type": "MultiPolygon", "coordinates": [[[[71.9390387974826, 34.21956451438868], [71.93896074239481, 34.219565539011114], [71.93896322798824, 34.219703693042455], [71.9390412832039, 34.21970266842536], [71.9390387974826, 34.21956451438868]]]]}, "properties": {"id": "8J6H6W9Q+VJ26", "height": 4.46739673614502, "hmax": 0.0, "ratio": 0.0, "vulnClass": "none"}}, {"type": "Feature", "geometry": {"type": "MultiPolygon", "coordinates": [[[[71.94034026250424, 34.21972023893327], [71.94034763033073, 34.21967255943206], [71.94029704051141, 34.21966723993436], [71.94028967591619, 34.219714829374034], [71.94034026250424, 34.21972023893327]]]]}, "properties": {"id": "8J6H6W9R+V4GJ", "height": 3.066134214401245, "hmax": 0.089, "ratio": 0.029, "vulnClass": "none"}}, {"type": "Feature", "geometry": {"type": "MultiPolygon", "coordinates": [[[[71.94047537167813, 34.21948591770497], [71.94035098186562, 34.219483983485524], [71.94034930077028, 34.219554429723914], [71.94038931750607, 34.21955506840514], [71.94039001878328, 34.21952669232493], [71.94047439193518, 34.219527987868446], [71.94047537167813, 34.21948591770497]]]]}, "properties": {"id": "8J6H6W9R+R52H", "height": 2.638701438903809, "hmax": 0.075, "ratio": 0.029, "vulnClass": "none"}}, {"type": "Feature", "geometry": {"type": "MultiPolygon", "coordinates": [[[[71.94095118936524, 34.219272812268116], [71.94090479132112, 34.219277603040496], [71.94090932741865, 34.21930818306884], [71.94095572547957, 34.21930339229568], [71.94095118936524, 34.219272812268116]]]]}, "properties": {"id": "8J6H6W9R+P97Q", "height": 2.450899124145508, "hmax": 0.0, "ratio": 0.0, "vulnClass": "none"}}, {"type": "Feature", "geometry": {"type": "MultiPolygon", "coordinates": [[[[71.94090802801179, 34.2193680926661], [71.94082915462171, 34.219367745982574], [71.9408287698331, 34.219432365608604], [71.94090775169448, 34.219432715002235], [71.94090802801179, 34.2193680926661]]]]}, "properties": {"id": "8J6H6W9R+Q895", "height": 2.880853891372681, "hmax": 0.059, "ratio": 0.02, "vulnClass": "none"}}, {"type": "Feature", "geometry": {"type": "MultiPolygon", "coordinates": [[[[71.94103377402925, 34.21936852781845], [71.94090802801179, 34.2193680926661], [71.94090775169448, 34.219432715002235], [71.94108253868879, 34.219433292792424], [71.94108264228808, 34.21940643413321], [71.94103360142296, 34.21940629150173], [71.94103377402925, 34.21936852781845]]]]}, "properties": {"id": "8J6H6W9R+Q993", "height": 2.47058629989624, "hmax": 0.064, "ratio": 0.026, "vulnClass": "none"}}, {"type": "Feature", "geometry": {"type": "MultiPolygon", "coordinates": [[[[71.94085862640189, 34.21944690219795], [71.94081620510948, 34.21944674446833], [71.94081593583087, 34.21950217286068], [71.94085846556219, 34.21950233329852], [71.94085862640189, 34.21944690219795]]]]}, "properties": {"id": "8J6H6W9R+Q8PX", "height": 2.796641826629639, "hmax": 0.059, "ratio": 0.021, "vulnClass": "none"}}, {"type": "Feature", "geometry": {"type": "MultiPolygon", "coordinates": [[[[71.94105834704769, 34.21956510217538], [71.94090710455873, 34.219564571327275], [71.940906670355, 34.21963955563608], [71.9411048909071, 34.219640267756034], [71.94110502439408, 34.21960358475707], [71.94105815489674, 34.219603406200626], [71.94105834704769, 34.21956510217538]]]]}, "properties": {"id": "8J6H6W9R+R9X5", "height": 3.48110818862915, "hmax": 0.077, "ratio": 0.022, "vulnClass": "none"}}, {"type": "Feature", "geometry": {"type": "MultiPolygon", "coordinates": [[[[71.94088572208835, 34.219588735411676], [71.94083021229306, 34.219587439668246], [71.94082823538912, 34.21964507888615], [71.94088374196389, 34.21964646468956], [71.94088572208835, 34.219588735411676]]]]}, "properties": {"id": "8J6H6W9R+R8XM", "height": 3.001904249191284, "hmax": 0.07, "ratio": 0.023, "vulnClass": "none"}}, {"type": "Feature", "geometry": {"type": "MultiPolygon", "coordinates": [[[[71.94075186045478, 34.21948570025444], [71.94068912805962, 34.21948909159345], [71.94069224435354, 34.21952892043244], [71.94075497677841, 34.21952552909344], [71.94075186045478, 34.21948570025444]]]]}, "properties": {"id": "8J6H6W9R+R756", "height": 2.768269062042236, "hmax": 0.061, "ratio": 0.022, "vulnClass": "none"}}, {"type": "Feature", "geometry": {"type": "MultiPolygon", "coordinates": [[[[71.94110478920655, 34.21949910847192], [71.94105397224988, 34.21950306787467], [71.94106075726295, 34.21956146667125], [71.94111146910167, 34.2195574145041], [71.94110478920655, 34.21949910847192]]]]}, "properties": {"id": "8J6H6W9R+RC88", "height": 2.826681137084961, "hmax": 0.096, "ratio": 0.034, "vulnClass": "none"}}, {"type": "Feature", "geometry": {"type": "MultiPolygon", "coordinates": [[[[71.94124679147549, 34.21969807346443], [71.941108529339, 34.21968966429548], [71.94110179766612, 34.21976476181127], [71.9412400566658, 34.21977326105144], [71.94124679147549, 34.21969807346443]]]]}, "properties": {"id": "8J6H6W9R+VFV8", "height": 4.309254169464111, "hmax": 0.116, "ratio": 0.027, "vulnClass": "low"}}, {"type": "Feature", "geometry": {"type": "MultiPolygon", "coordinates": [[[[71.94132791956707, 34.21974408620724], [71.94128044025877, 34.21971576932717], [71.94123718313772, 34.21976570783049], [71.94128466245695, 34.21979402472788], [71.94132791956707, 34.21974408620724]]]]}, "properties": {"id": "8J6H6W9R+WG32", "height": 3.361639976501465, "hmax": 0.116, "ratio": 0.034, "vulnClass": "low"}}, {"type": "Feature", "geometry": {"type": "MultiPolygon", "coordinates": [[[[71.94131249170609, 34.21957964917545], [71.94125408992555, 34.21955331309276], [71.94123318299664, 34.21958533115375], [71.94129158804904, 34.21961157719006], [71.94131249170609, 34.21957964917545]]]]}, "properties": {"id": "8J6H6W9R+RGJ8", "height": 2.589864730834961, "hmax": 0.096, "ratio": 0.037, "vulnClass": "none"}}, {"type": "Feature", "geometry": {"type": "MultiPolygon", "coordinates": [[[[71.9414828766826, 34.2195579424644], [71.94141630871682, 34.21952338030004], [71.94139419213644, 34.21955284431989], [71.94146065170321, 34.2195874037908], [71.9414828766826, 34.2195579424644]]]]}, "properties": {"id": "8J6H6W9R+RHG6", "height": 2.533625364303589, "hmax": 0.096, "ratio": 0.038, "vulnClass": "none"}}, {"type": "Feature", "geometry": {"type": "MultiPolygon", "coordinates": [[[[71.94131901611826, 34.21945028314123], [71.94124814208995, 34.2194177767205], [71.94116770541152, 34.2195386273907], [71.94123847109175, 34.21957113115496], [71.94131901611826, 34.21945028314123]]]]}, "properties": {"id": "8J6H6W9R+QFXQ", "height": 2.796966552734375, "hmax": 0.096, "ratio": 0.034, "vulnClass": "none"}}, {"type": "Feature", "geometry": {"type": "MultiPolygon", "coordinates": [[[[71.94108109691616, 34.219380165276974], [71.94103726305032, 34.21938006249922], [71.94103710820343, 34.219411336660606], [71.94108094208549, 34.21941143943926], [71.94108109691616, 34.219380165276974]]]]}, "properties": {"id": "8J6H6W9R+QC3X", "height": 2.451058864593506, "hmax": 0.096, "ratio": 0.039, "vulnClass": "none"}}, {"type": "Feature", "geometry": {"type": "MultiPolygon", "coordinates": [[[[71.94121410447312, 34.21925485816215], [71.9412018006099, 34.21929502316259], [71.94129010135069, 34.21931372275858], [71.94130240517603, 34.21927355774725], [71.94121410447312, 34.21925485816215]]]]}, "properties": {"id": "8J6H6W9R+PG66", "height": 3.095805644989014, "hmax": 0.0, "ratio": 0.0, "vulnClass": "none"}}, {"type": "Feature", "geometry": {"type": "MultiPolygon", "coordinates": [[[[71.94146691274373, 34.21936032112095], [71.94132890810059, 34.21927881638809], [71.94130273474997, 34.21930944106387], [71.94132568238872, 34.219322993828825], [71.94125850177969, 34.21940135972447], [71.94137345043595, 34.219469309081944], [71.94140392260874, 34.219433834086246], [71.94143080006641, 34.21944973838897], [71.94146750519684, 34.219406937472606], [71.94144063100225, 34.21939094312111], [71.94146691274373, 34.21936032112095]]]]}, "properties": {"id": "8J6H6W9R+QG58", "height": 4.090434074401855, "hmax": 0.09, "ratio": 0.022, "vulnClass": "none"}}, {"type": "Feature", "geometry": {"type": "MultiPolygon", "coordinates": [[[[71.94126103690904, 34.21932228148167], [71.94121509349141, 34.21932050361631], [71.94121384864056, 34.21934291700535], [71.94125990048121, 34.21934469757811], [71.94126103690904, 34.21932228148167]]]]}, "properties": {"id": "8J6H6W9R+PFQ8", "height": 3.320466995239258, "hmax": 0.0, "ratio": 0.0, "vulnClass": "none"}}, {"type": "Feature", "geometry": {"type": "MultiPolygon", "coordinates": [[[[71.94121509349141, 34.21932050361631], [71.9411854019373, 34.219319401856154], [71.94118415707862, 34.21934181524446], [71.94121384864056, 34.21934291700535], [71.94121509349141, 34.21932050361631]]]]}, "properties": {"id": "8J6H6W9R+PFP7", "height": 3.634430885314941, "hmax": 0.0, "ratio": 0.0, "vulnClass": "none"}}, {"type": "Feature", "geometry": {"type": "MultiPolygon", "coordinates": [[[[71.94143376154642, 34.21919688390678], [71.94141081717905, 34.219183241105654], [71.94132890810059, 34.21927881638809], [71.94144715224694, 34.219348650706024], [71.94149541038288, 34.21929243711919], [71.94140011389733, 34.219236155599965], [71.94143376154642, 34.21919688390678]]]]}, "properties": {"id": "8J6H6W9R+PH72", "height": 5.259108066558838, "hmax": 0.055, "ratio": 0.011, "vulnClass": "none"}}, {"type": "Feature", "geometry": {"type": "MultiPolygon", "coordinates": [[[[71.94128229344238, 34.219208606735144], [71.94123297216026, 34.21920422068154], [71.94122905233405, 34.21923458961401], [71.94127837363344, 34.21923897567012], [71.94128229344238, 34.219208606735144]]]]}, "properties": {"id": "8J6H6W9R+MGJR", "height": 2.514692306518555, "hmax": 0.0, "ratio": 0.0, "vulnClass": "none"}}, {"type": "Feature", "geometry": {"type": "MultiPolygon", "coordinates": [[[[71.9411073116408, 34.21919243043592], [71.94106892447155, 34.219191742537724], [71.94106789527204, 34.21923218899007], [71.94110628245961, 34.219232876889585], [71.9411073116408, 34.21919243043592]]]]}, "properties": {"id": "8J6H6W9R+MCPH", "height": 3.173696517944336, "hmax": 0.0, "ratio": 0.0, "vulnClass": "none"}}, {"type": "Feature", "geometry": {"type": "MultiPolygon", "coordinates": [[[[71.94104838320617, 34.2192706416701], [71.94102437393364, 34.21921145231661], [71.94097679912011, 34.2192247768881], [71.94100080510353, 34.21928405630627], [71.94104838320617, 34.2192706416701]]]]}, "properties": {"id": "8J6H6W9R+MCRV", "height": 3.015514135360718, "hmax": 0.0, "ratio": 0.0, "vulnClass": "none"}}, {"type": "Feature", "geometry": {"type": "MultiPolygon", "coordinates": [[[[71.94079517946781, 34.219158137198235], [71.94079403787302, 34.219207684816986], [71.9408805789491, 34.21920903419712], [71.94088172375146, 34.21915939651777], [71.94079517946781, 34.219158137198235]]]]}, "properties": {"id": "8J6H6W9R+M8G9", "height": 2.708276987075806, "hmax": 0.0, "ratio": 0.0, "vulnClass": "none"}}, {"type": "Feature", "geometry": {"type": "MultiPolygon", "coordinates": [[[[71.94048971991683, 34.21919134316007], [71.94044621791555, 34.21919106818277], [71.94044430731257, 34.2193968064184], [71.9404878094197, 34.2193970814021], [71.94048971991683, 34.21919134316007]]]]}, "properties": {"id": "8J6H6W9R+P58Q", "height": 3.121726036071777, "hmax": 0.069, "ratio": 0.022, "vulnClass": "none"}}, {"type": "Feature", "geometry": {"type": "MultiPolygon", "coordinates": [[[[71.94088369582492, 34.219074895929005], [71.94079704973359, 34.219073453794785], [71.94079518272609, 34.219158047141185], [71.94088172375146, 34.21915939651777], [71.94088369582492, 34.219074895929005]]]]}, "properties": {"id": "8J6H6W9R+J8WQ", "height": 3.156374931335449, "hmax": 0.0, "ratio": 0.0, "vulnClass": "none"}}, {"type": "Feature", "geometry": {"type": "MultiPolygon", "coordinates": [[[[71.94100563783344, 34.21906649270079], [71.94091076646495, 34.219067459316456], [71.94091185834964, 34.219148250587835], [71.94100683821966, 34.21914728668272], [71.94100563783344, 34.21906649270079]]]]}, "properties": {"id": "8J6H6W9R+J9W8", "height": 3.380338430404663, "hmax": 0.0, "ratio": 0.0, "vulnClass": "none"}}, {"type": "Feature", "geometry": {"type": "MultiPolygon", "coordinates": [[[[71.94184115530453, 34.219003429703186], [71.94170525338879, 34.21893279449061], [71.941688952654, 34.218954471550596], [71.94182485784532, 34.21902501672506], [71.94184115530453, 34.219003429703186]]]]}, "properties": {"id": "8J6H6W9R+HPR3", "height": 3.846230983734131, "hmax": 0.0, "ratio": 0.0, "vulnClass": "none"}}, {"type": "Feature", "geometry": {"type": "MultiPolygon", "coordinates": [[[[71.94164178882147, 34.2189894398697], [71.9415286044364, 34.21892072356529], [71.94147575839166, 34.218980788745654], [71.94158894606399, 34.21904941504327], [71.94164178882147, 34.2189894398697]]]]}, "properties": {"id": "8J6H6W9R+HJVH", "height": 5.199795722961426, "hmax": 0.0, "ratio": 0.0, "vulnClass": "none"}}, {"type": "Feature", "geometry": {"type": "MultiPolygon", "coordinates": [[[[71.9415674802543, 34.219057893091524], [71.94147963158606, 34.21902370117674], [71.94143012503656, 34.219111432048585], [71.94151797051292, 34.219145714059444], [71.9415674802543, 34.219057893091524]]]]}, "properties": {"id": "8J6H6W9R+JHQ9", "height": 4.711132049560547, "hmax": 0.055, "ratio": 0.012, "vulnClass": "none"}}, {"type": "Feature", "geometry": {"type": "MultiPolygon", "coordinates": [[[[71.94163642484062, 34.21914073854585], [71.94158849672826, 34.21911583584847], [71.94151292642627, 34.21921616654018], [71.94156085456865, 34.219241069268676], [71.94163642484062, 34.21914073854585]]]]}, "properties": {"id": "8J6H6W9R+MJG3", "height": 4.876091957092285, "hmax": 0.055, "ratio": 0.011, "vulnClass": "none"}}, {"type": "Feature", "geometry": {"type": "MultiPolygon", "coordinates": [[[[71.94150851884437, 34.21913403055717], [71.94145486872635, 34.219111328580695], [71.94143375911217, 34.21914595563798], [71.94148730409186, 34.21916856486132], [71.94150851884437, 34.21913403055717]]]]}, "properties": {"id": "8J6H6W9R+MH5C", "height": 3.904535293579102, "hmax": 0.055, "ratio": 0.014, "vulnClass": "none"}}, {"type": "Feature", "geometry": {"type": "MultiPolygon", "coordinates": [[[[71.94164262075813, 34.219194435421414], [71.9416145996773, 34.21917715054469], [71.94155806520438, 34.21924018839871], [71.94165698680705, 34.21930124747836], [71.94168650030734, 34.21926827235398], [71.94161570821332, 34.21922450088787], [71.94164262075813, 34.219194435421414]]]]}, "properties": {"id": "8J6H6W9R+MJXQ", "height": 4.210719585418701, "hmax": 0.055, "ratio": 0.013, "vulnClass": "none"}}, {"type": "Feature", "geometry": {"type": "MultiPolygon", "coordinates": [[[[71.9418697436273, 34.21923904397549], [71.94177731864484, 34.21918436676499], [71.94166833036046, 34.21931162611457], [71.94174333103868, 34.21935604342585], [71.9417668967961, 34.21932850841399], [71.94178432115385, 34.219338768394756], [71.9418697436273, 34.21923904397549]]]]}, "properties": {"id": "8J6H6W9R+PP2W", "height": 3.826533317565918, "hmax": 0.065, "ratio": 0.017, "vulnClass": "none"}}, {"type": "Feature", "geometry": {"type": "MultiPolygon", "coordinates": [[[[71.94170850511966, 34.21921789336984], [71.94167573156189, 34.21921500217469], [71.94167195287741, 34.21924447326452], [71.94170472644633, 34.21924736446127], [71.94170850511966, 34.21921789336984]]]]}, "properties": {"id": "8J6H6W9R+MMW6", "height": 3.586005687713623, "hmax": 0.06, "ratio": 0.017, "vulnClass": "none"}}, {"type": "Feature", "geometry": {"type": "MultiPolygon", "coordinates": [[[[71.94185877555485, 34.21922128337717], [71.94191308062702, 34.21916287693504], [71.94186864668796, 34.21913436587538], [71.94181434160649, 34.219192772297355], [71.94185877555485, 34.21922128337717]]]]}, "properties": {"id": "8J6H6W9R+MPH4", "height": 3.344612121582031, "hmax": 0.065, "ratio": 0.019, "vulnClass": "none"}}, {"type": "Feature", "geometry": {"type": "MultiPolygon", "coordinates": [[[[71.94184185942207, 34.21915496998587], [71.94175931663246, 34.219112077125324], [71.94172979528706, 34.21915127162623], [71.94181233809685, 34.2191941645077], [71.94184185942207, 34.21915496998587]]]]}, "properties": {"id": "8J6H6W9R+MP72", "height": 5.426920890808105, "hmax": 0.065, "ratio": 0.012, "vulnClass": "none"}}, {"type": "Feature", "geometry": {"type": "MultiPolygon", "coordinates": [[[[71.94192369803817, 34.21904632250571], [71.94184115530453, 34.219003429703186], [71.9418090135631, 34.21904607422446], [71.94192702194353, 34.21910742918443], [71.94194286621023, 34.21908637166898], [71.94190739733295, 34.21906799959628], [71.94192369803817, 34.21904632250571]]]]}, "properties": {"id": "8J6H6W9R+JQC2", "height": 4.068678855895996, "hmax": 0.065, "ratio": 0.016, "vulnClass": "none"}}, {"type": "Feature", "geometry": {"type": "MultiPolygon", "coordinates": [[[[71.94220215529334, 34.21933369249874], [71.94227386960618, 34.21923795233539], [71.94224171898763, 34.219220834962144], [71.9421685162136, 34.219315726714726], [71.94220215529334, 34.21933369249874]]]]}, "properties": {"id": "8J6H6W9R+PV92", "height": 3.851154088973999, "hmax": 0.085, "ratio": 0.022, "vulnClass": "none"}}, {"type": "Feature", "geometry": {"type": "MultiPolygon", "coordinates": [[[[71.94224609106672, 34.219333977677856], [71.94232055186248, 34.21922830065627], [71.94228930528739, 34.21921318890102], [71.94221473931462, 34.21931877313983], [71.94224609106672, 34.219333977677856]]]]}, "properties": {"id": "8J6H6W9R+PW2W", "height": 3.863598823547363, "hmax": 0.085, "ratio": 0.022, "vulnClass": "none"}}, {"type": "Feature", "geometry": {"type": "MultiPolygon", "coordinates": [[[[71.94235678099034, 34.21919864779103], [71.94230804582654, 34.2191780518753], [71.94228924804405, 34.21920877068862], [71.94233798321982, 34.21922936661245], [71.94235678099034, 34.21919864779103]]]]}, "properties": {"id": "8J6H6W9R+MWP3", "height": 3.890166044235229, "hmax": 0.084, "ratio": 0.022, "vulnClass": "none"}}, {"type": "Feature", "geometry": {"type": "MultiPolygon", "coordinates": [[[[71.94229594992956, 34.21934450615559], [71.94236686619458, 34.219249827681395], [71.94233375939277, 34.21923214564044], [71.9422611410998, 34.219325880236646], [71.94229594992956, 34.21934450615559]]]]}, "properties": {"id": "8J6H6W9R+PW8C", "height": 3.250340223312378, "hmax": 0.084, "ratio": 0.026, "vulnClass": "none"}}, {"type": "Feature", "geometry": {"type": "MultiPolygon", "coordinates": [[[[71.94244932962243, 34.21914489110146], [71.94235350459971, 34.219112213396635], [71.9423173254459, 34.219185494518555], [71.9424132622008, 34.219218084903154], [71.94244932962243, 34.21914489110146]]]]}, "properties": {"id": "8J6H6W9R+MX6M", "height": 3.438656330108643, "hmax": 0.073, "ratio": 0.021, "vulnClass": "none"}}, {"type": "Feature", "geometry": {"type": "MultiPolygon", "coordinates": [[[[71.94256134728286, 34.21921889563792], [71.94252105004391, 34.219214014165615], [71.9425143506563, 34.21925224597904], [71.94255464791276, 34.219257127454505], [71.94256134728286, 34.21921889563792]]]]}, "properties": {"id": "8J6H6W9V+M2VC", "height": 2.549635410308838, "hmax": 0.071, "ratio": 0.028, "vulnClass": "none"}}, {"type": "Feature", "geometry": {"type": "MultiPolygon", "coordinates": [[[[71.94250974150368, 34.219241674907146], [71.94242038192093, 34.21921024024335], [71.94240368074334, 34.21924299443875], [71.94249303709613, 34.21927451917331], [71.94250974150368, 34.219241674907146]]]]}, "properties": {"id": "8J6H6W9R+MXWP", "height": 3.218297004699707, "hmax": 0.071, "ratio": 0.022, "vulnClass": "none"}}, {"type": "Feature", "geometry": {"type": "MultiPolygon", "coordinates": [[[[71.9425170588029, 34.21936940340588], [71.94255728980171, 34.219259086283635], [71.94251696459717, 34.21924897608131], [71.94247674006563, 34.21935911307347], [71.9425170588029, 34.21936940340588]]]]}, "properties": {"id": "8J6H6W9V+P2C8", "height": 3.036773920059204, "hmax": 0.071, "ratio": 0.024, "vulnClass": "none"}}, {"type": "Feature", "geometry": {"type": "MultiPolygon", "coordinates": [[[[71.94261205865905, 34.219316879561326], [71.9425634211826, 34.21931458428781], [71.94256164860802, 34.21933959854822], [71.94261028284235, 34.2193419838804], [71.94261205865905, 34.219316879561326]]]]}, "properties": {"id": "8J6H6W9V+P2P5", "height": 3.30830717086792, "hmax": 0.071, "ratio": 0.022, "vulnClass": "none"}}, {"type": "Feature", "geometry": {"type": "MultiPolygon", "coordinates": [[[[71.94266019807674, 34.21935395583283], [71.9425401701927, 34.21933942316167], [71.94253347405572, 34.21937756491822], [71.94265350199178, 34.21939209759874], [71.94266019807674, 34.21935395583283]]]]}, "properties": {"id": "8J6H6W9V+P2XJ", "height": 3.46199893951416, "hmax": 0.073, "ratio": 0.021, "vulnClass": "none"}}, {"type": "Feature", "geometry": {"type": "MultiPolygon", "coordinates": [[[[71.9425153563754, 34.21937747338628], [71.94243620555962, 34.219372794171676], [71.94244501626683, 34.2193932050419], [71.94250368254916, 34.219403232103616], [71.942523867921, 34.219397155678806], [71.9425153563754, 34.21937747338628]]]]}, "properties": {"id": "8J6H6W9R+QX5F", "height": 2.819834232330322, "hmax": 0.112, "ratio": 0.04, "vulnClass": "low"}}, {"type": "Feature", "geometry": {"type": "MultiPolygon", "coordinates": [[[[71.94251410025117, 34.21948723067712], [71.9424136295137, 34.219474988651136], [71.94240419842788, 34.21952874624082], [71.94250467248324, 34.21954089822066], [71.94249032259533, 34.21962265627546], [71.94252737745155, 34.21962718644146], [71.94254677733707, 34.21951680022585], [71.94250972252732, 34.219512270068215], [71.94251410025117, 34.21948723067712]]]]}, "properties": {"id": "8J6H6W9R+RX98", "height": 3.299951553344727, "hmax": 0.128, "ratio": 0.039, "vulnClass": "low"}}, {"type": "Feature", "geometry": {"type": "MultiPolygon", "coordinates": [[[[71.9426324334604, 34.21938958885546], [71.94259138051342, 34.21938459840917], [71.94257717823537, 34.219465278500635], [71.94261823122, 34.21947026895369], [71.9426324334604, 34.21938958885546]]]]}, "properties": {"id": "8J6H6W9V+Q2H3", "height": 2.959353685379028, "hmax": 0.128, "ratio": 0.043, "vulnClass": "low"}}, {"type": "Feature", "geometry": {"type": "MultiPolygon", "coordinates": [[[[71.94263974713614, 34.219505418983914], [71.94256205343247, 34.219496449559095], [71.942551819863, 34.21955739821492], [71.94262962203197, 34.219566370354194], [71.94263974713614, 34.219505418983914]]]]}, "properties": {"id": "8J6H6W9V+R296", "height": 2.971652030944824, "hmax": 0.128, "ratio": 0.043, "vulnClass": "low"}}, {"type": "Feature", "geometry": {"type": "MultiPolygon", "coordinates": [[[[71.94248003937457, 34.21953793994958], [71.94233991842667, 34.219520922642594], [71.9423255683857, 34.21960268066988], [71.94246568946376, 34.21961969800029], [71.94248003937457, 34.21953793994958]]]]}, "properties": {"id": "8J6H6W9R+RXCX", "height": 2.788034200668335, "hmax": 0.128, "ratio": 0.046, "vulnClass": "low"}}, {"type": "Feature", "geometry": {"type": "MultiPolygon", "coordinates": [[[[71.94219280888419, 34.219448115354346], [71.94218337766351, 34.219501872919786], [71.94240419842788, 34.21952874624082], [71.9424136295137, 34.219474988651136], [71.94219280888419, 34.219448115354346]]]]}, "properties": {"id": "8J6H6W9R+QWVG", "height": 2.676777124404907, "hmax": 0.127, "ratio": 0.047, "vulnClass": "low"}}, {"type": "Feature", "geometry": {"type": "MultiPolygon", "coordinates": [[[[71.94231502506679, 34.21931812090924], [71.9423059888792, 34.21934295390417], [71.9423784619599, 34.2193612577493], [71.94238749487236, 34.21933651480521], [71.94231502506679, 34.21931812090924]]]]}, "properties": {"id": "8J6H6W9R+PWQC", "height": 3.199134349822998, "hmax": 0.077, "ratio": 0.024, "vulnClass": "none"}}, {"type": "Feature", "geometry": {"type": "MultiPolygon", "coordinates": [[[[71.9423440711772, 34.219283060771], [71.94232908079279, 34.219313514046455], [71.94244506260314, 34.21935291431072], [71.94246005621147, 34.21932237096216], [71.9423440711772, 34.219283060771]]]]}, "properties": {"id": "8J6H6W9R+PXCP", "height": 3.413331270217896, "hmax": 0.072, "ratio": 0.021, "vulnClass": "none"}}, {"type": "Feature", "geometry": {"type": "MultiPolygon", "coordinates": [[[[71.94236841608425, 34.21925797881776], [71.94235639326241, 34.219281385212064], [71.94246909991813, 34.21932133469334], [71.94248112597266, 34.21929783822954], [71.94236841608425, 34.21925797881776]]]]}, "properties": {"id": "8J6H6W9R+PX7F", "height": 3.413331270217896, "hmax": 0.071, "ratio": 0.021, "vulnClass": "none"}}, {"type": "Feature", "geometry": {"type": "MultiPolygon", "coordinates": [[[[71.9421606428853, 34.21945542509204], [71.94221634745332, 34.21937632159845], [71.9421469280383, 34.219342590052655], [71.94204044747475, 34.21949352859487], [71.94206347997184, 34.219504739744266], [71.94208200664909, 34.21947852112716], [71.94209682827709, 34.219485741541945], [71.94212908079842, 34.21944003500545], [71.9421606428853, 34.21945542509204]]]]}, "properties": {"id": "8J6H6W9R+QV6M", "height": 2.72371244430542, "hmax": 0.12, "ratio": 0.044, "vulnClass": "low"}}, {"type": "Feature", "geometry": {"type": "MultiPolygon", "coordinates": [[[[71.94201834466004, 34.21936660289044], [71.9420218124254, 34.21933072419833], [71.94198641414391, 34.21932839854922], [71.94198305477481, 34.219364279945175], [71.94201834466004, 34.21936660289044]]]]}, "properties": {"id": "8J6H6W9R+PRJR", "height": 2.494545221328735, "hmax": 0.069, "ratio": 0.028, "vulnClass": "none"}}, {"type": "Feature", "geometry": {"type": "MultiPolygon", "coordinates": [[[[71.94203333234934, 34.21949524393153], [71.94205428502315, 34.21945295108354], [71.94202491583994, 34.21944293386582], [71.94200396315469, 34.219485226708166], [71.94203333234934, 34.21949524393153]]]]}, "properties": {"id": "8J6H6W9R+QRJQ", "height": 2.588255405426025, "hmax": 0.125, "ratio": 0.048, "vulnClass": "low"}}, {"type": "Feature", "geometry": {"type": "MultiPolygon", "coordinates": [[[[71.9416919097304, 34.21937071448616], [71.9417093779342, 34.219352762244014], [71.94167982834503, 34.21933273507719], [71.94157472308453, 34.21943962982816], [71.94162725390275, 34.2194752837534], [71.94171478904917, 34.21938615838199], [71.9416919097304, 34.21937071448616]]]]}, "properties": {"id": "8J6H6W9R+QM69", "height": 2.898802280426025, "hmax": 0.093, "ratio": 0.032, "vulnClass": "none"}}, {"type": "Feature", "geometry": {"type": "MultiPolygon", "coordinates": [[[[71.941598563205, 34.21927851655432], [71.94153061120463, 34.21924022423488], [71.94143398512664, 34.21935868795197], [71.9415019371701, 34.21939698032719], [71.941598563205, 34.21927851655432]]]]}, "properties": {"id": "8J6H6W9R+PJCP", "height": 3.992667198181152, "hmax": 0.062, "ratio": 0.016, "vulnClass": "none"}}, {"type": "Feature", "geometry": {"type": "MultiPolygon", "coordinates": [[[[71.94157287878419, 34.219424620815246], [71.94151658008577, 34.21940014012076], [71.94149033782512, 34.219441669865965], [71.94154663654172, 34.21946615057348], [71.94157287878419, 34.219424620815246]]]]}, "properties": {"id": "8J6H6W9R+QJF6", "height": 2.876207828521729, "hmax": 0.096, "ratio": 0.033, "vulnClass": "none"}}, {"type": "Feature", "geometry": {"type": "MultiPolygon", "coordinates": [[[[71.941470358206, 34.219691034844274], [71.94157076029285, 34.21959718301468], [71.94153112893255, 34.21956789032137], [71.9414306216879, 34.21966164935511], [71.941470358206, 34.219691034844274]]]]}, "properties": {"id": "8J6H6W9R+VJ22", "height": 2.740397930145264, "hmax": 0.096, "ratio": 0.035, "vulnClass": "none"}}, {"type": "Feature", "geometry": {"type": "MultiPolygon", "coordinates": [[[[71.94159100343569, 34.21951151596264], [71.94154589747706, 34.2194985819576], [71.9415334165135, 34.21952864707017], [71.94157852248554, 34.21954158108052], [71.94159100343569, 34.21951151596264]]]]}, "properties": {"id": "8J6H6W9R+RJ3X", "height": 2.931936264038086, "hmax": 0.096, "ratio": 0.033, "vulnClass": "none"}}, {"type": "Feature", "geometry": {"type": "MultiPolygon", "coordinates": [[[[71.94215199032884, 34.22063079462274], [71.94198865941804, 34.22064041943324], [71.94199521103673, 34.22071729074329], [71.94215854209679, 34.220707665932146], [71.94215199032884, 34.22063079462274]]]]}, "properties": {"id": "8J6H6WCR+7R8V", "height": 2.653038501739502, "hmax": 0.152, "ratio": 0.057, "vulnClass": "low"}}, {"type": "Feature", "geometry": {"type": "MultiPolygon", "coordinates": [[[[71.94234061221431, 34.22067795696757], [71.94232076973682, 34.220605531333334], [71.94222845103462, 34.220622877679524], [71.94224829017777, 34.22069539338165], [71.94234061221431, 34.22067795696757]]]]}, "properties": {"id": "8J6H6WCR+7W72", "height": 2.509183883666992, "hmax": 0.167, "ratio": 0.066, "vulnClass": "low"}}, {"type": "Feature", "geometry": {"type": "MultiPolygon", "coordinates": [[[[71.94227351313964, 34.22070305362697], [71.94218156841576, 34.22071905719044], [71.94222751651735, 34.22090075113537], [71.9423193530227, 34.22088474484254], [71.94227351313964, 34.22070305362697]]]]}, "properties": {"id": "8J6H6WCR+8WC2", "height": 3.440553188323975, "hmax": 0.163, "ratio": 0.047, "vulnClass": "low"}}, {"type": "Feature", "geometry": {"type": "MultiPolygon", "coordinates": [[[[71.94211892123282, 34.22050404595514], [71.94210092199427, 34.22041066403713], [71.94199112535414, 34.22042523041975], [71.9420091244719, 34.22051861234731], [71.94211892123282, 34.22050404595514]]]]}, "properties": {"id": "8J6H6WCR+5RMH", "height": 2.866448402404785, "hmax": 0.163, "ratio": 0.057, "vulnClass": "low"}}, {"type": "Feature", "geometry": {"type": "MultiPolygon", "coordinates": [[[[71.94259348157401, 34.22052382055469], [71.94257327363995, 34.22044949292852], [71.94248543262655, 34.22046604982168], [71.94250575215422, 34.2205402901063], [71.94259348157401, 34.22052382055469]]]]}, "properties": {"id": "8J6H6WCV+52VM", "height": 2.48857307434082, "hmax": 0.188, "ratio": 0.075, "vulnClass": "low"}}, {"type": "Feature", "geometry": {"type": "MultiPolygon", "coordinates": [[[[71.94266172558592, 34.22058708795668], [71.94264188284423, 34.22051466235985], [71.94250575215422, 34.2205402901063], [71.94251915831511, 34.2205896599449], [71.94255488280791, 34.22058297975089], [71.9425612108714, 34.22060603281837], [71.94266172558592, 34.22058708795668]]]]}, "properties": {"id": "8J6H6WCV+62GH", "height": 2.48857307434082, "hmax": 0.19, "ratio": 0.076, "vulnClass": "low"}}, {"type": "Feature", "geometry": {"type": "MultiPolygon", "coordinates": [[[[71.94263975281459, 34.21986236740091], [71.94261392057234, 34.219787538887836], [71.94241121105232, 34.219835932780114], [71.94243704637971, 34.21991067126937], [71.94263975281459, 34.21986236740091]]]]}, "properties": {"id": "8J6H6W9V+W2JX", "height": 2.445182085037231, "hmax": 0.138, "ratio": 0.057, "vulnClass": "low"}}, {"type": "Feature", "geometry": {"type": "MultiPolygon", "coordinates": [[[[71.94259418342452, 34.21832878641973], [71.94254938359205, 34.218316401266485], [71.94252994135518, 34.21836495146338], [71.94257474120941, 34.218377336624876], [71.94259418342452, 34.21832878641973]]]]}, "properties": {"id": "8J6H6W9V+82MX", "height": 3.530427932739258, "hmax": 0.071, "ratio": 0.02, "vulnClass": "none"}}, {"type": "Feature", "geometry": {"type": "MultiPolygon", "coordinates": [[[[71.94208837416974, 34.21822530495948], [71.94204199067514, 34.218211708302206], [71.94203025827358, 34.21823908800857], [71.94207675019024, 34.21825268737642], [71.94208837416974, 34.21822530495948]]]]}, "properties": {"id": "8J6H6W9R+7RV9", "height": 3.371581554412842, "hmax": 0.0, "ratio": 0.0, "vulnClass": "none"}}, {"type": "Feature", "geometry": {"type": "MultiPolygon", "coordinates": [[[[71.94204744975633, 34.21819877446514], [71.94195760011311, 34.21817192432692], [71.94194030995622, 34.21821196497878], [71.94203016289141, 34.21823872507438], [71.94204744975633, 34.21819877446514]]]]}, "properties": {"id": "8J6H6W9R+7QQ9", "height": 3.001871347427368, "hmax": 0.0, "ratio": 0.0, "vulnClass": "none"}}, {"type": "Feature", "geometry": {"type": "MultiPolygon", "coordinates": [[[[71.94211208505322, 34.2181697404279], [71.94206559643123, 34.21815605101828], [71.94204804065659, 34.218197437135025], [71.94209452929746, 34.2182111265523], [71.94211208505322, 34.2181697404279]]]]}, "properties": {"id": "8J6H6W9R+7RG8", "height": 3.498179197311401, "hmax": 0.0, "ratio": 0.0, "vulnClass": "none"}}, {"type": "Feature", "geometry": {"type": "MultiPolygon", "coordinates": [[[[71.94218089915982, 34.2182141833402], [71.94210295263807, 34.218191235888824], [71.94207675019024, 34.21825268737642], [71.94215469675898, 34.218275634846975], [71.94218089915982, 34.2182141833402]]]]}, "properties": {"id": "8J6H6W9R+7VR6", "height": 3.498179197311401, "hmax": 0.0, "ratio": 0.0, "vulnClass": "none"}}, {"type": "Feature", "geometry": {"type": "MultiPolygon", "coordinates": [[[[71.94257757347413, 34.218265996151764], [71.94213906871252, 34.21813769356219], [71.94212044610265, 34.218181576943884], [71.94255894779701, 34.21830996966738], [71.94257757347413, 34.218265996151764]]]]}, "properties": {"id": "8J6H6W9R+7WQR", "height": 3.478918313980103, "hmax": 0.071, "ratio": 0.021, "vulnClass": "none"}}, {"type": "Feature", "geometry": {"type": "MultiPolygon", "coordinates": [[[[71.94212939140407, 34.218129249460766], [71.94195921693417, 34.21807921221419], [71.94194191051575, 34.21811970315369], [71.94211208505322, 34.2181697404279], [71.94212939140407, 34.218129249460766]]]]}, "properties": {"id": "8J6H6W9R+6RVR", "height": 3.591905355453491, "hmax": 0.0, "ratio": 0.0, "vulnClass": "none"}}, {"type": "Feature", "geometry": {"type": "MultiPolygon", "coordinates": [[[[71.94205403476806, 34.21782765851509], [71.94202254309475, 34.21782534024937], [71.94201955931935, 34.217853839675065], [71.94205105100308, 34.21785615794212], [71.94205403476806, 34.21782765851509]]]]}, "properties": {"id": "8J6H6W9R+4RMJ", "height": 2.898978233337402, "hmax": 0.0, "ratio": 0.0, "vulnClass": "none"}}, {"type": "Feature", "geometry": {"type": "MultiPolygon", "coordinates": [[[[71.92812176595804, 34.22269924298348], [71.9281180566274, 34.222652007825985], [71.92790462508019, 34.22266360249331], [71.92791552892223, 34.22280250807683], [71.92815516385996, 34.22278949718621], [71.92814796896747, 34.22269782676], [71.92812176595804, 34.22269924298348]]]]}, "properties": {"id": "8J6H6WFH+36R5", "height": 3.682247638702393, "hmax": 0.0, "ratio": 0.0, "vulnClass": "none"}}, {"type": "Feature", "geometry": {"type": "MultiPolygon", "coordinates": [[[[71.92802498062281, 34.22257359777546], [71.92796529132735, 34.222576788381424], [71.9279713142453, 34.22265292569875], [71.9281175529624, 34.22264496443657], [71.92811324464449, 34.22259032294756], [71.92802669533312, 34.222595093603786], [71.92802498062281, 34.22257359777546]]]]}, "properties": {"id": "8J6H6WFH+26VJ", "height": 2.85087251663208, "hmax": 0.0, "ratio": 0.0, "vulnClass": "none"}}, {"type": "Feature", "geometry": {"type": "MultiPolygon", "coordinates": [[[[71.92939451371947, 34.22252887655653], [71.9293406353299, 34.22252743615051], [71.9293375461838, 34.22260352534935], [71.92939153303557, 34.222604968476325], [71.92939451371947, 34.22252887655653]]]]}, "properties": {"id": "8J6H6WFH+2PHP", "height": 2.693889617919922, "hmax": 0.0, "ratio": 0.0, "vulnClass": "none"}}, {"type": "Feature", "geometry": {"type": "MultiPolygon", "coordinates": [[[[71.9346656180028, 34.224623892113115], [71.93468492847592, 34.224501336655], [71.93464417940433, 34.224496891913816], [71.93462497729112, 34.224619450074925], [71.9346656180028, 34.224623892113115]]]]}, "properties": {"id": "8J6H6WFM+RVCH", "height": 2.777597427368164, "hmax": 0.0, "ratio": 0.0, "vulnClass": "none"}}, {"type": "Feature", "geometry": {"type": "MultiPolygon", "coordinates": [[[[71.9283910510827, 34.2227153684591], [71.92832252780528, 34.222719779981254], [71.9283271409929, 34.222769020830754], [71.92839566431046, 34.222764609308186], [71.9283910510827, 34.2227153684591]]]]}, "properties": {"id": "8J6H6WFH+38XM", "height": 3.073421001434326, "hmax": 0.0, "ratio": 0.0, "vulnClass": "none"}}, {"type": "Feature", "geometry": {"type": "MultiPolygon", "coordinates": [[[[71.92788525036885, 34.22272197679131], [71.92783935898606, 34.222724702053284], [71.92785030072703, 34.22285360327548], [71.92798818863736, 34.222845522929035], [71.92798461155436, 34.22280360922603], [71.92789261187056, 34.22280905436593], [71.92788525036885, 34.22272197679131]]]]}, "properties": {"id": "8J6H6WFH+45C4", "height": 3.667314052581787, "hmax": 0.0, "ratio": 0.0, "vulnClass": "none"}}, {"type": "Feature", "geometry": {"type": "MultiPolygon", "coordinates": [[[[71.93764657672061, 34.230266093153126], [71.937424399559, 34.23025197620703], [71.93742077892952, 34.23029199718792], [71.93744773748968, 34.23029375275866], [71.93744490952012, 34.23032387835547], [71.9376401282938, 34.23033623975121], [71.93764657672061, 34.230266093153126]]]]}, "properties": {"id": "8J6H6WJQ+427J", "height": 2.45388388633728, "hmax": 0.0, "ratio": 0.0, "vulnClass": "none"}}, {"type": "Feature", "geometry": {"type": "MultiPolygon", "coordinates": [[[[71.93506427498434, 34.2304367782619], [71.93496779611401, 34.230430849175484], [71.93495861586179, 34.23053436845513], [71.93505498642399, 34.23054029484254], [71.93506427498434, 34.2304367782619]]]]}, "properties": {"id": "8J6H6WJP+52RF", "height": 2.636356115341187, "hmax": 0.0, "ratio": 0.0, "vulnClass": "none"}}, {"type": "Feature", "geometry": {"type": "MultiPolygon", "coordinates": [[[[71.93569234982542, 34.23183313506556], [71.9356344149848, 34.23185061493819], [71.93572728559113, 34.23206386108361], [71.93581396466115, 34.232037815898], [71.93573581460272, 34.23185855952637], [71.93570717898972, 34.23186712749956], [71.93569234982542, 34.23183313506556]]]]}, "properties": {"id": "8J6H6WJP+Q7HR", "height": 4.81981086730957, "hmax": 0.0, "ratio": 0.0, "vulnClass": "none"}}, {"type": "Feature", "geometry": {"type": "MultiPolygon", "coordinates": [[[[71.93578716898033, 34.23204652004661], [71.93572165066958, 34.232063630001], [71.93576295611958, 34.23217255847139], [71.9358284777751, 34.23215535844282], [71.93578716898033, 34.23204652004661]]]]}, "properties": {"id": "8J6H6WJP+R8R9", "height": 3.861315250396729, "hmax": 0.0, "ratio": 0.0, "vulnClass": "none"}}, {"type": "Feature", "geometry": {"type": "MultiPolygon", "coordinates": [[[[71.9358465381048, 34.23216608590861], [71.93577197985756, 34.23219306525084], [71.93585805836612, 34.23235719642923], [71.93593250504692, 34.2323303043861], [71.9358465381048, 34.23216608590861]]]]}, "properties": {"id": "8J6H6WJP+W85F", "height": 4.705072402954102, "hmax": 0.0, "ratio": 0.0, "vulnClass": "none"}}, {"type": "Feature", "geometry": {"type": "MultiPolygon", "coordinates": [[[[71.92772075996011, 34.2326279741807], [71.92759786797606, 34.23263507777002], [71.9276008164865, 34.23267039561578], [71.9277237085222, 34.23266329202631], [71.92772075996011, 34.2326279741807]]]]}, "properties": {"id": "8J6H6WMH+333R", "height": 2.643891096115112, "hmax": 0.0, "ratio": 0.0, "vulnClass": "none"}}]}