{"type": "FeatureCollection", "features": [{"type": "Feature", "geometry": {"type": "MultiPolygon", "coordinates": [[[[72.094559737991, 34.36150052855451], [72.09452560766314, 34.36149106418098], [72.09451609136607, 34.36151481575149], [72.09455022170214, 34.361524280128066], [72.094559737991, 34.36150052855451]]]]}, "properties": {"id": "8J6J936V+JR36", "height": 3.582088232040405, "hmax": 0.0, "ratio": 0.0, "vulnClass": "none"}}, {"type": "Feature", "geometry": {"type": "MultiPolygon", "coordinates": [[[[72.09462916621045, 34.36151083142488], [72.09456032402613, 34.36150559040005], [72.09455669665698, 34.36153822559391], [72.09462553886752, 34.3615434666221], [72.09462916621045, 34.36151083142488]]]]}, "properties": {"id": "8J6J936V+JR4X", "height": 2.617021083831787, "hmax": 0.0, "ratio": 0.0, "vulnClass": "none"}}, {"type": "Feature", "geometry": {"type": "MultiPolygon", "coordinates": [[[[72.09627682955954, 34.36436598204225], [72.09627343441312, 34.3643257884578], [72.0959936061465, 34.36434240084537], [72.09599700115857, 34.36438259443073], [72.09627682955954, 34.36436598204225]]]]}, "properties": {"id": "8J6J937W+PFR3", "height": 2.930775165557861, "hmax": 0.0, "ratio": 0.0, "vulnClass": "none"}}, {"type": "Feature", "geometry": {"type": "MultiPolygon", "coordinates": [[[[72.09600138922929, 34.364132736214366], [72.09593138352415, 34.364135941579], [72.09593763569075, 34.36422875550973], [72.09608472261658, 34.36422206203042], [72.09608163831767, 34.3641760166249], [72.09600444860455, 34.364179502161214], [72.09600138922929, 34.364132736214366]]]]}, "properties": {"id": "8J6J937W+M9HH", "height": 2.638248443603516, "hmax": 0.0, "ratio": 0.0, "vulnClass": "none"}}, {"type": "Feature", "geometry": {"type": "MultiPolygon", "coordinates": [[[[72.09613466805052, 34.364107235790634], [72.09613130165519, 34.36405676675282], [72.09602580443567, 34.36406156329635], [72.09602917076741, 34.36411203233383], [72.09613466805052, 34.364107235790634]]]]}, "properties": {"id": "8J6J937W+JCP8", "height": 5.482917785644531, "hmax": 0.0, "ratio": 0.0, "vulnClass": "none"}}, {"type": "Feature", "geometry": {"type": "MultiPolygon", "coordinates": [[[[72.09540105290026, 34.3662723205974], [72.0953997286016, 34.36622568600424], [72.09527071208066, 34.3662283908233], [72.09527214492262, 34.366275027993936], [72.09540105290026, 34.3662723205974]]]]}, "properties": {"id": "8J6J938W+G444", "height": 3.918635368347168, "hmax": 0.0, "ratio": 0.0, "vulnClass": "none"}}, {"type": "Feature", "geometry": {"type": "MultiPolygon", "coordinates": [[[[72.09405786655967, 34.36732724746094], [72.09396297817173, 34.36724512743385], [72.09392911191176, 34.36727199610469], [72.09402400029305, 34.36735411615762], [72.09405786655967, 34.36732724746094]]]]}, "properties": {"id": "8J6J938V+WH9X", "height": 2.768365859985352, "hmax": 0.082, "ratio": 0.029, "vulnClass": "none"}}, {"type": "Feature", "geometry": {"type": "MultiPolygon", "coordinates": [[[[72.09414751758955, 34.367400499256604], [72.09410458614236, 34.3673688310793], [72.09386003546142, 34.36759738770021], [72.09390297003308, 34.36762896589621], [72.09414751758955, 34.367400499256604]]]]}, "properties": {"id": "8J6J938V+XJRR", "height": 2.861929893493652, "hmax": 0.082, "ratio": 0.029, "vulnClass": "none"}}, {"type": "Feature", "geometry": {"type": "MultiPolygon", "coordinates": [[[[72.093896277065, 34.36743887889306], [72.09382400501565, 34.36739434430762], [72.09375808252526, 34.36746804582075], [72.09383035770996, 34.367512490378694], [72.093896277065, 34.36743887889306]]]]}, "properties": {"id": "8J6J938V+XGP3", "height": 2.57194185256958, "hmax": 0.082, "ratio": 0.032, "vulnClass": "none"}}, {"type": "Feature", "geometry": {"type": "MultiPolygon", "coordinates": [[[[72.09399718020065, 34.36733436887973], [72.093980602589, 34.367361107527735], [72.0940304213479, 34.367382212573425], [72.09404699894887, 34.367355473918145], [72.09399718020065, 34.36733436887973]]]]}, "properties": {"id": "8J6J938V+WJR7", "height": 2.768365859985352, "hmax": 0.082, "ratio": 0.029, "vulnClass": "none"}}, {"type": "Feature", "geometry": {"type": "MultiPolygon", "coordinates": [[[[72.09426745159936, 34.36737441353065], [72.09424071702544, 34.36733645976852], [72.09414176560644, 34.367384497694275], [72.09416850326004, 34.36742236140882], [72.09426745159936, 34.36737441353065]]]]}, "properties": {"id": "8J6J938V+XM44", "height": 2.593870162963867, "hmax": 4.66, "ratio": 1.796, "vulnClass": "very_high"}}, {"type": "Feature", "geometry": {"type": "MultiPolygon", "coordinates": [[[[72.09410858257908, 34.36734440757248], [72.09417616626936, 34.36728868347238], [72.09415017494297, 34.367266972808174], [72.09408259125505, 34.36732269689408], [72.09410858257908, 34.36734440757248]]]]}, "properties": {"id": "8J6J938V+WMC6", "height": 2.840763568878174, "hmax": 0.739, "ratio": 0.26, "vulnClass": "low"}}, {"type": "Feature", "geometry": {"type": "MultiPolygon", "coordinates": [[[[72.09660971313701, 34.36758589746343], [72.09655099849076, 34.36757684149504], [72.09654266027326, 34.367613691687936], [72.09660148356072, 34.367622750240216], [72.09660971313701, 34.36758589746343]]]]}, "properties": {"id": "8J6J939W+2JPV", "height": 2.842827320098877, "hmax": 0.0, "ratio": 0.0, "vulnClass": "none"}}, {"type": "Feature", "geometry": {"type": "MultiPolygon", "coordinates": [[[[72.0966439705546, 34.36759175867777], [72.09661141035845, 34.367590264548284], [72.09661004964319, 34.367610784504116], [72.09664260984722, 34.367612278634354], [72.0966439705546, 34.36759175867777]]]]}, "properties": {"id": "8J6J939W+2MR2", "height": 2.842827320098877, "hmax": 0.0, "ratio": 0.0, "vulnClass": "none"}}, {"type": "Feature", "geometry": {"type": "MultiPolygon", "coordinates": [[[[72.09367889866985, 34.36745994431011], [72.09363187564209, 34.36744287178485], [72.09361791714062, 34.36746931205715], [72.09366483156306, 34.36748638200708], [72.09367889866985, 34.36745994431011]]]]}, "properties": {"id": "8J6J938V+XFJG", "height": 4.018067836761475, "hmax": 0.0, "ratio": 0.0, "vulnClass": "none"}}, {"type": "Feature", "geometry": {"type": "MultiPolygon", "coordinates": [[[[72.09372394489957, 34.36756566898677], [72.09377811857101, 34.36748907419804], [72.09373985952917, 34.36747004658555], [72.09368449728103, 34.367546432827915], [72.09372394489957, 34.36756566898677]]]]}, "properties": {"id": "8J6J939V+2F5M", "height": 3.029206514358521, "hmax": 0.0, "ratio": 0.0, "vulnClass": "none"}}, {"type": "Feature", "geometry": {"type": "MultiPolygon", "coordinates": [[[[72.09366543057048, 34.36754453745], [72.09380305941808, 34.36740592551502], [72.09368326384072, 34.3673242049435], [72.09364395597444, 34.367363834435224], [72.0936850566515, 34.367391853606016], [72.09363775371503, 34.367439495962586], [72.09368320808974, 34.367470503125375], [72.09363219001796, 34.36752184312815], [72.09366543057048, 34.36754453745]]]]}, "properties": {"id": "8J6J938V+XFG4", "height": 3.986643075942993, "hmax": 0.0, "ratio": 0.0, "vulnClass": "none"}}, {"type": "Feature", "geometry": {"type": "MultiPolygon", "coordinates": [[[[72.09386095192167, 34.36734753748051], [72.09374126497906, 34.36726581954759], [72.09368326384072, 34.3673242049435], [72.09380305941808, 34.36740592551502], [72.09386095192167, 34.36734753748051]]]]}, "properties": {"id": "8J6J938V+WGJG", "height": 2.725944042205811, "hmax": 0.082, "ratio": 0.03, "vulnClass": "none"}}, {"type": "Feature", "geometry": {"type": "MultiPolygon", "coordinates": [[[[72.09357075050238, 34.36731486059306], [72.09349262111064, 34.367285690936974], [72.09347044653073, 34.367326538834924], [72.09354846733436, 34.36735570592522], [72.09357075050238, 34.36731486059306]]]]}, "properties": {"id": "8J6J938V+WCCW", "height": 3.490171909332275, "hmax": 0.654, "ratio": 0.187, "vulnClass": "low"}}, {"type": "Feature", "geometry": {"type": "MultiPolygon", "coordinates": [[[[72.09357017006904, 34.36743230105073], [72.09350304472856, 34.36740555630931], [72.09345148564435, 34.367494562483], [72.09351861103534, 34.367521307255195], [72.09357017006904, 34.36743230105073]]]]}, "properties": {"id": "8J6J938V+XCJF", "height": 4.017891883850098, "hmax": 0.654, "ratio": 0.163, "vulnClass": "low"}}, {"type": "Feature", "geometry": {"type": "MultiPolygon", "coordinates": [[[[72.09330787531614, 34.36738478242688], [72.09306156367947, 34.367359186954175], [72.0930500075615, 34.36743562259147], [72.09329643114494, 34.3674611306126], [72.09330787531614, 34.36738478242688]]]]}, "properties": {"id": "8J6J938V+X77G", "height": 3.253937482833862, "hmax": 0.654, "ratio": 0.201, "vulnClass": "low"}}, {"type": "Feature", "geometry": {"type": "MultiPolygon", "coordinates": [[[[72.09335032139967, 34.36722606070375], [72.09330753633299, 34.36722161843772], [72.09330514504846, 34.36723733634746], [72.09326907238675, 34.367233684595654], [72.09325987664566, 34.36729530303036], [72.09329594621983, 34.367299044853574], [72.09329029401508, 34.367336769900504], [72.09333308225179, 34.36734112210806], [72.09335032139967, 34.36722606070375]]]]}, "properties": {"id": "8J6J938V+W875", "height": 2.793371200561523, "hmax": 0.654, "ratio": 0.234, "vulnClass": "low"}}, {"type": "Feature", "geometry": {"type": "MultiPolygon", "coordinates": [[[[72.09264507811122, 34.366539546455904], [72.09260040487707, 34.36652370125005], [72.09257686407197, 34.36656947427964], [72.09262153732473, 34.36658531949501], [72.09264507811122, 34.366539546455904]]]]}, "properties": {"id": "8J6J938V+J2H4", "height": 3.337972164154053, "hmax": 2.175, "ratio": 0.652, "vulnClass": "high"}}, {"type": "Feature", "geometry": {"type": "MultiPolygon", "coordinates": [[[[72.09264605738508, 34.36700172462019], [72.0926140195908, 34.366994562943596], [72.0925941603768, 34.36705646865974], [72.09262620130612, 34.367063540275254], [72.09264605738508, 34.36700172462019]]]]}, "properties": {"id": "8J6J938V+R295", "height": 3.605871200561523, "hmax": 1.035, "ratio": 0.287, "vulnClass": "low"}}, {"type": "Feature", "geometry": {"type": "MultiPolygon", "coordinates": [[[[72.09267493615064, 34.36679526624857], [72.09246171052834, 34.366746568687795], [72.09243719798445, 34.366820442693175], [72.09280498014361, 34.36690436394886], [72.09281748153188, 34.366866621460666], [72.09266303383936, 34.36683140041784], [72.09267493615064, 34.36679526624857]]]]}, "properties": {"id": "8J6J938V+P2HV", "height": 3.73966646194458, "hmax": 1.312, "ratio": 0.351, "vulnClass": "moderate"}}, {"type": "Feature", "geometry": {"type": "MultiPolygon", "coordinates": [[[[72.09365724022791, 34.367080114550554], [72.09362412581099, 34.367069502176925], [72.09360967966109, 34.36710061821545], [72.09364268547188, 34.36711122801223], [72.09365724022791, 34.367080114550554]]]]}, "properties": {"id": "8J6J938V+RFJM", "height": 4.994876861572266, "hmax": 1.864, "ratio": 0.373, "vulnClass": "moderate"}}, {"type": "Feature", "geometry": {"type": "MultiPolygon", "coordinates": [[[[72.09365738145081, 34.367182969256795], [72.09371330309345, 34.3670966807557], [72.0936713357331, 34.36707801570757], [72.09361541406264, 34.367164304188115], [72.09365738145081, 34.367182969256795]]]]}, "properties": {"id": "8J6J938V+VF37", "height": 4.994876861572266, "hmax": 1.864, "ratio": 0.373, "vulnClass": "moderate"}}, {"type": "Feature", "geometry": {"type": "MultiPolygon", "coordinates": [[[[72.10015440029075, 34.353962155772116], [72.09963391378295, 34.35392682918088], [72.09962639695476, 34.354003000989564], [72.10014688082197, 34.3540384177044], [72.10015440029075, 34.353962155772116]]]]}, "properties": {"id": "8J6J933X+HXR7", "height": 2.485376119613647, "hmax": 0.0, "ratio": 0.0, "vulnClass": "none"}}, {"type": "Feature", "geometry": {"type": "MultiPolygon", "coordinates": [[[[72.09414263934536, 34.35580286991175], [72.09410067505843, 34.35580944484286], [72.0941317571154, 34.35594485474383], [72.09439120437166, 34.355903874196486], [72.09437986752727, 34.355854477739825], [72.09425691929495, 34.35587391212055], [72.09424748080679, 34.35583249320801], [72.0941529463087, 34.3558474644177], [72.09414263934536, 34.35580286991175]]]]}, "properties": {"id": "8J6J934V+9M56", "height": 3.68869161605835, "hmax": 0.0, "ratio": 0.0, "vulnClass": "none"}}, {"type": "Feature", "geometry": {"type": "MultiPolygon", "coordinates": [[[[72.0941320611433, 34.355945492957545], [72.09411197751153, 34.355859832061086], [72.09394551336196, 34.35588670559735], [72.09396559993765, 34.35597227644489], [72.0941320611433, 34.355945492957545]]]]}, "properties": {"id": "8J6J934V+9J7J", "height": 3.440730094909668, "hmax": 0.0, "ratio": 0.0, "vulnClass": "none"}}, {"type": "Feature", "geometry": {"type": "MultiPolygon", "coordinates": [[[[72.10017680174698, 34.35669893907396], [72.10017894358512, 34.35665572182916], [72.09999709853635, 34.35664951753847], [72.09999495660536, 34.356692734775386], [72.10017680174698, 34.35669893907396]]]]}, "properties": {"id": "8J6J9442+M28X", "height": 2.499238252639771, "hmax": 0.0, "ratio": 0.0, "vulnClass": "none"}}, {"type": "Feature", "geometry": {"type": "MultiPolygon", "coordinates": [[[[72.10009095849593, 34.357019881621596], [72.10004734363653, 34.357001810774086], [72.10002059519107, 34.35704624744127], [72.10006421317115, 34.357064228231], [72.10009095849593, 34.357019881621596]]]]}, "properties": {"id": "8J6J9442+R279", "height": 3.00867748260498, "hmax": 0.0, "ratio": 0.0, "vulnClass": "none"}}, {"type": "Feature", "geometry": {"type": "MultiPolygon", "coordinates": [[[[72.09998670807337, 34.35613429157818], [72.09993981969149, 34.35613552355877], [72.09994364660663, 34.35623576173849], [72.09998966311913, 34.35623459922818], [72.09998670807337, 34.35613429157818]]]]}, "properties": {"id": "8J6J934X+FXG9", "height": 2.511464357376099, "hmax": 0.0, "ratio": 0.0, "vulnClass": "none"}}, {"type": "Feature", "geometry": {"type": "MultiPolygon", "coordinates": [[[[72.10030918966221, 34.3562984230286], [72.1001015353622, 34.3562810604756], [72.10009331437413, 34.35634928313135], [72.10030086023613, 34.356366643132], [72.10030918966221, 34.3562984230286]]]]}, "properties": {"id": "8J6J9442+G3GV", "height": 2.823972225189209, "hmax": 0.0, "ratio": 0.0, "vulnClass": "none"}}, {"type": "Feature", "geometry": {"type": "MultiPolygon", "coordinates": [[[[72.09998862651159, 34.35624575222348], [72.09994635843414, 34.35624222609696], [72.09993862769136, 34.356305682852124], [72.09998089580002, 34.3563092089829], [72.09998862651159, 34.35624575222348]]]]}, "properties": {"id": "8J6J934X+GX85", "height": 3.187126159667969, "hmax": 0.0, "ratio": 0.0, "vulnClass": "none"}}, {"type": "Feature", "geometry": {"type": "MultiPolygon", "coordinates": [[[[72.10278118294086, 34.35763277780955], [72.1027138294782, 34.35763487820351], [72.1027158748293, 34.357679636975035], [72.10278322832795, 34.35767753658178], [72.10278118294086, 34.35763277780955]]]]}, "properties": {"id": "8J6J9453+3399", "height": 2.929826736450195, "hmax": 0.0, "ratio": 0.0, "vulnClass": "none"}}, {"type": "Feature", "geometry": {"type": "MultiPolygon", "coordinates": [[[[72.10632988704033, 34.35747231959665], [72.10627605624404, 34.35746996436021], [72.10626839538402, 34.35759471976711], [72.10644498101732, 34.35760223262513], [72.10644784877776, 34.35755677881422], [72.10632498857898, 34.35755152856826], [72.10632988704033, 34.35747231959665]]]]}, "properties": {"id": "8J6J9454+2GG5", "height": 2.717385530471802, "hmax": 0.0, "ratio": 0.0, "vulnClass": "none"}}, {"type": "Feature", "geometry": {"type": "MultiPolygon", "coordinates": [[[[72.10638274349628, 34.35747456161713], [72.10632988704033, 34.35747231959665], [72.1063285508934, 34.35749536430894], [72.10638129875889, 34.357497603761416], [72.10638274349628, 34.35747456161713]]]]}, "properties": {"id": "8J6J9444+XGX7", "height": 3.046937942504883, "hmax": 0.0, "ratio": 0.0, "vulnClass": "none"}}]}