{"type": "FeatureCollection", "features": [{"type": "Feature", "geometry": {"type": "MultiPolygon", "coordinates": [[[[72.40745042584167, 34.36044076193596], [72.40768104319343, 34.360442674293715], [72.4076820183062, 34.360365165832604], [72.40732967892639, 34.360362296442595], [72.40732833358749, 34.36047297229628], [72.40745005321169, 34.36047401943993], [72.40745042584167, 34.36044076193596]]]]}, "properties": {"id": "Pakistan_123102132_612115", "height": 3.205164432525635, "hmax": 0.0, "ratio": 0.0, "vulnClass": "none"}}]}