{"type": "FeatureCollection", "features": [{"type": "Feature", "geometry": {"type": "MultiPolygon", "coordinates": [[[[72.12108902014033, 34.09509923424487], [72.12095029186028, 34.095074616201295], [72.12094029944626, 34.09511368514666], [72.12107903083778, 34.09513821313091], [72.12108902014033, 34.09509923424487]]]]}, "properties": {"id": "8J6J34WC+2CR7", "height": 3.432775020599365, "hmax": 0.0, "ratio": 0.0, "vulnClass": "none"}}, {"type": "Feature", "geometry": {"type": "MultiPolygon", "coordinates": [[[[72.12053926196467, 34.09504370102443], [72.12050059153033, 34.09503693448229], [72.12049022526308, 34.09507743693875], [72.12052889266178, 34.09508429355861], [72.12053926196467, 34.09504370102443]]]]}, "properties": {"id": "8J6J34WC+26CF", "height": 2.756292819976807, "hmax": 0.0, "ratio": 0.0, "vulnClass": "none"}}, {"type": "Feature", "geometry": {"type": "MultiPolygon", "coordinates": [[[[72.12052798983768, 34.09513331136156], [72.12046572120612, 34.09512265588356], [72.12043758547566, 34.09523666054926], [72.12049985418521, 34.09524731604549], [72.12052798983768, 34.09513331136156]]]]}, "properties": {"id": "8J6J34WC+35H7", "height": 2.631341934204102, "hmax": 0.0, "ratio": 0.0, "vulnClass": "none"}}, {"type": "Feature", "geometry": {"type": "MultiPolygon", "coordinates": [[[[72.11969324272401, 34.09475215536725], [72.11964142278387, 34.09475292264782], [72.11964205437798, 34.0947822346457], [72.11969387433604, 34.09478146736578], [72.11969324272401, 34.09475215536725]]]]}, "properties": {"id": "8J6J34V9+WV3M", "height": 3.39638090133667, "hmax": 0.0, "ratio": 0.0, "vulnClass": "none"}}, {"type": "Feature", "geometry": {"type": "MultiPolygon", "coordinates": [[[[72.11988424315207, 34.09480738857943], [72.11986701928323, 34.09476569797674], [72.11972882457638, 34.09480527444978], [72.11971991229971, 34.09478370093037], [72.11964671053583, 34.094804699899925], [72.11967284962186, 34.09486787397758], [72.11988424315207, 34.09480738857943]]]]}, "properties": {"id": "8J6J34V9+WWCJ", "height": 2.989129066467285, "hmax": 0.0, "ratio": 0.0, "vulnClass": "none"}}, {"type": "Feature", "geometry": {"type": "MultiPolygon", "coordinates": [[[[72.11939562783427, 34.09496197087286], [72.11930444206935, 34.09495730696607], [72.1192996538316, 34.09502182867203], [72.11939083966504, 34.09502649258589], [72.11939562783427, 34.09496197087286]]]]}, "properties": {"id": "8J6J34V9+XPXJ", "height": 2.702250242233276, "hmax": 0.0, "ratio": 0.0, "vulnClass": "none"}}, {"type": "Feature", "geometry": {"type": "MultiPolygon", "coordinates": [[[[72.11925688285444, 34.094953847100406], [72.11919783179849, 34.094950568251136], [72.11919393636803, 34.09499834390596], [72.11925298440269, 34.09500171283226], [72.11925688285444, 34.094953847100406]]]]}, "properties": {"id": "8J6J34V9+XMX2", "height": 2.655684232711792, "hmax": 0.0, "ratio": 0.0, "vulnClass": "none"}}, {"type": "Feature", "geometry": {"type": "MultiPolygon", "coordinates": [[[[72.11932251694527, 34.095056980942715], [72.11925950631915, 34.09529510805018], [72.11934597988198, 34.095310929562686], [72.11940888201407, 34.09507279985878], [72.11932251694527, 34.095056980942715]]]]}, "properties": {"id": "8J6J34W9+3PG8", "height": 4.039295673370361, "hmax": 0.0, "ratio": 0.0, "vulnClass": "none"}}, {"type": "Feature", "geometry": {"type": "MultiPolygon", "coordinates": [[[[72.11930959242609, 34.095105806747455], [72.11925025645938, 34.09509494904205], [72.1192381997301, 34.09514054997748], [72.11929753572626, 34.09515140769018], [72.11930959242609, 34.095105806747455]]]]}, "properties": {"id": "8J6J34W9+2PRX", "height": 3.10770845413208, "hmax": 0.0, "ratio": 0.0, "vulnClass": "none"}}, {"type": "Feature", "geometry": {"type": "MultiPolygon", "coordinates": [[[[72.11927150102508, 34.09514268365897], [72.11916881161268, 34.09512576037887], [72.11916212344704, 34.095153638558195], [72.11926481289099, 34.095170561845485], [72.11927150102508, 34.09514268365897]]]]}, "properties": {"id": "8J6J34W9+3M4X", "height": 3.073843955993652, "hmax": 0.0, "ratio": 0.0, "vulnClass": "none"}}, {"type": "Feature", "geometry": {"type": "MultiPolygon", "coordinates": [[[[72.11927578177006, 34.09523374057111], [72.1192164457207, 34.09522288284519], [72.11920017023013, 34.095284250314386], [72.11925950631915, 34.09529510805018], [72.11927578177006, 34.09523374057111]]]]}, "properties": {"id": "8J6J34W9+4M58", "height": 3.612417936325073, "hmax": 0.0, "ratio": 0.0, "vulnClass": "none"}}, {"type": "Feature", "geometry": {"type": "MultiPolygon", "coordinates": [[[[72.118908250194, 34.09500651299942], [72.11886381755153, 34.09499393155885], [72.11883888029138, 34.09505509567647], [72.11888331296083, 34.09506767712742], [72.118908250194, 34.09500651299942]]]]}, "properties": {"id": "8J6J34W9+2G99", "height": 2.515468120574951, "hmax": 0.0, "ratio": 0.0, "vulnClass": "none"}}, {"type": "Feature", "geometry": {"type": "MultiPolygon", "coordinates": [[[[72.1190695770171, 34.09490789442625], [72.11901277081041, 34.09490232439968], [72.1190080280931, 34.094936738679515], [72.11906472910691, 34.09494221609494], [72.1190695770171, 34.09490789442625]]]]}, "properties": {"id": "8J6J34V9+XJ7R", "height": 3.495327472686768, "hmax": 0.0, "ratio": 0.0, "vulnClass": "none"}}, {"type": "Feature", "geometry": {"type": "MultiPolygon", "coordinates": [[[[72.11899859602528, 34.09491452189735], [72.11890683197723, 34.09488856987134], [72.11886381755153, 34.09499393155885], [72.11895558169554, 34.09501988362183], [72.11899859602528, 34.09491452189735]]]]}, "properties": {"id": "8J6J34V9+XHM5", "height": 2.629639625549316, "hmax": 0.0, "ratio": 0.0, "vulnClass": "none"}}, {"type": "Feature", "geometry": {"type": "MultiPolygon", "coordinates": [[[[72.11905115859747, 34.09432945147876], [72.1189918442695, 34.09432436346047], [72.11898841641033, 34.09435195757053], [72.11904773381141, 34.094356955517966], [72.11905115859747, 34.09432945147876]]]]}, "properties": {"id": "8J6J34V9+PJJP", "height": 3.12136697769165, "hmax": 0.0, "ratio": 0.0, "vulnClass": "none"}}, {"type": "Feature", "geometry": {"type": "MultiPolygon", "coordinates": [[[[72.1187555199332, 34.09404964340666], [72.11860116351875, 34.09403222814138], [72.11859692744457, 34.094058090509634], [72.11871533743091, 34.09407150698154], [72.11870765241048, 34.09411919367119], [72.11874348758042, 34.09412328000765], [72.1187555199332, 34.09404964340666]]]]}, "properties": {"id": "8J6J34V9+JFGJ", "height": 2.964560508728027, "hmax": 0.0, "ratio": 0.0, "vulnClass": "none"}}, {"type": "Feature", "geometry": {"type": "MultiPolygon", "coordinates": [[[[72.11883649372301, 34.0942052414223], [72.11873200435046, 34.09419350397965], [72.1186942321183, 34.094425462293486], [72.11890299185758, 34.094449022174835], [72.11890750243938, 34.09442145348018], [72.11880312411199, 34.094409628551965], [72.11883649372301, 34.0942052414223]]]]}, "properties": {"id": "8J6J34V9+PGJ5", "height": 3.013452768325806, "hmax": 0.0, "ratio": 0.0, "vulnClass": "none"}}, {"type": "Feature", "geometry": {"type": "MultiPolygon", "coordinates": [[[[72.11910525159912, 34.09383023508258], [72.11890517032936, 34.093800028238526], [72.11887526454231, 34.09393742871275], [72.11892550069366, 34.09394500807024], [72.1189387170531, 34.09388438013496], [72.11908856237639, 34.09390700766454], [72.11910525159912, 34.09383023508258]]]]}, "properties": {"id": "8J6J34V9+GHXF", "height": 4.231512069702148, "hmax": 0.0, "ratio": 0.0, "vulnClass": "none"}}, {"type": "Feature", "geometry": {"type": "MultiPolygon", "coordinates": [[[[72.11914508007622, 34.09384117590246], [72.11911135095743, 34.09383569678938], [72.11910412904658, 34.09386653723623], [72.11913796644505, 34.09387201889273], [72.11914508007622, 34.09384117590246]]]]}, "properties": {"id": "8J6J34V9+GJX5", "height": 3.418045043945312, "hmax": 0.0, "ratio": 0.0, "vulnClass": "none"}}, {"type": "Feature", "geometry": {"type": "MultiPolygon", "coordinates": [[[[72.11937489854623, 34.0937740923902], [72.11932647107798, 34.093764302033286], [72.11931654393044, 34.09379823409311], [72.11936507968444, 34.09380802699548], [72.11937489854623, 34.0937740923902]]]]}, "properties": {"id": "8J6J34V9+GP9C", "height": 3.619506359100342, "hmax": 0.0, "ratio": 0.0, "vulnClass": "none"}}, {"type": "Feature", "geometry": {"type": "MultiPolygon", "coordinates": [[[[72.11936101539087, 34.09385120130036], [72.11929843223557, 34.09384026744106], [72.11928930097065, 34.09387629151343], [72.11935188415065, 34.093887225378644], [72.11936101539087, 34.09385120130036]]]]}, "properties": {"id": "8J6J34V9+GPWF", "height": 3.656148910522461, "hmax": 0.0, "ratio": 0.0, "vulnClass": "none"}}, {"type": "Feature", "geometry": {"type": "MultiPolygon", "coordinates": [[[[72.1194187509254, 34.09386130021295], [72.11936101539087, 34.09385120130036], [72.11935188415065, 34.093887225378644], [72.11940961970797, 34.09389732429668], [72.1194187509254, 34.09386130021295]]]]}, "properties": {"id": "8J6J34V9+GQRV", "height": 2.844894170761108, "hmax": 0.0, "ratio": 0.0, "vulnClass": "none"}}, {"type": "Feature", "geometry": {"type": "MultiPolygon", "coordinates": [[[[72.11935188415065, 34.093887225378644], [72.119242767313, 34.09386816817709], [72.11923048953585, 34.093917099306815], [72.11933949816371, 34.09393615398156], [72.11935188415065, 34.093887225378644]]]]}, "properties": {"id": "8J6J34V9+HP73", "height": 2.980452537536621, "hmax": 0.0, "ratio": 0.0, "vulnClass": "none"}}, {"type": "Feature", "geometry": {"type": "MultiPolygon", "coordinates": [[[[72.11961003905176, 34.094237186916736], [72.11950353097149, 34.094214675485965], [72.11949304110762, 34.09424922537054], [72.11959944095834, 34.09427173427191], [72.11961003905176, 34.094237186916736]]]]}, "properties": {"id": "8J6J34V9+MRVP", "height": 2.682472705841064, "hmax": 0.0, "ratio": 0.0, "vulnClass": "none"}}, {"type": "Feature", "geometry": {"type": "MultiPolygon", "coordinates": [[[[72.11964850749607, 34.094249898570304], [72.11960292191775, 34.09424576399784], [72.11959157901633, 34.09433104560424], [72.11963716463929, 34.0943351801832], [72.11964850749607, 34.094249898570304]]]]}, "properties": {"id": "8J6J34V9+PR9Q", "height": 2.741729736328125, "hmax": 0.0, "ratio": 0.0, "vulnClass": "none"}}, {"type": "Feature", "geometry": {"type": "MultiPolygon", "coordinates": [[[[72.11964513970089, 34.09441316259146], [72.11965031407024, 34.09436920301739], [72.11960482142862, 34.094365521350404], [72.11959964703624, 34.09440948092139], [72.11964513970089, 34.09441316259146]]]]}, "properties": {"id": "8J6J34V9+QR5H", "height": 2.655901908874512, "hmax": 0.0, "ratio": 0.0, "vulnClass": "none"}}, {"type": "Feature", "geometry": {"type": "MultiPolygon", "coordinates": [[[[72.12004877178083, 34.09444165348918], [72.11995577555206, 34.09442009045865], [72.11992287470561, 34.09451802750935], [72.12001587102961, 34.0945395905696], [72.12004877178083, 34.09444165348918]]]]}, "properties": {"id": "8J6J34V9+QXX4", "height": 2.644990205764771, "hmax": 0.0, "ratio": 0.0, "vulnClass": "none"}}, {"type": "Feature", "geometry": {"type": "MultiPolygon", "coordinates": [[[[72.12108335256735, 34.09417925963486], [72.12102296589603, 34.0941834324076], [72.12102985826637, 34.09425183397762], [72.12114889634901, 34.094243537848186], [72.12114442789942, 34.09419953233549], [72.1210858848362, 34.094203658229915], [72.12108335256735, 34.09417925963486]]]]}, "properties": {"id": "8J6J34VC+MCPP", "height": 3.083616971969604, "hmax": 0.099, "ratio": 0.032, "vulnClass": "none"}}, {"type": "Feature", "geometry": {"type": "MultiPolygon", "coordinates": [[[[72.12061184712584, 34.09405615028865], [72.12055987821128, 34.09405493128137], [72.12055850452731, 34.094095464398144], [72.1206104734666, 34.09409668340728], [72.12061184712584, 34.09405615028865]]]]}, "properties": {"id": "8J6J34VC+J6P4", "height": 2.58743143081665, "hmax": 0.0, "ratio": 0.0, "vulnClass": "none"}}, {"type": "Feature", "geometry": {"type": "MultiPolygon", "coordinates": [[[[72.1213971632011, 34.094732087576155], [72.12139429569831, 34.09469199585744], [72.12129324657965, 34.09469701811331], [72.12129600576502, 34.0947371072929], [72.1213971632011, 34.094732087576155]]]]}, "properties": {"id": "8J6J34VC+VGQC", "height": 3.132706165313721, "hmax": 0.099, "ratio": 0.032, "vulnClass": "none"}}, {"type": "Feature", "geometry": {"type": "MultiPolygon", "coordinates": [[[[72.1211999503091, 34.09519594740068], [72.12112347034831, 34.09519857089671], [72.12113308767397, 34.095394411532446], [72.12123636246955, 34.0953908839515], [72.12122968961035, 34.09525523922113], [72.12120289499556, 34.0952561433099], [72.1211999503091, 34.09519594740068]]]]}, "properties": {"id": "8J6J34WC+4FF4", "height": 3.510384559631348, "hmax": 0.0, "ratio": 0.0, "vulnClass": "none"}}, {"type": "Feature", "geometry": {"type": "MultiPolygon", "coordinates": [[[[72.1205573163972, 34.0940537894473], [72.12051010981142, 34.09371382632759], [72.12041814254435, 34.09372266673309], [72.12046534876148, 34.09406262986915], [72.1205573163972, 34.0940537894473]]]]}, "properties": {"id": "8J6J34VC+H55G", "height": 3.530755996704102, "hmax": 0.0, "ratio": 0.0, "vulnClass": "none"}}, {"type": "Feature", "geometry": {"type": "MultiPolygon", "coordinates": [[[[72.11944773499631, 34.093683943641054], [72.11940421293444, 34.09367967713442], [72.11940076859649, 34.093704566520955], [72.11944429372456, 34.09370874295593], [72.11944773499631, 34.093683943641054]]]]}, "properties": {"id": "8J6J34V9+FQFP", "height": 4.345266819000244, "hmax": 0.0, "ratio": 0.0, "vulnClass": "none"}}, {"type": "Feature", "geometry": {"type": "MultiPolygon", "coordinates": [[[[72.11939930060593, 34.09369353436262], [72.119357462257, 34.093684349365205], [72.11933341412286, 34.09376085915653], [72.11937536382763, 34.093769956630986], [72.11939930060593, 34.09369353436262]]]]}, "properties": {"id": "8J6J34V9+FPX4", "height": 3.217658996582031, "hmax": 0.0, "ratio": 0.0, "vulnClass": "none"}}, {"type": "Feature", "geometry": {"type": "MultiPolygon", "coordinates": [[[[72.1118517607153, 34.09125914186241], [72.11180013791773, 34.091250986168156], [72.11178270642417, 34.09132710912979], [72.11183443752952, 34.09133526738072], [72.1118517607153, 34.09125914186241]]]]}, "properties": {"id": "8J6J34R6+GP8J", "height": 3.330481052398682, "hmax": 0.0, "ratio": 0.0, "vulnClass": "none"}}, {"type": "Feature", "geometry": {"type": "MultiPolygon", "coordinates": [[[[72.1117845738353, 34.09152718474623], [72.11180007114122, 34.0914218994567], [72.11174683763988, 34.0914165003359], [72.11173134026991, 34.09152178561545], [72.1117845738353, 34.09152718474623]]]]}, "properties": {"id": "8J6J34R6+HPJW", "height": 2.928826332092285, "hmax": 0.0, "ratio": 0.0, "vulnClass": "none"}}, {"type": "Feature", "geometry": {"type": "MultiPolygon", "coordinates": [[[[72.1096753224147, 34.09047864553468], [72.10968083027706, 34.09039953783314], [72.10964059018971, 34.09039759880925], [72.10963780407225, 34.090438098422545], [72.10958371857113, 34.09043547281396], [72.10958517496609, 34.09041495406483], [72.10950761788627, 34.09041114476701], [72.10950354483057, 34.090470364214724], [72.1096753224147, 34.09047864553468]]]]}, "properties": {"id": "8J6J34R5+5RHJ", "height": 2.613852977752686, "hmax": 0.0, "ratio": 0.0, "vulnClass": "none"}}, {"type": "Feature", "geometry": {"type": "MultiPolygon", "coordinates": [[[[72.11044121297772, 34.09042546102691], [72.11029923321918, 34.09042031611688], [72.11029523749313, 34.090496394529005], [72.11043721431504, 34.09050162952297], [72.11044121297772, 34.09042546102691]]]]}, "properties": {"id": "8J6J34R6+54QH", "height": 4.903531074523926, "hmax": 0.0, "ratio": 0.0, "vulnClass": "none"}}, {"type": "Feature", "geometry": {"type": "MultiPolygon", "coordinates": [[[[72.11027510283154, 34.09041938752416], [72.11021028089071, 34.09041705033169], [72.11020628202235, 34.09049321880967], [72.11029523749313, 34.090496394529005], [72.11029795475699, 34.090445166024494], [72.11027382436234, 34.09044423743118], [72.11027510283154, 34.09041938752416]]]]}, "properties": {"id": "8J6J34R6+53Q9", "height": 2.694675207138062, "hmax": 0.0, "ratio": 0.0, "vulnClass": "none"}}, {"type": "Feature", "geometry": {"type": "MultiPolygon", "coordinates": [[[[72.11006013265629, 34.09031120126557], [72.11001113862336, 34.09030860556159], [72.11000676766524, 34.09036385164693], [72.11005575866633, 34.090366537427094], [72.11006013265629, 34.09031120126557]]]]}, "properties": {"id": "8J6J34R6+42MC", "height": 3.174102306365967, "hmax": 0.0, "ratio": 0.0, "vulnClass": "none"}}, {"type": "Feature", "geometry": {"type": "MultiPolygon", "coordinates": [[[[72.10995984155032, 34.09031956750365], [72.10991421187452, 34.09032318081912], [72.10991874383632, 34.09036195968406], [72.10996426527016, 34.090358343819275], [72.10995984155032, 34.09031956750365]]]]}, "properties": {"id": "8J6J34R5+4XPJ", "height": 2.463793754577637, "hmax": 0.0, "ratio": 0.0, "vulnClass": "none"}}, {"type": "Feature", "geometry": {"type": "MultiPolygon", "coordinates": [[[[72.1095866883605, 34.09031312594595], [72.10952729500343, 34.090310465485985], [72.10952497762932, 34.09034673932167], [72.1095843679477, 34.09034948985681], [72.1095866883605, 34.09031312594595]]]]}, "properties": {"id": "8J6J34R5+4RM5", "height": 2.68601655960083, "hmax": 0.0, "ratio": 0.0, "vulnClass": "none"}}, {"type": "Feature", "geometry": {"type": "MultiPolygon", "coordinates": [[[[72.11086466944468, 34.09014425944849], [72.11044910524902, 34.09012645574066], [72.11044648705341, 34.0901684016563], [72.11086205145253, 34.090186205383446], [72.11086466944468, 34.09014425944849]]]]}, "properties": {"id": "8J6J34R6+3769", "height": 3.528544425964355, "hmax": 0.0, "ratio": 0.0, "vulnClass": "none"}}, {"type": "Feature", "geometry": {"type": "MultiPolygon", "coordinates": [[[[72.11107151763409, 34.09015354445009], [72.11086465106997, 34.09014479988576], [72.11086194426656, 34.090189357934214], [72.11106881093828, 34.09019810250863], [72.11107151763409, 34.09015354445009]]]]}, "properties": {"id": "8J6J34R6+398X", "height": 3.613038063049316, "hmax": 0.0, "ratio": 0.0, "vulnClass": "none"}}, {"type": "Feature", "geometry": {"type": "MultiPolygon", "coordinates": [[[[72.11145786927273, 34.08994700901823], [72.11114522262737, 34.08993920143951], [72.11114286567204, 34.090002157304795], [72.11145550948633, 34.09001005497432], [72.11145786927273, 34.08994700901823]]]]}, "properties": {"id": "8J6J34Q6+XGMW", "height": 3.641815185546875, "hmax": 0.0, "ratio": 0.0, "vulnClass": "none"}}, {"type": "Feature", "geometry": {"type": "MultiPolygon", "coordinates": [[[[72.11187357108359, 34.089935244966256], [72.11177723166463, 34.089929372626735], [72.1117707155503, 34.09000313820741], [72.11189495006379, 34.09001074855926], [72.1118995251586, 34.08995902282627], [72.11187163016334, 34.08995728482517], [72.11187357108359, 34.089935244966256]]]]}, "properties": {"id": "8J6J34Q6+XPPW", "height": 2.736780166625977, "hmax": 0.0, "ratio": 0.0, "vulnClass": "none"}}, {"type": "Feature", "geometry": {"type": "MultiPolygon", "coordinates": [[[[72.11174030298926, 34.0899670858522], [72.11165770982807, 34.08996162697467], [72.11165434443383, 34.089996884625315], [72.11173693762876, 34.090002343506846], [72.11174030298926, 34.0899670858522]]]]}, "properties": {"id": "8J6J34Q6+XMW7", "height": 2.84368634223938, "hmax": 0.0, "ratio": 0.0, "vulnClass": "none"}}, {"type": "Feature", "geometry": {"type": "MultiPolygon", "coordinates": [[[[72.11141149068362, 34.090785437819164], [72.11140531640044, 34.090820449071764], [72.11154289320044, 34.090837207966985], [72.11154906436734, 34.090802286777624], [72.11141149068362, 34.090785437819164]]]]}, "properties": {"id": "8J6J34R6+8HHF", "height": 2.526751518249512, "hmax": 0.182, "ratio": 0.072, "vulnClass": "low"}}, {"type": "Feature", "geometry": {"type": "MultiPolygon", "coordinates": [[[[72.11200045983603, 34.088968900984945], [72.11203053512259, 34.08890966207261], [72.1119931682742, 34.08889652330651], [72.1119631981677, 34.08895585482854], [72.11200045983603, 34.088968900984945]]]]}, "properties": {"id": "8J6J34Q6+HQH9", "height": 3.144333362579346, "hmax": 0.0, "ratio": 0.0, "vulnClass": "none"}}, {"type": "Feature", "geometry": {"type": "MultiPolygon", "coordinates": [[[[72.11155526570501, 34.089676341688076], [72.11157185935502, 34.08955792103058], [72.11150965353856, 34.08955195015265], [72.11150709248301, 34.08956991888917], [72.1113990999351, 34.08955944511725], [72.11138507019392, 34.08965980693389], [72.11155526570501, 34.089676341688076]]]]}, "properties": {"id": "8J6J34Q6+RHXF", "height": 3.322690010070801, "hmax": 0.0, "ratio": 0.0, "vulnClass": "none"}}, {"type": "Feature", "geometry": {"type": "MultiPolygon", "coordinates": [[[[72.11179803396367, 34.089387459657104], [72.11171509988301, 34.089369733094586], [72.11170620485869, 34.089398730793825], [72.1117891420263, 34.08941636729067], [72.11179803396367, 34.089387459657104]]]]}, "properties": {"id": "8J6J34Q6+QP2J", "height": 2.716596364974976, "hmax": 0.0, "ratio": 0.0, "vulnClass": "none"}}, {"type": "Feature", "geometry": {"type": "MultiPolygon", "coordinates": [[[[72.1117731354191, 34.08940913968722], [72.11172311512915, 34.08939849763262], [72.11170178442319, 34.089468218721606], [72.11175180781169, 34.089478770713825], [72.1117731354191, 34.08940913968722]]]]}, "properties": {"id": "8J6J34Q6+QMHG", "height": 2.520451784133911, "hmax": 0.0, "ratio": 0.0, "vulnClass": "none"}}, {"type": "Feature", "geometry": {"type": "MultiPolygon", "coordinates": [[[[72.11122530288465, 34.08969985794156], [72.11118045983841, 34.089696278653136], [72.11117179024485, 34.08976963293484], [72.11121663026698, 34.0897733023013], [72.11122530288465, 34.08969985794156]]]]}, "properties": {"id": "8J6J34Q6+VFW7", "height": 3.376422882080078, "hmax": 0.0, "ratio": 0.0, "vulnClass": "none"}}, {"type": "Feature", "geometry": {"type": "MultiPolygon", "coordinates": [[[[72.11118575990716, 34.08943200817806], [72.11099081931319, 34.089378472029615], [72.1109757747481, 34.08941624930148], [72.11117071235373, 34.089469875550435], [72.11118575990716, 34.08943200817806]]]]}, "properties": {"id": "8J6J34Q6+QC8W", "height": 2.789620399475098, "hmax": 0.0, "ratio": 0.0, "vulnClass": "none"}}, {"type": "Feature", "geometry": {"type": "MultiPolygon", "coordinates": [[[[72.11107607314231, 34.089468189352424], [72.11098048083225, 34.08945629427078], [72.1109577738298, 34.089582413569936], [72.11123678089494, 34.08961719466281], [72.11124787328504, 34.089555435940795], [72.11109963275268, 34.08953689336386], [72.11110271070477, 34.08951965796172], [72.11106753981521, 34.08951522450349], [72.11107607314231, 34.089468189352424]]]]}, "properties": {"id": "8J6J34Q6+RC8W", "height": 2.920277833938599, "hmax": 0.0, "ratio": 0.0, "vulnClass": "none"}}, {"type": "Feature", "geometry": {"type": "MultiPolygon", "coordinates": [[[[72.11073182789579, 34.08950389834129], [72.11065498129172, 34.089495148540514], [72.11064938489336, 34.08952909161606], [72.11072623152707, 34.08953784142185], [72.11073182789579, 34.08950389834129]]]]}, "properties": {"id": "8J6J34Q6+R74J", "height": 5.042662143707275, "hmax": 0.0, "ratio": 0.0, "vulnClass": "none"}}, {"type": "Feature", "geometry": {"type": "MultiPolygon", "coordinates": [[[[72.11086730038616, 34.08951556029143], [72.11077946724309, 34.0895080844715], [72.11077482182536, 34.089545926168604], [72.11086265500667, 34.089553401993825], [72.11086730038616, 34.08951556029143]]]]}, "properties": {"id": "8J6J34Q6+R887", "height": 4.469175338745117, "hmax": 0.0, "ratio": 0.0, "vulnClass": "none"}}, {"type": "Feature", "geometry": {"type": "MultiPolygon", "coordinates": [[[[72.11057153224391, 34.08938104413276], [72.11052227411793, 34.08937348445937], [72.11049361007515, 34.08950270866186], [72.11062295154724, 34.089522610054], [72.1106333194446, 34.08947579840959], [72.11055323314815, 34.0894635467877], [72.11057153224391, 34.08938104413276]]]]}, "properties": {"id": "8J6J34Q6+Q6MG", "height": 2.831149101257324, "hmax": 0.0, "ratio": 0.0, "vulnClass": "none"}}, {"type": "Feature", "geometry": {"type": "MultiPolygon", "coordinates": [[[[72.11057983853276, 34.08922916509706], [72.11046212649752, 34.089214585517155], [72.11044244483075, 34.08932500054745], [72.11056004875124, 34.08933957760559], [72.11057983853276, 34.08922916509706]]]]}, "properties": {"id": "8J6J34Q6+P663", "height": 2.852632999420166, "hmax": 0.0, "ratio": 0.0, "vulnClass": "none"}}, {"type": "Feature", "geometry": {"type": "MultiPolygon", "coordinates": [[[[72.1097753033249, 34.08857758932602], [72.10974823818391, 34.088576952131184], [72.10974731914824, 34.08860397397541], [72.10977438429781, 34.08860461117089], [72.1097753033249, 34.08857758932602]]]]}, "properties": {"id": "8J6J34Q5+CWJM", "height": 3.553707599639893, "hmax": 0.0, "ratio": 0.0, "vulnClass": "none"}}, {"type": "Feature", "geometry": {"type": "MultiPolygon", "coordinates": [[[[72.11016852736671, 34.088410973530294], [72.11001203895498, 34.08839926685004], [72.1100055785949, 34.08845861043199], [72.11016206405088, 34.08847040719882], [72.11016852736671, 34.088410973530294]]]]}, "properties": {"id": "8J6J34Q6+92G9", "height": 2.509231567382812, "hmax": 0.0, "ratio": 0.0, "vulnClass": "none"}}, {"type": "Feature", "geometry": {"type": "MultiPolygon", "coordinates": [[[[72.1102803173621, 34.08832246842497], [72.1102357323885, 34.08831132270987], [72.11021349787183, 34.08837254862178], [72.11033586000842, 34.088403283666096], [72.1103493767433, 34.08836583108868], [72.11027170483571, 34.088346334400214], [72.1102803173621, 34.08832246842497]]]]}, "properties": {"id": "8J6J34Q6+84RH", "height": 2.630062341690063, "hmax": 0.0, "ratio": 0.0, "vulnClass": "none"}}, {"type": "Feature", "geometry": {"type": "MultiPolygon", "coordinates": [[[[72.11067200552837, 34.08822964352364], [72.11064000644421, 34.08822753823152], [72.11063662850182, 34.08826315613628], [72.11066862759918, 34.088265261429946], [72.11067200552837, 34.08822964352364]]]]}, "properties": {"id": "8J6J34Q6+77RX", "height": 3.718527793884277, "hmax": 0.091, "ratio": 0.024, "vulnClass": "none"}}, {"type": "Feature", "geometry": {"type": "MultiPolygon", "coordinates": [[[[72.11203184559096, 34.08872444492042], [72.11197948371118, 34.08871257601019], [72.11196847792431, 34.08874630176468], [72.11202083982265, 34.08875817068055], [72.11203184559096, 34.08872444492042]]]]}, "properties": {"id": "8J6J34Q6+FRRC", "height": 2.633883476257324, "hmax": 0.0, "ratio": 0.0, "vulnClass": "none"}}, {"type": "Feature", "geometry": {"type": "MultiPolygon", "coordinates": [[[[72.10959544649766, 34.08759645414621], [72.10953687105679, 34.0875921002463], [72.10953112639034, 34.087646322390505], [72.10958959360855, 34.087650673746154], [72.10959544649766, 34.08759645414621]]]]}, "properties": {"id": "8J6J34Q5+2RWR", "height": 2.603379726409912, "hmax": 0.0, "ratio": 0.0, "vulnClass": "none"}}, {"type": "Feature", "geometry": {"type": "MultiPolygon", "coordinates": [[[[72.10997168674952, 34.08752769698037], [72.10986469389293, 34.08751976952275], [72.10984536592817, 34.08769942411777], [72.10999580273963, 34.087710627936055], [72.1099989726208, 34.0876811350125], [72.10990300364999, 34.08767400796308], [72.10991473353083, 34.08756484812936], [72.10996725565427, 34.08756878891265], [72.10997168674952, 34.08752769698037]]]]}, "properties": {"id": "8J6J34Q5+2XRQ", "height": 3.286849498748779, "hmax": 0.0, "ratio": 0.0, "vulnClass": "none"}}, {"type": "Feature", "geometry": {"type": "MultiPolygon", "coordinates": [[[[72.11023359183123, 34.087564962208305], [72.11017428610734, 34.08755978011835], [72.11017030028408, 34.08759096659622], [72.1102296029664, 34.08759623876206], [72.11023359183123, 34.087564962208305]]]]}, "properties": {"id": "8J6J34Q6+23P3", "height": 3.871379852294922, "hmax": 0.0, "ratio": 0.0, "vulnClass": "none"}}, {"type": "Feature", "geometry": {"type": "MultiPolygon", "coordinates": [[[[72.11052677007025, 34.087361194128746], [72.11049960622682, 34.08736028435256], [72.11049699053473, 34.08741809586057], [72.11052404919988, 34.08741891301735], [72.11052677007025, 34.087361194128746]]]]}, "properties": {"id": "8J6J34P6+X62F", "height": 2.539231061935425, "hmax": 0.0, "ratio": 0.0, "vulnClass": "none"}}, {"type": "Feature", "geometry": {"type": "MultiPolygon", "coordinates": [[[[72.10995645145155, 34.08674271659861], [72.1099195282126, 34.08673887260591], [72.10990960277317, 34.08680453491683], [72.11026587830747, 34.08684167780752], [72.11027569215901, 34.086776102978824], [72.11009420919011, 34.08675713742753], [72.11009769361604, 34.08673432262796], [72.1100343175498, 34.08672778264207], [72.11002731190725, 34.08677449310999], [72.10995281890985, 34.086766699790815], [72.10995645145155, 34.08674271659861]]]]}, "properties": {"id": "8J6J34P6+P29C", "height": 2.93372631072998, "hmax": 0.0, "ratio": 0.0, "vulnClass": "none"}}, {"type": "Feature", "geometry": {"type": "MultiPolygon", "coordinates": [[[[72.10991665214684, 34.08673105243328], [72.10987958696332, 34.08672819668179], [72.10987552250305, 34.08676488014269], [72.10991258770227, 34.086767735896224], [72.10991665214684, 34.08673105243328]]]]}, "properties": {"id": "8J6J34P5+MXRW", "height": 3.153764963150024, "hmax": 0.0, "ratio": 0.0, "vulnClass": "none"}}, {"type": "Feature", "geometry": {"type": "MultiPolygon", "coordinates": [[[[72.10956450559367, 34.086728621417755], [72.10944141703463, 34.08671932306584], [72.10943698575547, 34.08676041497263], [72.10955996917812, 34.08676962071032], [72.10956450559367, 34.086728621417755]]]]}, "properties": {"id": "8J6J34P5+MRRJ", "height": 3.495292663574219, "hmax": 0.0, "ratio": 0.0, "vulnClass": "none"}}, {"type": "Feature", "geometry": {"type": "MultiPolygon", "coordinates": [[[[72.10987959405304, 34.08672161626647], [72.10983625908918, 34.08671834246731], [72.1098329503229, 34.086748733569536], [72.10987628530197, 34.08675200737065], [72.10987959405304, 34.08672161626647]]]]}, "properties": {"id": "8J6J34P5+MWXF", "height": 3.153764963150024, "hmax": 0.0, "ratio": 0.0, "vulnClass": "none"}}, {"type": "Feature", "geometry": {"type": "MultiPolygon", "coordinates": [[[[72.1097619612547, 34.08658056459732], [72.10973154075091, 34.086579848423256], [72.10973052069185, 34.08660984267966], [72.10976094120636, 34.08661055885452], [72.1097619612547, 34.08658056459732]]]]}, "properties": {"id": "8J6J34P5+JVQX", "height": 2.449087142944336, "hmax": 0.0, "ratio": 0.0, "vulnClass": "none"}}, {"type": "Feature", "geometry": {"type": "MultiPolygon", "coordinates": [[[[72.10983151076145, 34.086446984492916], [72.10975573026337, 34.08644520046443], [72.10975465814359, 34.08647672596051], [72.10983043866968, 34.08647850999108], [72.10983151076145, 34.086446984492916]]]]}, "properties": {"id": "8J6J34P5+HWMF", "height": 3.732555389404297, "hmax": 0.0, "ratio": 0.0, "vulnClass": "none"}}, {"type": "Feature", "geometry": {"type": "MultiPolygon", "coordinates": [[[[72.11021210654253, 34.08652400324638], [72.11013410660337, 34.08651738952378], [72.11012963067691, 34.086553432296974], [72.11020773890645, 34.08656004857235], [72.11021210654253, 34.08652400324638]]]]}, "properties": {"id": "8J6J34P6+J37F", "height": 3.588740110397339, "hmax": 0.0, "ratio": 0.0, "vulnClass": "none"}}, {"type": "Feature", "geometry": {"type": "MultiPolygon", "coordinates": [[[[72.10995886036062, 34.086305480074984], [72.1099226706099, 34.08630237451489], [72.10991709987672, 34.08634830745263], [72.10995329270953, 34.08635132294248], [72.10995886036062, 34.086305480074984]]]]}, "properties": {"id": "8J6J34P5+GXP2", "height": 3.412595272064209, "hmax": 0.0, "ratio": 0.0, "vulnClass": "none"}}, {"type": "Feature", "geometry": {"type": "MultiPolygon", "coordinates": [[[[72.10993359112815, 34.086484634282044], [72.10994202337763, 34.08642146087321], [72.1098991460977, 34.086417476714935], [72.1098907107541, 34.08648074019209], [72.10993359112815, 34.086484634282044]]]]}, "properties": {"id": "8J6J34P5+HXM3", "height": 2.563117980957031, "hmax": 0.0, "ratio": 0.0, "vulnClass": "none"}}, {"type": "Feature", "geometry": {"type": "MultiPolygon", "coordinates": [[[[72.1098991460977, 34.086417476714935], [72.10983337023849, 34.08641142100762], [72.1098248296524, 34.08647459185636], [72.1098907107541, 34.08648074019209], [72.1098991460977, 34.086417476714935]]]]}, "properties": {"id": "8J6J34P5+HWHW", "height": 3.821300029754639, "hmax": 0.0, "ratio": 0.0, "vulnClass": "none"}}, {"type": "Feature", "geometry": {"type": "MultiPolygon", "coordinates": [[[[72.10969046562555, 34.08637632567859], [72.10964384225177, 34.086370991208575], [72.10962954052285, 34.08645701336801], [72.10967616087886, 34.086462437918634], [72.10969046562555, 34.08637632567859]]]]}, "properties": {"id": "8J6J34P5+HV7J", "height": 3.098913669586182, "hmax": 0.0, "ratio": 0.0, "vulnClass": "none"}}, {"type": "Feature", "geometry": {"type": "MultiPolygon", "coordinates": [[[[72.1097371493134, 34.08612501884232], [72.10966022318237, 34.0861187005437], [72.10965055001367, 34.08619924269273], [72.1097275814104, 34.086205653622564], [72.1097371493134, 34.08612501884232]]]]}, "properties": {"id": "8J6J34P5+FV8C", "height": 3.67555570602417, "hmax": 0.0, "ratio": 0.0, "vulnClass": "none"}}, {"type": "Feature", "geometry": {"type": "MultiPolygon", "coordinates": [[[[72.11007441843736, 34.08631955860025], [72.11009031235052, 34.08618669846721], [72.10998994324262, 34.08617838621471], [72.10998418160204, 34.086226748577616], [72.10965055001367, 34.08619924269273], [72.10964052245723, 34.086283833019415], [72.11007441843736, 34.08631955860025]]]]}, "properties": {"id": "8J6J34P5+GX23", "height": 3.872885227203369, "hmax": 0.0, "ratio": 0.0, "vulnClass": "none"}}, {"type": "Feature", "geometry": {"type": "MultiPolygon", "coordinates": [[[[72.1095719776697, 34.08605018610961], [72.1094751588149, 34.08603943296827], [72.10946636163737, 34.08609421426619], [72.10956318055247, 34.086104967417555], [72.1095719776697, 34.08605018610961]]]]}, "properties": {"id": "8J6J34P5+CRCW", "height": 3.387079477310181, "hmax": 0.0, "ratio": 0.0, "vulnClass": "none"}}, {"type": "Feature", "geometry": {"type": "MultiPolygon", "coordinates": [[[[72.10944168457019, 34.08597878857759], [72.10944572469009, 34.08595238108382], [72.10938959025516, 34.085946371863166], [72.10938544186112, 34.08597277680527], [72.10944168457019, 34.08597878857759]]]]}, "properties": {"id": "8J6J34P5+9QMF", "height": 2.721083164215088, "hmax": 0.0, "ratio": 0.0, "vulnClass": "none"}}, {"type": "Feature", "geometry": {"type": "MultiPolygon", "coordinates": [[[[72.10951958159214, 34.08594699855062], [72.1094702704188, 34.085941059869455], [72.10945557541628, 34.08602590086629], [72.1095049979577, 34.086031752031786], [72.10951958159214, 34.08594699855062]]]]}, "properties": {"id": "8J6J34P5+9QXG", "height": 3.295099973678589, "hmax": 0.0, "ratio": 0.0, "vulnClass": "none"}}, {"type": "Feature", "geometry": {"type": "MultiPolygon", "coordinates": [[[[72.11132283543515, 34.0861293463907], [72.1113116867641, 34.08616090525659], [72.11150015941155, 34.08620689664498], [72.11152858083405, 34.08612616439222], [72.1113829816517, 34.086090647053844], [72.11136570876474, 34.0861398203963], [72.11132283543515, 34.0861293463907]]]]}, "properties": {"id": "8J6J34P6+FH3X", "height": 2.590348482131958, "hmax": 0.0, "ratio": 0.0, "vulnClass": "none"}}, {"type": "Feature", "geometry": {"type": "MultiPolygon", "coordinates": [[[[72.11137569556693, 34.0860850669188], [72.11133482209353, 34.08607950780335], [72.11132512109069, 34.086129039590915], [72.11136599764828, 34.08613450863776], [72.11137569556693, 34.0860850669188]]]]}, "properties": {"id": "8J6J34P6+CGX6", "height": 2.575559377670288, "hmax": 0.0, "ratio": 0.0, "vulnClass": "none"}}, {"type": "Feature", "geometry": {"type": "MultiPolygon", "coordinates": [[[[72.11187051255071, 34.086164497543116], [72.11172743448783, 34.08612173817114], [72.11168521501278, 34.086219543844834], [72.1118282932119, 34.086262303272875], [72.11187051255071, 34.086164497543116]]]]}, "properties": {"id": "8J6J34P6+FPCQ", "height": 2.625387907028198, "hmax": 0.0, "ratio": 0.0, "vulnClass": "none"}}, {"type": "Feature", "geometry": {"type": "MultiPolygon", "coordinates": [[[[72.1215373321965, 34.0879652854267], [72.12150027497866, 34.08796216291836], [72.1214959333422, 34.08799757836493], [72.12153299057513, 34.08800070087535], [72.1215373321965, 34.0879652854267]]]]}, "properties": {"id": "8J6J34QC+5JR8", "height": 3.468955993652344, "hmax": 0.0, "ratio": 0.0, "vulnClass": "none"}}, {"type": "Feature", "geometry": {"type": "MultiPolygon", "coordinates": [[[[72.12166809420458, 34.088352730837], [72.1216119599661, 34.08834663701242], [72.12158558907014, 34.0885142298221], [72.12164172341575, 34.08852032366419], [72.12166809420458, 34.088352730837]]]]}, "properties": {"id": "8J6J34QC+9MC6", "height": 2.490185737609863, "hmax": 0.123, "ratio": 0.049, "vulnClass": "low"}}, {"type": "Feature", "geometry": {"type": "MultiPolygon", "coordinates": [[[[72.1219844832316, 34.08765485154152], [72.12197788354341, 34.0876961636675], [72.1220891708082, 34.08770850822301], [72.12209577044409, 34.08766719608839], [72.1219844832316, 34.08765485154152]]]]}, "properties": {"id": "8J6J34QC+3RF6", "height": 2.643045425415039, "hmax": 0.0, "ratio": 0.0, "vulnClass": "none"}}, {"type": "Feature", "geometry": {"type": "MultiPolygon", "coordinates": [[[[72.1218938757577, 34.08744458188146], [72.12177769907433, 34.087413462449675], [72.12175348161458, 34.08747590624765], [72.12187062661336, 34.08750722869597], [72.1218938757577, 34.08744458188146]]]]}, "properties": {"id": "8J6J34PC+XPPF", "height": 4.728296279907227, "hmax": 0.0, "ratio": 0.0, "vulnClass": "none"}}, {"type": "Feature", "geometry": {"type": "MultiPolygon", "coordinates": [[[[72.12177065066287, 34.0874872163534], [72.1217107447628, 34.08747093788975], [72.12168999625993, 34.08752372731042], [72.12174979393139, 34.08754000324764], [72.12177065066287, 34.0874872163534]]]]}, "properties": {"id": "8J6J34QC+2M57", "height": 3.463585376739502, "hmax": 0.0, "ratio": 0.0, "vulnClass": "none"}}, {"type": "Feature", "geometry": {"type": "MultiPolygon", "coordinates": [[[[72.12207691350548, 34.08743697363572], [72.12204517954042, 34.08743343521444], [72.12203421268325, 34.08750132798157], [72.12206605493316, 34.08750486894478], [72.12207691350548, 34.08743697363572]]]]}, "properties": {"id": "8J6J34PC+XRMQ", "height": 4.339886665344238, "hmax": 0.0, "ratio": 0.0, "vulnClass": "none"}}, {"type": "Feature", "geometry": {"type": "MultiPolygon", "coordinates": [[[[72.12168071629549, 34.08740424750192], [72.1216159768581, 34.08738992901164], [72.12160482712517, 34.0874248242633], [72.12166945527547, 34.08743923029622], [72.12168071629549, 34.08740424750192]]]]}, "properties": {"id": "8J6J34PC+XM6G", "height": 3.886006116867065, "hmax": 0.0, "ratio": 0.0, "vulnClass": "none"}}, {"type": "Feature", "geometry": {"type": "MultiPolygon", "coordinates": [[[[72.12217159553688, 34.08719417817147], [72.12208502724944, 34.08718457666099], [72.1220748503423, 34.087248341269024], [72.12216131043247, 34.08725794025211], [72.12217159553688, 34.08719417817147]]]]}, "properties": {"id": "8J6J34PC+VRQX", "height": 2.760881423950195, "hmax": 0.0, "ratio": 0.0, "vulnClass": "none"}}, {"type": "Feature", "geometry": {"type": "MultiPolygon", "coordinates": [[[[72.10973096820656, 34.08337887697642], [72.10972663256547, 34.08324193480681], [72.1096486755905, 34.08324370535352], [72.10964951939748, 34.083269867266516], [72.10954663033321, 34.083272042383825], [72.10955012190674, 34.08338282263268], [72.10973096820656, 34.08337887697642]]]]}, "properties": {"id": "8J6J34M5+8VCP", "height": 3.877732038497925, "hmax": 0.0, "ratio": 0.0, "vulnClass": "none"}}, {"type": "Feature", "geometry": {"type": "MultiPolygon", "coordinates": [[[[72.1101192150944, 34.08319222134626], [72.1100010965358, 34.08323126825716], [72.11002860910202, 34.08328879737849], [72.11005589200246, 34.083279794075], [72.11011799280855, 34.08340980262092], [72.11015327321898, 34.08339819304991], [72.11014265684484, 34.083375857633435], [72.11019820921241, 34.08335751361197], [72.1101192150944, 34.08319222134626]]]]}, "properties": {"id": "8J6J34M6+829M", "height": 2.728849649429321, "hmax": 0.0, "ratio": 0.0, "vulnClass": "none"}}, {"type": "Feature", "geometry": {"type": "MultiPolygon", "coordinates": [[[[72.11006422691929, 34.083452077081944], [72.1100165083138, 34.08345032281574], [72.11001388023341, 34.08349893925336], [72.11006159886603, 34.083500693521984], [72.11006422691929, 34.083452077081944]]]]}, "properties": {"id": "8J6J34M6+92V2", "height": 3.531931400299072, "hmax": 0.0, "ratio": 0.0, "vulnClass": "none"}}, {"type": "Feature", "geometry": {"type": "MultiPolygon", "coordinates": [[[[72.10999495031582, 34.08344071070951], [72.10992410210751, 34.08343733020774], [72.1099205998147, 34.08348935157292], [72.10999134287445, 34.08349263945777], [72.10999495031582, 34.08344071070951]]]]}, "properties": {"id": "8J6J34M5+9XPP", "height": 3.875243425369263, "hmax": 0.0, "ratio": 0.0, "vulnClass": "none"}}, {"type": "Feature", "geometry": {"type": "MultiPolygon", "coordinates": [[[[72.1097338102964, 34.08347053119706], [72.10973096820656, 34.08337887697642], [72.10955012190674, 34.08338282263268], [72.1095529638009, 34.08347447684741], [72.1097338102964, 34.08347053119706]]]]}, "properties": {"id": "8J6J34M5+9VC4", "height": 2.594027519226074, "hmax": 0.0, "ratio": 0.0, "vulnClass": "none"}}, {"type": "Feature", "geometry": {"type": "MultiPolygon", "coordinates": [[[[72.11501818531322, 34.08265505663646], [72.11492550931641, 34.082656394544614], [72.11492640810908, 34.08270013606586], [72.11501908415372, 34.08269879815951], [72.11501818531322, 34.08265505663646]]]]}, "properties": {"id": "8J6J34M7+3XH2", "height": 2.603681802749634, "hmax": 0.0, "ratio": 0.0, "vulnClass": "none"}}, {"type": "Feature", "geometry": {"type": "MultiPolygon", "coordinates": [[[[72.1146661334898, 34.08320883853304], [72.11460688357454, 34.08320528258886], [72.11460367828741, 34.0832422569117], [72.11466292822811, 34.083245812858735], [72.1146661334898, 34.08320883853304]]]]}, "properties": {"id": "8J6J34M7+7VR3", "height": 2.621844291687012, "hmax": 0.0, "ratio": 0.0, "vulnClass": "none"}}, {"type": "Feature", "geometry": {"type": "MultiPolygon", "coordinates": [[[[72.11446910156089, 34.08479373691835], [72.11443033912154, 34.08481536214393], [72.1144856501628, 34.084883910403654], [72.11452441262195, 34.08486228516169], [72.11446910156089, 34.08479373691835]]]]}, "properties": {"id": "8J6J34M7+WQQF", "height": 3.054798126220703, "hmax": 0.0, "ratio": 0.0, "vulnClass": "none"}}, {"type": "Feature", "geometry": {"type": "MultiPolygon", "coordinates": [[[[72.11471022899629, 34.08493543298172], [72.11466618279243, 34.084962703393124], [72.11472160602247, 34.08502476374075], [72.11476576355787, 34.084997405781294], [72.11471022899629, 34.08493543298172]]]]}, "properties": {"id": "8J6J34M7+XVW9", "height": 2.535691022872925, "hmax": 0.0, "ratio": 0.0, "vulnClass": "none"}}, {"type": "Feature", "geometry": {"type": "MultiPolygon", "coordinates": [[[[72.114769662214, 34.08489851805493], [72.11471141700956, 34.084833416619965], [72.11460550706491, 34.08489898710953], [72.11466375222565, 34.084964088592336], [72.114769662214, 34.08489851805493]]]]}, "properties": {"id": "8J6J34M7+XV4R", "height": 3.288965463638306, "hmax": 0.0, "ratio": 0.0, "vulnClass": "none"}}, {"type": "Feature", "geometry": {"type": "MultiPolygon", "coordinates": [[[[72.111655558071, 34.08590306810487], [72.11159112741802, 34.085895692821985], [72.1115862505714, 34.08592442449013], [72.11165067512313, 34.085931979922655], [72.111655558071, 34.08590306810487]]]]}, "properties": {"id": "8J6J34P6+9J9H", "height": 2.984051465988159, "hmax": 0.0, "ratio": 0.0, "vulnClass": "none"}}, {"type": "Feature", "geometry": {"type": "MultiPolygon", "coordinates": [[[[72.11173411035166, 34.08591573355743], [72.11168922110197, 34.085907195445614], [72.1116572060459, 34.086023540626734], [72.11170198709465, 34.0860320762062], [72.11173411035166, 34.08591573355743]]]]}, "properties": {"id": "8J6J34P6+9MPM", "height": 2.849047422409058, "hmax": 0.0, "ratio": 0.0, "vulnClass": "none"}}, {"type": "Feature", "geometry": {"type": "MultiPolygon", "coordinates": [[[[72.11193250665775, 34.08593112813644], [72.11152759650886, 34.08585228066644], [72.11152094856637, 34.085875742250586], [72.11187279399478, 34.085944326910166], [72.11186503407927, 34.085971818882406], [72.11191809585706, 34.085982171797134], [72.11193250665775, 34.08593112813644]]]]}, "properties": {"id": "8J6J34P6+9M9H", "height": 2.849047422409058, "hmax": 0.0, "ratio": 0.0, "vulnClass": "none"}}, {"type": "Feature", "geometry": {"type": "MultiPolygon", "coordinates": [[[[72.11199709966697, 34.08532155443024], [72.11195491857113, 34.0853257905795], [72.11196572739865, 34.08539987363304], [72.11200801984872, 34.08539554995552], [72.11199709966697, 34.08532155443024]]]]}, "properties": {"id": "8J6J34P6+4QXF", "height": 2.995980501174927, "hmax": 0.0, "ratio": 0.0, "vulnClass": "none"}}, {"type": "Feature", "geometry": {"type": "MultiPolygon", "coordinates": [[[[72.11211165723175, 34.08525664041253], [72.11210020233368, 34.08514098530453], [72.11204286237209, 34.085144955051845], [72.11204624610457, 34.08517928976467], [72.11191386828939, 34.085188345315856], [72.1119218340536, 34.08526957309478], [72.11211165723175, 34.08525664041253]]]]}, "properties": {"id": "8J6J34P6+3RJP", "height": 4.632725715637207, "hmax": 0.0, "ratio": 0.0, "vulnClass": "none"}}, {"type": "Feature", "geometry": {"type": "MultiPolygon", "coordinates": [[[[72.112335573946, 34.085216023514356], [72.1123328258727, 34.085169353885604], [72.11215022626102, 34.085176957985354], [72.1121530824901, 34.08522363015944], [72.112335573946, 34.085216023514356]]]]}, "properties": {"id": "8J6J34P6+3VHX", "height": 2.484684467315674, "hmax": 0.0, "ratio": 0.0, "vulnClass": "none"}}, {"type": "Feature", "geometry": {"type": "MultiPolygon", "coordinates": [[[[72.10975768341423, 34.08417990326064], [72.10953560140709, 34.08416980706366], [72.10953020967095, 34.08425189234438], [72.1096696462813, 34.08425824001836], [72.10967214806485, 34.08421971686356], [72.10975490189212, 34.08422346795217], [72.10975768341423, 34.08417990326064]]]]}, "properties": {"id": "8J6J34M5+MVJC", "height": 3.498946666717529, "hmax": 0.0, "ratio": 0.0, "vulnClass": "none"}}, {"type": "Feature", "geometry": {"type": "MultiPolygon", "coordinates": [[[[72.10979838675391, 34.08453134517852], [72.10977673569441, 34.08442888150455], [72.10972958855068, 34.08443579448294], [72.10973415794238, 34.08445753685087], [72.1095974020477, 34.08447748454199], [72.10961448353032, 34.08455820586575], [72.10979838675391, 34.08453134517852]]]]}, "properties": {"id": "8J6J34M5+RV43", "height": 4.365820407867432, "hmax": 0.0, "ratio": 0.0, "vulnClass": "none"}}, {"type": "Feature", "geometry": {"type": "MultiPolygon", "coordinates": [[[[72.10954205099104, 34.08448988343537], [72.10950656878798, 34.08449148197051], [72.10950870755703, 34.0845241648061], [72.10954419283699, 34.08452247619819], [72.10954205099104, 34.08448988343537]]]]}, "properties": {"id": "8J6J34M5+RR29", "height": 2.852148532867432, "hmax": 0.0, "ratio": 0.0, "vulnClass": "none"}}, {"type": "Feature", "geometry": {"type": "MultiPolygon", "coordinates": [[[[72.10959598691358, 34.085369706168414], [72.10960619486534, 34.08525113542776], [72.10951115397523, 34.08524547231631], [72.10950105414908, 34.08536404559114], [72.10959598691358, 34.085369706168414]]]]}, "properties": {"id": "8J6J34P5+4RF8", "height": 2.747764587402344, "hmax": 0.0, "ratio": 0.0, "vulnClass": "none"}}, {"type": "Feature", "geometry": {"type": "MultiPolygon", "coordinates": [[[[72.1095054000135, 34.08577782314676], [72.1094152443945, 34.08576866916619], [72.109406745454, 34.08582742386145], [72.10949690419693, 34.08583648777853], [72.1095054000135, 34.08577782314676]]]]}, "properties": {"id": "8J6J34P5+8QG4", "height": 4.909117698669434, "hmax": 0.0, "ratio": 0.0, "vulnClass": "none"}}, {"type": "Feature", "geometry": {"type": "MultiPolygon", "coordinates": [[[[72.10959919615176, 34.08588063324355], [72.1094734503592, 34.085866675003764], [72.1094606498563, 34.08594678292471], [72.10958639576344, 34.08596074118346], [72.10959919615176, 34.08588063324355]]]]}, "properties": {"id": "8J6J34P5+9R6H", "height": 3.572315216064453, "hmax": 0.0, "ratio": 0.0, "vulnClass": "none"}}, {"type": "Feature", "geometry": {"type": "MultiPolygon", "coordinates": [[[[72.109288424595, 34.08581814750221], [72.10924917632099, 34.08581578103801], [72.10924566010414, 34.085855452168204], [72.10928490533259, 34.08585790870728], [72.109288424595, 34.08581814750221]]]]}, "properties": {"id": "8J6J34P5+8PJG", "height": 5.472955703735352, "hmax": 0.0, "ratio": 0.0, "vulnClass": "none"}}, {"type": "Feature", "geometry": {"type": "MultiPolygon", "coordinates": [[[[72.109367290141, 34.08563682988916], [72.10924868664446, 34.085623129741286], [72.10924174401714, 34.08566479352732], [72.1092684007311, 34.08566785510522], [72.10925547547583, 34.08574525571601], [72.10948955259508, 34.085772311768416], [72.1095012551991, 34.08570218408288], [72.1094419007874, 34.085695287774094], [72.10943685677398, 34.08572572815565], [72.10935397281344, 34.08571620447091], [72.109367290141, 34.08563682988916]]]]}, "properties": {"id": "8J6J34P5+7PQ7", "height": 4.909117698669434, "hmax": 0.0, "ratio": 0.0, "vulnClass": "none"}}, {"type": "Feature", "geometry": {"type": "MultiPolygon", "coordinates": [[[[72.10843736151548, 34.085360271512634], [72.10833535638945, 34.08536823563458], [72.10834258045769, 34.08543294955744], [72.10847119735516, 34.08542299800551], [72.10846694495673, 34.085385577848015], [72.10844033021057, 34.085387655348505], [72.10843736151548, 34.085360271512634]]]]}, "properties": {"id": "8J6J34P5+592X", "height": 2.556849479675293, "hmax": 0.099, "ratio": 0.039, "vulnClass": "none"}}, {"type": "Feature", "geometry": {"type": "MultiPolygon", "coordinates": [[[[72.10772044865004, 34.085264958063675], [72.10766555762336, 34.085267000258334], [72.10766819180137, 34.08531375738128], [72.1077230859236, 34.08531162511429], [72.10772044865004, 34.085264958063675]]]]}, "properties": {"id": "8J6J34P5+438C", "height": 2.69702672958374, "hmax": 0.132, "ratio": 0.049, "vulnClass": "low"}}, {"type": "Feature", "geometry": {"type": "MultiPolygon", "coordinates": [[[[72.10771842705235, 34.0852288524722], [72.10766353604909, 34.085230894667184], [72.10766555762336, 34.085267000258334], [72.10772044865004, 34.085264958063675], [72.10771842705235, 34.0852288524722]]]]}, "properties": {"id": "8J6J34P5+33WR", "height": 2.939142465591431, "hmax": 0.132, "ratio": 0.045, "vulnClass": "low"}}, {"type": "Feature", "geometry": {"type": "MultiPolygon", "coordinates": [[[[72.10791665026008, 34.0853033844833], [72.10779655329691, 34.08529857211289], [72.10779338141872, 34.085353575932935], [72.10791347845904, 34.085358388310404], [72.10791665026008, 34.0853033844833]]]]}, "properties": {"id": "8J6J34P5+44Q3", "height": 2.76578688621521, "hmax": 0.0, "ratio": 0.0, "vulnClass": "none"}}, {"type": "Feature", "geometry": {"type": "MultiPolygon", "coordinates": [[[[72.10795361231659, 34.08524557084952], [72.10795007487668, 34.085139386946935], [72.1078958610505, 34.08514063389561], [72.10789686563363, 34.085168422196055], [72.10780307703264, 34.085170539727656], [72.10780571799076, 34.08524893787561], [72.10795361231659, 34.08524557084952]]]]}, "properties": {"id": "8J6J34P5+35J3", "height": 4.489099979400635, "hmax": 0.0, "ratio": 0.0, "vulnClass": "none"}}, {"type": "Feature", "geometry": {"type": "MultiPolygon", "coordinates": [[[[72.10819316401215, 34.0850129606093], [72.10812517932392, 34.08501135923538], [72.10812406068608, 34.085044235784416], [72.10819204540053, 34.08504583716029], [72.10819316401215, 34.0850129606093]]]]}, "properties": {"id": "8J6J34P5+2772", "height": 2.650567054748535, "hmax": 0.0, "ratio": 0.0, "vulnClass": "none"}}, {"type": "Feature", "geometry": {"type": "MultiPolygon", "coordinates": [[[[72.10832056663784, 34.08504823335288], [72.10831860408057, 34.08500401610992], [72.10819268303469, 34.08500799130886], [72.10819464552617, 34.085052208550444], [72.10832056663784, 34.08504823335288]]]]}, "properties": {"id": "8J6J34P5+2862", "height": 2.650567054748535, "hmax": 0.0, "ratio": 0.0, "vulnClass": "none"}}, {"type": "Feature", "geometry": {"type": "MultiPolygon", "coordinates": [[[[72.10908265017616, 34.08529983653143], [72.10902670106171, 34.08530113326166], [72.10903023371424, 34.0854074973461], [72.10908607464249, 34.085406198068725], [72.10908265017616, 34.08529983653143]]]]}, "properties": {"id": "8J6J34P5+4JV5", "height": 2.537378787994385, "hmax": 0.0, "ratio": 0.0, "vulnClass": "none"}}, {"type": "Feature", "geometry": {"type": "MultiPolygon", "coordinates": [[[[72.10901756873015, 34.08541990954913], [72.10902143123613, 34.085379615565635], [72.10898910852451, 34.085377502251745], [72.10898808212784, 34.08538856591072], [72.10894148794986, 34.085385575645205], [72.10893876006614, 34.08541480851536], [72.10901756873015, 34.08541990954913]]]]}, "properties": {"id": "8J6J34P5+5H93", "height": 2.624582290649414, "hmax": 0.0, "ratio": 0.0, "vulnClass": "none"}}, {"type": "Feature", "geometry": {"type": "MultiPolygon", "coordinates": [[[[72.10929664948584, 34.085308751722394], [72.10926960990508, 34.0853073938929], [72.10926708436398, 34.08534023733658], [72.10929422914792, 34.08534168778896], [72.10929664948584, 34.085308751722394]]]]}, "properties": {"id": "8J6J34P5+4PFR", "height": 3.531479597091675, "hmax": 0.0, "ratio": 0.0, "vulnClass": "none"}}, {"type": "Feature", "geometry": {"type": "MultiPolygon", "coordinates": [[[[72.10946417754262, 34.08518045351494], [72.10946640372254, 34.08514048156368], [72.10937465458119, 34.08513678889602], [72.10937232010224, 34.08517675829454], [72.10946417754262, 34.08518045351494]]]]}, "properties": {"id": "8J6J34P5+3Q77", "height": 2.823317766189575, "hmax": 0.0, "ratio": 0.0, "vulnClass": "none"}}, {"type": "Feature", "geometry": {"type": "MultiPolygon", "coordinates": [[[[72.10907953406847, 34.08512389034864], [72.10907605961984, 34.08508270243443], [72.108960556546, 34.08508935765083], [72.10896392574618, 34.08513045294334], [72.10907953406847, 34.08512389034864]]]]}, "properties": {"id": "8J6J34P5+2JR8", "height": 4.464035034179688, "hmax": 0.0, "ratio": 0.0, "vulnClass": "none"}}, {"type": "Feature", "geometry": {"type": "MultiPolygon", "coordinates": [[[[72.10934070022864, 34.084723936797914], [72.10929262558149, 34.084732630663304], [72.10930575637175, 34.08478297029093], [72.10935383104682, 34.08477427642186], [72.10934070022864, 34.084723936797914]]]]}, "properties": {"id": "8J6J34M5+WP43", "height": 4.609543800354004, "hmax": 0.0, "ratio": 0.0, "vulnClass": "none"}}, {"type": "Feature", "geometry": {"type": "MultiPolygon", "coordinates": [[[[72.10911511995333, 34.08466057190594], [72.1086828364791, 34.08461911186558], [72.10867737455567, 34.08465864701182], [72.1087957314811, 34.08466999809902], [72.10878797679986, 34.084725975783805], [72.10887372031449, 34.08473421498937], [72.10888147494076, 34.084678237296345], [72.10910965822562, 34.08470010708143], [72.10911511995333, 34.08466057190594]]]]}, "properties": {"id": "8J6J34M5+VH6J", "height": 2.891641855239868, "hmax": 0.0, "ratio": 0.0, "vulnClass": "none"}}, {"type": "Feature", "geometry": {"type": "MultiPolygon", "coordinates": [[[[72.10909012088, 34.084522782618464], [72.1090527053869, 34.084523884773134], [72.10905583058009, 34.084594451722964], [72.10909324916807, 34.084593259496145], [72.10909012088, 34.084522782618464]]]]}, "properties": {"id": "8J6J34M5+RJG7", "height": 2.835289001464844, "hmax": 0.0, "ratio": 0.0, "vulnClass": "none"}}, {"type": "Feature", "geometry": {"type": "MultiPolygon", "coordinates": [[[[72.10934235318858, 34.08461481016057], [72.10933873666129, 34.0845746104977], [72.10927522342817, 34.084578523750494], [72.1092788399253, 34.08461872341369], [72.10934235318858, 34.08461481016057]]]]}, "properties": {"id": "8J6J34M5+RPMX", "height": 2.649795293807983, "hmax": 0.0, "ratio": 0.0, "vulnClass": "none"}}, {"type": "Feature", "geometry": {"type": "MultiPolygon", "coordinates": [[[[72.10910390486671, 34.08442331671709], [72.10908056844549, 34.08426212888571], [72.10902153781727, 34.084268040610034], [72.10903486759085, 34.084360302356316], [72.10899029609999, 34.08436475164089], [72.10900030259933, 34.08443367773314], [72.10910390486671, 34.08442331671709]]]]}, "properties": {"id": "8J6J34M5+PJV8", "height": 2.449109315872192, "hmax": 0.0, "ratio": 0.0, "vulnClass": "none"}}, {"type": "Feature", "geometry": {"type": "MultiPolygon", "coordinates": [[[[72.10903486759085, 34.084360302356316], [72.10902153781727, 34.084268040610034], [72.10886064329877, 34.084284173853945], [72.1088740811526, 34.08437643815792], [72.10903486759085, 34.084360302356316]]]]}, "properties": {"id": "8J6J34M5+PHGV", "height": 3.033314943313599, "hmax": 0.0, "ratio": 0.0, "vulnClass": "none"}}, {"type": "Feature", "geometry": {"type": "MultiPolygon", "coordinates": [[[[72.10789270852123, 34.08496901384647], [72.10788887469775, 34.08488427745072], [72.107773148267, 34.08488795150816], [72.1077859164297, 34.0851686029955], [72.10787853873182, 34.085165736842825], [72.10786960712738, 34.08496973167181], [72.10789270852123, 34.08496901384647]]]]}, "properties": {"id": "8J6J34P5+244P", "height": 2.897872924804688, "hmax": 0.0, "ratio": 0.0, "vulnClass": "none"}}, {"type": "Feature", "geometry": {"type": "MultiPolygon", "coordinates": [[[[72.10796734644188, 34.084743246283665], [72.10777757454959, 34.08473877579472], [72.10777574690762, 34.08477974867815], [72.10796595191326, 34.08478422937506], [72.10796734644188, 34.084743246283665]]]]}, "properties": {"id": "8J6J34M5+W45H", "height": 2.881381988525391, "hmax": 0.0, "ratio": 0.0, "vulnClass": "none"}}, {"type": "Feature", "geometry": {"type": "MultiPolygon", "coordinates": [[[[72.1076564749522, 34.08476981736624], [72.10759505003773, 34.08477603256261], [72.10760243920168, 34.08482632721981], [72.10766386415254, 34.08482011202163], [72.1076564749522, 34.08476981736624]]]]}, "properties": {"id": "8J6J34M5+W36R", "height": 3.060583829879761, "hmax": 0.0, "ratio": 0.0, "vulnClass": "none"}}, {"type": "Feature", "geometry": {"type": "MultiPolygon", "coordinates": [[[[72.10936712519523, 34.0838067930013], [72.10927572677096, 34.08380238739707], [72.10926717214369, 34.08392649589486], [72.10956192398618, 34.08394055708134], [72.10957047818714, 34.083816448541114], [72.10948015921221, 34.083812158647376], [72.10947718557075, 34.08385499764784], [72.10936415149736, 34.083849631996124], [72.10936712519523, 34.0838067930013]]]]}, "properties": {"id": "8J6J34M5+HQ33", "height": 3.063232898712158, "hmax": 0.0, "ratio": 0.0, "vulnClass": "none"}}, {"type": "Feature", "geometry": {"type": "MultiPolygon", "coordinates": [[[[72.1095756125271, 34.083741929371314], [72.10928086136688, 34.08372786825273], [72.10927572677096, 34.08380238739707], [72.10957047818714, 34.083816448541114], [72.1095756125271, 34.083741929371314]]]]}, "properties": {"id": "8J6J34M5+GQ3W", "height": 2.741541862487793, "hmax": 0.0, "ratio": 0.0, "vulnClass": "none"}}, {"type": "Feature", "geometry": {"type": "MultiPolygon", "coordinates": [[[[72.10932201110022, 34.083119997926886], [72.1093201476051, 34.08299321020191], [72.10915118448776, 34.082995001163546], [72.10915263502315, 34.083089326967645], [72.10922633319505, 34.0830885381969], [72.10922685112058, 34.083121092730245], [72.10932201110022, 34.083119997926886]]]]}, "properties": {"id": "8J6J34M5+6MH5", "height": 2.728590726852417, "hmax": 0.0, "ratio": 0.0, "vulnClass": "none"}}, {"type": "Feature", "geometry": {"type": "MultiPolygon", "coordinates": [[[[72.10944965410236, 34.08605983624428], [72.10934254571976, 34.0860521760969], [72.10933881810936, 34.08608850688893], [72.10944581521612, 34.0860962545658], [72.10944965410236, 34.08605983624428]]]]}, "properties": {"id": "8J6J34P5+CQCW", "height": 3.150594234466553, "hmax": 0.0, "ratio": 0.0, "vulnClass": "none"}}, {"type": "Feature", "geometry": {"type": "MultiPolygon", "coordinates": [[[[72.10959267610785, 34.08619021782412], [72.10937931177007, 34.08617212325392], [72.10936911032533, 34.08625544742761], [72.10962071841776, 34.08627678618439], [72.10962672129119, 34.086227708364525], [72.10958858602027, 34.08622446675791], [72.10959267610785, 34.08619021782412]]]]}, "properties": {"id": "8J6J34P5+FQX5", "height": 3.139430522918701, "hmax": 0.0, "ratio": 0.0, "vulnClass": "none"}}, {"type": "Feature", "geometry": {"type": "MultiPolygon", "coordinates": [[[[72.10923244637176, 34.08624393620143], [72.10922016849638, 34.08634370799002], [72.10926824205835, 34.086347814737536], [72.10927484361201, 34.08629388321066], [72.10941680002487, 34.08630587958317], [72.109422367959, 34.08626003675449], [72.10923244637176, 34.08624393620143]]]]}, "properties": {"id": "8J6J34P5+GP79", "height": 2.595929145812988, "hmax": 0.0, "ratio": 0.0, "vulnClass": "none"}}, {"type": "Feature", "geometry": {"type": "MultiPolygon", "coordinates": [[[[72.10949814122564, 34.086494575085936], [72.10934659139161, 34.08647793581282], [72.10933902879671, 34.086525083843675], [72.10949057871203, 34.08654172313027], [72.10949814122564, 34.086494575085936]]]]}, "properties": {"id": "8J6J34P5+JQ37", "height": 2.468612194061279, "hmax": 0.0, "ratio": 0.0, "vulnClass": "none"}}, {"type": "Feature", "geometry": {"type": "MultiPolygon", "coordinates": [[[[72.1093639186027, 34.087548454414126], [72.10930328935378, 34.087543961899954], [72.10929106234366, 34.087658158064094], [72.10952795634977, 34.08767581529381], [72.10953687105679, 34.0875921002463], [72.10949450694329, 34.087588939317605], [72.10948865399097, 34.0876431589095], [72.10935486177323, 34.087633157692714], [72.1093639186027, 34.087548454414126]]]]}, "properties": {"id": "8J6J34Q5+2QRW", "height": 3.013097763061523, "hmax": 0.0, "ratio": 0.0, "vulnClass": "none"}}, {"type": "Feature", "geometry": {"type": "MultiPolygon", "coordinates": [[[[72.10929284405235, 34.08815363655978], [72.10930639174606, 34.0880388404873], [72.10915242483281, 34.088026290653644], [72.10913898213137, 34.08814117932077], [72.10929284405235, 34.08815363655978]]]]}, "properties": {"id": "8J6J34Q5+6MQC", "height": 2.499672174453735, "hmax": 0.0, "ratio": 0.0, "vulnClass": "none"}}, {"type": "Feature", "geometry": {"type": "MultiPolygon", "coordinates": [[[[72.10928010105745, 34.08818425621402], [72.10917462108307, 34.08817960897351], [72.10917138959334, 34.088230014037116], [72.10927697788983, 34.08823466383275], [72.10928010105745, 34.08818425621402]]]]}, "properties": {"id": "8J6J34Q5+7MQ6", "height": 3.297849178314209, "hmax": 0.0, "ratio": 0.0, "vulnClass": "none"}}, {"type": "Feature", "geometry": {"type": "MultiPolygon", "coordinates": [[[[72.10921996466041, 34.088232149453376], [72.10917138959334, 34.088230014037116], [72.10915992000079, 34.088411115538655], [72.10930229251565, 34.08841735266246], [72.10930485294233, 34.08837711816999], [72.10921105564123, 34.08837301647649], [72.10921996466041, 34.088232149453376]]]]}, "properties": {"id": "8J6J34Q5+8MPP", "height": 2.688197612762451, "hmax": 0.0, "ratio": 0.0, "vulnClass": "none"}}, {"type": "Feature", "geometry": {"type": "MultiPolygon", "coordinates": [[[[72.1093488493876, 34.088290893841354], [72.10931290497581, 34.088293292696136], [72.10931555227027, 34.08832057879897], [72.10935149669368, 34.08831817994402], [72.1093488493876, 34.088290893841354]]]]}, "properties": {"id": "8J6J34Q5+8PG8", "height": 3.179569005966187, "hmax": 0.0, "ratio": 0.0, "vulnClass": "none"}}, {"type": "Feature", "geometry": {"type": "MultiPolygon", "coordinates": [[[[72.10857481602746, 34.08964115549374], [72.10845696490446, 34.08963702751146], [72.10844817551086, 34.08980935779819], [72.10850596290504, 34.089811440075444], [72.10851247723258, 34.08968367791548], [72.10857253804436, 34.08968581370607], [72.10857481602746, 34.08964115549374]]]]}, "properties": {"id": "8J6J34Q5+V9QH", "height": 3.830981254577637, "hmax": 0.0, "ratio": 0.0, "vulnClass": "none"}}, {"type": "Feature", "geometry": {"type": "MultiPolygon", "coordinates": [[[[72.10842244770055, 34.08983309091813], [72.10842222951318, 34.08979810956367], [72.10825480536634, 34.089798853418294], [72.10825587351228, 34.08997123558758], [72.10830572010012, 34.0899710575781], [72.10830487305692, 34.08983356668353], [72.10842244770055, 34.08983309091813]]]]}, "properties": {"id": "8J6J34Q5+W8VH", "height": 3.576132535934448, "hmax": 0.0, "ratio": 0.0, "vulnClass": "none"}}, {"type": "Feature", "geometry": {"type": "MultiPolygon", "coordinates": [[[[72.10801975140363, 34.09043055041296], [72.1080298510493, 34.09033117826056], [72.1079761303583, 34.09032738865593], [72.10796603065086, 34.09042676080073], [72.10801975140363, 34.09043055041296]]]]}, "properties": {"id": "8J6J34R5+5555", "height": 3.123101711273193, "hmax": 0.0, "ratio": 0.0, "vulnClass": "none"}}, {"type": "Feature", "geometry": {"type": "MultiPolygon", "coordinates": [[[[72.10819399169604, 34.090321883777726], [72.10813688420329, 34.09031891591147], [72.10812851772151, 34.090431039330994], [72.1081857335516, 34.09043400975525], [72.10819399169604, 34.090321883777726]]]]}, "properties": {"id": "8J6J34R5+5732", "height": 4.093717575073242, "hmax": 0.0, "ratio": 0.0, "vulnClass": "none"}}, {"type": "Feature", "geometry": {"type": "MultiPolygon", "coordinates": [[[[72.10830347085063, 34.09031734121528], [72.10825135876046, 34.09031404034701], [72.108243532044, 34.09040075563928], [72.10829564725178, 34.0904039664409], [72.10830347085063, 34.09031734121528]]]]}, "properties": {"id": "8J6J34R5+48R9", "height": 4.35999059677124, "hmax": 0.0, "ratio": 0.0, "vulnClass": "none"}}, {"type": "Feature", "geometry": {"type": "MultiPolygon", "coordinates": [[[[72.10866379318456, 34.09036332852278], [72.1085704850477, 34.09035752504732], [72.10856268010279, 34.09044360986715], [72.10865598833286, 34.09044941335333], [72.10866379318456, 34.09036332852278]]]]}, "properties": {"id": "8J6J34R5+5C94", "height": 2.622252941131592, "hmax": 0.0, "ratio": 0.0, "vulnClass": "none"}}, {"type": "Feature", "geometry": {"type": "MultiPolygon", "coordinates": [[[[72.10941271017187, 34.090442804548644], [72.10920102048274, 34.090432501272794], [72.1091977377671, 34.090478037290424], [72.10940953583147, 34.09048834312693], [72.10941271017187, 34.090442804548644]]]]}, "properties": {"id": "8J6J34R5+5PMH", "height": 2.443042278289795, "hmax": 0.0, "ratio": 0.0, "vulnClass": "none"}}, {"type": "Feature", "geometry": {"type": "MultiPolygon", "coordinates": [[[[72.10896794228351, 34.09053176084788], [72.10891748053743, 34.09052453274939], [72.10890945660041, 34.09056292579449], [72.10895991530363, 34.090570243970106], [72.10896794228351, 34.09053176084788]]]]}, "properties": {"id": "8J6J34R5+6H8R", "height": 3.180241107940674, "hmax": 0.0, "ratio": 0.0, "vulnClass": "none"}}, {"type": "Feature", "geometry": {"type": "MultiPolygon", "coordinates": [[[[72.10807775604472, 34.09276937294657], [72.10799399515605, 34.092766317930916], [72.10799166971215, 34.09280917208968], [72.10807553890858, 34.092812229659614], [72.10807775604472, 34.09276937294657]]]]}, "properties": {"id": "8J6J34V5+467C", "height": 2.63893985748291, "hmax": 0.0, "ratio": 0.0, "vulnClass": "none"}}, {"type": "Feature", "geometry": {"type": "MultiPolygon", "coordinates": [[[[72.10815383634586, 34.09270202413597], [72.10799767645857, 34.092696362117266], [72.10799457958221, 34.092755514318554], [72.10815073957754, 34.09276117634674], [72.10815383634586, 34.09270202413597]]]]}, "properties": {"id": "8J6J34V5+36W3", "height": 2.603004455566406, "hmax": 0.0, "ratio": 0.0, "vulnClass": "none"}}, {"type": "Feature", "geometry": {"type": "MultiPolygon", "coordinates": [[[[72.10801345080698, 34.092570350672325], [72.10801057011403, 34.09253719965013], [72.1079538992015, 34.092540461937055], [72.10795667160677, 34.092573610408806], [72.10801345080698, 34.092570350672325]]]]}, "properties": {"id": "8J6J34V5+25H7", "height": 2.655610084533691, "hmax": 0.0, "ratio": 0.0, "vulnClass": "none"}}, {"type": "Feature", "geometry": {"type": "MultiPolygon", "coordinates": [[[[72.10783383588002, 34.09269033865281], [72.10783781872584, 34.092614710826595], [72.10772386726443, 34.09261049361207], [72.10772169901726, 34.09265190914921], [72.10754616896016, 34.09264551974171], [72.10754435419051, 34.09267973201571], [72.10783383588002, 34.09269033865281]]]]}, "properties": {"id": "8J6J34V5+3396", "height": 3.42185378074646, "hmax": 0.0, "ratio": 0.0, "vulnClass": "none"}}, {"type": "Feature", "geometry": {"type": "MultiPolygon", "coordinates": [[[[72.1077972256615, 34.09289049908602], [72.10775066943269, 34.09288309205343], [72.1077244481997, 34.09299767934896], [72.10805390599585, 34.09304988269219], [72.1080685486018, 34.0929857740879], [72.10791863734984, 34.0929620499043], [72.10792360166717, 34.092940351810775], [72.10786852917975, 34.092931662445466], [72.10785872717743, 34.09297452074148], [72.10778080653836, 34.092962228108156], [72.1077972256615, 34.09289049908602]]]]}, "properties": {"id": "8J6J34V5+55R7", "height": 2.517358064651489, "hmax": 0.0, "ratio": 0.0, "vulnClass": "none"}}]}