{"type": "FeatureCollection", "features": [{"type": "Feature", "geometry": {"type": "MultiPolygon", "coordinates": [[[[72.13451152286534, 34.13170429704119], [72.13446399261379, 34.13170255594673], [72.13446033813487, 34.13177224297367], [72.13450786842522, 34.131773984071515], [72.13451152286534, 34.13170429704119]]]]}, "properties": {"id": "8J6J44JM+MQXG", "height": 2.779294967651367, "hmax": 0.0, "ratio": 0.0, "vulnClass": "none"}}, {"type": "Feature", "geometry": {"type": "MultiPolygon", "coordinates": [[[[72.13653284857382, 34.13092269293871], [72.13650113697598, 34.13083126670855], [72.13645687645351, 34.130841862466205], [72.13647604164551, 34.130897118076604], [72.13631222123726, 34.13093638404417], [72.1363247675311, 34.13097255468631], [72.13653284857382, 34.13092269293871]]]]}, "properties": {"id": "8J6J44JP+9H8C", "height": 2.699548721313477, "hmax": 0.0, "ratio": 0.0, "vulnClass": "none"}}, {"type": "Feature", "geometry": {"type": "MultiPolygon", "coordinates": [[[[72.13393631839924, 34.13013874198256], [72.13385664177224, 34.13013237351572], [72.13385205656715, 34.13017184014519], [72.13389638392012, 34.13017530953935], [72.13389867194934, 34.130155711334524], [72.13393402429425, 34.13015852033685], [72.13393631839924, 34.13013874198256]]]]}, "properties": {"id": "8J6J44JM+3H63", "height": 4.300816059112549, "hmax": 0.0, "ratio": 0.0, "vulnClass": "none"}}, {"type": "Feature", "geometry": {"type": "MultiPolygon", "coordinates": [[[[72.13399112803654, 34.130143177360814], [72.13393631839924, 34.13013874198256], [72.13393173323044, 34.13017820861685], [72.13398654289274, 34.130182643998424], [72.13399112803654, 34.130143177360814]]]]}, "properties": {"id": "8J6J44JM+3H8H", "height": 4.300816059112549, "hmax": 0.0, "ratio": 0.0, "vulnClass": "none"}}, {"type": "Feature", "geometry": {"type": "MultiPolygon", "coordinates": [[[[72.13536456013374, 34.12961698184944], [72.1352646258203, 34.129610231489586], [72.13526092608228, 34.12964917799586], [72.13536075516656, 34.12965583575788], [72.13536456013374, 34.12961698184944]]]]}, "properties": {"id": "8J6J44HP+V446", "height": 2.598322629928589, "hmax": 0.0, "ratio": 0.0, "vulnClass": "none"}}, {"type": "Feature", "geometry": {"type": "MultiPolygon", "coordinates": [[[[72.13726368455137, 34.1292298712782], [72.13716979455884, 34.12923354007065], [72.1371770182501, 34.12936000218075], [72.13727091142214, 34.12935624331555], [72.13726368455137, 34.1292298712782]]]]}, "properties": {"id": "8J6J44HP+PV9J", "height": 3.011021375656128, "hmax": 0.055, "ratio": 0.018, "vulnClass": "none"}}, {"type": "Feature", "geometry": {"type": "MultiPolygon", "coordinates": [[[[72.13733209167798, 34.129338920517476], [72.13725918843451, 34.12934064509652], [72.13726087173566, 34.12939035443151], [72.13733377502199, 34.12938862985365], [72.13733209167798, 34.129338920517476]]]]}, "properties": {"id": "8J6J44HP+PWVF", "height": 3.239329099655151, "hmax": 0.055, "ratio": 0.017, "vulnClass": "none"}}, {"type": "Feature", "geometry": {"type": "MultiPolygon", "coordinates": [[[[72.1373772206656, 34.12933790008096], [72.13733209167798, 34.129338920517476], [72.13733377502199, 34.12938862985365], [72.13737890403615, 34.12938760941786], [72.1373772206656, 34.12933790008096]]]]}, "properties": {"id": "8J6J44HP+PWXF", "height": 3.239329099655151, "hmax": 0.055, "ratio": 0.017, "vulnClass": "none"}}, {"type": "Feature", "geometry": {"type": "MultiPolygon", "coordinates": [[[[72.13743166253077, 34.12929860485557], [72.13733087979995, 34.12930094107034], [72.13733209167798, 34.129338920517476], [72.13743287445408, 34.129336584304035], [72.13743166253077, 34.12929860485557]]]]}, "properties": {"id": "8J6J44HP+PXCJ", "height": 3.241197347640991, "hmax": 0.055, "ratio": 0.017, "vulnClass": "none"}}, {"type": "Feature", "geometry": {"type": "MultiPolygon", "coordinates": [[[[72.13757124045517, 34.12965009250846], [72.13750419313385, 34.12964852831933], [72.13750291382465, 34.129686449646236], [72.13756996117584, 34.129688013837594], [72.13757124045517, 34.12965009250846]]]]}, "properties": {"id": "8J6J44HQ+V27J", "height": 3.050887107849121, "hmax": 0.0, "ratio": 0.0, "vulnClass": "none"}}, {"type": "Feature", "geometry": {"type": "MultiPolygon", "coordinates": [[[[72.13730100920591, 34.13008991696011], [72.13715972929822, 34.13005876568329], [72.13713815750792, 34.13012623189789], [72.13727967846107, 34.13015666766395], [72.13730100920591, 34.13008991696011]]]]}, "properties": {"id": "8J6J44JP+2VX6", "height": 2.875815868377686, "hmax": 0.055, "ratio": 0.019, "vulnClass": "none"}}, {"type": "Feature", "geometry": {"type": "MultiPolygon", "coordinates": [[[[72.13740759546899, 34.13003768555757], [72.13733271480368, 34.13003052978993], [72.13731593616274, 34.13015192461145], [72.13739081693235, 34.13015908039459], [72.13740759546899, 34.13003768555757]]]]}, "properties": {"id": "8J6J44JP+2WQP", "height": 3.087735891342163, "hmax": 0.055, "ratio": 0.018, "vulnClass": "none"}}, {"type": "Feature", "geometry": {"type": "MultiPolygon", "coordinates": [[[[72.13713444561421, 34.128514167082706], [72.13698637946247, 34.12850431191516], [72.13698253885241, 34.12854424681312], [72.13713060507274, 34.12855410198877], [72.13713444561421, 34.128514167082706]]]]}, "properties": {"id": "8J6J44HP+CR75", "height": 2.810781478881836, "hmax": 0.0, "ratio": 0.0, "vulnClass": "none"}}, {"type": "Feature", "geometry": {"type": "MultiPolygon", "coordinates": [[[[72.13623420520894, 34.12772998889245], [72.13613189010236, 34.12772318373177], [72.13611234100466, 34.12792663607673], [72.13621454499967, 34.127933528812235], [72.13623420520894, 34.12772998889245]]]]}, "properties": {"id": "8J6J44HP+4FM4", "height": 3.040224313735962, "hmax": 0.0, "ratio": 0.0, "vulnClass": "none"}}, {"type": "Feature", "geometry": {"type": "MultiPolygon", "coordinates": [[[[72.13621798243832, 34.128702097565906], [72.13615359628695, 34.128698791864416], [72.13614340574489, 34.128836927006425], [72.136207792, 34.12884023271853], [72.13621798243832, 34.128702097565906]]]]}, "properties": {"id": "8J6J44HP+GF3Q", "height": 2.561869621276855, "hmax": 0.0, "ratio": 0.0, "vulnClass": "none"}}, {"type": "Feature", "geometry": {"type": "MultiPolygon", "coordinates": [[[[72.13509626573845, 34.128618579081234], [72.135093854978, 34.128587242391674], [72.13504053597151, 34.12859005395789], [72.13504294671218, 34.12862139064749], [72.13509626573845, 34.128618579081234]]]]}, "properties": {"id": "8J6J44HP+C2W2", "height": 2.705663919448853, "hmax": 0.0, "ratio": 0.0, "vulnClass": "none"}}, {"type": "Feature", "geometry": {"type": "MultiPolygon", "coordinates": [[[[72.12853266446577, 34.12919270906542], [72.1284870473618, 34.12918893712857], [72.12848080496403, 34.129242066756525], [72.12852642514417, 34.12924574862339], [72.12853266446577, 34.12919270906542]]]]}, "properties": {"id": "8J6J44HH+MCJJ", "height": 2.970760345458984, "hmax": 0.124, "ratio": 0.042, "vulnClass": "low"}}, {"type": "Feature", "geometry": {"type": "MultiPolygon", "coordinates": [[[[72.12852642514417, 34.12924574862339], [72.12848080496403, 34.129242066756525], [72.12847457474909, 34.129294836088526], [72.12852030327126, 34.129298520494025], [72.12852642514417, 34.12924574862339]]]]}, "properties": {"id": "8J6J44HH+PC2R", "height": 2.970760345458984, "hmax": 0.0, "ratio": 0.0, "vulnClass": "none"}}]}