{"type": "FeatureCollection", "features": [{"type": "Feature", "geometry": {"type": "MultiPolygon", "coordinates": [[[[72.23682014397552, 34.14185568710422], [72.2368215165975, 34.14230276207131], [72.23692766748995, 34.14230253857862], [72.23692691374113, 34.142036134185474], [72.23696171748901, 34.142036106703344], [72.23696139569829, 34.14190953162293], [72.2370498719389, 34.141909360684615], [72.23704968544045, 34.14185517751676], [72.23682014397552, 34.14185568710422]]]]}, "properties": {"id": "Pakistan_123102310_310486", "height": 3.03167724609375, "hmax": 0.0, "ratio": 0.0, "vulnClass": "none"}}, {"type": "Feature", "geometry": {"type": "MultiPolygon", "coordinates": [[[[72.23693170947898, 34.14216515387427], [72.23693228864944, 34.1422139370005], [72.2370047336961, 34.14221331489712], [72.23700415448388, 34.14216453176918], [72.23693170947898, 34.14216515387427]]]]}, "properties": {"id": "Pakistan_123102310_514006", "height": 2.763947725296021, "hmax": 0.0, "ratio": 0.0, "vulnClass": "none"}}, {"type": "Feature", "geometry": {"type": "MultiPolygon", "coordinates": [[[[72.23700641175365, 34.14017817055403], [72.23701244642628, 34.14038898245259], [72.2370472700397, 34.14038832433922], [72.23704134361849, 34.14017751487794], [72.23700641175365, 34.14017817055403]]]]}, "properties": {"id": "Pakistan_123102310_224517", "height": 3.57818865776062, "hmax": 0.0, "ratio": 0.0, "vulnClass": "none"}}, {"type": "Feature", "geometry": {"type": "MultiPolygon", "coordinates": [[[[72.23701087005499, 34.14069698282718], [72.23700530528494, 34.14050835793849], [72.23681501516981, 34.140512185584974], [72.23682047117647, 34.14070080802136], [72.23701087005499, 34.14069698282718]]]]}, "properties": {"id": "Pakistan_123102310_888454", "height": 4.56852912902832, "hmax": 0.0, "ratio": 0.0, "vulnClass": "none"}}, {"type": "Feature", "geometry": {"type": "MultiPolygon", "coordinates": [[[[72.23720449107185, 34.13835406793795], [72.23720240011964, 34.138315076882996], [72.23679418013944, 34.1383295023968], [72.23679179124984, 34.138283022340104], [72.23673296173565, 34.13828512298926], [72.23673433004839, 34.13831300955905], [72.23667278624893, 34.13831522934212], [72.23667511075439, 34.138360355728196], [72.23678082652692, 34.13835669680486], [72.23678139953883, 34.138369059995235], [72.23720449107185, 34.13835406793795]]]]}, "properties": {"id": "Pakistan_123102310_798540", "height": 3.188854694366455, "hmax": 0.0, "ratio": 0.0, "vulnClass": "none"}}, {"type": "Feature", "geometry": {"type": "MultiPolygon", "coordinates": [[[[72.23701355145123, 34.138421255490925], [72.23689847715399, 34.138432636877944], [72.2369113044303, 34.13852145116578], [72.2370568332605, 34.138507059538625], [72.23705249011476, 34.13847730301555], [72.23702203571308, 34.13848031324909], [72.23701355145123, 34.138421255490925]]]]}, "properties": {"id": "Pakistan_123102310_632283", "height": 2.819397449493408, "hmax": 0.0, "ratio": 0.0, "vulnClass": "none"}}, {"type": "Feature", "geometry": {"type": "MultiPolygon", "coordinates": [[[[72.23452171573109, 34.13627340890109], [72.23445205726983, 34.13627517425718], [72.23445350316699, 34.13631063502131], [72.23452316165745, 34.13630886966585], [72.23452171573109, 34.13627340890109]]]]}, "properties": {"id": "Pakistan_123102310_680036", "height": 3.357691526412964, "hmax": 0.0, "ratio": 0.0, "vulnClass": "none"}}, {"type": "Feature", "geometry": {"type": "MultiPolygon", "coordinates": [[[[72.23461215859778, 34.13631249828804], [72.23457633820159, 34.136313854470096], [72.2345743855083, 34.13628063598374], [72.23452738332955, 34.13628246130301], [72.23452908148236, 34.136313510499726], [72.23438460235782, 34.136319088369554], [72.23438858036305, 34.136389944233834], [72.23461609893587, 34.13638118974842], [72.23461215859778, 34.13631249828804]]]]}, "properties": {"id": "Pakistan_123102310_836399", "height": 3.3550124168396, "hmax": 0.0, "ratio": 0.0, "vulnClass": "none"}}, {"type": "Feature", "geometry": {"type": "MultiPolygon", "coordinates": [[[[72.23475158273061, 34.13619592414039], [72.23468467701102, 34.13619306397464], [72.23468119916092, 34.13624986899534], [72.23474810492495, 34.13625272916516], [72.23475158273061, 34.13619592414039]]]]}, "properties": {"id": "Pakistan_123102310_907374", "height": 3.873760461807251, "hmax": 0.0, "ratio": 0.0, "vulnClass": "none"}}, {"type": "Feature", "geometry": {"type": "MultiPolygon", "coordinates": [[[[72.23783854183692, 34.12951543591377], [72.23786039736119, 34.12968324294623], [72.23775026540348, 34.12969302390468], [72.23775591363338, 34.12973597144549], [72.23795204446179, 34.1297184804872], [72.2379246458303, 34.12950781844551], [72.23783854183692, 34.12951543591377]]]]}, "properties": {"id": "Pakistan_123102310_622795", "height": 2.831218242645264, "hmax": 0.0, "ratio": 0.0, "vulnClass": "none"}}, {"type": "Feature", "geometry": {"type": "MultiPolygon", "coordinates": [[[[72.23759035146496, 34.12974351279488], [72.23756901608161, 34.12954975476149], [72.23765269298929, 34.12954343506792], [72.23764893272468, 34.129509094103604], [72.23769946205944, 34.12950536362537], [72.23769043738358, 34.129422945311745], [72.23746961801078, 34.12943960959323], [72.23747371178884, 34.129477023108265], [72.23739264353193, 34.12948313096874], [72.23739698893156, 34.12952280385497], [72.2375114214133, 34.12951411165925], [72.23753199581937, 34.129701271750214], [72.23730856711003, 34.12971814742], [72.23731367329914, 34.129764418253565], [72.23759035146496, 34.12974351279488]]]]}, "properties": {"id": "Pakistan_123102310_874195", "height": 3.261130094528198, "hmax": 0.0, "ratio": 0.0, "vulnClass": "none"}}, {"type": "Feature", "geometry": {"type": "MultiPolygon", "coordinates": [[[[72.23791682020358, 34.129388556520404], [72.23781227510692, 34.12938989922767], [72.23781440922602, 34.12950750051479], [72.23791895153572, 34.129506247895044], [72.23791682020358, 34.129388556520404]]]]}, "properties": {"id": "Pakistan_123102310_251814", "height": 2.991828441619873, "hmax": 0.0, "ratio": 0.0, "vulnClass": "none"}}, {"type": "Feature", "geometry": {"type": "MultiPolygon", "coordinates": [[[[72.23843654987844, 34.12960047378214], [72.23834410756514, 34.129602990803086], [72.23834689153426, 34.12967400010052], [72.23843933392523, 34.129671483081296], [72.23843654987844, 34.12960047378214]]]]}, "properties": {"id": "Pakistan_123102310_73151", "height": 4.188514232635498, "hmax": 0.0, "ratio": 0.0, "vulnClass": "none"}}, {"type": "Feature", "geometry": {"type": "MultiPolygon", "coordinates": [[[[72.23919025348627, 34.12972137519797], [72.23918895558252, 34.1296646427581], [72.23894361955762, 34.12966849790757], [72.23894492022804, 34.12972514025969], [72.23919025348627, 34.12972137519797]]]]}, "properties": {"id": "Pakistan_123102310_789126", "height": 3.912442445755005, "hmax": 0.0, "ratio": 0.0, "vulnClass": "none"}}, {"type": "Feature", "geometry": {"type": "MultiPolygon", "coordinates": [[[[72.23889697411347, 34.129472908422905], [72.23883525525288, 34.129474043749944], [72.2388372783015, 34.12954846155789], [72.23906375957957, 34.129544362663026], [72.23906224510526, 34.12948762534987], [72.23889737159664, 34.129490676567464], [72.23889697411347, 34.129472908422905]]]]}, "properties": {"id": "Pakistan_123102310_381408", "height": 3.489269733428955, "hmax": 0.076, "ratio": 0.022, "vulnClass": "none"}}, {"type": "Feature", "geometry": {"type": "MultiPolygon", "coordinates": [[[[72.23759250726775, 34.131855011842575], [72.23760085487842, 34.131898290597746], [72.2378075020116, 34.131870940173215], [72.23779904596847, 34.13182765898824], [72.23759250726775, 34.131855011842575]]]]}, "properties": {"id": "Pakistan_123102310_708502", "height": 3.447789430618286, "hmax": 0.0, "ratio": 0.0, "vulnClass": "none"}}, {"type": "Feature", "geometry": {"type": "MultiPolygon", "coordinates": [[[[72.23380852189807, 34.1307954422755], [72.2337979818103, 34.130709744291224], [72.23357763581788, 34.13072839536857], [72.23356032390086, 34.13058773467086], [72.23339574607714, 34.130601602848756], [72.23340791512061, 34.130700499202455], [72.23337606404304, 34.130703206667114], [72.23338232995967, 34.13075374071107], [72.23342211528013, 34.130750400808395], [72.2334316429129, 34.13082724147719], [72.23380852189807, 34.1307954422755]]]]}, "properties": {"id": "Pakistan_123102310_252773", "height": 3.524073839187622, "hmax": 0.0, "ratio": 0.0, "vulnClass": "none"}}]}