{"type": "FeatureCollection", "features": [{"type": "Feature", "geometry": {"type": "MultiPolygon", "coordinates": [[[[72.43294736554823, 34.246318960142894], [72.43314882714262, 34.24634842361651], [72.43316882899232, 34.246254633665515], [72.43296747610171, 34.24622517250732], [72.43294736554823, 34.246318960142894]]]]}, "properties": {"id": "Pakistan_123102311_485049", "height": 2.60053539276123, "hmax": 0.0, "ratio": 0.0, "vulnClass": "none"}}, {"type": "Feature", "geometry": {"type": "MultiPolygon", "coordinates": [[[[72.4353909948819, 34.24721531174804], [72.43520348103276, 34.247148279963135], [72.4351814762336, 34.24719010069371], [72.4352989666498, 34.24723213700228], [72.43524860160535, 34.247328447062785], [72.43531862243566, 34.24735353270215], [72.4353909948819, 34.24721531174804]]]]}, "properties": {"id": "Pakistan_123102311_274045", "height": 2.725396871566772, "hmax": 0.0, "ratio": 0.0, "vulnClass": "none"}}, {"type": "Feature", "geometry": {"type": "MultiPolygon", "coordinates": [[[[72.43224765912665, 34.244244591945126], [72.43250334519176, 34.244375712398984], [72.43260426720596, 34.244241156520026], [72.43248999828849, 34.24418259724994], [72.43248875563806, 34.24418419394878], [72.43234733597443, 34.24411172307782], [72.43224765912665, 34.244244591945126]]]]}, "properties": {"id": "Pakistan_123102311_177161", "height": 2.727640151977539, "hmax": 0.0, "ratio": 0.0, "vulnClass": "none"}}, {"type": "Feature", "geometry": {"type": "MultiPolygon", "coordinates": [[[[72.43128614950749, 34.24432360496166], [72.43113117872608, 34.24429340040521], [72.43111865680208, 34.24433749270877], [72.43127362765789, 34.24436769728434], [72.43128614950749, 34.24432360496166]]]]}, "properties": {"id": "Pakistan_123102311_114852", "height": 2.674153566360474, "hmax": 0.0, "ratio": 0.0, "vulnClass": "none"}}, {"type": "Feature", "geometry": {"type": "MultiPolygon", "coordinates": [[[[72.43255618538609, 34.24468387790117], [72.43245840874619, 34.24476134316857], [72.4324302678471, 34.24473713359226], [72.43236452718895, 34.24478921614687], [72.43254415951019, 34.24494389516149], [72.43261679900243, 34.244886277486856], [72.43255247716306, 34.24483092850837], [72.43264324925607, 34.24475890582604], [72.43255618538609, 34.24468387790117]]]]}, "properties": {"id": "Pakistan_123102311_70661", "height": 3.654645442962646, "hmax": 0.0, "ratio": 0.0, "vulnClass": "none"}}, {"type": "Feature", "geometry": {"type": "MultiPolygon", "coordinates": [[[[72.4291964296408, 34.24343811621676], [72.42920059485957, 34.24326195629173], [72.42910576339209, 34.24326041727883], [72.42910159797599, 34.243436577191716], [72.4291964296408, 34.24343811621676]]]]}, "properties": {"id": "Pakistan_123102311_262202", "height": 2.489518404006958, "hmax": 0.0, "ratio": 0.0, "vulnClass": "none"}}, {"type": "Feature", "geometry": {"type": "MultiPolygon", "coordinates": [[[[72.42898781363168, 34.24326587571307], [72.42899064736909, 34.243301184636934], [72.42904142875172, 34.24329837366047], [72.42903848650587, 34.2432630624604], [72.42898781363168, 34.24326587571307]]]]}, "properties": {"id": "Pakistan_123102311_576114", "height": 3.665187358856201, "hmax": 0.0, "ratio": 0.0, "vulnClass": "none"}}, {"type": "Feature", "geometry": {"type": "MultiPolygon", "coordinates": [[[[72.42891338692671, 34.243564159748765], [72.42893979574521, 34.24360600356411], [72.42899248496941, 34.24358330903867], [72.42896618461789, 34.24354146751016], [72.42891338692671, 34.243564159748765]]]]}, "properties": {"id": "Pakistan_123102311_576113", "height": 2.541991710662842, "hmax": 0.0, "ratio": 0.0, "vulnClass": "none"}}, {"type": "Feature", "geometry": {"type": "MultiPolygon", "coordinates": [[[[72.4291726233613, 34.24360331623403], [72.42917551658614, 34.243554604665825], [72.42907923449467, 34.24355078138535], [72.42907634395581, 34.243599402854244], [72.4291726233613, 34.24360331623403]]]]}, "properties": {"id": "Pakistan_123102311_259232", "height": 2.765374183654785, "hmax": 0.0, "ratio": 0.0, "vulnClass": "none"}}, {"type": "Feature", "geometry": {"type": "MultiPolygon", "coordinates": [[[[72.42970017162133, 34.243458240767424], [72.4296739102202, 34.243490054459556], [72.42973057985395, 34.243522075278804], [72.4297568412453, 34.243490261574145], [72.42970017162133, 34.243458240767424]]]]}, "properties": {"id": "Pakistan_123102311_108899", "height": 2.715256214141846, "hmax": 0.0, "ratio": 0.0, "vulnClass": "none"}}, {"type": "Feature", "geometry": {"type": "MultiPolygon", "coordinates": [[[[72.42831285689363, 34.24275425177903], [72.42843411020898, 34.24277933471311], [72.42845873364179, 34.242697903274895], [72.42833747769103, 34.24267291046441], [72.42831285689363, 34.24275425177903]]]]}, "properties": {"id": "Pakistan_123102311_496912", "height": 2.935443639755249, "hmax": 0.0, "ratio": 0.0, "vulnClass": "none"}}, {"type": "Feature", "geometry": {"type": "MultiPolygon", "coordinates": [[[[72.42660462226327, 34.242433505458926], [72.42660510271334, 34.24247119909589], [72.42664256327664, 34.24247090404268], [72.4266421912957, 34.2424332126836], [72.42660462226327, 34.242433505458926]]]]}, "properties": {"id": "Pakistan_123102311_227066", "height": 2.567611217498779, "hmax": 0.0, "ratio": 0.0, "vulnClass": "none"}}, {"type": "Feature", "geometry": {"type": "MultiPolygon", "coordinates": [[[[72.42661483784356, 34.242522249302056], [72.42661269672716, 34.24247135859122], [72.42654305299926, 34.24247332163908], [72.42654519132986, 34.24252430244361], [72.42661483784356, 34.242522249302056]]]]}, "properties": {"id": "Pakistan_123102311_8833", "height": 3.095499753952026, "hmax": 0.0, "ratio": 0.0, "vulnClass": "none"}}, {"type": "Feature", "geometry": {"type": "MultiPolygon", "coordinates": [[[[72.42669202140945, 34.24224773468423], [72.42661867243793, 34.24223591685397], [72.42661032566515, 34.24227117129605], [72.42668378315116, 34.24228299141104], [72.42669202140945, 34.24224773468423]]]]}, "properties": {"id": "Pakistan_123102311_135476", "height": 2.819234609603882, "hmax": 0.0, "ratio": 0.0, "vulnClass": "none"}}, {"type": "Feature", "geometry": {"type": "MultiPolygon", "coordinates": [[[[72.42643603835626, 34.24347780146785], [72.42639856088572, 34.24347863700369], [72.42640049606128, 34.243536284783794], [72.42643808478864, 34.24353536143286], [72.42643603835626, 34.24347780146785]]]]}, "properties": {"id": "Pakistan_123102311_274009", "height": 2.620783567428589, "hmax": 0.0, "ratio": 0.0, "vulnClass": "none"}}, {"type": "Feature", "geometry": {"type": "MultiPolygon", "coordinates": [[[[72.42674486606465, 34.24336781143651], [72.42675329401493, 34.243419014481], [72.42686919621227, 34.24340594244087], [72.42686076819199, 34.24335473940113], [72.42674486606465, 34.24336781143651]]]]}, "properties": {"id": "Pakistan_123102311_336121", "height": 2.920428276062012, "hmax": 0.0, "ratio": 0.0, "vulnClass": "none"}}, {"type": "Feature", "geometry": {"type": "MultiPolygon", "coordinates": [[[[72.42576531780844, 34.24309841562487], [72.42592605660701, 34.2431030547448], [72.42593000664266, 34.24300901904165], [72.4257692680222, 34.243004379934966], [72.42576531780844, 34.24309841562487]]]]}, "properties": {"id": "Pakistan_123102311_44253", "height": 2.492872476577759, "hmax": 0.0, "ratio": 0.0, "vulnClass": "none"}}, {"type": "Feature", "geometry": {"type": "MultiPolygon", "coordinates": [[[[72.42820546520099, 34.241834970860815], [72.42800982808139, 34.241750088117485], [72.4279878182998, 34.24178487556437], [72.42818334698799, 34.24186975606802], [72.42820546520099, 34.241834970860815]]]]}, "properties": {"id": "Pakistan_123102311_224125", "height": 2.634959936141968, "hmax": 0.0, "ratio": 0.0, "vulnClass": "none"}}, {"type": "Feature", "geometry": {"type": "MultiPolygon", "coordinates": [[[[72.43169468473388, 34.241729476677605], [72.43177929447216, 34.241592235508946], [72.43173127630384, 34.24157202661417], [72.43169656631399, 34.241628275234824], [72.43155605082347, 34.241569074865836], [72.43150615366766, 34.2416499772226], [72.43169468473388, 34.241729476677605]]]]}, "properties": {"id": "Pakistan_123102311_362610", "height": 3.134271144866943, "hmax": 0.0, "ratio": 0.0, "vulnClass": "none"}}, {"type": "Feature", "geometry": {"type": "MultiPolygon", "coordinates": [[[[72.42860355549418, 34.234263244857694], [72.42854190575211, 34.234263123154925], [72.42854173207961, 34.23429737733544], [72.42860337910601, 34.23429758913408], [72.42860355549418, 34.234263244857694]]]]}, "properties": {"id": "Pakistan_123102311_391736", "height": 2.515590190887451, "hmax": 0.0, "ratio": 0.0, "vulnClass": "none"}}, {"type": "Feature", "geometry": {"type": "MultiPolygon", "coordinates": [[[[72.42587380914522, 34.232964268110834], [72.42598881313387, 34.23305151698078], [72.42606090896636, 34.23298658922925], [72.42594601345633, 34.23289934270534], [72.42587380914522, 34.232964268110834]]]]}, "properties": {"id": "Pakistan_123102311_438335", "height": 2.907084226608276, "hmax": 0.0, "ratio": 0.0, "vulnClass": "none"}}]}