{"type": "FeatureCollection", "features": [{"type": "Feature", "geometry": {"type": "MultiPolygon", "coordinates": [[[[71.88558037206974, 34.472139332687966], [71.8855973420213, 34.472203940948674], [71.88568849947875, 34.47218760815595], [71.88567152610963, 34.47212308995279], [71.88558037206974, 34.472139332687966]]]]}, "properties": {"id": "Pakistan_123102132_410296", "height": 2.556917190551758, "hmax": 0.0, "ratio": 0.0, "vulnClass": "none"}}, {"type": "Feature", "geometry": {"type": "MultiPolygon", "coordinates": [[[[71.88504654255847, 34.47255186969495], [71.88494475978968, 34.472549543593274], [71.88494361097382, 34.472580430254325], [71.88504549916239, 34.4725828491813], [71.88504654255847, 34.47255186969495]]]]}, "properties": {"id": "Pakistan_123102132_123656", "height": 2.554664373397827, "hmax": 0.0, "ratio": 0.0, "vulnClass": "none"}}, {"type": "Feature", "geometry": {"type": "MultiPolygon", "coordinates": [[[[71.88516640974045, 34.472688325783395], [71.88517007273286, 34.47261324744626], [71.88523159809769, 34.47261526754148], [71.88523350993822, 34.47257556720365], [71.88516122352439, 34.47257318247417], [71.8851607530915, 34.47258290494859], [71.88507509604082, 34.47258008896281], [71.88506998814108, 34.47268523519877], [71.88516640974045, 34.472688325783395]]]]}, "properties": {"id": "Pakistan_123102132_173103", "height": 2.967898845672607, "hmax": 0.0, "ratio": 0.0, "vulnClass": "none"}}, {"type": "Feature", "geometry": {"type": "MultiPolygon", "coordinates": [[[[71.88528079199034, 34.47242796199777], [71.88508389461856, 34.472419604448], [71.88507797586328, 34.47251436458972], [71.88527487345596, 34.472522722160996], [71.88528079199034, 34.47242796199777]]]]}, "properties": {"id": "Pakistan_123102132_484213", "height": 3.773078680038452, "hmax": 0.0, "ratio": 0.0, "vulnClass": "none"}}, {"type": "Feature", "geometry": {"type": "MultiPolygon", "coordinates": [[[[71.88949856418695, 34.47174238495908], [71.88947927982971, 34.471704848584125], [71.88943605867046, 34.47171988161217], [71.88945534301068, 34.471757417993], [71.88949856418695, 34.47174238495908]]]]}, "properties": {"id": "Pakistan_123102132_213339", "height": 2.990913867950439, "hmax": 0.0, "ratio": 0.0, "vulnClass": "none"}}, {"type": "Feature", "geometry": {"type": "MultiPolygon", "coordinates": [[[[71.88956105242062, 34.4717243274585], [71.88951007482339, 34.4717577305752], [71.889542142563, 34.47179099573096], [71.88959311682558, 34.47175768265041], [71.88956105242062, 34.4717243274585]]]]}, "properties": {"id": "Pakistan_123102132_283982", "height": 2.991699695587158, "hmax": 0.0, "ratio": 0.0, "vulnClass": "none"}}, {"type": "Feature", "geometry": {"type": "MultiPolygon", "coordinates": [[[[71.8895577249661, 34.471819784918594], [71.88960301534296, 34.4719131458272], [71.88953139363329, 34.47193682941089], [71.88946658640562, 34.47180340242182], [71.88941336698966, 34.47182097491005], [71.88947726579238, 34.47195248596715], [71.88951660121255, 34.47193951716694], [71.88959253299794, 34.47209576104352], [71.88965027074514, 34.472076681156956], [71.88959658426214, 34.47196616117226], [71.88976296552849, 34.47191118101989], [71.8896963378887, 34.471774012274146], [71.8895577249661, 34.471819784918594]]]]}, "properties": {"id": "Pakistan_123102132_422674", "height": 3.544848203659058, "hmax": 0.0, "ratio": 0.0, "vulnClass": "none"}}, {"type": "Feature", "geometry": {"type": "MultiPolygon", "coordinates": [[[[71.88989468139306, 34.472127342662574], [71.88987130479514, 34.472071044340524], [71.8896360395657, 34.47213751976082], [71.88967800477914, 34.47223836721679], [71.88972364674441, 34.47222555899143], [71.88970506130369, 34.47218091985125], [71.88989468139306, 34.472127342662574]]]]}, "properties": {"id": "Pakistan_123102132_98755", "height": 3.123646974563599, "hmax": 0.0, "ratio": 0.0, "vulnClass": "none"}}, {"type": "Feature", "geometry": {"type": "MultiPolygon", "coordinates": [[[[71.88994209257253, 34.47226618509845], [71.8898108134138, 34.472269781736195], [71.8898119898974, 34.47229964611264], [71.88994326910314, 34.47229604947615], [71.88994209257253, 34.47226618509845]]]]}, "properties": {"id": "Pakistan_123102132_56000", "height": 3.383846759796143, "hmax": 0.0, "ratio": 0.0, "vulnClass": "none"}}, {"type": "Feature", "geometry": {"type": "MultiPolygon", "coordinates": [[[[71.88992184356135, 34.47218427820314], [71.88979853872121, 34.472187086458725], [71.88980124330492, 34.47226665368554], [71.88992454826268, 34.4722638454336], [71.88992184356135, 34.47218427820314]]]]}, "properties": {"id": "Pakistan_123102132_86523", "height": 3.769305229187012, "hmax": 0.0, "ratio": 0.0, "vulnClass": "none"}}, {"type": "Feature", "geometry": {"type": "MultiPolygon", "coordinates": [[[[71.88978234394746, 34.472561632109425], [71.88977934235457, 34.472627804268576], [71.88983021896301, 34.47262937053963], [71.88983322051592, 34.47256319837709], [71.88978234394746, 34.472561632109425]]]]}, "properties": {"id": "Pakistan_123102132_234688", "height": 2.59630560874939, "hmax": 0.0, "ratio": 0.0, "vulnClass": "none"}}, {"type": "Feature", "geometry": {"type": "MultiPolygon", "coordinates": [[[[71.88989686032609, 34.47218003651803], [71.88989364800696, 34.47214930908107], [71.88985370847782, 34.47215216758737], [71.88985692078222, 34.47218289502459], [71.88989686032609, 34.47218003651803]]]]}, "properties": {"id": "Pakistan_123102132_490450", "height": 3.394295215606689, "hmax": 0.0, "ratio": 0.0, "vulnClass": "none"}}, {"type": "Feature", "geometry": {"type": "MultiPolygon", "coordinates": [[[[71.8933788831199, 34.47227759690854], [71.89337440099074, 34.47206981349082], [71.89328706783434, 34.47207110682468], [71.89329154974617, 34.47227889023385], [71.8933788831199, 34.47227759690854]]]]}, "properties": {"id": "Pakistan_123102132_511981", "height": 2.463146924972534, "hmax": 0.0, "ratio": 0.0, "vulnClass": "none"}}, {"type": "Feature", "geometry": {"type": "MultiPolygon", "coordinates": [[[[71.89153697377755, 34.47103698455749], [71.89167355769752, 34.47113086601312], [71.8917104994111, 34.47109440064734], [71.89157391884473, 34.4710004291844], [71.89153697377755, 34.47103698455749]]]]}, "properties": {"id": "Pakistan_123102132_89638", "height": 3.700167179107666, "hmax": 0.0, "ratio": 0.0, "vulnClass": "none"}}, {"type": "Feature", "geometry": {"type": "MultiPolygon", "coordinates": [[[[71.89559399425974, 34.46435208129307], [71.89558706907181, 34.464400938382], [71.89568498817322, 34.46441036785413], [71.89569191330561, 34.46436151075666], [71.89559399425974, 34.46435208129307]]]]}, "properties": {"id": "Pakistan_123102132_126741", "height": 2.550926685333252, "hmax": 0.0, "ratio": 0.0, "vulnClass": "none"}}, {"type": "Feature", "geometry": {"type": "MultiPolygon", "coordinates": [[[[71.89648137675441, 34.463619849779526], [71.89643988024613, 34.4637294803463], [71.8965034820708, 34.46374578858332], [71.89657211934808, 34.46356446972394], [71.89638531030177, 34.463516367672405], [71.89635816598711, 34.463588145940356], [71.89648137675441, 34.463619849779526]]]]}, "properties": {"id": "Pakistan_123102132_542495", "height": 3.803655624389648, "hmax": 0.0, "ratio": 0.0, "vulnClass": "none"}}, {"type": "Feature", "geometry": {"type": "MultiPolygon", "coordinates": [[[[71.89622835774591, 34.46374627774405], [71.89634128609643, 34.46378529169528], [71.89630548729289, 34.463855678250475], [71.89641283236509, 34.463892657419976], [71.89648538293514, 34.46374965508599], [71.89633935871746, 34.46369925443616], [71.89636507349135, 34.46364844117456], [71.89629104198022, 34.46362285435658], [71.89622835774591, 34.46374627774405]]]]}, "properties": {"id": "Pakistan_123102132_111253", "height": 2.510709762573242, "hmax": 0.0, "ratio": 0.0, "vulnClass": "none"}}, {"type": "Feature", "geometry": {"type": "MultiPolygon", "coordinates": [[[[71.89555265875771, 34.46401681204028], [71.89577196551997, 34.464060153111554], [71.89573967248573, 34.46417100882264], [71.89590960750998, 34.46420462201869], [71.89597207789308, 34.463990067463534], [71.89585680601806, 34.463967307934055], [71.89587526572095, 34.46390378168924], [71.89582827551652, 34.46389438504674], [71.89584261690851, 34.46384508550234], [71.89603782867013, 34.46388375758019], [71.89605939993035, 34.46380967452245], [71.89588438908314, 34.46377503119391], [71.89588873817193, 34.46376044982372], [71.89556410298883, 34.463696224366544], [71.89554516151105, 34.46376100019531], [71.89571768824409, 34.463795130190036], [71.895700611243, 34.463853644027886], [71.89561947869764, 34.46383761081756], [71.89562920690692, 34.46380414782928], [71.89557086779449, 34.463792659910915], [71.89553195815654, 34.46392642178318], [71.89557646776369, 34.46393521467495], [71.89555265875771, 34.46401681204028]]]]}, "properties": {"id": "Pakistan_123102132_318003", "height": 3.908075094223022, "hmax": 0.0, "ratio": 0.0, "vulnClass": "none"}}, {"type": "Feature", "geometry": {"type": "MultiPolygon", "coordinates": [[[[71.89473030089451, 34.46367556663651], [71.89466338214241, 34.46367242290041], [71.89466098652525, 34.46370769467372], [71.89472779658418, 34.46371083564814], [71.89473030089451, 34.46367556663651]]]]}, "properties": {"id": "Pakistan_123102132_317992", "height": 3.394331932067871, "hmax": 0.0, "ratio": 0.0, "vulnClass": "none"}}, {"type": "Feature", "geometry": {"type": "MultiPolygon", "coordinates": [[[[71.89498099309156, 34.46377640169161], [71.89507910609333, 34.46381287688545], [71.89511623248434, 34.463744867967414], [71.89501822826256, 34.46370839557075], [71.89498099309156, 34.46377640169161]]]]}, "properties": {"id": "Pakistan_123102132_422715", "height": 2.855304718017578, "hmax": 0.0, "ratio": 0.0, "vulnClass": "none"}}, {"type": "Feature", "geometry": {"type": "MultiPolygon", "coordinates": [[[[71.89474036341723, 34.463715301372275], [71.89482707946317, 34.463718678042945], [71.89483819733584, 34.46352147622521], [71.89475137277168, 34.463518096808905], [71.89474036341723, 34.463715301372275]]]]}, "properties": {"id": "Pakistan_123102132_456640", "height": 2.843876838684082, "hmax": 0.0, "ratio": 0.0, "vulnClass": "none"}}, {"type": "Feature", "geometry": {"type": "MultiPolygon", "coordinates": [[[[71.89531507726308, 34.46320388888437], [71.89526185795899, 34.463186401846535], [71.89524618343974, 34.46321881228865], [71.89529940276009, 34.46323629933418], [71.89531507726308, 34.46320388888437]]]]}, "properties": {"id": "Pakistan_123102132_588247", "height": 2.971349954605103, "hmax": 0.0, "ratio": 0.0, "vulnClass": "none"}}, {"type": "Feature", "geometry": {"type": "MultiPolygon", "coordinates": [[[[71.8953858604646, 34.46329068511723], [71.89524935639048, 34.463274145361964], [71.89522807634712, 34.46339321274903], [71.89536458060752, 34.46340975253812], [71.8953858604646, 34.46329068511723]]]]}, "properties": {"id": "Pakistan_123102132_234732", "height": 3.463656902313232, "hmax": 0.0, "ratio": 0.0, "vulnClass": "none"}}, {"type": "Feature", "geometry": {"type": "MultiPolygon", "coordinates": [[[[71.89507850552215, 34.46322419368622], [71.89507981706693, 34.463188804201046], [71.89501555995054, 34.46318726062462], [71.89501589034613, 34.46317834571665], [71.89481758098249, 34.463173393704515], [71.89481455048933, 34.46325515870318], [71.8950075327399, 34.46325997528428], [71.89500892441256, 34.46322242461192], [71.89507850552215, 34.46322419368622]]]]}, "properties": {"id": "Pakistan_123102132_31365", "height": 3.244371891021729, "hmax": 0.0, "ratio": 0.0, "vulnClass": "none"}}, {"type": "Feature", "geometry": {"type": "MultiPolygon", "coordinates": [[[[71.89499444197598, 34.46334599123052], [71.89504910227596, 34.463353960773894], [71.89506925070157, 34.46325956148701], [71.89501459045991, 34.463251591955775], [71.89499444197598, 34.46334599123052]]]]}, "properties": {"id": "Pakistan_123102132_379340", "height": 2.590979337692261, "hmax": 0.0, "ratio": 0.0, "vulnClass": "none"}}, {"type": "Feature", "geometry": {"type": "MultiPolygon", "coordinates": [[[[71.8947991401658, 34.46309252491515], [71.8950373582931, 34.463101195657345], [71.8950420121631, 34.46301379344994], [71.8948037976202, 34.4630050326806], [71.8947991401658, 34.46309252491515]]]]}, "properties": {"id": "Pakistan_123102132_468708", "height": 3.248324871063232, "hmax": 0.0, "ratio": 0.0, "vulnClass": "none"}}, {"type": "Feature", "geometry": {"type": "MultiPolygon", "coordinates": [[[[71.89503171398388, 34.46318595878338], [71.89517915559186, 34.46318925668381], [71.8951836076942, 34.46305443862648], [71.89511651727311, 34.463053003342715], [71.89511580837778, 34.46307506825534], [71.895035454069, 34.46307329570479], [71.89503171398388, 34.46318595878338]]]]}, "properties": {"id": "Pakistan_123102132_31362", "height": 3.629128456115723, "hmax": 0.0, "ratio": 0.0, "vulnClass": "none"}}, {"type": "Feature", "geometry": {"type": "MultiPolygon", "coordinates": [[[[71.89594206246765, 34.46344615435618], [71.89617793797308, 34.4635151534431], [71.89624557293631, 34.463357965339604], [71.89600969446134, 34.46328905645252], [71.89594206246765, 34.46344615435618]]]]}, "properties": {"id": "Pakistan_123102132_160700", "height": 3.758568286895752, "hmax": 0.0, "ratio": 0.0, "vulnClass": "none"}}, {"type": "Feature", "geometry": {"type": "MultiPolygon", "coordinates": [[[[71.89683035800536, 34.4631208101339], [71.89690645481485, 34.46319052485848], [71.89697460011375, 34.46313997836401], [71.89696134157232, 34.46312774372783], [71.89704145672908, 34.46306839774942], [71.89700598857202, 34.463035859356765], [71.89697331501488, 34.463060086555025], [71.89694605692813, 34.46303505764648], [71.89683035800536, 34.4631208101339]]]]}, "properties": {"id": "Pakistan_123102132_606797", "height": 2.948213338851929, "hmax": 0.0, "ratio": 0.0, "vulnClass": "none"}}, {"type": "Feature", "geometry": {"type": "MultiPolygon", "coordinates": [[[[71.89742620152444, 34.46316091628472], [71.89736195765761, 34.46317370566798], [71.89733950990147, 34.46320684566957], [71.89734304099238, 34.463208467666156], [71.89717212805363, 34.46324243253191], [71.897121839736, 34.46321925215597], [71.89708094673668, 34.46322740687479], [71.89707176221842, 34.463196257384965], [71.89699301453163, 34.46315991529962], [71.89685224658024, 34.46318797570267], [71.89701456099812, 34.4632627654075], [71.89711180339006, 34.463243423603245], [71.89717760610235, 34.46327375824795], [71.89718687937759, 34.463305450792895], [71.89717962642891, 34.46331617278997], [71.89712514194497, 34.46332695663897], [71.89710149484345, 34.463316080488944], [71.89714341027279, 34.463459557954174], [71.89734622826482, 34.46341919296089], [71.89735868589378, 34.463461872669605], [71.89753869977302, 34.463426065662674], [71.89751174463959, 34.4633340746352], [71.89740276902847, 34.46335582270759], [71.89738162032808, 34.463283358086656], [71.89740637589713, 34.46324667132833], [71.89744880097759, 34.46323828501847], [71.89742620152444, 34.46316091628472]]]]}, "properties": {"id": "Pakistan_123102132_225456", "height": 2.948213338851929, "hmax": 0.0, "ratio": 0.0, "vulnClass": "none"}}, {"type": "Feature", "geometry": {"type": "MultiPolygon", "coordinates": [[[[71.8969560051803, 34.46327182331404], [71.89692806284374, 34.4632006281578], [71.89677847970145, 34.46324045237169], [71.89680641858327, 34.46331173760537], [71.8969560051803, 34.46327182331404]]]]}, "properties": {"id": "Pakistan_123102132_391813", "height": 2.619095325469971, "hmax": 0.0, "ratio": 0.0, "vulnClass": "none"}}, {"type": "Feature", "geometry": {"type": "MultiPolygon", "coordinates": [[[[71.8974965342842, 34.46276917582251], [71.89749928178566, 34.462806651441504], [71.89776911454186, 34.46279322580204], [71.89776386209974, 34.46272053409351], [71.8976745735856, 34.4627249358949], [71.89767089946908, 34.462674277099616], [71.89752393804658, 34.46268154017584], [71.89753022217886, 34.46276750787091], [71.8974965342842, 34.46276917582251]]]]}, "properties": {"id": "Pakistan_123102132_19167", "height": 3.014927387237549, "hmax": 0.0, "ratio": 0.0, "vulnClass": "none"}}, {"type": "Feature", "geometry": {"type": "MultiPolygon", "coordinates": [[[[71.89705856451111, 34.46256534114582], [71.8971978840562, 34.46267920550833], [71.89724616436312, 34.46263906040985], [71.89718120584165, 34.46258594323343], [71.89722151020489, 34.462552535855565], [71.89714704378558, 34.462491695936315], [71.89705856451111, 34.46256534114582]]]]}, "properties": {"id": "Pakistan_123102132_345616", "height": 3.733278751373291, "hmax": 0.0, "ratio": 0.0, "vulnClass": "none"}}, {"type": "Feature", "geometry": {"type": "MultiPolygon", "coordinates": [[[[71.8972964951647, 34.462352539650695], [71.89749364922382, 34.46252970527461], [71.89759329087317, 34.4624543603407], [71.89757191433874, 34.46243506932224], [71.89760684523213, 34.462408645930694], [71.89756271551227, 34.46236903744368], [71.89755778846485, 34.462372788062524], [71.8974261439196, 34.46225443209562], [71.8972964951647, 34.462352539650695]]]]}, "properties": {"id": "Pakistan_123102132_388777", "height": 4.637203216552734, "hmax": 0.0, "ratio": 0.0, "vulnClass": "none"}}, {"type": "Feature", "geometry": {"type": "MultiPolygon", "coordinates": [[[[71.89717234118964, 34.46142072952743], [71.89712681624209, 34.4614599531471], [71.89723021495477, 34.46154171825072], [71.8972758486229, 34.46150249735478], [71.89717234118964, 34.46142072952743]]]]}, "properties": {"id": "Pakistan_123102132_515021", "height": 3.092206239700317, "hmax": 0.0, "ratio": 0.0, "vulnClass": "none"}}, {"type": "Feature", "geometry": {"type": "MultiPolygon", "coordinates": [[[[71.89675449831194, 34.46183717010659], [71.8970050290809, 34.46204219230838], [71.89711236623067, 34.4619529823051], [71.89686172337731, 34.46174804760867], [71.89675449831194, 34.46183717010659]]]]}, "properties": {"id": "Pakistan_123102132_145251", "height": 2.896796226501465, "hmax": 0.0, "ratio": 0.0, "vulnClass": "none"}}, {"type": "Feature", "geometry": {"type": "MultiPolygon", "coordinates": [[[[71.89482129570659, 34.4617929892588], [71.8952787624679, 34.46195496419918], [71.89543622879201, 34.461652419972026], [71.89541485407658, 34.46164484611857], [71.8953483345685, 34.4616016031215], [71.89525052440597, 34.46170385282361], [71.89511099425754, 34.46165451725123], [71.89508326034087, 34.461683466385686], [71.89511651837437, 34.4617051329832], [71.89520706690404, 34.461737179379945], [71.89519488588952, 34.461760484929094], [71.89524695338399, 34.46179434716048], [71.89523194955902, 34.461823349555], [71.89513001690764, 34.46178722810445], [71.89514653421155, 34.461755560167454], [71.89490550318573, 34.46167020395541], [71.89486090267886, 34.46171675108595], [71.89482129570659, 34.4617929892588]]]]}, "properties": {"id": "Pakistan_123102132_606776", "height": 4.572713851928711, "hmax": 0.0, "ratio": 0.0, "vulnClass": "none"}}, {"type": "Feature", "geometry": {"type": "MultiPolygon", "coordinates": [[[[71.8950835109284, 34.4621083665168], [71.89505683890265, 34.46215563992762], [71.89509653770682, 34.46217089047159], [71.89512320971639, 34.46212361705123], [71.8950835109284, 34.4621083665168]]]]}, "properties": {"id": "Pakistan_123102132_247095", "height": 2.546349048614502, "hmax": 0.0, "ratio": 0.0, "vulnClass": "none"}}, {"type": "Feature", "geometry": {"type": "MultiPolygon", "coordinates": [[[[71.89547321643356, 34.4622371610811], [71.89539581414982, 34.46240536726697], [71.89549671858651, 34.46243695565691], [71.8955150649518, 34.46239704179849], [71.89556659436637, 34.46241313374052], [71.89561641922116, 34.46230488692036], [71.89551788001798, 34.46227407983327], [71.89555705259052, 34.4621889972075], [71.89548196406757, 34.4621655462948], [71.89549380362294, 34.462139708272666], [71.8954407690053, 34.46212312736852], [71.89545414203592, 34.46209408349253], [71.89541423103402, 34.46208162183784], [71.8954418081918, 34.46202166239349], [71.89526118779497, 34.46196524340891], [71.89522709707721, 34.46203945872854], [71.89531530897642, 34.46206702906362], [71.89526677658945, 34.46217269471525], [71.89547321643356, 34.4622371610811]]]]}, "properties": {"id": "Pakistan_123102132_425818", "height": 3.223631381988525, "hmax": 0.0, "ratio": 0.0, "vulnClass": "none"}}, {"type": "Feature", "geometry": {"type": "MultiPolygon", "coordinates": [[[[71.89643915728838, 34.46195994197936], [71.8963660900328, 34.46211987650898], [71.89652961539115, 34.46217072179932], [71.89646649109058, 34.4623090063776], [71.89677515195227, 34.462404821139785], [71.89682987636616, 34.46228471038891], [71.89679609533681, 34.462274207629164], [71.89681859310308, 34.46222502505434], [71.89671993808255, 34.462194396255924], [71.89673758814149, 34.462155636248816], [71.8966624959243, 34.46213227609609], [71.89670370562611, 34.46204210716421], [71.89643915728838, 34.46195994197936]]]]}, "properties": {"id": "Pakistan_123102132_207234", "height": 2.771548271179199, "hmax": 0.0, "ratio": 0.0, "vulnClass": "none"}}, {"type": "Feature", "geometry": {"type": "MultiPolygon", "coordinates": [[[[71.89612146774554, 34.46294505990549], [71.89636930885162, 34.462990657337635], [71.89637901465217, 34.462954850209016], [71.89655681546441, 34.46298758072716], [71.89657560657655, 34.46291802375939], [71.89656133889511, 34.46291540782684], [71.89659361429199, 34.46279616888191], [71.8958286967175, 34.46265531745895], [71.89580639047645, 34.46273749390752], [71.89597100343866, 34.46276781695729], [71.89594843314842, 34.46285124860506], [71.89613747370042, 34.462886068095195], [71.89612146774554, 34.46294505990549]]]]}, "properties": {"id": "Pakistan_123102132_404160", "height": 3.400486946105957, "hmax": 0.0, "ratio": 0.0, "vulnClass": "none"}}, {"type": "Feature", "geometry": {"type": "MultiPolygon", "coordinates": [[[[71.89547778541683, 34.46256906213489], [71.89538371627862, 34.46253214928877], [71.8952703299104, 34.46272873428821], [71.89536439920585, 34.46276564723], [71.89547778541683, 34.46256906213489]]]]}, "properties": {"id": "Pakistan_123102132_487415", "height": 3.258653163909912, "hmax": 0.0, "ratio": 0.0, "vulnClass": "none"}}, {"type": "Feature", "geometry": {"type": "MultiPolygon", "coordinates": [[[[71.89546130584407, 34.46300498405476], [71.89565905328281, 34.46304858840252], [71.89570047000265, 34.46292056865683], [71.89568449619952, 34.46291700790963], [71.8957205118636, 34.46280552573507], [71.89574155878708, 34.462810206908586], [71.89576502018315, 34.46273797462731], [71.89569485938709, 34.46272249078455], [71.89573565217815, 34.46259661838306], [71.89557546991496, 34.46256126999157], [71.89547287013312, 34.462877918063285], [71.8955003935478, 34.4628840257995], [71.89546130584407, 34.46300498405476]]]]}, "properties": {"id": "Pakistan_123102132_148327", "height": 3.72091007232666, "hmax": 0.0, "ratio": 0.0, "vulnClass": "none"}}, {"type": "Feature", "geometry": {"type": "MultiPolygon", "coordinates": [[[[71.89511399364488, 34.46255143119337], [71.89508456098439, 34.46259097299135], [71.89518379291152, 34.462641267083946], [71.89521333426629, 34.4626017280247], [71.89511399364488, 34.46255143119337]]]]}, "properties": {"id": "Pakistan_123102132_274806", "height": 3.68718695640564, "hmax": 0.0, "ratio": 0.0, "vulnClass": "none"}}, {"type": "Feature", "geometry": {"type": "MultiPolygon", "coordinates": [[[[71.89480577152665, 34.46261705417478], [71.89476055823236, 34.46268305470205], [71.89506757816065, 34.462826062491274], [71.89509323768738, 34.462788497864636], [71.89521733054833, 34.462846274217064], [71.89528808429003, 34.46274297621882], [71.89526166095283, 34.462730677126935], [71.8952846663061, 34.46269719116424], [71.89522165814107, 34.46266782791724], [71.89520555305027, 34.46269130410266], [71.8950489402433, 34.46261836957357], [71.89499083967375, 34.46270324117358], [71.89480577152665, 34.46261705417478]]]]}, "properties": {"id": "Pakistan_123102132_22239", "height": 3.655217170715332, "hmax": 0.0, "ratio": 0.0, "vulnClass": "none"}}, {"type": "Feature", "geometry": {"type": "MultiPolygon", "coordinates": [[[[71.89288348903581, 34.46261250845302], [71.89311020896517, 34.46266415488122], [71.89313320947265, 34.46259560695397], [71.8929064930476, 34.46254387052789], [71.89288348903581, 34.46261250845302]]]]}, "properties": {"id": "Pakistan_123102132_493529", "height": 2.618366241455078, "hmax": 0.0, "ratio": 0.0, "vulnClass": "none"}}, {"type": "Feature", "geometry": {"type": "MultiPolygon", "coordinates": [[[[71.89327048641337, 34.462391700007124], [71.89305913240183, 34.46230132649462], [71.89301461073777, 34.46237212105867], [71.8932259648679, 34.46246249465449], [71.89327048641337, 34.462391700007124]]]]}, "properties": {"id": "Pakistan_123102132_16042", "height": 2.82137393951416, "hmax": 0.0, "ratio": 0.0, "vulnClass": "none"}}, {"type": "Feature", "geometry": {"type": "MultiPolygon", "coordinates": [[[[71.89386975167022, 34.46113875209303], [71.89391158505106, 34.46114630573542], [71.89390501704632, 34.46117083551904], [71.89396392770071, 34.46118152750637], [71.89399226625149, 34.46107462773853], [71.89389151898548, 34.461056472185206], [71.89386975167022, 34.46113875209303]]]]}, "properties": {"id": "Pakistan_123102132_25268", "height": 3.945088386535645, "hmax": 0.0, "ratio": 0.0, "vulnClass": "none"}}, {"type": "Feature", "geometry": {"type": "MultiPolygon", "coordinates": [[[[71.8939593921444, 34.46127452100448], [71.89395129162511, 34.46129342348045], [71.8940776846394, 34.46133016796448], [71.8940970980701, 34.46128496353387], [71.89403508411993, 34.46126698193147], [71.89404771313198, 34.46123746862296], [71.89393241137411, 34.461203890498226], [71.89390847268537, 34.461259615669604], [71.8939593921444, 34.46127452100448]]]]}, "properties": {"id": "Pakistan_123102132_508914", "height": 2.816747188568115, "hmax": 0.0, "ratio": 0.0, "vulnClass": "none"}}, {"type": "Feature", "geometry": {"type": "MultiPolygon", "coordinates": [[[[71.89160030059458, 34.46236209009294], [71.89175636402614, 34.46249666686213], [71.89181801700501, 34.46244812130824], [71.89166206561222, 34.46231345733437], [71.89160030059458, 34.46236209009294]]]]}, "properties": {"id": "Pakistan_123102132_606751", "height": 3.491994619369507, "hmax": 0.0, "ratio": 0.0, "vulnClass": "none"}}, {"type": "Feature", "geometry": {"type": "MultiPolygon", "coordinates": [[[[71.89154841675125, 34.46222358505489], [71.89159805405008, 34.462182124788555], [71.8916687223009, 34.462239626473476], [71.8917264445454, 34.46219143158718], [71.89152520863539, 34.462027853512836], [71.89141795782918, 34.46211751128591], [71.89154841675125, 34.46222358505489]]]]}, "properties": {"id": "Pakistan_123102132_585192", "height": 2.885850429534912, "hmax": 0.0, "ratio": 0.0, "vulnClass": "none"}}, {"type": "Feature", "geometry": {"type": "MultiPolygon", "coordinates": [[[[71.89139422226341, 34.46271323579844], [71.89124479938445, 34.46265778527381], [71.8912070867988, 34.46272685963321], [71.89135650976883, 34.4627823102088], [71.89139422226341, 34.46271323579844]]]]}, "properties": {"id": "Pakistan_123102132_166917", "height": 3.920157909393311, "hmax": 0.0, "ratio": 0.0, "vulnClass": "none"}}, {"type": "Feature", "geometry": {"type": "MultiPolygon", "coordinates": [[[[71.89429599487941, 34.46363423745006], [71.89452350349387, 34.4636705785526], [71.89453603548412, 34.46361726725645], [71.89447253340046, 34.46360708968114], [71.89449981282596, 34.46349060864997], [71.89439790524392, 34.46347431675087], [71.89438407569008, 34.46353327350199], [71.89432197705011, 34.46352340194338], [71.89429599487941, 34.46363423745006]]]]}, "properties": {"id": "Pakistan_123102132_59155", "height": 3.720551490783691, "hmax": 0.0, "ratio": 0.0, "vulnClass": "none"}}, {"type": "Feature", "geometry": {"type": "MultiPolygon", "coordinates": [[[[71.89453546661137, 34.46363555007528], [71.89452030671451, 34.46366581027235], [71.89455007529246, 34.463675941234605], [71.8945652318431, 34.463645771082916], [71.89453546661137, 34.46363555007528]]]]}, "properties": {"id": "Pakistan_123102132_256302", "height": 3.028443813323975, "hmax": 0.0, "ratio": 0.0, "vulnClass": "none"}}, {"type": "Feature", "geometry": {"type": "MultiPolygon", "coordinates": [[[[71.88867033234705, 34.46285000739398], [71.88863407251237, 34.462897485687094], [71.88871777360288, 34.462940989734356], [71.88878789303494, 34.46284912663516], [71.88879066957853, 34.462850549383475], [71.88883173627842, 34.462796703832254], [71.88876073876912, 34.462759832899124], [71.88872620010507, 34.462804921446995], [71.88867815592144, 34.46277999214445], [71.88863766282964, 34.462833041047105], [71.88867033234705, 34.46285000739398]]]]}, "properties": {"id": "Pakistan_123102132_71290", "height": 2.967066049575806, "hmax": 0.0, "ratio": 0.0, "vulnClass": "none"}}, {"type": "Feature", "geometry": {"type": "MultiPolygon", "coordinates": [[[[71.88736167620546, 34.46255310761838], [71.88745945281934, 34.46259850353336], [71.88750296053689, 34.462534625632536], [71.88740518062313, 34.46248931980372], [71.88736167620546, 34.46255310761838]]]]}, "properties": {"id": "Pakistan_123102132_271678", "height": 3.100843667984009, "hmax": 0.0, "ratio": 0.0, "vulnClass": "none"}}, {"type": "Feature", "geometry": {"type": "MultiPolygon", "coordinates": [[[[71.88805256238511, 34.46187695147534], [71.88791364896937, 34.46181698764638], [71.88787123083321, 34.46188377777982], [71.88801014432181, 34.46194374166087], [71.88805256238511, 34.46187695147534]]]]}, "properties": {"id": "Pakistan_123102132_548485", "height": 2.877858877182007, "hmax": 0.0, "ratio": 0.0, "vulnClass": "none"}}, {"type": "Feature", "geometry": {"type": "MultiPolygon", "coordinates": [[[[71.88982935367291, 34.46109523185565], [71.88966708216097, 34.461016648310526], [71.8896436603473, 34.461049581754914], [71.88980593523885, 34.46112807528396], [71.88982935367291, 34.46109523185565]]]]}, "properties": {"id": "Pakistan_123102132_222392", "height": 2.479186058044434, "hmax": 0.0, "ratio": 0.0, "vulnClass": "none"}}, {"type": "Feature", "geometry": {"type": "MultiPolygon", "coordinates": [[[[71.88930949486988, 34.46146524258094], [71.88916203092289, 34.46140695519535], [71.8891306443879, 34.46146095733689], [71.88927810840221, 34.461519244763956], [71.88930949486988, 34.46146524258094]]]]}, "properties": {"id": "Pakistan_123102132_166899", "height": 3.063020944595337, "hmax": 0.0, "ratio": 0.0, "vulnClass": "none"}}, {"type": "Feature", "geometry": {"type": "MultiPolygon", "coordinates": [[[[71.89027333949372, 34.4609984668701], [71.89012217743846, 34.460937202186045], [71.89008179704892, 34.46100485625814], [71.89023295584677, 34.461066211045875], [71.89027333949372, 34.4609984668701]]]]}, "properties": {"id": "Pakistan_123102132_425769", "height": 3.913688182830811, "hmax": 0.0, "ratio": 0.0, "vulnClass": "none"}}, {"type": "Feature", "geometry": {"type": "MultiPolygon", "coordinates": [[[[71.88997648086348, 34.46046190940504], [71.8898311185568, 34.4603939418753], [71.8898045544182, 34.46043238366222], [71.8900096012192, 34.46052828045558], [71.89007355699455, 34.46043526805672], [71.89011409538669, 34.46045423706495], [71.89013710202526, 34.46042075213988], [71.89008639936455, 34.46039710773263], [71.89010940599628, 34.46036362281225], [71.8900598825447, 34.460340459094056], [71.88997648086348, 34.46046190940504]]]]}, "properties": {"id": "Pakistan_123102132_9877", "height": 2.583707809448242, "hmax": 0.0, "ratio": 0.0, "vulnClass": "none"}}, {"type": "Feature", "geometry": {"type": "MultiPolygon", "coordinates": [[[[71.88927565492713, 34.46073825894802], [71.88904646787769, 34.46060965820932], [71.8889959861093, 34.46067092546072], [71.88922517657726, 34.460799436248934], [71.88927565492713, 34.46073825894802]]]]}, "properties": {"id": "Pakistan_123102132_296275", "height": 4.020418167114258, "hmax": 0.0, "ratio": 0.0, "vulnClass": "none"}}, {"type": "Feature", "geometry": {"type": "MultiPolygon", "coordinates": [[[[71.88784180001707, 34.46024447767375], [71.8876098283958, 34.46005325021138], [71.88749240894258, 34.460150036361696], [71.88746559127384, 34.460127900950226], [71.88739520871769, 34.46018586616686], [71.88756688952733, 34.46032742585781], [71.88769564736116, 34.460221284226314], [71.8877828611684, 34.46029318050599], [71.88784180001707, 34.46024447767375]]]]}, "properties": {"id": "Pakistan_123102132_603627", "height": 3.335051536560059, "hmax": 0.0, "ratio": 0.0, "vulnClass": "none"}}, {"type": "Feature", "geometry": {"type": "MultiPolygon", "coordinates": [[[[71.88320274853751, 34.458021182001715], [71.88318015162318, 34.45794705588817], [71.88302377451255, 34.45797947919738], [71.88300969604116, 34.45793378243595], [71.88296945023866, 34.45794212924064], [71.88295140699103, 34.45788308157067], [71.88314682380367, 34.4578425511197], [71.88313178543673, 34.457793404777085], [71.8828644271102, 34.457848954162884], [71.88287450719478, 34.45788220051684], [71.88283053169157, 34.457891353425076], [71.88288999394138, 34.45808602845612], [71.88320274853751, 34.458021182001715]]]]}, "properties": {"id": "Pakistan_123102132_422629", "height": 2.734190225601196, "hmax": 0.0, "ratio": 0.0, "vulnClass": "none"}}, {"type": "Feature", "geometry": {"type": "MultiPolygon", "coordinates": [[[[71.89418228729433, 34.45961793051665], [71.89411177365137, 34.45967075876857], [71.89433338107982, 34.459871895885385], [71.89440389477245, 34.45981906750847], [71.89418228729433, 34.45961793051665]]]]}, "properties": {"id": "Pakistan_123102132_357905", "height": 3.603278160095215, "hmax": 0.0, "ratio": 0.0, "vulnClass": "none"}}, {"type": "Feature", "geometry": {"type": "MultiPolygon", "coordinates": [[[[71.89434751727609, 34.4594670109043], [71.89422338754211, 34.459565976658205], [71.89436410542291, 34.459685918616955], [71.89448823519085, 34.45958695272214], [71.89434751727609, 34.4594670109043]]]]}, "properties": {"id": "Pakistan_123102132_533331", "height": 2.520582914352417, "hmax": 0.0, "ratio": 0.0, "vulnClass": "none"}}, {"type": "Feature", "geometry": {"type": "MultiPolygon", "coordinates": [[[[71.89565204111545, 34.45934622706042], [71.89569260095833, 34.45942044722066], [71.8958219171923, 34.45937235745503], [71.89574955641952, 34.45924009363726], [71.89564925955102, 34.45927738374444], [71.89568095160783, 34.45933542469903], [71.89565204111545, 34.45934622706042]]]]}, "properties": {"id": "Pakistan_123102132_594446", "height": 2.83198356628418, "hmax": 0.0, "ratio": 0.0, "vulnClass": "none"}}, {"type": "Feature", "geometry": {"type": "MultiPolygon", "coordinates": [[[[71.8958292730922, 34.45963790035813], [71.89590967421687, 34.45980281690889], [71.89610687800203, 34.45973752404711], [71.89611062363167, 34.459745100404405], [71.8961720977744, 34.45972476005285], [71.89614458512212, 34.459668447852806], [71.89617686587, 34.45965773102837], [71.89615057776781, 34.459603613178615], [71.89600834747974, 34.459650744129156], [71.89597810979072, 34.45958868416359], [71.8958292730922, 34.45963790035813]]]]}, "properties": {"id": "Pakistan_123102132_188634", "height": 2.999380826950073, "hmax": 0.0, "ratio": 0.0, "vulnClass": "none"}}, {"type": "Feature", "geometry": {"type": "MultiPolygon", "coordinates": [[[[71.89679096239085, 34.4598360290144], [71.89657697179341, 34.459905042612114], [71.89658655608841, 34.459925386153124], [71.89648049807424, 34.45995955609469], [71.8965199610447, 34.46004285171521], [71.8966516802764, 34.46000041048893], [71.89671627949824, 34.46013662278638], [71.89679304551734, 34.46011180342599], [71.89676942676965, 34.46006198984546], [71.89682284464968, 34.46004468930567], [71.89680285955173, 34.46000253935768], [71.89686101222453, 34.45998373668519], [71.89679096239085, 34.4598360290144]]]]}, "properties": {"id": "Pakistan_123102132_46769", "height": 4.093799591064453, "hmax": 0.0, "ratio": 0.0, "vulnClass": "none"}}, {"type": "Feature", "geometry": {"type": "MultiPolygon", "coordinates": [[[[71.89627567430597, 34.45996615861384], [71.89627221772444, 34.45992433849711], [71.89617615510738, 34.459929558610256], [71.89617950292431, 34.45997137596415], [71.89627567430597, 34.45996615861384]]]]}, "properties": {"id": "Pakistan_123102132_468718", "height": 3.239220380783081, "hmax": 0.0, "ratio": 0.0, "vulnClass": "none"}}, {"type": "Feature", "geometry": {"type": "MultiPolygon", "coordinates": [[[[71.89606703002707, 34.4606017122893], [71.89607585581295, 34.46063077963497], [71.89616928348308, 34.46061152181293], [71.8961420197051, 34.4605220464429], [71.8959149117167, 34.46056909315481], [71.89592510602932, 34.460602341479344], [71.89600833959831, 34.460585078044055], [71.89601658644953, 34.46061214772068], [71.89606703002707, 34.4606017122893]]]]}, "properties": {"id": "Pakistan_123102132_465774", "height": 3.337393283843994, "hmax": 0.0, "ratio": 0.0, "vulnClass": "none"}}, {"type": "Feature", "geometry": {"type": "MultiPolygon", "coordinates": [[[[71.89593688172705, 34.46074270975978], [71.89598224855402, 34.46082525425248], [71.89619819099251, 34.46074475417897], [71.8961880984599, 34.460726380651536], [71.89627041913955, 34.46069557366509], [71.89623514460942, 34.46063140279086], [71.89593688172705, 34.46074270975978]]]]}, "properties": {"id": "Pakistan_123102132_308782", "height": 3.843724966049194, "hmax": 0.0, "ratio": 0.0, "vulnClass": "none"}}, {"type": "Feature", "geometry": {"type": "MultiPolygon", "coordinates": [[[[71.89624362330977, 34.46098710869371], [71.89639276379671, 34.46119415214059], [71.89658973739303, 34.461337874635646], [71.89651388164066, 34.46140859541826], [71.8968921507674, 34.46168455484275], [71.89684504483148, 34.46170769423601], [71.89695926872835, 34.46179099651191], [71.89702443601892, 34.46175912225803], [71.89706347608903, 34.461657000303596], [71.89715512998796, 34.46172386527642], [71.89720234457576, 34.4617007285215], [71.89722222067003, 34.46164886534951], [71.89707090897589, 34.461538572144114], [71.89696240584038, 34.46159169870209], [71.89701589946002, 34.461451907238626], [71.8969775405702, 34.461423982398465], [71.89691459600743, 34.4614076010182], [71.89687830469107, 34.46144138068217], [71.89690076931595, 34.4614724169452], [71.89682507051774, 34.46150952174426], [71.89677029056374, 34.46146955223879], [71.89683701647901, 34.46140734235648], [71.89675520968837, 34.46138606502703], [71.89689744480272, 34.461253666167444], [71.89682433366973, 34.46120034168137], [71.89664146348537, 34.46128988548305], [71.89652605981614, 34.46112975836361], [71.89645335839249, 34.46119758483296], [71.89652758328977, 34.46100342851532], [71.89657852815772, 34.46095596033746], [71.8964696082019, 34.46087639790422], [71.89624362330977, 34.46098710869371]]]]}, "properties": {"id": "Pakistan_123102132_435102", "height": 5.295583248138428, "hmax": 0.0, "ratio": 0.0, "vulnClass": "none"}}, {"type": "Feature", "geometry": {"type": "MultiPolygon", "coordinates": [[[[71.8955779305165, 34.46049184531014], [71.89564833984541, 34.46065623763736], [71.89571984344109, 34.460635431399076], [71.8957257539821, 34.460649191940036], [71.89589901194397, 34.460598793952464], [71.89582269160483, 34.46042064120811], [71.8955779305165, 34.46049184531014]]]]}, "properties": {"id": "Pakistan_123102132_22248", "height": 4.303642272949219, "hmax": 0.0, "ratio": 0.0, "vulnClass": "none"}}, {"type": "Feature", "geometry": {"type": "MultiPolygon", "coordinates": [[[[71.89564157409211, 34.460192684325364], [71.89571921137372, 34.460399893946935], [71.89592244600819, 34.460348094629246], [71.89584480491516, 34.460140975160584], [71.89564157409211, 34.460192684325364]]]]}, "properties": {"id": "Pakistan_123102132_105011", "height": 4.596100807189941, "hmax": 0.0, "ratio": 0.0, "vulnClass": "none"}}, {"type": "Feature", "geometry": {"type": "MultiPolygon", "coordinates": [[[[71.896993058775, 34.45848671236918], [71.89717942707762, 34.45870218185022], [71.89722993064905, 34.45867245862988], [71.89710753000182, 34.45853090230925], [71.89723723549297, 34.458454608750024], [71.89717337640917, 34.45838069848853], [71.896993058775, 34.45848671236918]]]]}, "properties": {"id": "Pakistan_123102132_444287", "height": 3.175695657730103, "hmax": 0.0, "ratio": 0.0, "vulnClass": "none"}}]}