{"type": "FeatureCollection", "features": [{"type": "Feature", "geometry": {"type": "MultiPolygon", "coordinates": [[[[72.18339029353976, 34.472957308468295], [72.18336766338324, 34.47283401206534], [72.18318489970147, 34.47285702004021], [72.18320098881163, 34.47294500991733], [72.18334013879242, 34.47292748635479], [72.18334667962932, 34.47296279289664], [72.18339029353976, 34.472957308468295]]]]}, "properties": {"id": "8J6JF5FM+583M", "height": 2.503449440002441, "hmax": 0.0, "ratio": 0.0, "vulnClass": "none"}}]}