{"type": "FeatureCollection", "features": [{"type": "Feature", "geometry": {"type": "MultiPolygon", "coordinates": [[[[72.33557088463087, 34.15753022092054], [72.33557629934252, 34.15767881655175], [72.3359193592141, 34.15767022105171], [72.33591621958666, 34.157583788592746], [72.33580096427937, 34.157586604224846], [72.33580260559587, 34.15763099396512], [72.33573824909841, 34.15763257111584], [72.33573443779815, 34.15752611063643], [72.33557088463087, 34.15753022092054]]]]}, "properties": {"id": "Pakistan_123102310_642343", "height": 2.572066068649292, "hmax": 0.0, "ratio": 0.0, "vulnClass": "none"}}, {"type": "Feature", "geometry": {"type": "MultiPolygon", "coordinates": [[[[72.33946916888371, 34.157624662064435], [72.33940622678924, 34.157626091522445], [72.33940836274151, 34.157689333485344], [72.33960793474252, 34.15768473717042], [72.33960485826906, 34.15759271673664], [72.33946822855843, 34.157595883598276], [72.33946916888371, 34.157624662064435]]]]}, "properties": {"id": "Pakistan_123102310_396236", "height": 2.562998056411743, "hmax": 0.0, "ratio": 0.0, "vulnClass": "none"}}, {"type": "Feature", "geometry": {"type": "MultiPolygon", "coordinates": [[[[72.34323939242151, 34.15669840314153], [72.34337343626433, 34.1567015767328], [72.34337668057053, 34.156608431059894], [72.34331101474125, 34.15660682858114], [72.34330943436106, 34.15665033719325], [72.34324116765151, 34.15664867834614], [72.34323939242151, 34.15669840314153]]]]}, "properties": {"id": "Pakistan_123102310_609190", "height": 3.913813829421997, "hmax": 0.0, "ratio": 0.0, "vulnClass": "none"}}, {"type": "Feature", "geometry": {"type": "MultiPolygon", "coordinates": [[[[72.3436162282149, 34.15707221602403], [72.34338256950782, 34.15708491546445], [72.34338911467704, 34.15716673384558], [72.34343180552295, 34.15716441299014], [72.34343861091585, 34.15724831047339], [72.34368693666896, 34.15723475659541], [72.34367939455595, 34.15713975461591], [72.34362192877516, 34.15714292755829], [72.3436162282149, 34.15707221602403]]]]}, "properties": {"id": "Pakistan_123102310_16724", "height": 3.67387843132019, "hmax": 0.0, "ratio": 0.0, "vulnClass": "none"}}, {"type": "Feature", "geometry": {"type": "MultiPolygon", "coordinates": [[[[72.3437779878602, 34.15711493454191], [72.34377742886531, 34.157070478085416], [72.34363392065534, 34.15707169765701], [72.34363448239782, 34.157116064020926], [72.3437779878602, 34.15711493454191]]]]}, "properties": {"id": "Pakistan_123102310_851166", "height": 3.731496810913086, "hmax": 0.0, "ratio": 0.0, "vulnClass": "none"}}, {"type": "Feature", "geometry": {"type": "MultiPolygon", "coordinates": [[[[72.3423400099415, 34.15707765730187], [72.34234287561938, 34.1571419067424], [72.3425023328815, 34.15713697743752], [72.34250143985595, 34.15711703476789], [72.34255897163267, 34.157115216043714], [72.34255699882885, 34.15707090927028], [72.3423400099415, 34.15707765730187]]]]}, "properties": {"id": "Pakistan_123102310_330090", "height": 3.574975252151489, "hmax": 0.0, "ratio": 0.0, "vulnClass": "none"}}, {"type": "Feature", "geometry": {"type": "MultiPolygon", "coordinates": [[[[72.3423420199, 34.15707580768357], [72.34222801824704, 34.15707324750691], [72.34222275415489, 34.15723423287923], [72.34233664765421, 34.157236790722976], [72.3423420199, 34.15707580768357]]]]}, "properties": {"id": "Pakistan_123102310_794465", "height": 5.114848136901855, "hmax": 0.0, "ratio": 0.0, "vulnClass": "none"}}, {"type": "Feature", "geometry": {"type": "MultiPolygon", "coordinates": [[[[72.34218601193805, 34.1572923953786], [72.34183026707842, 34.15733553180584], [72.34187181682145, 34.15757019311549], [72.34201104616882, 34.157553286832126], [72.34198579902412, 34.15741084245097], [72.34220242634899, 34.15738452451924], [72.34218601193805, 34.1572923953786]]]]}, "properties": {"id": "Pakistan_123102310_215202", "height": 2.455807447433472, "hmax": 0.0, "ratio": 0.0, "vulnClass": "none"}}, {"type": "Feature", "geometry": {"type": "MultiPolygon", "coordinates": [[[[72.34255150829378, 34.15743977746318], [72.34243355963235, 34.15743857436775], [72.34243292092563, 34.15747624355353], [72.34255097518508, 34.15747753908941], [72.34255150829378, 34.15743977746318]]]]}, "properties": {"id": "Pakistan_123102310_922159", "height": 3.376590728759766, "hmax": 0.0, "ratio": 0.0, "vulnClass": "none"}}, {"type": "Feature", "geometry": {"type": "MultiPolygon", "coordinates": [[[[72.34235132235487, 34.157318695117816], [72.34235273864653, 34.15738074953541], [72.34257798240583, 34.15737706516234], [72.34257646040336, 34.157314918302184], [72.34235132235487, 34.157318695117816]]]]}, "properties": {"id": "Pakistan_123102310_391464", "height": 3.677681922912598, "hmax": 0.0, "ratio": 0.0, "vulnClass": "none"}}, {"type": "Feature", "geometry": {"type": "MultiPolygon", "coordinates": [[[[72.34270354584018, 34.157315237378626], [72.34270461967232, 34.15724638544255], [72.34236140035124, 34.157242826214784], [72.34236032906493, 34.157311588045175], [72.34270354584018, 34.157315237378626]]]]}, "properties": {"id": "Pakistan_123102310_244571", "height": 4.701892375946045, "hmax": 0.0, "ratio": 0.0, "vulnClass": "none"}}, {"type": "Feature", "geometry": {"type": "MultiPolygon", "coordinates": [[[[72.3430538320721, 34.15739088905912], [72.3430762097572, 34.15753498397781], [72.34304715639216, 34.157538141004174], [72.34308920569565, 34.15780887311903], [72.34320269049468, 34.15779681689633], [72.34316704191961, 34.15756751251105], [72.34319348029523, 34.15756474957151], [72.34316470414203, 34.15737913686727], [72.3430538320721, 34.15739088905912]]]]}, "properties": {"id": "Pakistan_123102310_306330", "height": 3.14561653137207, "hmax": 0.0, "ratio": 0.0, "vulnClass": "none"}}, {"type": "Feature", "geometry": {"type": "MultiPolygon", "coordinates": [[[[72.343398803008, 34.157438928641675], [72.34339517208214, 34.15734716663972], [72.34352107293982, 34.157343763030404], [72.34351808234419, 34.15726616857159], [72.34329297931153, 34.15727229180293], [72.34329970888835, 34.15744165060439], [72.343398803008, 34.157438928641675]]]]}, "properties": {"id": "Pakistan_123102310_637737", "height": 3.311770915985107, "hmax": 0.0, "ratio": 0.0, "vulnClass": "none"}}, {"type": "Feature", "geometry": {"type": "MultiPolygon", "coordinates": [[[[72.34352631939926, 34.15763659630989], [72.34332454144204, 34.15764583908693], [72.34332947860783, 34.1577201401224], [72.34368644241202, 34.15770389069798], [72.34368068831844, 34.15761758192071], [72.34352560835458, 34.1576246810052], [72.34352631939926, 34.15763659630989]]]]}, "properties": {"id": "Pakistan_123102310_358430", "height": 2.851795434951782, "hmax": 0.0, "ratio": 0.0, "vulnClass": "none"}}, {"type": "Feature", "geometry": {"type": "MultiPolygon", "coordinates": [[[[72.34070369822902, 34.157403157358964], [72.3407094020656, 34.15757393634212], [72.3407871022173, 34.15757219509743], [72.34078488414205, 34.15750462411613], [72.34085857172705, 34.15750288598679], [72.34085662132189, 34.1574440654284], [72.34106433185211, 34.157439282548374], [72.34106279613982, 34.15739489509638], [72.34070369822902, 34.157403157358964]]]]}, "properties": {"id": "Pakistan_123102310_448199", "height": 3.259610891342163, "hmax": 0.0, "ratio": 0.0, "vulnClass": "none"}}, {"type": "Feature", "geometry": {"type": "MultiPolygon", "coordinates": [[[[72.33992185277646, 34.15744020505169], [72.33992386570783, 34.157552306031256], [72.33998017176411, 34.15755154375588], [72.33997916054776, 34.15749391552539], [72.34011324955733, 34.157492225557064], [72.3401142203378, 34.15754768929491], [72.34018397837067, 34.15754676786997], [72.34018200279684, 34.1574369214637], [72.33992185277646, 34.15744020505169]]]]}, "properties": {"id": "Pakistan_123102310_884370", "height": 2.454663753509521, "hmax": 0.0, "ratio": 0.0, "vulnClass": "none"}}, {"type": "Feature", "geometry": {"type": "MultiPolygon", "coordinates": [[[[72.34680640362733, 34.15768550097244], [72.34680325586217, 34.157543535384235], [72.34674163105656, 34.15754445620682], [72.34674328064207, 34.157619948182635], [72.34639739835028, 34.15762517741568], [72.34639889333447, 34.15769174110604], [72.34680640362733, 34.15768550097244]]]]}, "properties": {"id": "Pakistan_123102310_818247", "height": 2.67556357383728, "hmax": 0.0, "ratio": 0.0, "vulnClass": "none"}}, {"type": "Feature", "geometry": {"type": "MultiPolygon", "coordinates": [[[[72.3466484884655, 34.15747482829992], [72.34665248180814, 34.15754126573383], [72.34678223804431, 34.157535958850154], [72.3467782445996, 34.15746952141562], [72.3466484884655, 34.15747482829992]]]]}, "properties": {"id": "Pakistan_123102310_452928", "height": 2.568346977233887, "hmax": 0.0, "ratio": 0.0, "vulnClass": "none"}}, {"type": "Feature", "geometry": {"type": "MultiPolygon", "coordinates": [[[[72.34644478235894, 34.157296250240734], [72.34639119967655, 34.15729662365676], [72.34639275626567, 34.15744089874302], [72.34680038058224, 34.15743790649739], [72.34679943265787, 34.15734692374241], [72.34644539149568, 34.15734954259086], [72.34644478235894, 34.157296250240734]]]]}, "properties": {"id": "Pakistan_123102310_926911", "height": 3.90956974029541, "hmax": 0.0, "ratio": 0.0, "vulnClass": "none"}}, {"type": "Feature", "geometry": {"type": "MultiPolygon", "coordinates": [[[[72.34598674981474, 34.157610433291936], [72.34598910835072, 34.157503925994526], [72.34589523724085, 34.157502616126365], [72.3458929869574, 34.15760912576128], [72.34598674981474, 34.157610433291936]]]]}, "properties": {"id": "Pakistan_123102310_187863", "height": 2.653964042663574, "hmax": 0.0, "ratio": 0.0, "vulnClass": "none"}}, {"type": "Feature", "geometry": {"type": "MultiPolygon", "coordinates": [[[[72.34408952328297, 34.157056771666646], [72.3440011051379, 34.15705449661577], [72.34399880703738, 34.15711746227992], [72.34408722807038, 34.157119647245835], [72.34408952328297, 34.157056771666646]]]]}, "properties": {"id": "Pakistan_123102310_476800", "height": 3.648778915405273, "hmax": 0.0, "ratio": 0.0, "vulnClass": "none"}}, {"type": "Feature", "geometry": {"type": "MultiPolygon", "coordinates": [[[[72.34409189962437, 34.157164373051025], [72.34413482243409, 34.15716503194949], [72.34413738422836, 34.157045186819396], [72.34409456984861, 34.157044530271094], [72.34409189962437, 34.157164373051025]]]]}, "properties": {"id": "Pakistan_123102310_486162", "height": 4.057236194610596, "hmax": 0.0, "ratio": 0.0, "vulnClass": "none"}}, {"type": "Feature", "geometry": {"type": "MultiPolygon", "coordinates": [[[[72.3440336333449, 34.15659083403056], [72.34403550643198, 34.156641809804455], [72.34419232808115, 34.156637903014136], [72.34419045772181, 34.15658683714843], [72.3440336333449, 34.15659083403056]]]]}, "properties": {"id": "Pakistan_123102310_296838", "height": 3.510254621505737, "hmax": 0.0, "ratio": 0.0, "vulnClass": "none"}}, {"type": "Feature", "geometry": {"type": "MultiPolygon", "coordinates": [[[[72.34590374210468, 34.15710974235367], [72.34610056600515, 34.157102822174664], [72.3460938157508, 34.15697204750686], [72.34589698933455, 34.156979057779296], [72.34590374210468, 34.15710974235367]]]]}, "properties": {"id": "Pakistan_123102310_775693", "height": 3.902550458908081, "hmax": 0.0, "ratio": 0.0, "vulnClass": "none"}}, {"type": "Feature", "geometry": {"type": "MultiPolygon", "coordinates": [[[[72.34606741027447, 34.15735479773561], [72.34606594408476, 34.157394702850546], [72.34613561754709, 34.157396480724955], [72.346139631247, 34.157285591833634], [72.34595206556097, 34.15728081246711], [72.34595611734154, 34.15717217818191], [72.3459024799714, 34.1571708373361], [72.34589588037824, 34.15735045537587], [72.34606741027447, 34.15735479773561]]]]}, "properties": {"id": "Pakistan_123102310_27329", "height": 4.399161338806152, "hmax": 0.0, "ratio": 0.0, "vulnClass": "none"}}, {"type": "Feature", "geometry": {"type": "MultiPolygon", "coordinates": [[[[72.34680387113868, 34.15719818061815], [72.34680676492263, 34.157116115743236], [72.34652534570563, 34.157109487508414], [72.34652245165015, 34.15719155236394], [72.34680387113868, 34.15719818061815]]]]}, "properties": {"id": "Pakistan_123102310_490887", "height": 2.859542369842529, "hmax": 0.0, "ratio": 0.0, "vulnClass": "none"}}, {"type": "Feature", "geometry": {"type": "MultiPolygon", "coordinates": [[[[72.34653771165895, 34.157199455142454], [72.3465353690664, 34.15723618603016], [72.34661962442135, 34.15723981162473], [72.3466219697975, 34.15720299064381], [72.34653771165895, 34.157199455142454]]]]}, "properties": {"id": "Pakistan_123102310_903398", "height": 2.668007373809814, "hmax": 0.0, "ratio": 0.0, "vulnClass": "none"}}, {"type": "Feature", "geometry": {"type": "MultiPolygon", "coordinates": [[[[72.3471730035479, 34.156470713170506], [72.34717077752052, 34.1564032321452], [72.346968387705, 34.1564078700874], [72.34697061639014, 34.15647526101882], [72.3471730035479, 34.156470713170506]]]]}, "properties": {"id": "Pakistan_123102310_358456", "height": 3.441615104675293, "hmax": 0.0, "ratio": 0.0, "vulnClass": "none"}}, {"type": "Feature", "geometry": {"type": "MultiPolygon", "coordinates": [[[[72.3471338182975, 34.15651349876655], [72.34713293771385, 34.156475796640734], [72.34691311724673, 34.15647951661074], [72.3469179205446, 34.15667254343849], [72.34700634855723, 34.156671030249434], [72.34700253395151, 34.15651570788343], [72.3471338182975, 34.15651349876655]]]]}, "properties": {"id": "Pakistan_123102310_339537", "height": 3.021325588226318, "hmax": 0.0, "ratio": 0.0, "vulnClass": "none"}}, {"type": "Feature", "geometry": {"type": "MultiPolygon", "coordinates": [[[[72.34512720700413, 34.146494345897956], [72.34523443760119, 34.14649107698426], [72.34523641193921, 34.14653538383724], [72.34527928309282, 34.146534057758835], [72.34528027791934, 34.14655769884201], [72.34534453189912, 34.14655566347918], [72.34534289060143, 34.14651803500558], [72.34530924664111, 34.146519019865835], [72.34530668905202, 34.14646216940601], [72.34544061748585, 34.146458125750506], [72.34543867123924, 34.14641291799568], [72.34512403132243, 34.146422607150804], [72.34512720700413, 34.146494345897956]]]]}, "properties": {"id": "Pakistan_123102310_637747", "height": 4.179342269897461, "hmax": 0.0, "ratio": 0.0, "vulnClass": "none"}}, {"type": "Feature", "geometry": {"type": "MultiPolygon", "coordinates": [[[[72.34645310512136, 34.14789359713674], [72.34645620157393, 34.14799562488594], [72.34651381581057, 34.14799443698111], [72.34651072210741, 34.147892319140055], [72.34645310512136, 34.14789359713674]]]]}, "properties": {"id": "Pakistan_123102310_452926", "height": 2.511438131332397, "hmax": 0.0, "ratio": 0.0, "vulnClass": "none"}}, {"type": "Feature", "geometry": {"type": "MultiPolygon", "coordinates": [[[[72.34630788294022, 34.14775604079465], [72.3464899815573, 34.147761602345064], [72.34649295699872, 34.14769423375658], [72.34618498078517, 34.1476848674902], [72.34618182626033, 34.14775448596581], [72.34618854443869, 34.147754631293175], [72.34617404774666, 34.14808273774303], [72.34618607268021, 34.14808308801857], [72.34618312233455, 34.14814964577369], [72.3462955671619, 34.14815306980014], [72.34630268765487, 34.14799482853912], [72.34629727257244, 34.14799462125398], [72.34630788294022, 34.14775604079465]]]]}, "properties": {"id": "Pakistan_123102310_235263", "height": 2.810216665267944, "hmax": 0.0, "ratio": 0.0, "vulnClass": "none"}}, {"type": "Feature", "geometry": {"type": "MultiPolygon", "coordinates": [[[[72.34599926569626, 34.14760431178586], [72.34599610942468, 34.14767744610419], [72.34604962398359, 34.147679054553606], [72.34605288856676, 34.14760592257584], [72.34599926569626, 34.14760431178586]]]]}, "properties": {"id": "Pakistan_123102310_367898", "height": 3.953771114349365, "hmax": 0.0, "ratio": 0.0, "vulnClass": "none"}}, {"type": "Feature", "geometry": {"type": "MultiPolygon", "coordinates": [[[[72.34583623657991, 34.14785212572773], [72.34617151703183, 34.14785523206205], [72.3461728491153, 34.147760692492135], [72.34613122565426, 34.14776024283869], [72.34613208460205, 34.147698147389676], [72.3460529525156, 34.14769742720987], [72.3460518587364, 34.14778088336005], [72.34583722867133, 34.14777885444627], [72.34583623657991, 34.14785212572773]]]]}, "properties": {"id": "Pakistan_123102310_694919", "height": 4.614463329315186, "hmax": 0.0, "ratio": 0.0, "vulnClass": "none"}}, {"type": "Feature", "geometry": {"type": "MultiPolygon", "coordinates": [[[[72.3458693592645, 34.14769805309549], [72.34593101071533, 34.147696051293266], [72.3459299677829, 34.14767394173983], [72.34590456981358, 34.14767474454177], [72.34589992438615, 34.14757719082991], [72.34581819305639, 34.147579840005854], [72.34582231834716, 34.14766629389481], [72.34586779911952, 34.147664753630686], [72.3458693592645, 34.14769805309549]]]]}, "properties": {"id": "Pakistan_123102310_315841", "height": 3.195132493972778, "hmax": 0.0, "ratio": 0.0, "vulnClass": "none"}}, {"type": "Feature", "geometry": {"type": "MultiPolygon", "coordinates": [[[[72.34704284377712, 34.14784568002627], [72.34687405599591, 34.147840948064584], [72.34687234293541, 34.14788183957387], [72.3469554393853, 34.14788408737688], [72.34695165820487, 34.14797722174735], [72.346867264186, 34.14797485572666], [72.34686197682971, 34.148105730787556], [72.34718894000262, 34.148114784755975], [72.34719012901711, 34.14808370836809], [72.34711775981798, 34.14808169269063], [72.34711957986718, 34.14803737775122], [72.34703518577592, 34.14803501184312], [72.34704284377712, 34.14784568002627]]]]}, "properties": {"id": "Pakistan_123102310_391506", "height": 3.017796039581299, "hmax": 0.0, "ratio": 0.0, "vulnClass": "none"}}, {"type": "Feature", "geometry": {"type": "MultiPolygon", "coordinates": [[[[72.34735785241318, 34.14725587221294], [72.34736103078525, 34.14730678611486], [72.34744539344386, 34.14730320113282], [72.34744221502095, 34.14725228723068], [72.34735785241318, 34.14725587221294]]]]}, "properties": {"id": "Pakistan_123102310_281524", "height": 2.658450126647949, "hmax": 0.0, "ratio": 0.0, "vulnClass": "none"}}, {"type": "Feature", "geometry": {"type": "MultiPolygon", "coordinates": [[[[72.34722565553474, 34.14728078026397], [72.34725770108606, 34.147282374701405], [72.34726166898974, 34.14722485399573], [72.34722962345995, 34.147223259560356], [72.34722565553474, 34.14728078026397]]]]}, "properties": {"id": "Pakistan_123102310_349076", "height": 2.462436199188232, "hmax": 0.0, "ratio": 0.0, "vulnClass": "none"}}, {"type": "Feature", "geometry": {"type": "MultiPolygon", "coordinates": [[[[72.34723801108863, 34.14689619270791], [72.34723762878745, 34.1468494862094], [72.34718936780664, 34.14684979491331], [72.3471890287886, 34.14681210445363], [72.34714608293977, 34.146812347770535], [72.34714607477079, 34.14680567641801], [72.34701192213019, 34.14680647164215], [72.34701132568352, 34.14673541973867], [72.34688530553558, 34.146736210388994], [72.3468865307801, 34.14687380733989], [72.34706352103943, 34.14687276664339], [72.34706373250103, 34.146897202143144], [72.34723801108863, 34.14689619270791]]]]}, "properties": {"id": "Pakistan_123102310_604498", "height": 2.769138813018799, "hmax": 0.0, "ratio": 0.0, "vulnClass": "none"}}, {"type": "Feature", "geometry": {"type": "MultiPolygon", "coordinates": [[[[72.34724413121761, 34.14692932031976], [72.34720928388346, 34.14693064028206], [72.34721458661446, 34.14702802790089], [72.34687729897199, 34.1470406575258], [72.34688144977746, 34.14711593323791], [72.34725347395077, 34.147102071401285], [72.34724413121761, 34.14692932031976]]]]}, "properties": {"id": "Pakistan_123102310_818251", "height": 2.701376914978027, "hmax": 0.0, "ratio": 0.0, "vulnClass": "none"}}, {"type": "Feature", "geometry": {"type": "MultiPolygon", "coordinates": [[[[72.345820982488, 34.1470334050927], [72.34586121104324, 34.14703337390968], [72.3458611790905, 34.14695124566808], [72.34582095057425, 34.14695127685294], [72.345820982488, 34.1470334050927]]]]}, "properties": {"id": "Pakistan_123102310_889099", "height": 4.139257431030273, "hmax": 0.0, "ratio": 0.0, "vulnClass": "none"}}, {"type": "Feature", "geometry": {"type": "MultiPolygon", "coordinates": [[[[72.34586045900663, 34.14704354470142], [72.34583229752289, 34.14704257483747], [72.34583053646482, 34.147078056226356], [72.3458586979603, 34.14707902609126], [72.34586045900663, 34.14704354470142]]]]}, "properties": {"id": "Pakistan_123102310_879629", "height": 2.926101446151733, "hmax": 0.0, "ratio": 0.0, "vulnClass": "none"}}, {"type": "Feature", "geometry": {"type": "MultiPolygon", "coordinates": [[[[72.34605808233849, 34.14701725881744], [72.34605417829162, 34.147128150233854], [72.34610510321855, 34.14712934202521], [72.34611040237371, 34.146980797669094], [72.34603802854514, 34.14697896157949], [72.34603663051908, 34.147016704602144], [72.34605808233849, 34.14701725881744]]]]}, "properties": {"id": "Pakistan_123102310_103043", "height": 2.483298540115356, "hmax": 0.0, "ratio": 0.0, "vulnClass": "none"}}, {"type": "Feature", "geometry": {"type": "MultiPolygon", "coordinates": [[[[72.34604415219722, 34.147455451886344], [72.34612178801315, 34.14745893437889], [72.34612476260219, 34.14741239066434], [72.3460472351858, 34.14740891051975], [72.34604415219722, 34.147455451886344]]]]}, "properties": {"id": "Pakistan_123102310_63512", "height": 2.640213012695312, "hmax": 0.0, "ratio": 0.0, "vulnClass": "none"}}, {"type": "Feature", "geometry": {"type": "MultiPolygon", "coordinates": [[[[72.34608380448097, 34.14723823443337], [72.3458533347093, 34.147233068246635], [72.34585176862666, 34.1472796424244], [72.34608234688162, 34.14728481096408], [72.34608380448097, 34.14723823443337]]]]}, "properties": {"id": "Pakistan_123102310_666365", "height": 2.998468637466431, "hmax": 0.0, "ratio": 0.0, "vulnClass": "none"}}, {"type": "Feature", "geometry": {"type": "MultiPolygon", "coordinates": [[[[72.34584524844286, 34.14743600347059], [72.34591491089746, 34.14743787117686], [72.34591662599999, 34.14739346384596], [72.34584696076213, 34.14739168623235], [72.34584524844286, 34.14743600347059]]]]}, "properties": {"id": "Pakistan_123102310_92210", "height": 3.255436182022095, "hmax": 0.0, "ratio": 0.0, "vulnClass": "none"}}, {"type": "Feature", "geometry": {"type": "MultiPolygon", "coordinates": [[[[72.3459225457853, 34.14740179565437], [72.34592129833835, 34.147438189665024], [72.34601784468704, 34.14744027831263], [72.34601898091601, 34.14740397204495], [72.3459225457853, 34.14740179565437]]]]}, "properties": {"id": "Pakistan_123102310_272971", "height": 3.155519962310791, "hmax": 0.0, "ratio": 0.0, "vulnClass": "none"}}, {"type": "Feature", "geometry": {"type": "MultiPolygon", "coordinates": [[[[72.34580899957795, 34.14755484958593], [72.34611041944925, 34.14757967107631], [72.34612419123683, 34.14746529693564], [72.34603918307732, 34.147458319371765], [72.34603361631913, 34.147504536553065], [72.34570829489677, 34.14747775533889], [72.3457037204998, 34.1475165114398], [72.34581263054186, 34.14752544877101], [72.34580899957795, 34.14755484958593]]]]}, "properties": {"id": "Pakistan_123102310_44904", "height": 4.189276695251465, "hmax": 0.0, "ratio": 0.0, "vulnClass": "none"}}, {"type": "Feature", "geometry": {"type": "MultiPolygon", "coordinates": [[[[72.34559269511993, 34.14739501982566], [72.34560023629585, 34.14735154991874], [72.3455004188519, 34.14733965386129], [72.34549578036038, 34.14736659878843], [72.34546682806234, 34.14736317765029], [72.34544501518532, 34.1474884662736], [72.34556471132377, 34.14750268566666], [72.34557146702811, 34.14746352601433], [72.34550438019193, 34.14745558357587], [72.34551653453057, 34.1473859795591], [72.34559269511993, 34.14739501982566]]]]}, "properties": {"id": "Pakistan_123102310_169197", "height": 7.700329303741455, "hmax": 0.0, "ratio": 0.0, "vulnClass": "none"}}, {"type": "Feature", "geometry": {"type": "MultiPolygon", "coordinates": [[[[72.34475697575273, 34.14731680409045], [72.344759908259, 34.14752096931867], [72.34513541356725, 34.147517196075114], [72.34513418760002, 34.14743513216835], [72.34483243888364, 34.14743815782201], [72.34483062351707, 34.147316054137974], [72.34475697575273, 34.14731680409045]]]]}, "properties": {"id": "Pakistan_123102310_566603", "height": 3.555338144302368, "hmax": 0.0, "ratio": 0.0, "vulnClass": "none"}}, {"type": "Feature", "geometry": {"type": "MultiPolygon", "coordinates": [[[[72.34482801983381, 34.14715679119597], [72.34496463806612, 34.14716037898591], [72.34496621262461, 34.14712047618581], [72.34482948609957, 34.147116886055485], [72.34482801983381, 34.14715679119597]]]]}, "properties": {"id": "Pakistan_123102310_65035", "height": 3.758634805679321, "hmax": 0.0, "ratio": 0.0, "vulnClass": "none"}}, {"type": "Feature", "geometry": {"type": "MultiPolygon", "coordinates": [[[[72.34566388031254, 34.14725123663862], [72.34579116599184, 34.14725507234563], [72.34579306966641, 34.14721157060657], [72.3456657840521, 34.1472077349046], [72.34566388031254, 34.14725123663862]]]]}, "properties": {"id": "Pakistan_123102310_325398", "height": 2.951114416122437, "hmax": 0.0, "ratio": 0.0, "vulnClass": "none"}}, {"type": "Feature", "geometry": {"type": "MultiPolygon", "coordinates": [[[[72.34563808072564, 34.14702584188893], [72.3456422835933, 34.147106347498465], [72.34576809475185, 34.14710185743034], [72.34576389458395, 34.147021261729485], [72.34563808072564, 34.14702584188893]]]]}, "properties": {"id": "Pakistan_123102310_690129", "height": 5.192543506622314, "hmax": 0.0, "ratio": 0.0, "vulnClass": "none"}}, {"type": "Feature", "geometry": {"type": "MultiPolygon", "coordinates": [[[[72.34545319613838, 34.147088553270585], [72.34560602717667, 34.14709032752642], [72.34560673457604, 34.147050405947724], [72.34556381401848, 34.147049837894684], [72.34556663845282, 34.146883390145334], [72.34545672825949, 34.146882183959484], [72.34545319613838, 34.147088553270585]]]]}, "properties": {"id": "Pakistan_123102310_794490", "height": 2.975648403167725, "hmax": 0.0, "ratio": 0.0, "vulnClass": "none"}}, {"type": "Feature", "geometry": {"type": "MultiPolygon", "coordinates": [[[[72.3458051665054, 34.146714198872395], [72.34572741015097, 34.14671459008103], [72.34572718013621, 34.14667690199156], [72.34563326745254, 34.146677304195855], [72.34563568882848, 34.14701911896468], [72.34574565278658, 34.14701861328893], [72.3457453063576, 34.14697425150917], [72.34580701206356, 34.14697396379846], [72.3458051665054, 34.146714198872395]]]]}, "properties": {"id": "Pakistan_123102310_874892", "height": 5.340257167816162, "hmax": 0.0, "ratio": 0.0, "vulnClass": "none"}}, {"type": "Feature", "geometry": {"type": "MultiPolygon", "coordinates": [[[[72.34561966133877, 34.146623550276765], [72.34572951763585, 34.14662646801059], [72.34572846912624, 34.1466530398674], [72.34580474066419, 34.14665505060981], [72.3458083767213, 34.14655965937513], [72.34574553861154, 34.14655802942368], [72.34574683805882, 34.14652343955716], [72.34562365691401, 34.14652014339322], [72.34561966133877, 34.146623550276765]]]]}, "properties": {"id": "Pakistan_123102310_216371", "height": 3.894744873046875, "hmax": 0.0, "ratio": 0.0, "vulnClass": "none"}}, {"type": "Feature", "geometry": {"type": "MultiPolygon", "coordinates": [[[[72.34529582671773, 34.14666369224674], [72.34545138561982, 34.14666489464719], [72.34545271162833, 34.14654285890968], [72.3453775898313, 34.14654222509373], [72.34537742703705, 34.14655781769073], [72.3452487519329, 34.1465568363455], [72.34524732529316, 34.146685541067654], [72.34511854164973, 34.14668455723194], [72.34511802609855, 34.14673566167599], [72.34514220083946, 34.14673582422], [72.34514167728882, 34.14678025731919], [72.345203360273, 34.146780690625306], [72.34520274724807, 34.14683837398202], [72.34529391451643, 34.14683908466742], [72.34529582671773, 34.14666369224674]]]]}, "properties": {"id": "Pakistan_123102310_65047", "height": 3.964762210845947, "hmax": 0.0, "ratio": 0.0, "vulnClass": "none"}}, {"type": "Feature", "geometry": {"type": "MultiPolygon", "coordinates": [[[[72.34511063084985, 34.14673982888647], [72.34510890374955, 34.14648673773223], [72.34495447789509, 34.146487452596354], [72.3449554266548, 34.14660953754081], [72.34502656469657, 34.14660927404588], [72.34502726036649, 34.146708274865404], [72.3449709755123, 34.14670858935277], [72.34497116898699, 34.146740506982255], [72.34511063084985, 34.14673982888647]]]]}, "properties": {"id": "Pakistan_123102310_7318", "height": 3.569404125213623, "hmax": 0.0, "ratio": 0.0, "vulnClass": "none"}}, {"type": "Feature", "geometry": {"type": "MultiPolygon", "coordinates": [[[[72.34442533349566, 34.14689979953714], [72.34436226721165, 34.14689852453461], [72.34436012712405, 34.146970328514705], [72.34442319346132, 34.14697160352084], [72.34442533349566, 34.14689979953714]]]]}, "properties": {"id": "Pakistan_123102310_367890", "height": 3.006418228149414, "hmax": 0.0, "ratio": 0.0, "vulnClass": "none"}}, {"type": "Feature", "geometry": {"type": "MultiPolygon", "coordinates": [[[[72.34399283990919, 34.14684680393303], [72.34384536973194, 34.14684352102522], [72.34384001191101, 34.14700766002608], [72.34398737401625, 34.147010940607856], [72.34399283990919, 34.14684680393303]]]]}, "properties": {"id": "Pakistan_123102310_149326", "height": 4.79638671875, "hmax": 0.0, "ratio": 0.0, "vulnClass": "none"}}, {"type": "Feature", "geometry": {"type": "MultiPolygon", "coordinates": [[[[72.3439928492561, 34.146763414516165], [72.34399906964457, 34.14697333042006], [72.34417060703426, 34.14696983193577], [72.34417030391991, 34.14695873680795], [72.34429898121466, 34.14695620346258], [72.34429810964733, 34.14692517267009], [72.34421500137049, 34.14692679932321], [72.34421406212263, 34.14689793068834], [72.34417923174092, 34.14689870924847], [72.34417805992207, 34.1468564932391], [72.34419411641734, 34.14685620977367], [72.34419298241403, 34.14681624835628], [72.34417681474868, 34.14681661956608], [72.34417512759703, 34.1467596977963], [72.3439928492561, 34.146763414516165]]]]}, "properties": {"id": "Pakistan_123102310_599802", "height": 4.79638671875, "hmax": 0.0, "ratio": 0.0, "vulnClass": "none"}}, {"type": "Feature", "geometry": {"type": "MultiPolygon", "coordinates": [[[[72.34432833001084, 34.14703698296747], [72.34432877874374, 34.14696379011255], [72.34418393823864, 34.146963088757694], [72.34418348938071, 34.147036281606205], [72.34432833001084, 34.14703698296747]]]]}, "properties": {"id": "Pakistan_123102310_235219", "height": 3.00368595123291, "hmax": 0.0, "ratio": 0.0, "vulnClass": "none"}}, {"type": "Feature", "geometry": {"type": "MultiPolygon", "coordinates": [[[[72.34415915693954, 34.146999604325366], [72.34415811896424, 34.1469738888365], [72.34411405849634, 34.14697509861808], [72.34411509363683, 34.147000904196545], [72.34415915693954, 34.146999604325366]]]]}, "properties": {"id": "Pakistan_123102310_751990", "height": 2.639551401138306, "hmax": 0.0, "ratio": 0.0, "vulnClass": "none"}}, {"type": "Feature", "geometry": {"type": "MultiPolygon", "coordinates": [[[[72.34470659123251, 34.147094032386306], [72.34438957933942, 34.14706165790592], [72.34438285365698, 34.14710676809429], [72.34469986571389, 34.1471391425997], [72.34470659123251, 34.147094032386306]]]]}, "properties": {"id": "Pakistan_123102310_822845", "height": 5.78177547454834, "hmax": 0.0, "ratio": 0.0, "vulnClass": "none"}}, {"type": "Feature", "geometry": {"type": "MultiPolygon", "coordinates": [[[[72.34434930353582, 34.14741291566151], [72.34457453171424, 34.147415807613136], [72.34457673671135, 34.14730037197441], [72.34435150883911, 34.14729748004127], [72.34434930353582, 34.14741291566151]]]]}, "properties": {"id": "Pakistan_123102310_344260", "height": 2.442389488220215, "hmax": 0.0, "ratio": 0.0, "vulnClass": "none"}}, {"type": "Feature", "geometry": {"type": "MultiPolygon", "coordinates": [[[[72.34657998724443, 34.148773240209486], [72.34658239295123, 34.14887308938482], [72.34666289130755, 34.14887176532786], [72.34666343051579, 34.148896117756884], [72.34677604268906, 34.14889422607831], [72.3467729919733, 34.14876993203238], [72.34657998724443, 34.148773240209486]]]]}, "properties": {"id": "Pakistan_123102310_178509", "height": 3.610246419906616, "hmax": 0.0, "ratio": 0.0, "vulnClass": "none"}}, {"type": "Feature", "geometry": {"type": "MultiPolygon", "coordinates": [[[[72.34706308896033, 34.148775574694454], [72.34730706478311, 34.1487720156541], [72.34730254938903, 34.14855240031256], [72.34717118029958, 34.148554247490566], [72.34717384861426, 34.14868385218485], [72.34706124516025, 34.14868547397236], [72.34706308896033, 34.148775574694454]]]]}, "properties": {"id": "Pakistan_123102310_794511", "height": 3.736332416534424, "hmax": 0.0, "ratio": 0.0, "vulnClass": "none"}}, {"type": "Feature", "geometry": {"type": "MultiPolygon", "coordinates": [[[[72.34697505791763, 34.14948901911837], [72.3469707576856, 34.149293749226636], [72.34689557700253, 34.14929491802633], [72.34689795329804, 34.14939918396104], [72.34675583837515, 34.14940133916865], [72.3467578703452, 34.149492345458725], [72.34697505791763, 34.14948901911837]]]]}, "properties": {"id": "Pakistan_123102310_315853", "height": 3.94260311126709, "hmax": 0.0, "ratio": 0.0, "vulnClass": "none"}}, {"type": "Feature", "geometry": {"type": "MultiPolygon", "coordinates": [[[[72.34502297034491, 34.1521994559032], [72.34501852535304, 34.15210938909725], [72.34505608389362, 34.15210812849195], [72.34505195218385, 34.152025370689124], [72.3449699970187, 34.152028104493624], [72.34497137273554, 34.15205689240741], [72.34490179068196, 34.15205926290157], [72.34490431455711, 34.152110252788034], [72.34495685260394, 34.15210850506635], [72.34495960402788, 34.152166080893146], [72.34491140611699, 34.15216774224985], [72.34491524246756, 34.15224607626573], [72.34516436795325, 34.1522376749125], [72.34516224022676, 34.152194807183264], [72.34502297034491, 34.1521994559032]]]]}, "properties": {"id": "Pakistan_123102310_860610", "height": 3.845231533050537, "hmax": 0.0, "ratio": 0.0, "vulnClass": "none"}}, {"type": "Feature", "geometry": {"type": "MultiPolygon", "coordinates": [[[[72.34519573412388, 34.15246535371057], [72.3451888298626, 34.15223910581476], [72.34513793974983, 34.15224016809112], [72.34514170689424, 34.15236573968208], [72.34499261514684, 34.15236891368376], [72.34499564640736, 34.1524694975453], [72.34519573412388, 34.15246535371057]]]]}, "properties": {"id": "Pakistan_123102310_405716", "height": 3.788559436798096, "hmax": 0.0, "ratio": 0.0, "vulnClass": "none"}}, {"type": "Feature", "geometry": {"type": "MultiPolygon", "coordinates": [[[[72.34747426151799, 34.15169435945181], [72.34746533226858, 34.15162276680335], [72.34742814819438, 34.15162592942201], [72.34742250253043, 34.15158109246112], [72.34750480929812, 34.15157403735671], [72.34749949840545, 34.151532362920975], [72.34730313594243, 34.15154921227253], [72.34732302146341, 34.15170731632882], [72.34747426151799, 34.15169435945181]]]]}, "properties": {"id": "Pakistan_123102310_500271", "height": 2.455519437789917, "hmax": 0.0, "ratio": 0.0, "vulnClass": "none"}}, {"type": "Feature", "geometry": {"type": "MultiPolygon", "coordinates": [[[[72.34711931451314, 34.15496358090885], [72.34705766620678, 34.15496531278887], [72.34706070239989, 34.15504155598686], [72.34722415133213, 34.15503715750342], [72.34721890671952, 34.15490326010078], [72.34730345423347, 34.154900941523685], [72.34730200351915, 34.1548641285701], [72.34711565285838, 34.15486920384657], [72.34711931451314, 34.15496358090885]]]]}, "properties": {"id": "Pakistan_123102310_472009", "height": 3.262140512466431, "hmax": 0.0, "ratio": 0.0, "vulnClass": "none"}}, {"type": "Feature", "geometry": {"type": "MultiPolygon", "coordinates": [[[[72.34493867469398, 34.15607204588198], [72.34487170595297, 34.156070506200145], [72.34486752261608, 34.156190226138285], [72.34505509418126, 34.15619473677914], [72.34505792184325, 34.15611483416685], [72.34493731640512, 34.156111953312426], [72.34493867469398, 34.15607204588198]]]]}, "properties": {"id": "Pakistan_123102310_315835", "height": 2.654418468475342, "hmax": 0.0, "ratio": 0.0, "vulnClass": "none"}}, {"type": "Feature", "geometry": {"type": "MultiPolygon", "coordinates": [[[[72.33761396750762, 34.154346197475505], [72.33743702949583, 34.15434163589762], [72.33743268709358, 34.15445918827341], [72.33756021632863, 34.15446249718585], [72.33756182783041, 34.15441808787883], [72.33761123399668, 34.15441943064946], [72.33761396750762, 34.154346197475505]]]]}, "properties": {"id": "Pakistan_123102310_301472", "height": 2.819967269897461, "hmax": 0.0, "ratio": 0.0, "vulnClass": "none"}}, {"type": "Feature", "geometry": {"type": "MultiPolygon", "coordinates": [[[[72.33915281435449, 34.15474055027131], [72.33914163661119, 34.15443677034176], [72.33897668052018, 34.15444085490401], [72.33897787603722, 34.15447531841128], [72.33907858923807, 34.154472725133516], [72.33908595486083, 34.1546733801021], [72.33882983520947, 34.15467981413646], [72.338832340139, 34.15474856331817], [72.33915281435449, 34.15474055027131]]]]}, "properties": {"id": "Pakistan_123102310_690085", "height": 3.494124412536621, "hmax": 0.0, "ratio": 0.0, "vulnClass": "none"}}, {"type": "Feature", "geometry": {"type": "MultiPolygon", "coordinates": [[[[72.33881593694441, 34.1545007437695], [72.3388269285348, 34.15454786059131], [72.3389861585732, 34.15452237645412], [72.33897516689564, 34.15447525964238], [72.33881593694441, 34.1545007437695]]]]}, "properties": {"id": "Pakistan_123102310_263449", "height": 3.67936372756958, "hmax": 0.0, "ratio": 0.0, "vulnClass": "none"}}, {"type": "Feature", "geometry": {"type": "MultiPolygon", "coordinates": [[[[72.339418123158, 34.155187682848734], [72.33941568844493, 34.15511668142536], [72.33917445039813, 34.15512226696012], [72.33917688490853, 34.15519326837867], [72.339418123158, 34.155187682848734]]]]}, "properties": {"id": "Pakistan_123102310_912766", "height": 2.580754041671753, "hmax": 0.0, "ratio": 0.0, "vulnClass": "none"}}, {"type": "Feature", "geometry": {"type": "MultiPolygon", "coordinates": [[[[72.33923730939756, 34.15422852394829], [72.33914633799662, 34.15424205661346], [72.33915703950477, 34.15429151103753], [72.33924800813084, 34.154278068456335], [72.33923730939756, 34.15422852394829]]]]}, "properties": {"id": "Pakistan_123102310_604432", "height": 2.944043636322021, "hmax": 0.0, "ratio": 0.0, "vulnClass": "none"}}, {"type": "Feature", "geometry": {"type": "MultiPolygon", "coordinates": [[[[72.33961710937945, 34.15370523270213], [72.33946371765228, 34.15372786935763], [72.33948530376989, 34.15382786394202], [72.33963869284914, 34.15380531735754], [72.33961710937945, 34.15370523270213]]]]}, "properties": {"id": "Pakistan_123102310_519420", "height": 2.594431161880493, "hmax": 0.0, "ratio": 0.0, "vulnClass": "none"}}, {"type": "Feature", "geometry": {"type": "MultiPolygon", "coordinates": [[[[72.3396767389631, 34.15347060139823], [72.33968411827966, 34.15362248513521], [72.33982339038475, 34.15361784260641], [72.33982112779734, 34.15357244771452], [72.3397648988358, 34.153574293465475], [72.33976229985763, 34.153518884545115], [72.33973114553527, 34.153519921789176], [72.3397287331613, 34.1534689343017], [72.3396767389631, 34.15347060139823]]]]}, "properties": {"id": "Pakistan_123102310_140707", "height": 2.838736772537231, "hmax": 0.0, "ratio": 0.0, "vulnClass": "none"}}, {"type": "Feature", "geometry": {"type": "MultiPolygon", "coordinates": [[[[72.33639976158004, 34.153173032000595], [72.33640376643085, 34.153321687245736], [72.33653244741674, 34.153319342701565], [72.33652946423958, 34.15321064638155], [72.3366849477205, 34.15320771165787], [72.33668551147403, 34.15322773734568], [72.33674453499705, 34.15322667488233], [72.33674294639837, 34.1531667803487], [72.33639976158004, 34.153173032000595]]]]}, "properties": {"id": "Pakistan_123102310_16612", "height": 2.820576906204224, "hmax": 0.0, "ratio": 0.0, "vulnClass": "none"}}, {"type": "Feature", "geometry": {"type": "MultiPolygon", "coordinates": [[[[72.33967318184206, 34.15352867148616], [72.3396717702138, 34.15346652700907], [72.33973078831076, 34.15346564329278], [72.33972967913556, 34.15341459391586], [72.33967066107422, 34.15341547763332], [72.3396697055382, 34.15337335651232], [72.33953734842616, 34.15337535417534], [72.33953566834309, 34.15330103352548], [72.33947773683437, 34.15330185056619], [72.33948278445644, 34.15353148382688], [72.33967318184206, 34.15352867148616]]]]}, "properties": {"id": "Pakistan_123102310_718761", "height": 2.838736772537231, "hmax": 0.0, "ratio": 0.0, "vulnClass": "none"}}, {"type": "Feature", "geometry": {"type": "MultiPolygon", "coordinates": [[[[72.3394905493032, 34.1532494804134], [72.33949153114455, 34.15328384914082], [72.33966047751593, 34.15328039126712], [72.33965938724175, 34.15324602018772], [72.3394905493032, 34.1532494804134]]]]}, "properties": {"id": "Pakistan_123102310_941124", "height": 2.535951614379883, "hmax": 0.0, "ratio": 0.0, "vulnClass": "none"}}, {"type": "Feature", "geometry": {"type": "MultiPolygon", "coordinates": [[[[72.33982067974578, 34.15340701137352], [72.33982178424557, 34.153451299343466], [72.33999071118373, 34.15344847165605], [72.33998684136277, 34.15329531175987], [72.33982322740472, 34.153298164514055], [72.33982429138314, 34.15334028798783], [72.33967423984299, 34.15334289374378], [72.33967583805736, 34.153409459654824], [72.33982067974578, 34.15340701137352]]]]}, "properties": {"id": "Pakistan_123102310_140709", "height": 2.534461975097656, "hmax": 0.0, "ratio": 0.0, "vulnClass": "none"}}, {"type": "Feature", "geometry": {"type": "MultiPolygon", "coordinates": [[[[72.33971540884154, 34.15334063128369], [72.33971258938939, 34.15328188200265], [72.33966873392872, 34.153283364995794], [72.33967155617718, 34.153342024186955], [72.33971540884154, 34.15334063128369]]]]}, "properties": {"id": "Pakistan_123102310_476766", "height": 3.360995054244995, "hmax": 0.0, "ratio": 0.0, "vulnClass": "none"}}, {"type": "Feature", "geometry": {"type": "MultiPolygon", "coordinates": [[[[72.33977416855676, 34.15292288486347], [72.33982505334217, 34.152922005015505], [72.33982371980701, 34.15286427961332], [72.33977272669267, 34.15286515711241], [72.33977416855676, 34.15292288486347]]]]}, "properties": {"id": "Pakistan_123102310_296802", "height": 2.727272510528564, "hmax": 0.0, "ratio": 0.0, "vulnClass": "none"}}, {"type": "Feature", "geometry": {"type": "MultiPolygon", "coordinates": [[[[72.33982543341897, 34.15274053978404], [72.33975372125842, 34.15273474757312], [72.33974808270834, 34.152783126402205], [72.33981979490899, 34.1527889186183], [72.33982543341897, 34.15274053978404]]]]}, "properties": {"id": "Pakistan_123102310_120994", "height": 2.692558288574219, "hmax": 0.0, "ratio": 0.0, "vulnClass": "none"}}, {"type": "Feature", "geometry": {"type": "MultiPolygon", "coordinates": [[[[72.33960758617044, 34.15293396684381], [72.33964124751579, 34.15275971425054], [72.33958368763331, 34.15275215539048], [72.3395656964929, 34.152845161386345], [72.33951764146461, 34.152838800288514], [72.33950197392927, 34.152919956767235], [72.33960758617044, 34.15293396684381]]]]}, "properties": {"id": "Pakistan_123102310_44834", "height": 2.55154275894165, "hmax": 0.0, "ratio": 0.0, "vulnClass": "none"}}, {"type": "Feature", "geometry": {"type": "MultiPolygon", "coordinates": [[[[72.33970713002431, 34.15246400612615], [72.33969623850757, 34.15265561073937], [72.339824686848, 34.15266065002245], [72.33983568643966, 34.15246904773416], [72.33970713002431, 34.15246400612615]]]]}, "properties": {"id": "Pakistan_123102310_234194", "height": 3.683109760284424, "hmax": 0.0, "ratio": 0.0, "vulnClass": "none"}}, {"type": "Feature", "geometry": {"type": "MultiPolygon", "coordinates": [[[[72.34047793738975, 34.15334778976405], [72.34059896133536, 34.15333373563724], [72.34059117740144, 34.15328804074739], [72.34043336813451, 34.15330634579001], [72.3404469993037, 34.15338687550414], [72.34048389308927, 34.15338262693069], [72.34047793738975, 34.15334778976405]]]]}, "properties": {"id": "Pakistan_123102310_495599", "height": 4.287237644195557, "hmax": 0.0, "ratio": 0.0, "vulnClass": "none"}}, {"type": "Feature", "geometry": {"type": "MultiPolygon", "coordinates": [[[[72.34038727563771, 34.15311296473121], [72.34056523841598, 34.15309861253713], [72.34056754539156, 34.153118405570495], [72.34072170014548, 34.15310597107307], [72.34071210646327, 34.15302462739887], [72.34080244795369, 34.153017300277085], [72.34079874899365, 34.15298656882727], [72.34037629040225, 34.15302068262574], [72.34038727563771, 34.15311296473121]]]]}, "properties": {"id": "Pakistan_123102310_131023", "height": 3.122724294662476, "hmax": 0.0, "ratio": 0.0, "vulnClass": "none"}}, {"type": "Feature", "geometry": {"type": "MultiPolygon", "coordinates": [[[[72.34001430209639, 34.15299723775871], [72.3399662724256, 34.153000433364376], [72.33996946413906, 34.15303349775205], [72.34001738263837, 34.15303038988576], [72.34001430209639, 34.15299723775871]]]]}, "properties": {"id": "Pakistan_123102310_187779", "height": 4.113512992858887, "hmax": 0.0, "ratio": 0.0, "vulnClass": "none"}}, {"type": "Feature", "geometry": {"type": "MultiPolygon", "coordinates": [[[[72.33998298439894, 34.15307607163414], [72.33999003065625, 34.15321785126662], [72.34005429246179, 34.15321572883373], [72.34005158492482, 34.15316031755847], [72.34016567624198, 34.15315639071682], [72.34016330130919, 34.15310765781001], [72.34021518975082, 34.153105898056964], [72.3402133340796, 34.15306826495295], [72.33998298439894, 34.15307607163414]]]]}, "properties": {"id": "Pakistan_123102310_675901", "height": 3.459598064422607, "hmax": 0.0, "ratio": 0.0, "vulnClass": "none"}}, {"type": "Feature", "geometry": {"type": "MultiPolygon", "coordinates": [[[[72.34039323667565, 34.15321676735539], [72.34030575949694, 34.15321919797938], [72.3403078132161, 34.153271259498794], [72.34033201518166, 34.153270612273445], [72.3403365646794, 34.15338484178133], [72.34040255196786, 34.15338302703181], [72.34039796564274, 34.153269968685606], [72.34039536207474, 34.15327000238878], [72.34039323667565, 34.15321676735539]]]]}, "properties": {"id": "Pakistan_123102310_476768", "height": 4.018128395080566, "hmax": 0.0, "ratio": 0.0, "vulnClass": "none"}}, {"type": "Feature", "geometry": {"type": "MultiPolygon", "coordinates": [[[[72.34032856184157, 34.15329082132239], [72.34020002963082, 34.153295336705575], [72.34020265901994, 34.153346328897435], [72.3403311913083, 34.15334181351519], [72.34032856184157, 34.15329082132239]]]]}, "properties": {"id": "Pakistan_123102310_766269", "height": 3.67402982711792, "hmax": 0.0, "ratio": 0.0, "vulnClass": "none"}}, {"type": "Feature", "geometry": {"type": "MultiPolygon", "coordinates": [[[[72.34000373005975, 34.15346209627129], [72.34000483480715, 34.15353748625715], [72.34017654266565, 34.153535890579214], [72.34017544059154, 34.153460410498205], [72.34000373005975, 34.15346209627129]]]]}, "properties": {"id": "Pakistan_123102310_704348", "height": 3.052465438842773, "hmax": 0.0, "ratio": 0.0, "vulnClass": "none"}}, {"type": "Feature", "geometry": {"type": "MultiPolygon", "coordinates": [[[[72.34140371440117, 34.15372341203938], [72.3414008280116, 34.15367367639817], [72.3414945248527, 34.15367002753374], [72.34149263856186, 34.153636811162286], [72.3413534493269, 34.153642268745216], [72.34135822192579, 34.15372522075723], [72.34140371440117, 34.15372341203938]]]]}, "properties": {"id": "Pakistan_123102310_320648", "height": 2.960735082626343, "hmax": 0.0, "ratio": 0.0, "vulnClass": "none"}}, {"type": "Feature", "geometry": {"type": "MultiPolygon", "coordinates": [[[[72.3416270212604, 34.15387456625486], [72.34162431196023, 34.15378805292995], [72.34122499198952, 34.153796527268355], [72.34122770088096, 34.153883040582755], [72.3416270212604, 34.15387456625486]]]]}, "properties": {"id": "Pakistan_123102310_386750", "height": 3.300115346908569, "hmax": 0.0, "ratio": 0.0, "vulnClass": "none"}}, {"type": "Feature", "geometry": {"type": "MultiPolygon", "coordinates": [[[[72.34255174280928, 34.15274121274512], [72.34255258860657, 34.152783421656984], [72.34261160629184, 34.15278253652967], [72.3426107576415, 34.152740417706475], [72.34255174280928, 34.15274121274512]]]]}, "properties": {"id": "Pakistan_123102310_808764", "height": 2.654021739959717, "hmax": 0.0, "ratio": 0.0, "vulnClass": "none"}}, {"type": "Feature", "geometry": {"type": "MultiPolygon", "coordinates": [[[[72.34265453635327, 34.15253032295347], [72.34265889342574, 34.15263003401183], [72.34255176628487, 34.15263321255619], [72.34255422767987, 34.152689610148165], [72.34275784551893, 34.15268356346999], [72.34274901606261, 34.15248089342638], [72.34255788027295, 34.15248657944566], [72.34255989090664, 34.15253314083277], [72.34265453635327, 34.15253032295347]]]]}, "properties": {"id": "Pakistan_123102310_16706", "height": 4.628169536590576, "hmax": 0.0, "ratio": 0.0, "vulnClass": "none"}}, {"type": "Feature", "geometry": {"type": "MultiPolygon", "coordinates": [[[[72.34265203911191, 34.15255118385188], [72.34254934932831, 34.15255463882135], [72.34255101931231, 34.15258785050522], [72.3426537091363, 34.15258439553625], [72.34265203911191, 34.15255118385188]]]]}, "properties": {"id": "Pakistan_123102310_16704", "height": 4.689586639404297, "hmax": 0.0, "ratio": 0.0, "vulnClass": "none"}}, {"type": "Feature", "geometry": {"type": "MultiPolygon", "coordinates": [[[[72.33700658341385, 34.15131197391978], [72.33700970594504, 34.15141625590948], [72.33660487129646, 34.15142459573853], [72.33660738913056, 34.1515066875273], [72.3371783466123, 34.1514949220207], [72.33717672738419, 34.15143944419188], [72.33706941627332, 34.151441622320505], [72.33706550290437, 34.15131072870742], [72.33719418934896, 34.15130811305471], [72.33719287228206, 34.15126373031997], [72.33691943657854, 34.15126942414591], [72.33691804241806, 34.15122404808044], [72.3368671530469, 34.15122510694716], [72.3368639619347, 34.15111956135736], [72.33680493421978, 34.15112080412657], [72.33680850744967, 34.15123834805381], [72.33648581073365, 34.15124504493413], [72.33648870859737, 34.151342650892964], [72.33654882007573, 34.15134143181073], [72.33654818558925, 34.15132365835], [72.3365964686807, 34.15132272333319], [72.33659752378088, 34.151358175460494], [72.33674769697836, 34.15135503512539], [72.3367464958344, 34.15131732605988], [72.33700658341385, 34.15131197391978]]]]}, "properties": {"id": "Pakistan_123102310_533424", "height": 2.648725032806396, "hmax": 0.0, "ratio": 0.0, "vulnClass": "none"}}, {"type": "Feature", "geometry": {"type": "MultiPolygon", "coordinates": [[[[72.33820891996619, 34.1509767441512], [72.33820960123087, 34.150910137540336], [72.33795213065622, 34.150908156700176], [72.33795144918936, 34.150974763300056], [72.33820891996619, 34.1509767441512]]]]}, "properties": {"id": "Pakistan_123102310_846454", "height": 2.805219650268555, "hmax": 0.0, "ratio": 0.0, "vulnClass": "none"}}, {"type": "Feature", "geometry": {"type": "MultiPolygon", "coordinates": [[[[72.33813123021065, 34.15209400921984], [72.33813395879567, 34.15216943442842], [72.33830010523697, 34.15216528656583], [72.33829737367556, 34.15208995144328], [72.33813123021065, 34.15209400921984]]]]}, "properties": {"id": "Pakistan_123102310_827538", "height": 2.74256420135498, "hmax": 0.0, "ratio": 0.0, "vulnClass": "none"}}, {"type": "Feature", "geometry": {"type": "MultiPolygon", "coordinates": [[[[72.33438600554109, 34.15339595533387], [72.3341125022569, 34.15339668295528], [72.33411266815203, 34.15343968839419], [72.33426286831565, 34.15343925630946], [72.33426308614993, 34.153511651973474], [72.33416385659831, 34.153511929641425], [72.33416436284458, 34.153640675691626], [72.33438700446355, 34.153640104867826], [72.33438600554109, 34.15339595533387]]]]}, "properties": {"id": "Pakistan_123102310_35484", "height": 2.814533948898315, "hmax": 0.0, "ratio": 0.0, "vulnClass": "none"}}, {"type": "Feature", "geometry": {"type": "MultiPolygon", "coordinates": [[[[72.33407784367876, 34.1534401936847], [72.33398499919214, 34.15344088042477], [72.33398675174784, 34.153585159457705], [72.33374432856505, 34.153587192763375], [72.33374329597758, 34.15350278937402], [72.33361183420546, 34.153503898575], [72.33361250623184, 34.15355493841051], [72.3336484087198, 34.15355463698662], [72.33364968198147, 34.153658968883164], [72.3334984806989, 34.153660189798885], [72.33349952292461, 34.15375117438383], [72.33366146093185, 34.15374991639307], [72.3336611004864, 34.15371655284431], [72.33408108061491, 34.15371314987321], [72.33407784367876, 34.1534401936847]]]]}, "properties": {"id": "Pakistan_123102310_158568", "height": 3.447139501571655, "hmax": 0.0, "ratio": 0.0, "vulnClass": "none"}}, {"type": "Feature", "geometry": {"type": "MultiPolygon", "coordinates": [[[[72.3336643177841, 34.15349701596188], [72.33373126970577, 34.15349901210669], [72.33373320541695, 34.15345470009288], [72.33366625353011, 34.15345270395078], [72.3336643177841, 34.15349701596188]]]]}, "properties": {"id": "Pakistan_123102310_367813", "height": 2.535434722900391, "hmax": 0.0, "ratio": 0.0, "vulnClass": "none"}}, {"type": "Feature", "geometry": {"type": "MultiPolygon", "coordinates": [[[[72.33370027603851, 34.15483968884649], [72.33376193893604, 34.15484093898504], [72.33376514686296, 34.154728590950796], [72.33370348121365, 34.1547274309067], [72.33370027603851, 34.15483968884649]]]]}, "properties": {"id": "Pakistan_123102310_704305", "height": 2.808277606964111, "hmax": 0.0, "ratio": 0.0, "vulnClass": "none"}}, {"type": "Feature", "geometry": {"type": "MultiPolygon", "coordinates": [[[[72.33561534305794, 34.15474931927403], [72.33556704953273, 34.15475052407837], [72.33556962980566, 34.1548236922754], [72.33561792337268, 34.15482248747203], [72.33561534305794, 34.15474931927403]]]]}, "properties": {"id": "Pakistan_123102310_130298", "height": 2.848836421966553, "hmax": 0.0, "ratio": 0.0, "vulnClass": "none"}}, {"type": "Feature", "geometry": {"type": "MultiPolygon", "coordinates": [[[[72.33534590363551, 34.154796565373864], [72.3354423936928, 34.154793793212804], [72.33544387888496, 34.15482934481602], [72.33556446299863, 34.15482592396453], [72.33556107654108, 34.15474390349594], [72.33543778057059, 34.15474735559139], [72.33543606861218, 34.1547052180671], [72.3353422934602, 34.15470786889925], [72.33534590363551, 34.154796565373864]]]]}, "properties": {"id": "Pakistan_123102310_827513", "height": 3.302801370620728, "hmax": 0.0, "ratio": 0.0, "vulnClass": "none"}}, {"type": "Feature", "geometry": {"type": "MultiPolygon", "coordinates": [[[[72.3354530511098, 34.15483423188453], [72.33545407091617, 34.154905292720606], [72.33558391231801, 34.15490405625001], [72.33558299793712, 34.15483308785274], [72.3354530511098, 34.15483423188453]]]]}, "properties": {"id": "Pakistan_123102310_846431", "height": 2.657427787780762, "hmax": 0.0, "ratio": 0.0, "vulnClass": "none"}}, {"type": "Feature", "geometry": {"type": "MultiPolygon", "coordinates": [[[[72.33299340711909, 34.15572745044405], [72.33300245141946, 34.15595356432959], [72.33309893707946, 34.15595097425766], [72.33308989535487, 34.15572477027803], [72.33299340711909, 34.15572745044405]]]]}, "properties": {"id": "Pakistan_123102310_433838", "height": 3.333029985427856, "hmax": 0.0, "ratio": 0.0, "vulnClass": "none"}}, {"type": "Feature", "geometry": {"type": "MultiPolygon", "coordinates": [[[[72.33274034920706, 34.15584671652237], [72.33274158883208, 34.15588659001078], [72.33285683038993, 34.155884137505744], [72.33285559354483, 34.155844173927015], [72.33274034920706, 34.15584671652237]]]]}, "properties": {"id": "Pakistan_123102310_836988", "height": 2.666776180267334, "hmax": 0.0, "ratio": 0.0, "vulnClass": "none"}}, {"type": "Feature", "geometry": {"type": "MultiPolygon", "coordinates": [[[[72.33433619665296, 34.142779722655455], [72.33430789259326, 34.142693644798875], [72.33418952357563, 34.142720281724124], [72.33414608619006, 34.14258789814342], [72.33430944066946, 34.14255124028986], [72.33429905488904, 34.14251946188019], [72.3339368518126, 34.14260093096557], [72.333954070818, 34.142653322102646], [72.33406392336425, 34.142628573813575], [72.33408836394037, 34.1427030284782], [72.33399095950477, 34.14272498216043], [72.33396988009969, 34.14266087769886], [72.33385500656811, 34.14268668874949], [72.3338724224136, 34.14273971522916], [72.33390736633854, 34.14273182012113], [72.33392527866772, 34.14278629979437], [72.33401023214857, 34.14276723088509], [72.3340222042012, 34.142803731622756], [72.3339488264374, 34.14282016726176], [72.333963072484, 34.14286365902406], [72.33433619665296, 34.142779722655455]]]]}, "properties": {"id": "Pakistan_123102310_16570", "height": 4.402427673339844, "hmax": 0.0, "ratio": 0.0, "vulnClass": "none"}}, {"type": "Feature", "geometry": {"type": "MultiPolygon", "coordinates": [[[[72.33360391899406, 34.142692861525504], [72.33363574307727, 34.14284284272534], [72.33392100783719, 34.142801442457106], [72.33390740180471, 34.14273759053741], [72.33386317940288, 34.14274402190479], [72.33384817471578, 34.14267292752828], [72.33394707485607, 34.14265857912111], [72.33393838659195, 34.14261764219912], [72.33377543965196, 34.14264132670415], [72.33380215507154, 34.142767577362825], [72.33368408318655, 34.14278475442544], [72.33366273676613, 34.142684313379654], [72.33360391899406, 34.142692861525504]]]]}, "properties": {"id": "Pakistan_123102310_438569", "height": 4.138555526733398, "hmax": 0.0, "ratio": 0.0, "vulnClass": "none"}}, {"type": "Feature", "geometry": {"type": "MultiPolygon", "coordinates": [[[[72.33277084935742, 34.146504083049344], [72.33276895107184, 34.146550649658096], [72.33293383339064, 34.14655531608085], [72.33293572875286, 34.14650883955435], [72.33277084935742, 34.146504083049344]]]]}, "properties": {"id": "Pakistan_123102310_224726", "height": 2.850878000259399, "hmax": 0.0, "ratio": 0.0, "vulnClass": "none"}}, {"type": "Feature", "geometry": {"type": "MultiPolygon", "coordinates": [[[[72.33563472998355, 34.14698560444667], [72.33557040706276, 34.14698637109097], [72.33557122201063, 34.14703290655578], [72.33563554496679, 34.147032139912724], [72.33563472998355, 34.14698560444667]]]]}, "properties": {"id": "Pakistan_123102310_737739", "height": 2.517600774765015, "hmax": 0.0, "ratio": 0.0, "vulnClass": "none"}}, {"type": "Feature", "geometry": {"type": "MultiPolygon", "coordinates": [[[[72.33564169886543, 34.14709510860666], [72.33550490838493, 34.14709358014918], [72.33550393050461, 34.14715576289717], [72.33564072391573, 34.14715720127124], [72.33564169886543, 34.14709510860666]]]]}, "properties": {"id": "Pakistan_123102310_197329", "height": 3.002049922943115, "hmax": 0.0, "ratio": 0.0, "vulnClass": "none"}}, {"type": "Feature", "geometry": {"type": "MultiPolygon", "coordinates": [[[[72.3349098348462, 34.14689034622689], [72.33489895322667, 34.14685017308053], [72.33479937340663, 34.146868744444454], [72.33481025498013, 34.146908917597415], [72.3349098348462, 34.14689034622689]]]]}, "properties": {"id": "Pakistan_123102310_82396", "height": 2.961528778076172, "hmax": 0.0, "ratio": 0.0, "vulnClass": "none"}}, {"type": "Feature", "geometry": {"type": "MultiPolygon", "coordinates": [[[[72.33432999782379, 34.146809594713694], [72.33439705494894, 34.146808076770526], [72.33439432237658, 34.14672598027953], [72.33432726248479, 34.14672758831345], [72.33432999782379, 34.146809594713694]]]]}, "properties": {"id": "Pakistan_123102310_225703", "height": 3.360927104949951, "hmax": 0.0, "ratio": 0.0, "vulnClass": "none"}}, {"type": "Feature", "geometry": {"type": "MultiPolygon", "coordinates": [[[[72.33439229674235, 34.1466558891885], [72.33439077867169, 34.14662484436996], [72.33449780665325, 34.14662112972085], [72.33449595347223, 34.14658349662162], [72.33434605161624, 34.14658862362109], [72.33434942278537, 34.1466573015377], [72.33439229674235, 34.1466558891885]]]]}, "properties": {"id": "Pakistan_123102310_196284", "height": 3.655498504638672, "hmax": 0.0, "ratio": 0.0, "vulnClass": "none"}}, {"type": "Feature", "geometry": {"type": "MultiPolygon", "coordinates": [[[[72.33475733029039, 34.14679886578931], [72.33475721149496, 34.14659908928016], [72.33467263495811, 34.14659914499847], [72.33467270248056, 34.14665909667308], [72.33463930639672, 34.14665909232372], [72.33463935741518, 34.14679891714633], [72.33475733029039, 34.14679886578931]]]]}, "properties": {"id": "Pakistan_123102310_580864", "height": 3.798142194747925, "hmax": 0.0, "ratio": 0.0, "vulnClass": "none"}}, {"type": "Feature", "geometry": {"type": "MultiPolygon", "coordinates": [[[[72.33549117392403, 34.14677838543104], [72.33548894075439, 34.1467148708297], [72.33514983747449, 34.146723191610796], [72.33515012730237, 34.14673122131865], [72.33504562814898, 34.14673381950894], [72.3350448451799, 34.14671387919674], [72.33492038317746, 34.14671685499043], [72.33492310905385, 34.14679228018607], [72.33549117392403, 34.14677838543104]]]]}, "properties": {"id": "Pakistan_123102310_7190", "height": 3.516377687454224, "hmax": 0.0, "ratio": 0.0, "vulnClass": "none"}}, {"type": "Feature", "geometry": {"type": "MultiPolygon", "coordinates": [[[[72.33516935712488, 34.14662994903139], [72.33516739294171, 34.14658203634355], [72.33504681776276, 34.146585547452176], [72.33504888740187, 34.14663355258165], [72.33516935712488, 34.14662994903139]]]]}, "properties": {"id": "Pakistan_123102310_178357", "height": 2.472472429275513, "hmax": 0.0, "ratio": 0.0, "vulnClass": "none"}}, {"type": "Feature", "geometry": {"type": "MultiPolygon", "coordinates": [[[[72.33497895374259, 34.1466748550063], [72.33505522947166, 34.14667326650386], [72.33505372708481, 34.14662446234047], [72.33497745139978, 34.14662605084407], [72.33497895374259, 34.1466748550063]]]]}, "properties": {"id": "Pakistan_123102310_197315", "height": 3.372555494308472, "hmax": 0.0, "ratio": 0.0, "vulnClass": "none"}}, {"type": "Feature", "geometry": {"type": "MultiPolygon", "coordinates": [[[[72.33563729089724, 34.146986922174136], [72.33563566530151, 34.14692477303007], [72.33521470731819, 34.14693275864693], [72.33521644379115, 34.14699482004631], [72.33563729089724, 34.146986922174136]]]]}, "properties": {"id": "Pakistan_123102310_140665", "height": 3.215564727783203, "hmax": 0.0, "ratio": 0.0, "vulnClass": "none"}}, {"type": "Feature", "geometry": {"type": "MultiPolygon", "coordinates": [[[[72.33533778251332, 34.146849698615554], [72.33533657468517, 34.1468053182349], [72.33521061254562, 34.14680772083293], [72.33521182030768, 34.14685210121171], [72.33533778251332, 34.146849698615554]]]]}, "properties": {"id": "Pakistan_123102310_542837", "height": 2.570955991744995, "hmax": 0.0, "ratio": 0.0, "vulnClass": "none"}}, {"type": "Feature", "geometry": {"type": "MultiPolygon", "coordinates": [[[[72.33699695199064, 34.14552435837215], [72.33731875989852, 34.14552800762932], [72.33732055506249, 34.145422480035066], [72.33726690288434, 34.145421856481185], [72.33726581891575, 34.145487462716936], [72.33709955009569, 34.1454855667551], [72.33709999160808, 34.145461145480304], [72.33714280557705, 34.14546162401489], [72.33714355649491, 34.14542044141211], [72.33709900888377, 34.145419925248866], [72.33709945125874, 34.14539892972177], [72.3369990816005, 34.14539783292398], [72.33699695199064, 34.14552435837215]]]]}, "properties": {"id": "Pakistan_123102310_528690", "height": 2.764024257659912, "hmax": 0.0, "ratio": 0.0, "vulnClass": "none"}}, {"type": "Feature", "geometry": {"type": "MultiPolygon", "coordinates": [[[[72.33940362955258, 34.14576940743049], [72.33949324066383, 34.14576783488693], [72.33949115323807, 34.1456857523639], [72.33946587555536, 34.14568619584895], [72.339467085573, 34.14573057629767], [72.33940275219767, 34.14573170535781], [72.33940362955258, 34.14576940743049]]]]}, "properties": {"id": "Pakistan_123102310_799202", "height": 2.536836624145508, "hmax": 0.0, "ratio": 0.0, "vulnClass": "none"}}, {"type": "Feature", "geometry": {"type": "MultiPolygon", "coordinates": [[[[72.33946769343754, 34.14595659760524], [72.33946896801486, 34.145905599878056], [72.33924908230877, 34.14590191299821], [72.33924791595429, 34.14595291306688], [72.33946769343754, 34.14595659760524]]]]}, "properties": {"id": "Pakistan_123102310_922138", "height": 2.456643104553223, "hmax": 0.0, "ratio": 0.0, "vulnClass": "none"}}, {"type": "Feature", "geometry": {"type": "MultiPolygon", "coordinates": [[[[72.33976543923981, 34.14629877593656], [72.3400215882444, 34.14629405279055], [72.34001912993794, 34.14620303729425], [72.33976297838309, 34.146207850537735], [72.33976543923981, 34.14629877593656]]]]}, "properties": {"id": "Pakistan_123102310_102945", "height": 2.443908214569092, "hmax": 0.0, "ratio": 0.0, "vulnClass": "none"}}, {"type": "Feature", "geometry": {"type": "MultiPolygon", "coordinates": [[[[72.33889702274593, 34.146330156178074], [72.33876614285373, 34.146313073361874], [72.33875873968064, 34.14635203821979], [72.33888950844826, 34.14636920878571], [72.33889702274593, 34.146330156178074]]]]}, "properties": {"id": "Pakistan_123102310_353700", "height": 2.558224201202393, "hmax": 0.0, "ratio": 0.0, "vulnClass": "none"}}, {"type": "Feature", "geometry": {"type": "MultiPolygon", "coordinates": [[[[72.3383571802227, 34.146191152330694], [72.33835966319161, 34.14627441538173], [72.33848302697332, 34.14627186299984], [72.3384804355279, 34.14618859759482], [72.3383571802227, 34.146191152330694]]]]}, "properties": {"id": "Pakistan_123102310_415029", "height": 4.896543025970459, "hmax": 0.0, "ratio": 0.0, "vulnClass": "none"}}, {"type": "Feature", "geometry": {"type": "MultiPolygon", "coordinates": [[[[72.33829885971286, 34.146297797527694], [72.33830194086859, 34.146185806942285], [72.33820538524215, 34.14618407265175], [72.33820241231436, 34.146296065579676], [72.33829885971286, 34.146297797527694]]]]}, "properties": {"id": "Pakistan_123102310_216273", "height": 5.159010410308838, "hmax": 0.0, "ratio": 0.0, "vulnClass": "none"}}, {"type": "Feature", "geometry": {"type": "MultiPolygon", "coordinates": [[[[72.33652782153503, 34.14651403631129], [72.33652853946283, 34.146546416013415], [72.33662649466658, 34.146545026744604], [72.33662818546708, 34.14662583851604], [72.33706382754603, 34.14661978944395], [72.33706141819737, 34.14650659795012], [72.33652782153503, 34.14651403631129]]]]}, "properties": {"id": "Pakistan_123102310_334762", "height": 2.620765686035156, "hmax": 0.0, "ratio": 0.0, "vulnClass": "none"}}, {"type": "Feature", "geometry": {"type": "MultiPolygon", "coordinates": [[[[72.3397876904286, 34.146978995665805], [72.34032635886312, 34.146965522858885], [72.34032366589481, 34.14689235214644], [72.33978499792659, 34.14690582496363], [72.3397876904286, 34.146978995665805]]]]}, "properties": {"id": "Pakistan_123102310_747289", "height": 4.043431758880615, "hmax": 0.0, "ratio": 0.0, "vulnClass": "none"}}, {"type": "Feature", "geometry": {"type": "MultiPolygon", "coordinates": [[[[72.33985187172935, 34.14682027948614], [72.34008367722977, 34.14682773966631], [72.34008712684619, 34.14675578394295], [72.3398553243673, 34.14674823368897], [72.33985187172935, 34.14682027948614]]]]}, "properties": {"id": "Pakistan_123102310_396239", "height": 3.047396421432495, "hmax": 0.0, "ratio": 0.0, "vulnClass": "none"}}, {"type": "Feature", "geometry": {"type": "MultiPolygon", "coordinates": [[[[72.34138773199342, 34.14699123288293], [72.34139093294722, 34.14689258705059], [72.34123284692431, 34.14688898079028], [72.34122953743088, 34.146987624261534], [72.34138773199342, 34.14699123288293]]]]}, "properties": {"id": "Pakistan_123102310_205742", "height": 2.706225872039795, "hmax": 0.0, "ratio": 0.0, "vulnClass": "none"}}, {"type": "Feature", "geometry": {"type": "MultiPolygon", "coordinates": [[[[72.34086323839502, 34.147064427015145], [72.34096143389667, 34.14707268564079], [72.34097078668738, 34.14699571922471], [72.34103459261351, 34.14700106879453], [72.34104016203086, 34.146954851964], [72.34118085953364, 34.14696664595517], [72.34118521460435, 34.14693149135373], [72.34111351283491, 34.14692551998193], [72.34111833140264, 34.146885958036606], [72.34088732899392, 34.1468667074545], [72.34086323839502, 34.147064427015145]]]]}, "properties": {"id": "Pakistan_123102310_599780", "height": 3.166062355041504, "hmax": 0.0, "ratio": 0.0, "vulnClass": "none"}}, {"type": "Feature", "geometry": {"type": "MultiPolygon", "coordinates": [[[[72.34374419797008, 34.14760878538596], [72.3440338235534, 34.14760856510433], [72.3440337070306, 34.14751534651792], [72.34399619003878, 34.14751534564826], [72.3439960295858, 34.147444303240086], [72.34390754809799, 34.14744437092761], [72.343907598383, 34.14748430887819], [72.34385533072438, 34.14748443936059], [72.34385535100714, 34.147442249165266], [72.34391021921051, 34.14744217498516], [72.34391020164898, 34.14739773019626], [72.34363922550382, 34.14739799341103], [72.3436393636308, 34.1474801238925], [72.34379225444016, 34.14748000855465], [72.34379225613449, 34.14751111066091], [72.34374400332224, 34.14751114772056], [72.34374419797008, 34.14760878538596]]]]}, "properties": {"id": "Pakistan_123102310_561848", "height": 5.173460006713867, "hmax": 0.0, "ratio": 0.0, "vulnClass": "none"}}, {"type": "Feature", "geometry": {"type": "MultiPolygon", "coordinates": [[[[72.34336728297176, 34.14721450753023], [72.3434691073052, 34.14721770413381], [72.34347314673263, 34.14712682932375], [72.34337143086445, 34.14712363507507], [72.34336728297176, 34.14721450753023]]]]}, "properties": {"id": "Pakistan_123102310_263495", "height": 2.767906427383423, "hmax": 0.0, "ratio": 0.0, "vulnClass": "none"}}, {"type": "Feature", "geometry": {"type": "MultiPolygon", "coordinates": [[[[72.34335606475483, 34.147309554120866], [72.34335576745887, 34.14750941226242], [72.34360113776107, 34.14750967705518], [72.34360119887586, 34.14743503341563], [72.34341611482665, 34.14743481199728], [72.34341644694841, 34.14723729852804], [72.3431776928697, 34.147236996366836], [72.34317769434456, 34.147268098463556], [72.34293503372122, 34.14726789152704], [72.34293493567894, 34.14730908836737], [72.34335606475483, 34.147309554120866]]]]}, "properties": {"id": "Pakistan_123102310_83889", "height": 4.050656318664551, "hmax": 0.0, "ratio": 0.0, "vulnClass": "none"}}, {"type": "Feature", "geometry": {"type": "MultiPolygon", "coordinates": [[[[72.34237414897677, 34.14664082315968], [72.34233398279633, 34.14663887123293], [72.34232940986509, 34.14670521337953], [72.34236946772062, 34.146707162961945], [72.34237414897677, 34.14664082315968]]]]}, "properties": {"id": "Pakistan_123102310_330092", "height": 3.012308120727539, "hmax": 0.0, "ratio": 0.0, "vulnClass": "none"}}, {"type": "Feature", "geometry": {"type": "MultiPolygon", "coordinates": [[[[72.34242584378896, 34.146825039473676], [72.3424563424905, 34.14665107785321], [72.34238158883623, 34.14664215628885], [72.34236917867817, 34.14671292635788], [72.34232197107278, 34.14670730600423], [72.34230377679337, 34.146810405083585], [72.34242584378896, 34.146825039473676]]]]}, "properties": {"id": "Pakistan_123102310_149302", "height": 3.737795829772949, "hmax": 0.0, "ratio": 0.0, "vulnClass": "none"}}, {"type": "Feature", "geometry": {"type": "MultiPolygon", "coordinates": [[[[72.34258901995483, 34.14685652092697], [72.34259343493146, 34.146687944222144], [72.3424820336393, 34.146685891716054], [72.34247761561858, 34.146854558496216], [72.34258901995483, 34.14685652092697]]]]}, "properties": {"id": "Pakistan_123102310_46387", "height": 3.752484560012817, "hmax": 0.0, "ratio": 0.0, "vulnClass": "none"}}, {"type": "Feature", "geometry": {"type": "MultiPolygon", "coordinates": [[[[72.34284602354155, 34.14680727587235], [72.3429666353036, 34.14680952753171], [72.34296898041073, 34.14672429555883], [72.34284836876962, 34.14672204390748], [72.34284602354155, 34.14680727587235]]]]}, "properties": {"id": "Pakistan_123102310_244577", "height": 3.550124645233154, "hmax": 0.0, "ratio": 0.0, "vulnClass": "none"}}, {"type": "Feature", "geometry": {"type": "MultiPolygon", "coordinates": [[[[72.34303424083346, 34.14684588011381], [72.34303052600295, 34.14687446765046], [72.34297754149188, 34.14686980424412], [72.3429735421856, 34.14690054923915], [72.34285956889394, 34.14689059823616], [72.34285354163974, 34.14693761661725], [72.34303391034403, 34.14695333284404], [72.34303837018327, 34.1469182705769], [72.34315775289672, 34.146928609016484], [72.34316681186729, 34.14685749582632], [72.34303424083346, 34.14684588011381]]]]}, "properties": {"id": "Pakistan_123102310_628284", "height": 2.878280162811279, "hmax": 0.0, "ratio": 0.0, "vulnClass": "none"}}, {"type": "Feature", "geometry": {"type": "MultiPolygon", "coordinates": [[[[72.34383355843768, 34.146954060799054], [72.34364307564658, 34.146956607692566], [72.34364453893129, 34.14702758815669], [72.34383491352561, 34.147025038922436], [72.34383355843768, 34.146954060799054]]]]}, "properties": {"id": "Pakistan_123102310_614019", "height": 3.475489139556885, "hmax": 0.0, "ratio": 0.0, "vulnClass": "none"}}, {"type": "Feature", "geometry": {"type": "MultiPolygon", "coordinates": [[[[72.34381775522088, 34.14683201488308], [72.34381634032577, 34.14676987025497], [72.3436969018333, 34.14677170162928], [72.34369831664065, 34.146833846254616], [72.34381775522088, 34.14683201488308]]]]}, "properties": {"id": "Pakistan_123102310_590374", "height": 2.970408916473389, "hmax": 0.0, "ratio": 0.0, "vulnClass": "none"}}, {"type": "Feature", "geometry": {"type": "MultiPolygon", "coordinates": [[[[72.3436177412954, 34.14683769096952], [72.34362402160784, 34.146720270142026], [72.34341520688858, 34.14671268345987], [72.3434089262888, 34.14683010426317], [72.3436177412954, 34.14683769096952]]]]}, "properties": {"id": "Pakistan_123102310_112287", "height": 2.618235111236572, "hmax": 0.0, "ratio": 0.0, "vulnClass": "none"}}, {"type": "Feature", "geometry": {"type": "MultiPolygon", "coordinates": [[[[72.34264347804556, 34.14351283088428], [72.34264144702564, 34.143456532705784], [72.34246815780466, 34.14346080264077], [72.3424701858864, 34.14351719090646], [72.34264347804556, 34.14351283088428]]]]}, "properties": {"id": "Pakistan_123102310_945801", "height": 4.343376159667969, "hmax": 0.0, "ratio": 0.0, "vulnClass": "none"}}]}