{"type": "FeatureCollection", "features": [{"type": "Feature", "geometry": {"type": "MultiPolygon", "coordinates": [[[[72.09210742, 34.40442744], [72.09207188, 34.40442487], [72.09206673, 34.40447372], [72.09210227, 34.40447629], [72.09210742, 34.40442744]]]]}, "properties": {"id": "8J6JC33R+QRP5", "height": 2.507407665252686, "hmax": 0.001, "ratio": 0.0, "vulnClass": "none"}}, {"type": "Feature", "geometry": {"type": "MultiPolygon", "coordinates": [[[[72.09222147, 34.40424813], [72.09212264, 34.40424976], [72.09212991, 34.40455119], [72.09233724, 34.40454775], [72.09233626, 34.40450704], [72.09222776, 34.40450884], [72.09222545, 34.40441287], [72.09225971, 34.4044123], [72.09225909, 34.4043864], [72.09222482, 34.40438697], [72.09222147, 34.40424813]]]]}, "properties": {"id": "8J6JC33R+QV8J", "height": 2.662452220916748, "hmax": 0.0, "ratio": 0.0, "vulnClass": "none"}}, {"type": "Feature", "geometry": {"type": "MultiPolygon", "coordinates": [[[[72.0916274, 34.40419081], [72.09162376, 34.40411112], [72.09140179, 34.40411808], [72.09140543, 34.40419777], [72.0916274, 34.40419081]]]]}, "properties": {"id": "8J6JC33R+MJ63", "height": 2.723219871520996, "hmax": 0.001, "ratio": 0.0, "vulnClass": "none"}}, {"type": "Feature", "geometry": {"type": "MultiPolygon", "coordinates": [[[[72.09170735, 34.40414693], [72.09162662, 34.40414337], [72.09162365, 34.4041896], [72.09170438, 34.40419316], [72.09170735, 34.40414693]]]]}, "properties": {"id": "8J6JC33R+MM7M", "height": 2.595069885253906, "hmax": 0.001, "ratio": 0.0, "vulnClass": "none"}}, {"type": "Feature", "geometry": {"type": "MultiPolygon", "coordinates": [[[[72.08477093, 34.40613669], [72.08467772, 34.40611728], [72.0846363, 34.40625389], [72.08502868, 34.40633562], [72.08505535, 34.40624764], [72.08475618, 34.40618533], [72.08477093, 34.40613669]]]]}, "properties": {"id": "8J6JC34M+FWWG", "height": 3.273515939712524, "hmax": 0.001, "ratio": 0.0, "vulnClass": "none"}}, {"type": "Feature", "geometry": {"type": "MultiPolygon", "coordinates": [[[[72.0798781, 34.4048], [72.0798303, 34.4047949], [72.0798001, 34.4049928], [72.079848, 34.4049979], [72.0798781, 34.4048]]]]}, "properties": {"id": "8J6JC33H+XW4X", "height": 2.635260105133057, "hmax": 0.002, "ratio": 0.001, "vulnClass": "none"}}, {"type": "Feature", "geometry": {"type": "MultiPolygon", "coordinates": [[[[72.07965422, 34.40473552], [72.07967844, 34.40461612], [72.07963182, 34.40460962], [72.07960761, 34.40472903], [72.07965422, 34.40473552]]]]}, "properties": {"id": "8J6JC33H+VV6W", "height": 2.812601089477539, "hmax": 0.001, "ratio": 0.0, "vulnClass": "none"}}, {"type": "Feature", "geometry": {"type": "MultiPolygon", "coordinates": [[[[72.07978271, 34.40475342], [72.07965422, 34.40473552], [72.07963914, 34.4048099], [72.07976763, 34.4048278], [72.07978271, 34.40475342]]]]}, "properties": {"id": "8J6JC33H+WV88", "height": 2.817265033721924, "hmax": 0.002, "ratio": 0.001, "vulnClass": "none"}}, {"type": "Feature", "geometry": {"type": "MultiPolygon", "coordinates": [[[[72.07988773, 34.40468572], [72.07985666, 34.40467968], [72.07984485, 34.40472144], [72.07987591, 34.40472748], [72.07988773, 34.40468572]]]]}, "properties": {"id": "8J6JC33H+VWQ4", "height": 2.466426372528076, "hmax": 0.001, "ratio": 0.0, "vulnClass": "none"}}, {"type": "Feature", "geometry": {"type": "MultiPolygon", "coordinates": [[[[72.08008104, 34.40477491], [72.07985635, 34.40472259], [72.07984964, 34.40474237], [72.07992773, 34.40476055], [72.07991307, 34.4048038], [72.08005968, 34.40483794], [72.08008104, 34.40477491]]]]}, "properties": {"id": "8J6JC33H+WX97", "height": 2.793833017349243, "hmax": 0.002, "ratio": 0.001, "vulnClass": "none"}}, {"type": "Feature", "geometry": {"type": "MultiPolygon", "coordinates": [[[[72.08047685, 34.40457985], [72.08036859, 34.40457019], [72.08035953, 34.40463999], [72.08046779, 34.40464965], [72.08047685, 34.40457985]]]]}, "properties": {"id": "8J6JC33J+R5V7", "height": 3.103432416915894, "hmax": 0.003, "ratio": 0.001, "vulnClass": "none"}}, {"type": "Feature", "geometry": {"type": "MultiPolygon", "coordinates": [[[[72.07982585, 34.4040601], [72.07978795, 34.40406155], [72.07979094, 34.4041154], [72.07982884, 34.40411395], [72.07982585, 34.4040601]]]]}, "properties": {"id": "8J6JC33H+JWMH", "height": 3.170753955841064, "hmax": 0.001, "ratio": 0.0, "vulnClass": "none"}}, {"type": "Feature", "geometry": {"type": "MultiPolygon", "coordinates": [[[[72.07875048, 34.40403698], [72.07865158, 34.40402612], [72.07863151, 34.40415164], [72.07875982, 34.40416574], [72.07876669, 34.40412282], [72.07873727, 34.40411959], [72.07875048, 34.40403698]]]]}, "properties": {"id": "8J6JC33H+JFPV", "height": 2.53114914894104, "hmax": 0.001, "ratio": 0.0, "vulnClass": "none"}}, {"type": "Feature", "geometry": {"type": "MultiPolygon", "coordinates": [[[[72.08041912, 34.39970965], [72.08040143, 34.39963217], [72.08002281, 34.39969154], [72.08008204, 34.39995104], [72.08046066, 34.39989167], [72.08044409, 34.39981908], [72.08011362, 34.39987091], [72.08008864, 34.39976147], [72.08041912, 34.39970965]]]]}, "properties": {"id": "8J6J93XJ+W39M", "height": 3.080619812011719, "hmax": 0.003, "ratio": 0.001, "vulnClass": "none"}}, {"type": "Feature", "geometry": {"type": "MultiPolygon", "coordinates": [[[[72.08893709, 34.39882456], [72.08891619, 34.39871289], [72.08886173, 34.39871989], [72.08886789, 34.3987528], [72.08877704, 34.39876448], [72.08879178, 34.39884324], [72.08893709, 34.39882456]]]]}, "properties": {"id": "8J6J93XQ+GG9G", "height": 4.351044654846191, "hmax": 0.002, "ratio": 0.001, "vulnClass": "none"}}, {"type": "Feature", "geometry": {"type": "MultiPolygon", "coordinates": [[[[72.08900816, 34.39859975], [72.08889768, 34.39861396], [72.08893709, 34.39882456], [72.08916358, 34.39879544], [72.08914884, 34.39871668], [72.08903284, 34.39873159], [72.08900816, 34.39859975]]]]}, "properties": {"id": "8J6J93XQ+FJR3", "height": 4.703652858734131, "hmax": 0.002, "ratio": 0.0, "vulnClass": "none"}}, {"type": "Feature", "geometry": {"type": "MultiPolygon", "coordinates": [[[[72.090495, 34.3988436], [72.090458, 34.3987301], [72.0903286, 34.3987591], [72.0903656, 34.3988725], [72.090495, 34.3988436]]]]}, "properties": {"id": "8J6J93XR+G5F2", "height": 2.484955310821533, "hmax": 0.004, "ratio": 0.002, "vulnClass": "none"}}, {"type": "Feature", "geometry": {"type": "MultiPolygon", "coordinates": [[[[72.09005637, 34.39865275], [72.09000993, 34.39865604], [72.0900175, 34.39872944], [72.09006394, 34.39872615], [72.09005637, 34.39865275]]]]}, "properties": {"id": "8J6J93XR+F2FJ", "height": 2.80693244934082, "hmax": 0.003, "ratio": 0.001, "vulnClass": "none"}}, {"type": "Feature", "geometry": {"type": "MultiPolygon", "coordinates": [[[[72.09000388, 34.39845074], [72.08994456, 34.39846084], [72.08998026, 34.39860489], [72.09003957, 34.39859479], [72.09000388, 34.39845074]]]]}, "properties": {"id": "8J6J93XQ+CX94", "height": 3.340736389160156, "hmax": 0.002, "ratio": 0.001, "vulnClass": "none"}}, {"type": "Feature", "geometry": {"type": "MultiPolygon", "coordinates": [[[[72.09017638, 34.39858103], [72.090152, 34.39848162], [72.09004683, 34.39849934], [72.09009142, 34.3986812], [72.09024091, 34.39865602], [72.09022069, 34.39857356], [72.09017638, 34.39858103]]]]}, "properties": {"id": "8J6J93XR+C3JF", "height": 6.540568828582764, "hmax": 0.003, "ratio": 0.001, "vulnClass": "none"}}, {"type": "Feature", "geometry": {"type": "MultiPolygon", "coordinates": [[[[72.090152, 34.39848162], [72.09010165, 34.3982763], [72.08999647, 34.39829403], [72.09004683, 34.39849934], [72.090152, 34.39848162]]]]}, "properties": {"id": "8J6J93XR+924F", "height": 4.541621685028076, "hmax": 0.002, "ratio": 0.0, "vulnClass": "none"}}, {"type": "Feature", "geometry": {"type": "MultiPolygon", "coordinates": [[[[72.0900068, 34.39835923], [72.08997705, 34.39836002], [72.0899782, 34.39838994], [72.09000796, 34.39838915], [72.0900068, 34.39835923]]]]}, "properties": {"id": "8J6J93XQ+8XXX", "height": 3.181468486785889, "hmax": 0.002, "ratio": 0.001, "vulnClass": "none"}}, {"type": "Feature", "geometry": {"type": "MultiPolygon", "coordinates": [[[[72.08352087, 34.39840482], [72.08351734, 34.3983252], [72.08329525, 34.39833196], [72.0833128, 34.3987284], [72.08359442, 34.39871983], [72.08359226, 34.39867098], [72.08353273, 34.39867279], [72.08353118, 34.39863781], [72.08341872, 34.39864123], [72.0834084, 34.39840824], [72.08352087, 34.39840482]]]]}, "properties": {"id": "8J6J93XM+C96H", "height": 2.868277072906494, "hmax": 0.002, "ratio": 0.001, "vulnClass": "none"}}, {"type": "Feature", "geometry": {"type": "MultiPolygon", "coordinates": [[[[72.07858751, 34.40410649], [72.07809746, 34.40407851], [72.07809408, 34.40411911], [72.07858414, 34.40414708], [72.07858751, 34.40410649]]]]}, "properties": {"id": "8J6JC33H+J8WH", "height": 2.934324502944946, "hmax": 0.001, "ratio": 0.0, "vulnClass": "none"}}, {"type": "Feature", "geometry": {"type": "MultiPolygon", "coordinates": [[[[72.07772775, 34.4044096], [72.07764872, 34.404394], [72.07760615, 34.40454216], [72.07768517, 34.40455776], [72.07772775, 34.4044096]]]]}, "properties": {"id": "8J6JC33H+Q3V3", "height": 3.25080132484436, "hmax": 0.002, "ratio": 0.001, "vulnClass": "none"}}, {"type": "Feature", "geometry": {"type": "MultiPolygon", "coordinates": [[[[72.07768535, 34.40455689], [72.07767328, 34.40459816], [72.0778129, 34.40462621], [72.07782497, 34.40458495], [72.07768535, 34.40455689]]]]}, "properties": {"id": "8J6JC33H+R3QQ", "height": 3.153208255767822, "hmax": 0.002, "ratio": 0.001, "vulnClass": "none"}}, {"type": "Feature", "geometry": {"type": "MultiPolygon", "coordinates": [[[[72.07767164, 34.40462311], [72.07763309, 34.40461554], [72.07761345, 34.40468426], [72.077652, 34.40469183], [72.07767164, 34.40462311]]]]}, "properties": {"id": "8J6JC33H+V364", "height": 2.978879928588867, "hmax": 0.002, "ratio": 0.001, "vulnClass": "none"}}, {"type": "Feature", "geometry": {"type": "MultiPolygon", "coordinates": [[[[72.07768517, 34.40455776], [72.07760615, 34.40454216], [72.07759465, 34.40458217], [72.07767367, 34.40459777], [72.07768517, 34.40455776]]]]}, "properties": {"id": "8J6JC33H+R3CM", "height": 3.315865993499756, "hmax": 0.002, "ratio": 0.001, "vulnClass": "none"}}, {"type": "Feature", "geometry": {"type": "MultiPolygon", "coordinates": [[[[72.09205062, 34.41058464], [72.09193163, 34.41056964], [72.09192374, 34.41061263], [72.09204273, 34.41062763], [72.09205062, 34.41058464]]]]}, "properties": {"id": "8J6JC36R+6QQW", "height": 2.507396936416626, "hmax": 0.0, "ratio": 0.0, "vulnClass": "none"}}, {"type": "Feature", "geometry": {"type": "MultiPolygon", "coordinates": [[[[72.0916811, 34.4109022], [72.0916297, 34.4108996], [72.0916268, 34.4109381], [72.0916782, 34.4109407], [72.0916811, 34.4109022]]]]}, "properties": {"id": "8J6JC36R+9M6X", "height": 3.428657293319702, "hmax": 0.002, "ratio": 0.001, "vulnClass": "none"}}, {"type": "Feature", "geometry": {"type": "MultiPolygon", "coordinates": [[[[72.09164925, 34.41097443], [72.09164834, 34.41094596], [72.09162373, 34.4109465], [72.09162228, 34.41090134], [72.09147972, 34.41090449], [72.09148209, 34.41097812], [72.09164925, 34.41097443]]]]}, "properties": {"id": "8J6JC36R+9JFQ", "height": 5.019416809082031, "hmax": 0.002, "ratio": 0.0, "vulnClass": "none"}}, {"type": "Feature", "geometry": {"type": "MultiPolygon", "coordinates": [[[[72.09124869, 34.41111006], [72.09119413, 34.41110496], [72.09118223, 34.41119247], [72.09123678, 34.41119757], [72.09124869, 34.41111006]]]]}, "properties": {"id": "8J6JC36R+FF85", "height": 4.901066780090332, "hmax": 0.002, "ratio": 0.0, "vulnClass": "none"}}, {"type": "Feature", "geometry": {"type": "MultiPolygon", "coordinates": [[[[72.0913807, 34.4109816], [72.0913162, 34.4109757], [72.0912966, 34.411125], [72.0914825, 34.4111418], [72.0914863, 34.4111131], [72.0914606, 34.4111107], [72.0914712, 34.4110298], [72.0914271, 34.4110258], [72.0914246, 34.4110449], [72.091373, 34.4110402], [72.0913807, 34.4109816]]]]}, "properties": {"id": "8J6JC36R+CHCR", "height": 5.630143642425537, "hmax": 0.002, "ratio": 0.0, "vulnClass": "none"}}, {"type": "Feature", "geometry": {"type": "MultiPolygon", "coordinates": [[[[72.09138967, 34.41095678], [72.09138797, 34.41091939], [72.09128123, 34.41092271], [72.09128292, 34.4109601], [72.09138967, 34.41095678]]]]}, "properties": {"id": "8J6JC36R+9GGG", "height": 2.838024377822876, "hmax": 0.002, "ratio": 0.001, "vulnClass": "none"}}, {"type": "Feature", "geometry": {"type": "MultiPolygon", "coordinates": [[[[72.09125703, 34.41085535], [72.09103347, 34.41086261], [72.09103748, 34.41094749], [72.09126105, 34.41094023], [72.09125703, 34.41085535]]]]}, "properties": {"id": "8J6JC36R+9F64", "height": 2.915443420410156, "hmax": 0.002, "ratio": 0.001, "vulnClass": "none"}}, {"type": "Feature", "geometry": {"type": "MultiPolygon", "coordinates": [[[[72.09099624, 34.41066434], [72.09095133, 34.41066327], [72.09094915, 34.41072632], [72.09099406, 34.41072739], [72.09099624, 34.41066434]]]]}, "properties": {"id": "8J6JC36R+79HR", "height": 3.595396518707275, "hmax": 0.002, "ratio": 0.001, "vulnClass": "none"}}, {"type": "Feature", "geometry": {"type": "MultiPolygon", "coordinates": [[[[72.09137983, 34.41073949], [72.09109084, 34.41074847], [72.09109273, 34.41079009], [72.0912346, 34.41078568], [72.09124086, 34.41092396], [72.09131828, 34.41092155], [72.09131685, 34.4108898], [72.09135062, 34.41088875], [72.09134723, 34.41081379], [72.09138315, 34.41081268], [72.09137983, 34.41073949]]]]}, "properties": {"id": "8J6JC36R+8GCG", "height": 3.853927850723267, "hmax": 0.002, "ratio": 0.001, "vulnClass": "none"}}, {"type": "Feature", "geometry": {"type": "MultiPolygon", "coordinates": [[[[72.09169025, 34.41089984], [72.0916877, 34.41082042], [72.09152797, 34.41082394], [72.09153052, 34.41090337], [72.09169025, 34.41089984]]]]}, "properties": {"id": "8J6JC36R+8JXF", "height": 5.019416809082031, "hmax": 0.002, "ratio": 0.0, "vulnClass": "none"}}, {"type": "Feature", "geometry": {"type": "MultiPolygon", "coordinates": [[[[72.09172351, 34.41072726], [72.09167383, 34.41072494], [72.09166832, 34.410806], [72.091718, 34.41080832], [72.09172351, 34.41072726]]]]}, "properties": {"id": "8J6JC36R+8M4M", "height": 3.024105072021484, "hmax": 0.002, "ratio": 0.001, "vulnClass": "none"}}, {"type": "Feature", "geometry": {"type": "MultiPolygon", "coordinates": [[[[72.09191269, 34.4106021], [72.09173764, 34.41058234], [72.09172536, 34.41065705], [72.09190041, 34.41067681], [72.09191269, 34.4106021]]]]}, "properties": {"id": "8J6JC36R+7P42", "height": 5.667885780334473, "hmax": 0.002, "ratio": 0.0, "vulnClass": "none"}}, {"type": "Feature", "geometry": {"type": "MultiPolygon", "coordinates": [[[[72.0915575, 34.41072407], [72.09155226, 34.41063367], [72.09134393, 34.41064196], [72.09134917, 34.41073236], [72.0915575, 34.41072407]]]]}, "properties": {"id": "8J6JC36R+7HG7", "height": 5.581565856933594, "hmax": 0.002, "ratio": 0.0, "vulnClass": "none"}}, {"type": "Feature", "geometry": {"type": "MultiPolygon", "coordinates": [[[[72.09153247, 34.41059056], [72.0915275, 34.41054589], [72.09147067, 34.41055023], [72.09147563, 34.41059491], [72.09153247, 34.41059056]]]]}, "properties": {"id": "8J6JC36R+6JCR", "height": 3.611857891082764, "hmax": 0.002, "ratio": 0.001, "vulnClass": "none"}}, {"type": "Feature", "geometry": {"type": "MultiPolygon", "coordinates": [[[[72.09173317, 34.4105855], [72.09173102, 34.41054795], [72.09154969, 34.41055509], [72.09155384, 34.41062739], [72.09160755, 34.41062528], [72.09160555, 34.41059053], [72.09173317, 34.4105855]]]]}, "properties": {"id": "8J6JC36R+6MJ2", "height": 5.127183437347412, "hmax": 0.002, "ratio": 0.0, "vulnClass": "none"}}, {"type": "Feature", "geometry": {"type": "MultiPolygon", "coordinates": [[[[72.0915101, 34.4105146], [72.0915065, 34.4104671], [72.0914426, 34.4104704], [72.0913261, 34.4104765], [72.0913297, 34.410524], [72.0915101, 34.4105146]]]]}, "properties": {"id": "8J6JC36R+5HVV", "height": 3.053921699523926, "hmax": 0.002, "ratio": 0.001, "vulnClass": "none"}}, {"type": "Feature", "geometry": {"type": "MultiPolygon", "coordinates": [[[[72.09163998, 34.41055884], [72.09163022, 34.41043034], [72.09154158, 34.41043496], [72.09155134, 34.41056346], [72.09163998, 34.41055884]]]]}, "properties": {"id": "8J6JC36R+5JWX", "height": 5.04615592956543, "hmax": 0.002, "ratio": 0.0, "vulnClass": "none"}}, {"type": "Feature", "geometry": {"type": "MultiPolygon", "coordinates": [[[[72.0917548, 34.41045411], [72.09175114, 34.41040591], [72.09162884, 34.41041229], [72.09163998, 34.41055884], [72.09170366, 34.41055552], [72.09169619, 34.41045717], [72.0917548, 34.41045411]]]]}, "properties": {"id": "8J6JC36R+5MMW", "height": 4.460822105407715, "hmax": 0.002, "ratio": 0.0, "vulnClass": "none"}}, {"type": "Feature", "geometry": {"type": "MultiPolygon", "coordinates": [[[[72.09180864, 34.41044844], [72.09175831, 34.41044717], [72.09175413, 34.41056164], [72.09180446, 34.41056291], [72.09180864, 34.41044844]]]]}, "properties": {"id": "8J6JC36R+6P36", "height": 5.449655532836914, "hmax": 0.002, "ratio": 0.0, "vulnClass": "none"}}, {"type": "Feature", "geometry": {"type": "MultiPolygon", "coordinates": [[[[72.0909374, 34.4105049], [72.0908712, 34.4105188], [72.0908902, 34.4105809], [72.0909564, 34.410567], [72.0909374, 34.4105049]]]]}, "properties": {"id": "8J6JC36R+697J", "height": 3.714662551879883, "hmax": 0.002, "ratio": 0.001, "vulnClass": "none"}}, {"type": "Feature", "geometry": {"type": "MultiPolygon", "coordinates": [[[[72.09101843, 34.410506], [72.09093443, 34.41052223], [72.09094693, 34.41056668], [72.09103094, 34.41055046], [72.09101843, 34.410506]]]]}, "properties": {"id": "8J6JC36R+699F", "height": 3.706528663635254, "hmax": 0.002, "ratio": 0.001, "vulnClass": "none"}}, {"type": "Feature", "geometry": {"type": "MultiPolygon", "coordinates": [[[[72.09133642, 34.41061212], [72.09132611, 34.41047648], [72.09115103, 34.41048562], [72.0911585, 34.41058396], [72.09131101, 34.410576], [72.09131385, 34.4106133], [72.09133642, 34.41061212]]]]}, "properties": {"id": "8J6JC36R+6F99", "height": 2.670780420303345, "hmax": 0.002, "ratio": 0.001, "vulnClass": "none"}}, {"type": "Feature", "geometry": {"type": "MultiPolygon", "coordinates": [[[[72.091225, 34.41069614], [72.09121646, 34.41058018], [72.0911586, 34.41058311], [72.09116713, 34.41069907], [72.091225, 34.41069614]]]]}, "properties": {"id": "8J6JC36R+7F4C", "height": 2.457589626312256, "hmax": 0.002, "ratio": 0.001, "vulnClass": "none"}}, {"type": "Feature", "geometry": {"type": "MultiPolygon", "coordinates": [[[[72.09070729, 34.41028288], [72.09066129, 34.41028409], [72.09066887, 34.41048189], [72.09071487, 34.41048068], [72.09070729, 34.41028288]]]]}, "properties": {"id": "8J6JC36R+5746", "height": 2.516088485717773, "hmax": 0.001, "ratio": 0.0, "vulnClass": "none"}}, {"type": "Feature", "geometry": {"type": "MultiPolygon", "coordinates": [[[[72.09044139, 34.41039616], [72.09043389, 34.41033887], [72.09032809, 34.41034838], [72.09033559, 34.41040568], [72.09044139, 34.41039616]]]]}, "properties": {"id": "8J6JC36R+45RV", "height": 2.64649772644043, "hmax": 0.002, "ratio": 0.001, "vulnClass": "none"}}, {"type": "Feature", "geometry": {"type": "MultiPolygon", "coordinates": [[[[72.09074752, 34.4107847], [72.0906987, 34.41078085], [72.0906956, 34.41080789], [72.09074442, 34.41081174], [72.09074752, 34.4107847]]]]}, "properties": {"id": "8J6JC36R+879R", "height": 3.574522972106934, "hmax": 0.001, "ratio": 0.0, "vulnClass": "none"}}, {"type": "Feature", "geometry": {"type": "MultiPolygon", "coordinates": [[[[72.09077724, 34.41090586], [72.09078765, 34.41081515], [72.09074442, 34.41081174], [72.09073401, 34.41090245], [72.09077724, 34.41090586]]]]}, "properties": {"id": "8J6JC36R+88R7", "height": 3.260034561157227, "hmax": 0.001, "ratio": 0.0, "vulnClass": "none"}}, {"type": "Feature", "geometry": {"type": "MultiPolygon", "coordinates": [[[[72.0907789, 34.41090436], [72.09072825, 34.41089901], [72.09072084, 34.41094715], [72.09096829, 34.4109733], [72.09097883, 34.4109048], [72.09078203, 34.410884], [72.0907789, 34.41090436]]]]}, "properties": {"id": "8J6JC36R+98H3", "height": 2.677176713943481, "hmax": 0.002, "ratio": 0.001, "vulnClass": "none"}}, {"type": "Feature", "geometry": {"type": "MultiPolygon", "coordinates": [[[[72.09070657, 34.41089672], [72.09055918, 34.41088114], [72.09054832, 34.41095176], [72.09064769, 34.41096227], [72.09064018, 34.41101106], [72.0906882, 34.41101614], [72.09070657, 34.41089672]]]]}, "properties": {"id": "8J6JC36R+97CF", "height": 2.666062593460083, "hmax": 0.001, "ratio": 0.0, "vulnClass": "none"}}, {"type": "Feature", "geometry": {"type": "MultiPolygon", "coordinates": [[[[72.0907672, 34.410952], [72.0906992, 34.4109449], [72.0906811, 34.4110622], [72.0908105, 34.4110758], [72.0908176, 34.4110298], [72.0907562, 34.4110233], [72.0907672, 34.410952]]]]}, "properties": {"id": "8J6JC36R+C75P", "height": 2.956515073776245, "hmax": 0.001, "ratio": 0.0, "vulnClass": "none"}}, {"type": "Feature", "geometry": {"type": "MultiPolygon", "coordinates": [[[[72.09086944, 34.4109857], [72.09082511, 34.41098101], [72.0908176, 34.41102981], [72.09086194, 34.4110345], [72.09086944, 34.4109857]]]]}, "properties": {"id": "8J6JC36R+C849", "height": 3.015764474868774, "hmax": 0.002, "ratio": 0.001, "vulnClass": "none"}}, {"type": "Feature", "geometry": {"type": "MultiPolygon", "coordinates": [[[[72.09065985, 34.41106858], [72.09061026, 34.41105425], [72.09058051, 34.41112494], [72.09063009, 34.41113927], [72.09065985, 34.41106858]]]]}, "properties": {"id": "8J6JC36R+C6QX", "height": 2.956515073776245, "hmax": 0.001, "ratio": 0.0, "vulnClass": "none"}}, {"type": "Feature", "geometry": {"type": "MultiPolygon", "coordinates": [[[[72.09034828, 34.41110472], [72.09030387, 34.41099358], [72.09021531, 34.41101788], [72.09025971, 34.41112902], [72.09034828, 34.41110472]]]]}, "properties": {"id": "8J6JC36R+C4FC", "height": 3.054660081863403, "hmax": 0.001, "ratio": 0.0, "vulnClass": "none"}}, {"type": "Feature", "geometry": {"type": "MultiPolygon", "coordinates": [[[[72.09001188, 34.41090475], [72.08988902, 34.41089391], [72.08988254, 34.41094438], [72.0899499, 34.41095032], [72.08994289, 34.4110049], [72.0899984, 34.4110098], [72.09001188, 34.41090475]]]]}, "properties": {"id": "8J6JC36Q+9XGP", "height": 2.659118175506592, "hmax": 0.001, "ratio": 0.0, "vulnClass": "none"}}, {"type": "Feature", "geometry": {"type": "MultiPolygon", "coordinates": [[[[72.0900274, 34.41116573], [72.0899741, 34.41116111], [72.08996109, 34.4112641], [72.09001439, 34.41126872], [72.0900274, 34.41116573]]]]}, "properties": {"id": "8J6JC36Q+FXQH", "height": 3.188459396362305, "hmax": 0.001, "ratio": 0.0, "vulnClass": "none"}}, {"type": "Feature", "geometry": {"type": "MultiPolygon", "coordinates": [[[[72.09123678, 34.41119757], [72.09115924, 34.41119033], [72.09115393, 34.41122934], [72.09123147, 34.41123659], [72.09123678, 34.41119757]]]]}, "properties": {"id": "8J6JC36R+FFPF", "height": 4.299522876739502, "hmax": 0.002, "ratio": 0.001, "vulnClass": "none"}}, {"type": "Feature", "geometry": {"type": "MultiPolygon", "coordinates": [[[[72.09165406, 34.41132319], [72.0914208, 34.41130917], [72.09141309, 34.41139732], [72.09164635, 34.41141134], [72.09165406, 34.41132319]]]]}, "properties": {"id": "8J6JC36R+GJVC", "height": 3.102704048156738, "hmax": 0.0, "ratio": 0.0, "vulnClass": "none"}}, {"type": "Feature", "geometry": {"type": "MultiPolygon", "coordinates": [[[[72.08917034, 34.41088399], [72.08912456, 34.41081109], [72.0890614, 34.41083834], [72.08910718, 34.41091124], [72.08917034, 34.41088399]]]]}, "properties": {"id": "8J6JC36Q+8JXG", "height": 2.724023342132568, "hmax": 0.001, "ratio": 0.0, "vulnClass": "none"}}, {"type": "Feature", "geometry": {"type": "MultiPolygon", "coordinates": [[[[72.08909158, 34.41074152], [72.08907369, 34.41070538], [72.08900488, 34.41072877], [72.08902277, 34.41076491], [72.08909158, 34.41074152]]]]}, "properties": {"id": "8J6JC36Q+7JVG", "height": 2.741490125656128, "hmax": 0.001, "ratio": 0.0, "vulnClass": "none"}}, {"type": "Feature", "geometry": {"type": "MultiPolygon", "coordinates": [[[[72.08985453, 34.41096409], [72.08982939, 34.41088783], [72.08965848, 34.41092654], [72.08968362, 34.4110028], [72.08985453, 34.41096409]]]]}, "properties": {"id": "8J6JC36Q+9WCR", "height": 2.569682598114014, "hmax": 0.001, "ratio": 0.0, "vulnClass": "none"}}, {"type": "Feature", "geometry": {"type": "MultiPolygon", "coordinates": [[[[72.08959467, 34.41058616], [72.08958312, 34.4105362], [72.08952449, 34.4105455], [72.08953603, 34.41059546], [72.08959467, 34.41058616]]]]}, "properties": {"id": "8J6JC36Q+6RFQ", "height": 2.485336303710938, "hmax": 0.001, "ratio": 0.0, "vulnClass": "none"}}, {"type": "Feature", "geometry": {"type": "MultiPolygon", "coordinates": [[[[72.088886, 34.4107908], [72.0888073, 34.4108216], [72.0889363, 34.4110485], [72.089015, 34.4110177], [72.088886, 34.4107908]]]]}, "properties": {"id": "8J6JC36Q+9H7J", "height": 3.522170066833496, "hmax": 0.001, "ratio": 0.0, "vulnClass": "none"}}, {"type": "Feature", "geometry": {"type": "MultiPolygon", "coordinates": [[[[72.08892189, 34.41102942], [72.0888824, 34.41096024], [72.08871497, 34.41102589], [72.08875445, 34.41109507], [72.08892189, 34.41102942]]]]}, "properties": {"id": "8J6JC36Q+CG82", "height": 3.522170066833496, "hmax": 0.001, "ratio": 0.0, "vulnClass": "none"}}, {"type": "Feature", "geometry": {"type": "MultiPolygon", "coordinates": [[[[72.0796901, 34.40944022], [72.07964009, 34.409442], [72.07964844, 34.40960326], [72.07969845, 34.40960148], [72.07970089, 34.40964874], [72.07990541, 34.40964147], [72.07989879, 34.40951361], [72.07969428, 34.40952088], [72.0796901, 34.40944022]]]]}, "properties": {"id": "8J6JC35H+RWCP", "height": 2.84017276763916, "hmax": 0.002, "ratio": 0.001, "vulnClass": "none"}}, {"type": "Feature", "geometry": {"type": "MultiPolygon", "coordinates": [[[[72.08019131, 34.40938438], [72.08018451, 34.40925301], [72.0801605, 34.40925386], [72.08016185, 34.40927988], [72.08008835, 34.4092825], [72.080087, 34.40925648], [72.08002945, 34.40925853], [72.08003207, 34.40930919], [72.07995175, 34.40931205], [72.07995593, 34.40939275], [72.08019131, 34.40938438]]]]}, "properties": {"id": "8J6JC35J+P2P8", "height": 2.94273853302002, "hmax": 0.002, "ratio": 0.001, "vulnClass": "none"}}, {"type": "Feature", "geometry": {"type": "MultiPolygon", "coordinates": [[[[72.08472156, 34.40740284], [72.08443021, 34.4072957], [72.08441009, 34.40733328], [72.08470144, 34.40744043], [72.08472156, 34.40740284]]]]}, "properties": {"id": "8J6JC34M+WRWJ", "height": 3.18709659576416, "hmax": 0.002, "ratio": 0.001, "vulnClass": "none"}}, {"type": "Feature", "geometry": {"type": "MultiPolygon", "coordinates": [[[[72.08444052, 34.40728398], [72.08444428, 34.40725613], [72.08441226, 34.40725316], [72.0844085, 34.40728101], [72.08444052, 34.40728398]]]]}, "properties": {"id": "8J6JC34M+WQ3P", "height": 2.641433238983154, "hmax": 0.002, "ratio": 0.001, "vulnClass": "none"}}, {"type": "Feature", "geometry": {"type": "MultiPolygon", "coordinates": [[[[72.08444512, 34.40726784], [72.08443021, 34.4072957], [72.08457861, 34.40735027], [72.08459352, 34.40732242], [72.08444512, 34.40726784]]]]}, "properties": {"id": "8J6JC34M+WRC7", "height": 2.961993932723999, "hmax": 0.002, "ratio": 0.001, "vulnClass": "none"}}, {"type": "Feature", "geometry": {"type": "MultiPolygon", "coordinates": [[[[72.08545181, 34.40698856], [72.08539478, 34.40698076], [72.08537907, 34.40705966], [72.08543609, 34.40706747], [72.08545181, 34.40698856]]]]}, "properties": {"id": "8J6JC34P+R53V", "height": 2.481349468231201, "hmax": 0.002, "ratio": 0.001, "vulnClass": "none"}}, {"type": "Feature", "geometry": {"type": "MultiPolygon", "coordinates": [[[[72.08534937, 34.40671104], [72.08529772, 34.40670134], [72.08527964, 34.40676747], [72.08533129, 34.40677717], [72.08534937, 34.40671104]]]]}, "properties": {"id": "8J6JC34P+M4WC", "height": 3.105971097946167, "hmax": 0.002, "ratio": 0.001, "vulnClass": "none"}}, {"type": "Feature", "geometry": {"type": "MultiPolygon", "coordinates": [[[[72.08550497, 34.40669977], [72.0853838, 34.40667603], [72.08536085, 34.40675649], [72.08541416, 34.40676694], [72.08542556, 34.40672697], [72.08549342, 34.40674026], [72.08550497, 34.40669977]]]]}, "properties": {"id": "8J6JC34P+M5MP", "height": 5.003341674804688, "hmax": 0.002, "ratio": 0.0, "vulnClass": "none"}}, {"type": "Feature", "geometry": {"type": "MultiPolygon", "coordinates": [[[[72.08844302, 34.40770131], [72.08844442, 34.40765652], [72.08830833, 34.40765359], [72.08830541, 34.40774703], [72.0880725, 34.40774203], [72.08807099, 34.40779007], [72.08837317, 34.40779656], [72.08837619, 34.40769987], [72.08844302, 34.40770131]]]]}, "properties": {"id": "8J6JC35Q+38RH", "height": 2.759099721908569, "hmax": 0.001, "ratio": 0.0, "vulnClass": "none"}}, {"type": "Feature", "geometry": {"type": "MultiPolygon", "coordinates": [[[[72.08975196, 34.40821556], [72.08964159, 34.40819607], [72.0895968, 34.40837037], [72.08970718, 34.40838985], [72.08975196, 34.40821556]]]]}, "properties": {"id": "8J6JC35Q+8V7P", "height": 3.240896940231323, "hmax": 0.002, "ratio": 0.001, "vulnClass": "none"}}, {"type": "Feature", "geometry": {"type": "MultiPolygon", "coordinates": [[[[72.08949443, 34.40808599], [72.08933439, 34.40806739], [72.08929436, 34.40830398], [72.08960793, 34.40834042], [72.08963128, 34.40820238], [72.08959024, 34.40819761], [72.08957548, 34.40828486], [72.08940007, 34.40826448], [72.08941484, 34.40817723], [72.08947776, 34.40818454], [72.08949443, 34.40808599]]]]}, "properties": {"id": "8J6JC35Q+7QMQ", "height": 2.761054992675781, "hmax": 0.002, "ratio": 0.001, "vulnClass": "none"}}, {"type": "Feature", "geometry": {"type": "MultiPolygon", "coordinates": [[[[72.08823401, 34.40794668], [72.08818241, 34.4079473], [72.08818352, 34.40801105], [72.08823512, 34.40801043], [72.08823401, 34.40794668]]]]}, "properties": {"id": "8J6JC35Q+57W4", "height": 2.812165260314941, "hmax": 0.001, "ratio": 0.0, "vulnClass": "none"}}, {"type": "Feature", "geometry": {"type": "MultiPolygon", "coordinates": [[[[72.0883049, 34.4078683], [72.0882639, 34.4078686], [72.0882652, 34.4079967], [72.0883062, 34.4079964], [72.0883049, 34.4078683]]]]}, "properties": {"id": "8J6JC35Q+58F6", "height": 2.764198064804077, "hmax": 0.001, "ratio": 0.0, "vulnClass": "none"}}, {"type": "Feature", "geometry": {"type": "MultiPolygon", "coordinates": [[[[72.08823001, 34.40781776], [72.08809881, 34.40782136], [72.08810103, 34.40787698], [72.08823223, 34.40787338], [72.08823001, 34.40781776]]]]}, "properties": {"id": "8J6JC35Q+47MV", "height": 2.78536057472229, "hmax": 0.001, "ratio": 0.0, "vulnClass": "none"}}, {"type": "Feature", "geometry": {"type": "MultiPolygon", "coordinates": [[[[72.0895146, 34.408732], [72.089405, 34.4087238], [72.0893974, 34.4087934], [72.089507, 34.4088016], [72.0895146, 34.408732]]]]}, "properties": {"id": "8J6JC35Q+GQ4G", "height": 2.768994808197021, "hmax": 0.002, "ratio": 0.001, "vulnClass": "none"}}, {"type": "Feature", "geometry": {"type": "MultiPolygon", "coordinates": [[[[72.08948462, 34.40832359], [72.0893138, 34.40832021], [72.08931066, 34.4084295], [72.08942393, 34.40843174], [72.08942082, 34.40853977], [72.08947709, 34.40854088], [72.08948462, 34.40832359]]]]}, "properties": {"id": "8J6JC35Q+9Q72", "height": 3.274691104888916, "hmax": 0.002, "ratio": 0.001, "vulnClass": "none"}}, {"type": "Feature", "geometry": {"type": "MultiPolygon", "coordinates": [[[[72.08941723, 34.40854234], [72.08931087, 34.40852998], [72.08930045, 34.4085916], [72.0894068, 34.40860396], [72.08941723, 34.40854234]]]]}, "properties": {"id": "8J6JC35Q+CPHM", "height": 4.253774642944336, "hmax": 0.002, "ratio": 0.001, "vulnClass": "none"}}, {"type": "Feature", "geometry": {"type": "MultiPolygon", "coordinates": [[[[72.08976244, 34.40853094], [72.08948801, 34.40849905], [72.0894758, 34.40857122], [72.08975023, 34.40860311], [72.08976244, 34.40853094]]]]}, "properties": {"id": "8J6JC35Q+CRH5", "height": 4.671735763549805, "hmax": 0.002, "ratio": 0.0, "vulnClass": "none"}}, {"type": "Feature", "geometry": {"type": "MultiPolygon", "coordinates": [[[[72.08947946, 34.40854957], [72.08941723, 34.40854234], [72.0894068, 34.40860396], [72.08946904, 34.40861119], [72.08947946, 34.40854957]]]]}, "properties": {"id": "8J6JC35Q+CQP2", "height": 5.043817520141602, "hmax": 0.002, "ratio": 0.0, "vulnClass": "none"}}, {"type": "Feature", "geometry": {"type": "MultiPolygon", "coordinates": [[[[72.08965383, 34.40859191], [72.0894758, 34.40857122], [72.08946904, 34.40861119], [72.08964707, 34.40863188], [72.08965383, 34.40859191]]]]}, "properties": {"id": "8J6JC35Q+CRV5", "height": 5.043817520141602, "hmax": 0.002, "ratio": 0.0, "vulnClass": "none"}}, {"type": "Feature", "geometry": {"type": "MultiPolygon", "coordinates": [[[[72.08962325, 34.40862912], [72.0895818, 34.4086243], [72.08956407, 34.40872906], [72.08960553, 34.40873388], [72.08962325, 34.40862912]]]]}, "properties": {"id": "8J6JC35Q+FRG5", "height": 2.910853862762451, "hmax": 0.002, "ratio": 0.001, "vulnClass": "none"}}, {"type": "Feature", "geometry": {"type": "MultiPolygon", "coordinates": [[[[72.0895457, 34.40834993], [72.08948934, 34.40834736], [72.08948127, 34.40846877], [72.08953763, 34.40847134], [72.0895457, 34.40834993]]]]}, "properties": {"id": "8J6JC35Q+9R67", "height": 3.080963134765625, "hmax": 0.002, "ratio": 0.001, "vulnClass": "none"}}, {"type": "Feature", "geometry": {"type": "MultiPolygon", "coordinates": [[[[72.09121784, 34.40888792], [72.09117494, 34.40887018], [72.09114311, 34.40892304], [72.09118601, 34.40894078], [72.09121784, 34.40888792]]]]}, "properties": {"id": "8J6JC35R+HF79", "height": 2.776804208755493, "hmax": 0.0, "ratio": 0.0, "vulnClass": "none"}}, {"type": "Feature", "geometry": {"type": "MultiPolygon", "coordinates": [[[[72.09084594, 34.40956226], [72.09061856, 34.40955409], [72.09061406, 34.40964015], [72.09084144, 34.40964832], [72.09084594, 34.40956226]]]]}, "properties": {"id": "8J6JC35R+R7X3", "height": 2.627134323120117, "hmax": 0.002, "ratio": 0.001, "vulnClass": "none"}}, {"type": "Feature", "geometry": {"type": "MultiPolygon", "coordinates": [[[[72.09028174, 34.41037375], [72.09022214, 34.40991851], [72.09010916, 34.40992866], [72.09016876, 34.41038391], [72.09028174, 34.41037375]]]]}, "properties": {"id": "8J6JC36R+3383", "height": 2.822457790374756, "hmax": 0.002, "ratio": 0.001, "vulnClass": "none"}}, {"type": "Feature", "geometry": {"type": "MultiPolygon", "coordinates": [[[[72.0904378, 34.41007373], [72.09038247, 34.41007502], [72.09038642, 34.41019136], [72.09044175, 34.41019007], [72.0904378, 34.41007373]]]]}, "properties": {"id": "8J6JC36R+3536", "height": 2.473189830780029, "hmax": 0.002, "ratio": 0.001, "vulnClass": "none"}}, {"type": "Feature", "geometry": {"type": "MultiPolygon", "coordinates": [[[[72.0923577, 34.40987689], [72.09227416, 34.40987887], [72.09227581, 34.40992672], [72.09235935, 34.40992474], [72.0923577, 34.40987689]]]]}, "properties": {"id": "8J6JC35R+XW82", "height": 5.164350509643555, "hmax": 0.002, "ratio": 0.0, "vulnClass": "none"}}, {"type": "Feature", "geometry": {"type": "MultiPolygon", "coordinates": [[[[72.09232444, 34.41018138], [72.0923002, 34.41009554], [72.09203727, 34.41014655], [72.09206151, 34.41023238], [72.09232444, 34.41018138]]]]}, "properties": {"id": "8J6JC36R+3V7H", "height": 3.173662662506104, "hmax": 0.002, "ratio": 0.001, "vulnClass": "none"}}, {"type": "Feature", "geometry": {"type": "MultiPolygon", "coordinates": [[[[72.0925538, 34.4100871], [72.0925109, 34.4099349], [72.092464, 34.409944], [72.0924953, 34.4100548], [72.0922994, 34.4100928], [72.0923244, 34.4101814], [72.0925203, 34.4101434], [72.092507, 34.4100962], [72.0925538, 34.4100871]]]]}, "properties": {"id": "8J6JC36R+2XPC", "height": 3.980810165405273, "hmax": 0.002, "ratio": 0.001, "vulnClass": "none"}}, {"type": "Feature", "geometry": {"type": "MultiPolygon", "coordinates": [[[[72.09238465, 34.40766426], [72.09235558, 34.40762726], [72.09230626, 34.40765388], [72.09233534, 34.40769088], [72.09238465, 34.40766426]]]]}, "properties": {"id": "8J6JC35R+3W96", "height": 2.698261260986328, "hmax": 0.001, "ratio": 0.0, "vulnClass": "none"}}, {"type": "Feature", "geometry": {"type": "MultiPolygon", "coordinates": [[[[72.09256616, 34.40736975], [72.09249051, 34.40729358], [72.09245849, 34.40731543], [72.09253413, 34.4073916], [72.09256616, 34.40736975]]]]}, "properties": {"id": "8J6JC34V+W2JM", "height": 2.749224901199341, "hmax": 0.001, "ratio": 0.0, "vulnClass": "none"}}, {"type": "Feature", "geometry": {"type": "MultiPolygon", "coordinates": [[[[72.0925359, 34.40744304], [72.09253839, 34.40742307], [72.09248048, 34.40741811], [72.09247504, 34.4074618], [72.09250191, 34.4074641], [72.0925359, 34.40744304]]]]}, "properties": {"id": "8J6JC34V+X2CC", "height": 2.951807975769043, "hmax": 0.001, "ratio": 0.0, "vulnClass": "none"}}, {"type": "Feature", "geometry": {"type": "MultiPolygon", "coordinates": [[[[72.0924474, 34.40748049], [72.09238015, 34.40741028], [72.09234493, 34.40743346], [72.09241218, 34.40750367], [72.0924474, 34.40748049]]]]}, "properties": {"id": "8J6JC34R+XXJ8", "height": 2.594505786895752, "hmax": 0.001, "ratio": 0.0, "vulnClass": "none"}}, {"type": "Feature", "geometry": {"type": "MultiPolygon", "coordinates": [[[[72.09233463, 34.4075942], [72.09224417, 34.40749976], [72.09217424, 34.40754577], [72.0922647, 34.40764021], [72.09233463, 34.4075942]]]]}, "properties": {"id": "8J6JC35R+2WCJ", "height": 2.715120792388916, "hmax": 0.001, "ratio": 0.0, "vulnClass": "none"}}, {"type": "Feature", "geometry": {"type": "MultiPolygon", "coordinates": [[[[72.09239946, 34.40775103], [72.0923002, 34.40767087], [72.09223891, 34.40772301], [72.09233818, 34.40780317], [72.09239946, 34.40775103]]]]}, "properties": {"id": "8J6JC35R+3WWC", "height": 2.659799814224243, "hmax": 0.001, "ratio": 0.0, "vulnClass": "none"}}, {"type": "Feature", "geometry": {"type": "MultiPolygon", "coordinates": [[[[72.0922812, 34.4078719], [72.0922462, 34.4079029], [72.0923347, 34.4079713], [72.0923696, 34.4079402], [72.0922812, 34.4078719]]]]}, "properties": {"id": "8J6JC35R+5W7X", "height": 3.261420726776123, "hmax": 0.0, "ratio": 0.0, "vulnClass": "none"}}, {"type": "Feature", "geometry": {"type": "MultiPolygon", "coordinates": [[[[72.09247398, 34.40781119], [72.09239946, 34.40775103], [72.09233818, 34.40780317], [72.09237481, 34.40783274], [72.09239579, 34.40781489], [72.09243367, 34.40784548], [72.09247398, 34.40781119]]]]}, "properties": {"id": "8J6JC35R+4XF2", "height": 2.954619407653809, "hmax": 0.0, "ratio": 0.0, "vulnClass": "none"}}, {"type": "Feature", "geometry": {"type": "MultiPolygon", "coordinates": [[[[72.09235183, 34.40786108], [72.09233539, 34.40783391], [72.09229597, 34.40785029], [72.09231241, 34.40787746], [72.09235183, 34.40786108]]]]}, "properties": {"id": "8J6JC35R+4WW7", "height": 2.581586837768555, "hmax": 0.0, "ratio": 0.0, "vulnClass": "none"}}, {"type": "Feature", "geometry": {"type": "MultiPolygon", "coordinates": [[[[72.09266103, 34.40780791], [72.09257642, 34.40775876], [72.09250474, 34.40784354], [72.09258935, 34.40789269], [72.09266103, 34.40780791]]]]}, "properties": {"id": "8J6JC35V+42P4", "height": 3.3516845703125, "hmax": 0.0, "ratio": 0.0, "vulnClass": "none"}}, {"type": "Feature", "geometry": {"type": "MultiPolygon", "coordinates": [[[[72.09170026, 34.40687299], [72.09159842, 34.40676255], [72.09154042, 34.40679929], [72.09164226, 34.40690973], [72.09170026, 34.40687299]]]]}, "properties": {"id": "8J6JC34R+PJQH", "height": 2.473257303237915, "hmax": 0.0, "ratio": 0.0, "vulnClass": "none"}}, {"type": "Feature", "geometry": {"type": "MultiPolygon", "coordinates": [[[[72.09266328, 34.40708656], [72.09261042, 34.40703008], [72.09245575, 34.40712952], [72.09250861, 34.407186], [72.09266328, 34.40708656]]]]}, "properties": {"id": "8J6JC34V+R2V9", "height": 2.440723896026611, "hmax": 0.001, "ratio": 0.0, "vulnClass": "none"}}]}