{"type": "FeatureCollection", "features": [{"type": "Feature", "geometry": {"type": "MultiPolygon", "coordinates": [[[[72.07573474, 34.48339376], [72.07557339, 34.48336729], [72.07555666, 34.48343723], [72.07571801, 34.48346371], [72.07573474, 34.48339376]]]]}, "properties": {"id": "8J6JF3MG+976P", "height": 2.771937608718872, "hmax": 0.0, "ratio": 0.0, "vulnClass": "none"}}, {"type": "Feature", "geometry": {"type": "MultiPolygon", "coordinates": [[[[72.07574817, 34.48312652], [72.07565702, 34.48310808], [72.07561833, 34.48323924], [72.07577244, 34.48327041], [72.07579414, 34.48319688], [72.07573117, 34.48318414], [72.07574817, 34.48312652]]]]}, "properties": {"id": "8J6JF3MG+77GV", "height": 2.907213687896729, "hmax": 0.0, "ratio": 0.0, "vulnClass": "none"}}, {"type": "Feature", "geometry": {"type": "MultiPolygon", "coordinates": [[[[72.06485611, 34.48726869], [72.06483698, 34.48722561], [72.06471098, 34.48726398], [72.06473012, 34.48730706], [72.06485611, 34.48726869]]]]}, "properties": {"id": "8J6JF3P7+WW3J", "height": 2.857520580291748, "hmax": 0.0, "ratio": 0.0, "vulnClass": "none"}}, {"type": "Feature", "geometry": {"type": "MultiPolygon", "coordinates": [[[[72.06470325, 34.48731833], [72.0646731, 34.48722717], [72.06452667, 34.48726038], [72.06455683, 34.48735154], [72.06470325, 34.48731833]]]]}, "properties": {"id": "8J6JF3P7+WR9G", "height": 4.365418910980225, "hmax": 0.0, "ratio": 0.0, "vulnClass": "none"}}, {"type": "Feature", "geometry": {"type": "MultiPolygon", "coordinates": [[[[72.0759529, 34.4864596], [72.0759385, 34.4863863], [72.0756848, 34.4864206], [72.0757204, 34.4866017], [72.0758941, 34.4865783], [72.0758729, 34.4864704], [72.0759529, 34.4864596]]]]}, "properties": {"id": "8J6JF3PG+H8VH", "height": 3.288354873657227, "hmax": 0.0, "ratio": 0.0, "vulnClass": "none"}}, {"type": "Feature", "geometry": {"type": "MultiPolygon", "coordinates": [[[[72.07743437, 34.48485744], [72.0774412, 34.48479203], [72.07737928, 34.48478759], [72.07737008, 34.48487558], [72.07724497, 34.48486662], [72.07725416, 34.48477863], [72.07720275, 34.48477495], [72.0771844, 34.48495058], [72.07731896, 34.48496022], [72.07731538, 34.48499445], [72.07746398, 34.4850051], [72.07747907, 34.48486064], [72.07743437, 34.48485744]]]]}, "properties": {"id": "8J6JF3MG+XW85", "height": 3.598424196243286, "hmax": 0.131, "ratio": 0.036, "vulnClass": "none"}}, {"type": "Feature", "geometry": {"type": "MultiPolygon", "coordinates": [[[[72.07747627, 34.48509496], [72.07744908, 34.48509431], [72.07744798, 34.48512583], [72.07747517, 34.48512648], [72.07747627, 34.48509496]]]]}, "properties": {"id": "8J6JF3PG+2XWH", "height": 2.527689933776855, "hmax": 0.299, "ratio": 0.118, "vulnClass": "low"}}, {"type": "Feature", "geometry": {"type": "MultiPolygon", "coordinates": [[[[72.07636341, 34.48671813], [72.0763373, 34.48658506], [72.07615145, 34.48661006], [72.07617756, 34.48674313], [72.07636341, 34.48671813]]]]}, "properties": {"id": "8J6JF3PG+MG6C", "height": 3.351816415786743, "hmax": 0.134, "ratio": 0.04, "vulnClass": "none"}}, {"type": "Feature", "geometry": {"type": "MultiPolygon", "coordinates": [[[[72.0759529, 34.4864596], [72.0759385, 34.4863863], [72.0756848, 34.4864206], [72.0757204, 34.4866017], [72.0758941, 34.4865783], [72.0758729, 34.4864704], [72.0759529, 34.4864596]]]]}, "properties": {"id": "8J6JF3PG+H8VH", "height": 3.288354873657227, "hmax": 0.0, "ratio": 0.0, "vulnClass": "none"}}, {"type": "Feature", "geometry": {"type": "MultiPolygon", "coordinates": [[[[72.07635142, 34.4865786], [72.07633545, 34.48649536], [72.07604854, 34.4865331], [72.0760645, 34.48661634], [72.07635142, 34.4865786]]]]}, "properties": {"id": "8J6JF3PG+JFG7", "height": 3.351816415786743, "hmax": 0.148, "ratio": 0.044, "vulnClass": "none"}}]}