{"type": "FeatureCollection", "features": [{"type": "Feature", "geometry": {"type": "MultiPolygon", "coordinates": [[[[72.13835837, 34.56686681], [72.13835561, 34.56681481], [72.13823514, 34.56681913], [72.1382379, 34.56687114], [72.13835837, 34.56686681]]]]}, "properties": {"id": "Pakistan_123102132_461021", "height": 2.493350028991699, "hmax": 0.002, "ratio": 0.001, "vulnClass": "none"}}, {"type": "Feature", "geometry": {"type": "MultiPolygon", "coordinates": [[[[72.13929189, 34.56323777], [72.13921818, 34.56324984], [72.13923079, 34.56330204], [72.1393045, 34.56328996], [72.13929189, 34.56323777]]]]}, "properties": {"id": "Pakistan_123102132_525512", "height": 2.664664506912231, "hmax": 0.001, "ratio": 0.0, "vulnClass": "none"}}, {"type": "Feature", "geometry": {"type": "MultiPolygon", "coordinates": [[[[72.14184774, 34.56308345], [72.14185099, 34.56301839], [72.14180969, 34.563017], [72.14180715, 34.56306771], [72.14160365, 34.56306083], [72.14160078, 34.56311816], [72.1417733, 34.563124], [72.14176962, 34.56319787], [72.14189164, 34.56320201], [72.14189748, 34.56308514], [72.14184774, 34.56308345]]]]}, "properties": {"id": "Pakistan_123102132_454878", "height": 2.799502611160278, "hmax": 0.001, "ratio": 0.0, "vulnClass": "none"}}, {"type": "Feature", "geometry": {"type": "MultiPolygon", "coordinates": [[[[72.14174748, 34.56417443], [72.1417466, 34.56413689], [72.14169442, 34.56413772], [72.1416953, 34.56417526], [72.14174748, 34.56417443]]]]}, "properties": {"id": "Pakistan_123102132_589659", "height": 3.125462532043457, "hmax": 0.001, "ratio": 0.0, "vulnClass": "none"}}, {"type": "Feature", "geometry": {"type": "MultiPolygon", "coordinates": [[[[72.14192686, 34.56396702], [72.14180634, 34.56396319], [72.14180075, 34.56408228], [72.14176861, 34.56408126], [72.1417653, 34.56415183], [72.14180815, 34.5641532], [72.14180691, 34.56417966], [72.14191672, 34.56418316], [72.14192686, 34.56396702]]]]}, "properties": {"id": "Pakistan_123102132_427218", "height": 3.451459407806396, "hmax": 0.001, "ratio": 0.0, "vulnClass": "none"}}]}