{"type": "FeatureCollection", "features": [{"type": "Feature", "geometry": {"type": "MultiPolygon", "coordinates": [[[[72.1243337, 34.12274455], [72.12424856, 34.12272466], [72.12423611, 34.12276153], [72.12432125, 34.12278141], [72.1243337, 34.12274455]]]]}, "properties": {"id": "8J6J44FF+4P32", "height": 2.658103704452515, "hmax": 0.001, "ratio": 0.0, "vulnClass": "none"}}, {"type": "Feature", "geometry": {"type": "MultiPolygon", "coordinates": [[[[72.1248128, 34.1213814], [72.124806, 34.1214217], [72.1250784, 34.1214537], [72.1250852, 34.1214134], [72.1248128, 34.1213814]]]]}, "properties": {"id": "8J6J44CF+HX8M", "height": 3.863656282424927, "hmax": 0.005, "ratio": 0.001, "vulnClass": "none"}}, {"type": "Feature", "geometry": {"type": "MultiPolygon", "coordinates": [[[[72.12484958, 34.12147806], [72.12485813, 34.12142784], [72.12478554, 34.1214193], [72.12477164, 34.12150106], [72.12480543, 34.12150504], [72.12481079, 34.1214735], [72.12484958, 34.12147806]]]]}, "properties": {"id": "8J6J44CF+HWM9", "height": 2.764316082000732, "hmax": 0.005, "ratio": 0.002, "vulnClass": "none"}}, {"type": "Feature", "geometry": {"type": "MultiPolygon", "coordinates": [[[[72.12489732, 34.12134022], [72.12482136, 34.12133129], [72.12481284, 34.12138139], [72.1248888, 34.12139033], [72.12489732, 34.12134022]]]]}, "properties": {"id": "8J6J44CF+GWXF", "height": 4.418324947357178, "hmax": 0.005, "ratio": 0.001, "vulnClass": "none"}}, {"type": "Feature", "geometry": {"type": "MultiPolygon", "coordinates": [[[[72.1333651, 34.1140823], [72.1332565, 34.11404658], [72.13324047, 34.11408029], [72.13334907, 34.11411601], [72.1333651, 34.1140823]]]]}, "properties": {"id": "8J6J447M+J8M8", "height": 3.268064022064209, "hmax": 0.003, "ratio": 0.001, "vulnClass": "none"}}, {"type": "Feature", "geometry": {"type": "MultiPolygon", "coordinates": [[[[72.13499498, 34.11377511], [72.13498404, 34.11369473], [72.13489285, 34.11370332], [72.13490379, 34.1137837], [72.13499498, 34.11377511]]]]}, "properties": {"id": "8J6J447M+FXWC", "height": 3.057365417480469, "hmax": 0.001, "ratio": 0.0, "vulnClass": "none"}}, {"type": "Feature", "geometry": {"type": "MultiPolygon", "coordinates": [[[[72.13497762, 34.11361866], [72.13490802, 34.11362093], [72.13491033, 34.11367], [72.13497993, 34.11366774], [72.13497762, 34.11361866]]]]}, "properties": {"id": "8J6J447M+FX4J", "height": 3.398444175720215, "hmax": 0.001, "ratio": 0.0, "vulnClass": "none"}}, {"type": "Feature", "geometry": {"type": "MultiPolygon", "coordinates": [[[[72.13666573, 34.11692972], [72.13666372, 34.11688908], [72.13629123, 34.11690185], [72.13629324, 34.11694249], [72.1364339, 34.11693767], [72.13643558, 34.11697157], [72.13648842, 34.11696976], [72.13648674, 34.11693586], [72.13666573, 34.11692972]]]]}, "properties": {"id": "8J6J448P+QH9M", "height": 2.625853538513184, "hmax": 0.001, "ratio": 0.0, "vulnClass": "none"}}, {"type": "Feature", "geometry": {"type": "MultiPolygon", "coordinates": [[[[72.12982204, 34.11633213], [72.12977513, 34.11632555], [72.12976177, 34.11639138], [72.12980868, 34.11639797], [72.12982204, 34.11633213]]]]}, "properties": {"id": "8J6J448H+GWVF", "height": 2.597132444381714, "hmax": 0.001, "ratio": 0.0, "vulnClass": "none"}}, {"type": "Feature", "geometry": {"type": "MultiPolygon", "coordinates": [[[[72.13056749, 34.11588898], [72.13054077, 34.1158865], [72.13053551, 34.11592573], [72.13057812, 34.11592968], [72.13056749, 34.11588898]]]]}, "properties": {"id": "8J6J448J+9679", "height": 3.152211427688599, "hmax": 0.001, "ratio": 0.0, "vulnClass": "none"}}, {"type": "Feature", "geometry": {"type": "MultiPolygon", "coordinates": [[[[72.12950412, 34.11538997], [72.12943915, 34.11538845], [72.12943793, 34.11542448], [72.1295029, 34.115426], [72.12950412, 34.11538997]]]]}, "properties": {"id": "8J6J448H+5Q96", "height": 2.704748868942261, "hmax": 0.0, "ratio": 0.0, "vulnClass": "none"}}, {"type": "Feature", "geometry": {"type": "MultiPolygon", "coordinates": [[[[72.12995971, 34.11523887], [72.12986397, 34.11523565], [72.1298592, 34.11533402], [72.12995493, 34.11533724], [72.12995971, 34.11523887]]]]}, "properties": {"id": "8J6J448H+4X7C", "height": 2.692883014678955, "hmax": 0.0, "ratio": 0.0, "vulnClass": "none"}}, {"type": "Feature", "geometry": {"type": "MultiPolygon", "coordinates": [[[[72.13043432, 34.11530587], [72.13040772, 34.11527733], [72.13025783, 34.115374], [72.13028443, 34.11540254], [72.13043432, 34.11530587]]]]}, "properties": {"id": "8J6J448J+44QC", "height": 2.452487707138062, "hmax": 0.001, "ratio": 0.0, "vulnClass": "none"}}, {"type": "Feature", "geometry": {"type": "MultiPolygon", "coordinates": [[[[72.13207865, 34.114799], [72.13204837, 34.11480235], [72.13205189, 34.11482438], [72.13208217, 34.11482103], [72.13207865, 34.114799]]]]}, "properties": {"id": "8J6J447J+WRGC", "height": 3.392395496368408, "hmax": 0.002, "ratio": 0.001, "vulnClass": "none"}}, {"type": "Feature", "geometry": {"type": "MultiPolygon", "coordinates": [[[[72.13142793, 34.11507232], [72.13146416, 34.11503442], [72.13142546, 34.11500884], [72.13138924, 34.11504674], [72.13142793, 34.11507232]]]]}, "properties": {"id": "8J6J448J+2H7P", "height": 3.304862022399902, "hmax": 0.002, "ratio": 0.001, "vulnClass": "none"}}, {"type": "Feature", "geometry": {"type": "MultiPolygon", "coordinates": [[[[72.13142793, 34.11507232], [72.13138924, 34.11504674], [72.13131873, 34.11512051], [72.13137506, 34.11515776], [72.13140048, 34.11513117], [72.13138283, 34.1151195], [72.13142793, 34.11507232]]]]}, "properties": {"id": "8J6J448J+2GX5", "height": 2.949168920516968, "hmax": 0.002, "ratio": 0.001, "vulnClass": "none"}}, {"type": "Feature", "geometry": {"type": "MultiPolygon", "coordinates": [[[[72.13153212, 34.11503718], [72.13145017, 34.11498299], [72.13142546, 34.11500884], [72.13150742, 34.11506302], [72.13153212, 34.11503718]]]]}, "properties": {"id": "8J6J448J+2H5V", "height": 3.304862022399902, "hmax": 0.002, "ratio": 0.001, "vulnClass": "none"}}, {"type": "Feature", "geometry": {"type": "MultiPolygon", "coordinates": [[[[72.13173024, 34.1149794], [72.13161705, 34.11490456], [72.1315065, 34.11502024], [72.13161968, 34.11509507], [72.13173024, 34.1149794]]]]}, "properties": {"id": "8J6J447J+XJXX", "height": 3.935407638549805, "hmax": 0.002, "ratio": 0.001, "vulnClass": "none"}}, {"type": "Feature", "geometry": {"type": "MultiPolygon", "coordinates": [[[[72.13182944, 34.11479694], [72.13179958, 34.11482746], [72.13193438, 34.11491869], [72.13202546, 34.1148256], [72.13198757, 34.11479996], [72.13192636, 34.11486253], [72.13182944, 34.11479694]]]]}, "properties": {"id": "8J6J447J+WQV3", "height": 2.679285049438477, "hmax": 0.002, "ratio": 0.001, "vulnClass": "none"}}, {"type": "Feature", "geometry": {"type": "MultiPolygon", "coordinates": [[[[72.12903132, 34.11348496], [72.12898521, 34.11346943], [72.12896902, 34.11350268], [72.12901514, 34.11351821], [72.12903132, 34.11348496]]]]}, "properties": {"id": "8J6J447H+9JRJ", "height": 2.533874750137329, "hmax": 0.0, "ratio": 0.0, "vulnClass": "none"}}, {"type": "Feature", "geometry": {"type": "MultiPolygon", "coordinates": [[[[72.12908168, 34.11355277], [72.12900425, 34.11353726], [72.1289724, 34.11364725], [72.12903228, 34.11365924], [72.1290435, 34.11362047], [72.12906106, 34.11362399], [72.12908168, 34.11355277]]]]}, "properties": {"id": "8J6J447H+CJJX", "height": 2.910665988922119, "hmax": 0.0, "ratio": 0.0, "vulnClass": "none"}}, {"type": "Feature", "geometry": {"type": "MultiPolygon", "coordinates": [[[[72.12899119, 34.1135907], [72.12894155, 34.11357919], [72.12893029, 34.11361278], [72.12897994, 34.11362429], [72.12899119, 34.1135907]]]]}, "properties": {"id": "8J6J447H+CHW4", "height": 2.910665988922119, "hmax": 0.0, "ratio": 0.0, "vulnClass": "none"}}, {"type": "Feature", "geometry": {"type": "MultiPolygon", "coordinates": [[[[72.13103863, 34.11521859], [72.13097811, 34.11516152], [72.13071059, 34.1153578], [72.1308278, 34.11546832], [72.13087611, 34.11543287], [72.13081943, 34.11537942], [72.13103863, 34.11521859]]]]}, "properties": {"id": "8J6J448J+48H9", "height": 2.514125823974609, "hmax": 0.001, "ratio": 0.0, "vulnClass": "none"}}, {"type": "Feature", "geometry": {"type": "MultiPolygon", "coordinates": [[[[72.13043056, 34.11525061], [72.1304053, 34.11522351], [72.13034502, 34.11526239], [72.13037028, 34.11528949], [72.13043056, 34.11525061]]]]}, "properties": {"id": "8J6J448J+4527", "height": 3.614084005355835, "hmax": 0.001, "ratio": 0.0, "vulnClass": "none"}}, {"type": "Feature", "geometry": {"type": "MultiPolygon", "coordinates": [[[[72.12894155, 34.11357919], [72.12888893, 34.113567], [72.12887768, 34.11360058], [72.12893029, 34.11361278], [72.12894155, 34.11357919]]]]}, "properties": {"id": "8J6J447H+CHMC", "height": 2.736964702606201, "hmax": 0.0, "ratio": 0.0, "vulnClass": "none"}}, {"type": "Feature", "geometry": {"type": "MultiPolygon", "coordinates": [[[[72.12582437, 34.12127278], [72.12578544, 34.12126384], [72.12577448, 34.12129686], [72.12581342, 34.12130579], [72.12582437, 34.12127278]]]]}, "properties": {"id": "8J6J44CG+G878", "height": 2.607218265533447, "hmax": 0.008, "ratio": 0.003, "vulnClass": "none"}}, {"type": "Feature", "geometry": {"type": "MultiPolygon", "coordinates": [[[[72.12539048, 34.12310169], [72.12532295, 34.12309432], [72.12530199, 34.12322709], [72.12536953, 34.12323446], [72.12539048, 34.12310169]]]]}, "properties": {"id": "8J6J44FG+749C", "height": 2.536971807479858, "hmax": 0.002, "ratio": 0.001, "vulnClass": "none"}}, {"type": "Feature", "geometry": {"type": "MultiPolygon", "coordinates": [[[[72.13167696, 34.12305739], [72.13163161, 34.12305398], [72.13162849, 34.12308269], [72.13167384, 34.1230861], [72.13167696, 34.12305739]]]]}, "properties": {"id": "8J6J44FJ+6MCX", "height": 2.679012775421143, "hmax": 0.003, "ratio": 0.001, "vulnClass": "none"}}, {"type": "Feature", "geometry": {"type": "MultiPolygon", "coordinates": [[[[72.13577968, 34.1248932], [72.13569886, 34.12488734], [72.13569488, 34.12492543], [72.13577569, 34.12493128], [72.13577968, 34.1248932]]]]}, "properties": {"id": "8J6J44FP+X798", "height": 3.625400543212891, "hmax": 0.003, "ratio": 0.001, "vulnClass": "none"}}, {"type": "Feature", "geometry": {"type": "MultiPolygon", "coordinates": [[[[72.13584729, 34.1249967], [72.1358439, 34.12496738], [72.13580643, 34.12497038], [72.13580982, 34.1249997], [72.13584729, 34.1249967]]]]}, "properties": {"id": "8J6J44FP+X8W7", "height": 3.93155574798584, "hmax": 0.003, "ratio": 0.001, "vulnClass": "none"}}, {"type": "Feature", "geometry": {"type": "MultiPolygon", "coordinates": [[[[72.13506281, 34.12333559], [72.13501314, 34.12333419], [72.13500908, 34.12343325], [72.13505875, 34.12343465], [72.13506281, 34.12333559]]]]}, "properties": {"id": "8J6J44FP+9236", "height": 2.759284496307373, "hmax": 0.003, "ratio": 0.001, "vulnClass": "none"}}, {"type": "Feature", "geometry": {"type": "MultiPolygon", "coordinates": [[[[72.13561667, 34.12326108], [72.13505753, 34.12321458], [72.13504547, 34.12331485], [72.13560462, 34.12336136], [72.13561667, 34.12326108]]]]}, "properties": {"id": "8J6J44FP+848G", "height": 2.702961921691895, "hmax": 0.003, "ratio": 0.001, "vulnClass": "none"}}, {"type": "Feature", "geometry": {"type": "MultiPolygon", "coordinates": [[[[72.13730717, 34.11857552], [72.13726078, 34.11858952], [72.13729252, 34.11866226], [72.13733891, 34.11864826], [72.13730717, 34.11857552]]]]}, "properties": {"id": "8J6J449P+CWVP", "height": 2.567909955978394, "hmax": 0.002, "ratio": 0.001, "vulnClass": "none"}}, {"type": "Feature", "geometry": {"type": "MultiPolygon", "coordinates": [[[[72.13712787, 34.1272393], [72.13712236, 34.12717475], [72.13707767, 34.12717739], [72.13707953, 34.12719915], [72.13695789, 34.12720633], [72.13696628, 34.12730474], [72.13701507, 34.12730186], [72.13701033, 34.12724624], [72.13712787, 34.1272393]]]]}, "properties": {"id": "8J6J44GP+VRV6", "height": 3.532877206802368, "hmax": 0.002, "ratio": 0.001, "vulnClass": "none"}}, {"type": "Feature", "geometry": {"type": "MultiPolygon", "coordinates": [[[[72.13725508, 34.12559027], [72.13704682, 34.12557868], [72.13703587, 34.12571484], [72.13724413, 34.12572642], [72.13725508, 34.12559027]]]]}, "properties": {"id": "8J6J44GP+7V64", "height": 5.568113327026367, "hmax": 0.002, "ratio": 0.0, "vulnClass": "none"}}, {"type": "Feature", "geometry": {"type": "MultiPolygon", "coordinates": [[[[72.1373312, 34.12558322], [72.13727685, 34.12558587], [72.1372786, 34.12561072], [72.13733295, 34.12560807], [72.1373312, 34.12558322]]]]}, "properties": {"id": "8J6J44GP+6WMX", "height": 3.681143999099731, "hmax": 0.002, "ratio": 0.001, "vulnClass": "none"}}, {"type": "Feature", "geometry": {"type": "MultiPolygon", "coordinates": [[[[72.13744771, 34.12559616], [72.13737918, 34.12559232], [72.13737619, 34.1256292], [72.13744472, 34.12563305], [72.13744771, 34.12559616]]]]}, "properties": {"id": "8J6J44GP+6XVC", "height": 2.902865409851074, "hmax": 0.002, "ratio": 0.001, "vulnClass": "none"}}, {"type": "Feature", "geometry": {"type": "MultiPolygon", "coordinates": [[[[72.13747976, 34.12559796], [72.13744771, 34.12559616], [72.13744472, 34.12563305], [72.13742411, 34.12563189], [72.13742046, 34.12567694], [72.13747311, 34.1256799], [72.13747976, 34.12559796]]]]}, "properties": {"id": "8J6J44GP+7X4P", "height": 3.035912036895752, "hmax": 0.002, "ratio": 0.001, "vulnClass": "none"}}, {"type": "Feature", "geometry": {"type": "MultiPolygon", "coordinates": [[[[72.13723811, 34.12576618], [72.13703038, 34.12574987], [72.13702029, 34.12583863], [72.13722803, 34.12585495], [72.13723811, 34.12576618]]]]}, "properties": {"id": "8J6J44GP+8VC2", "height": 5.241072177886963, "hmax": 0.004, "ratio": 0.001, "vulnClass": "none"}}, {"type": "Feature", "geometry": {"type": "MultiPolygon", "coordinates": [[[[72.13725592, 34.12674313], [72.13715444, 34.12674663], [72.13715832, 34.1268244], [72.13725979, 34.12682091], [72.13725592, 34.12674313]]]]}, "properties": {"id": "8J6J44GP+PV88", "height": 3.21626091003418, "hmax": 0.002, "ratio": 0.001, "vulnClass": "none"}}, {"type": "Feature", "geometry": {"type": "MultiPolygon", "coordinates": [[[[72.13538973, 34.12677186], [72.13534887, 34.12675679], [72.13526431, 34.12691535], [72.13537517, 34.12695624], [72.13541579, 34.12688008], [72.13534579, 34.12685426], [72.13538973, 34.12677186]]]]}, "properties": {"id": "8J6J44GP+P4WX", "height": 2.604592084884644, "hmax": 0.002, "ratio": 0.001, "vulnClass": "none"}}, {"type": "Feature", "geometry": {"type": "MultiPolygon", "coordinates": [[[[72.13512487, 34.12681562], [72.1348717, 34.12673298], [72.13483788, 34.12680463], [72.13509105, 34.12688727], [72.13512487, 34.12681562]]]]}, "properties": {"id": "8J6J44GM+PXHF", "height": 3.184007883071899, "hmax": 0.003, "ratio": 0.001, "vulnClass": "none"}}, {"type": "Feature", "geometry": {"type": "MultiPolygon", "coordinates": [[[[72.13488465, 34.1266286], [72.13482934, 34.12662295], [72.1348229, 34.12666654], [72.13487821, 34.12667218], [72.13488465, 34.1266286]]]]}, "properties": {"id": "8J6J44GM+MW5V", "height": 3.896135091781616, "hmax": 0.003, "ratio": 0.001, "vulnClass": "none"}}, {"type": "Feature", "geometry": {"type": "MultiPolygon", "coordinates": [[[[72.13497872, 34.1265251], [72.13492136, 34.12652376], [72.13492031, 34.12655483], [72.13497767, 34.12655617], [72.13497872, 34.1265251]]]]}, "properties": {"id": "8J6J44GM+JX8F", "height": 2.501477956771851, "hmax": 0.004, "ratio": 0.002, "vulnClass": "none"}}, {"type": "Feature", "geometry": {"type": "MultiPolygon", "coordinates": [[[[72.1358016, 34.1262432], [72.13576446, 34.1262229], [72.13568664, 34.12632135], [72.13572378, 34.12634165], [72.1358016, 34.1262432]]]]}, "properties": {"id": "8J6J44GP+G799", "height": 2.560133695602417, "hmax": 0.004, "ratio": 0.002, "vulnClass": "none"}}, {"type": "Feature", "geometry": {"type": "MultiPolygon", "coordinates": [[[[72.13488066, 34.12636012], [72.13482661, 34.12635684], [72.13480982, 34.12654835], [72.13486387, 34.12655162], [72.13488066, 34.12636012]]]]}, "properties": {"id": "8J6J44GM+HWQ2", "height": 4.966614723205566, "hmax": 0.004, "ratio": 0.001, "vulnClass": "none"}}, {"type": "Feature", "geometry": {"type": "MultiPolygon", "coordinates": [[[[72.1358016, 34.1262432], [72.13586206, 34.1261667], [72.13582492, 34.12614641], [72.13576446, 34.1262229], [72.1358016, 34.1262432]]]]}, "properties": {"id": "8J6J44GP+F8GJ", "height": 2.712113380432129, "hmax": 0.004, "ratio": 0.002, "vulnClass": "none"}}, {"type": "Feature", "geometry": {"type": "MultiPolygon", "coordinates": [[[[72.13504003, 34.12540307], [72.13502876, 34.12532588], [72.13491498, 34.12533737], [72.13492625, 34.12541456], [72.13504003, 34.12540307]]]]}, "properties": {"id": "8J6J44GM+4XXV", "height": 2.913370847702026, "hmax": 0.005, "ratio": 0.002, "vulnClass": "none"}}, {"type": "Feature", "geometry": {"type": "MultiPolygon", "coordinates": [[[[72.13489814, 34.1254471], [72.13485304, 34.125454], [72.13486117, 34.1254908], [72.13490628, 34.1254839], [72.13489814, 34.1254471]]]]}, "properties": {"id": "8J6J44GM+5XJJ", "height": 3.870682239532471, "hmax": 0.005, "ratio": 0.001, "vulnClass": "none"}}, {"type": "Feature", "geometry": {"type": "MultiPolygon", "coordinates": [[[[72.13507718, 34.12561264], [72.13506999, 34.12558045], [72.13495092, 34.12559886], [72.13495811, 34.12563104], [72.13507718, 34.12561264]]]]}, "properties": {"id": "8J6J44GP+62R7", "height": 2.679473638534546, "hmax": 0.005, "ratio": 0.002, "vulnClass": "none"}}, {"type": "Feature", "geometry": {"type": "MultiPolygon", "coordinates": [[[[72.13551385, 34.12597314], [72.1353853, 34.12596478], [72.13537851, 34.12603689], [72.13550707, 34.12604525], [72.13551385, 34.12597314]]]]}, "properties": {"id": "8J6J44GP+C547", "height": 2.691477060317993, "hmax": 0.004, "ratio": 0.002, "vulnClass": "none"}}, {"type": "Feature", "geometry": {"type": "MultiPolygon", "coordinates": [[[[72.13537851, 34.12603689], [72.1353853, 34.12596478], [72.13526389, 34.12595688], [72.13526057, 34.12599216], [72.13495531, 34.12597229], [72.13495184, 34.12600912], [72.13537851, 34.12603689]]]]}, "properties": {"id": "8J6J44GP+93WV", "height": 3.025964021682739, "hmax": 0.004, "ratio": 0.001, "vulnClass": "none"}}, {"type": "Feature", "geometry": {"type": "MultiPolygon", "coordinates": [[[[72.13476606, 34.12520432], [72.1347211, 34.12520276], [72.13471586, 34.12530753], [72.13476081, 34.12530909], [72.13476606, 34.12520432]]]]}, "properties": {"id": "8J6J44GM+4V58", "height": 3.25872802734375, "hmax": 0.005, "ratio": 0.002, "vulnClass": "none"}}, {"type": "Feature", "geometry": {"type": "MultiPolygon", "coordinates": [[[[72.13310258, 34.12549373], [72.13307008, 34.12549297], [72.13306932, 34.12551549], [72.13310181, 34.12551625], [72.13310258, 34.12549373]]]]}, "properties": {"id": "8J6J44GM+6645", "height": 2.515246868133545, "hmax": 0.002, "ratio": 0.001, "vulnClass": "none"}}, {"type": "Feature", "geometry": {"type": "MultiPolygon", "coordinates": [[[[72.13449579, 34.12630486], [72.1343642, 34.1262904], [72.13435759, 34.12633201], [72.13448918, 34.12634646], [72.13449579, 34.12630486]]]]}, "properties": {"id": "8J6J44GM+GQFP", "height": 3.507034540176392, "hmax": 0.004, "ratio": 0.001, "vulnClass": "none"}}, {"type": "Feature", "geometry": {"type": "MultiPolygon", "coordinates": [[[[72.13311194, 34.12749416], [72.13317055, 34.12739899], [72.13314024, 34.12738608], [72.13308163, 34.12748125], [72.13311194, 34.12749416]]]]}, "properties": {"id": "8J6J44GM+X7CJ", "height": 3.024548053741455, "hmax": 0.002, "ratio": 0.001, "vulnClass": "none"}}, {"type": "Feature", "geometry": {"type": "MultiPolygon", "coordinates": [[[[72.13606834, 34.12698685], [72.13583687, 34.12697011], [72.1358325, 34.12701191], [72.13597472, 34.1270222], [72.13596768, 34.1270895], [72.13605693, 34.12709596], [72.13606834, 34.12698685]]]]}, "properties": {"id": "8J6J44GP+R95R", "height": 3.074579000473022, "hmax": 0.002, "ratio": 0.001, "vulnClass": "none"}}, {"type": "Feature", "geometry": {"type": "MultiPolygon", "coordinates": [[[[72.1350673, 34.12761632], [72.13491293, 34.1276065], [72.13490564, 34.12768571], [72.13506002, 34.12769553], [72.1350673, 34.12761632]]]]}, "properties": {"id": "8J6J44HM+3X94", "height": 2.625120162963867, "hmax": 0.001, "ratio": 0.0, "vulnClass": "none"}}]}