{"type": "FeatureCollection", "features": [{"type": "Feature", "geometry": {"type": "MultiPolygon", "coordinates": [[[[72.02855381462587, 34.2778147198873], [72.02850300919836, 34.27779275459122], [72.02847562687766, 34.27783643914761], [72.02852654081737, 34.27785840708899], [72.02855381462587, 34.2778147198873]]]]}, "properties": {"id": "8J6J72HH+4CJ3", "height": 2.783334732055664, "hmax": 0.0, "ratio": 0.0, "vulnClass": "none"}}, {"type": "Feature", "geometry": {"type": "MultiPolygon", "coordinates": [[[[72.02432576824081, 34.27766949147088], [72.02399211974348, 34.27763758523498], [72.0239824908289, 34.27770739022401], [72.02431613959489, 34.27773929650013], [72.02432576824081, 34.27766949147088]]]]}, "properties": {"id": "8J6J72HF+3MCH", "height": 2.783347368240356, "hmax": 0.0, "ratio": 0.0, "vulnClass": "none"}}, {"type": "Feature", "geometry": {"type": "MultiPolygon", "coordinates": [[[[72.02380256423903, 34.27818139142551], [72.02367523915672, 34.27817694427731], [72.02367307270615, 34.27821988853959], [72.0238003946759, 34.27822442575646], [72.02380256423903, 34.27818139142551]]]]}, "properties": {"id": "8J6J72HF+7FQ4", "height": 3.631238698959351, "hmax": 0.0, "ratio": 0.0, "vulnClass": "none"}}, {"type": "Feature", "geometry": {"type": "MultiPolygon", "coordinates": [[[[72.02017745257008, 34.2794025961315], [72.02016381447807, 34.27943516537867], [72.02023959476381, 34.27945711094797], [72.0202533413273, 34.27942454433159], [72.02017745257008, 34.2794025961315]]]]}, "properties": {"id": "8J6J72HC+Q3G4", "height": 2.681066274642944, "hmax": 0.0, "ratio": 0.0, "vulnClass": "none"}}, {"type": "Feature", "geometry": {"type": "MultiPolygon", "coordinates": [[[[72.01989427966284, 34.279998200950686], [72.01975052410896, 34.2799577443495], [72.01973292994124, 34.28000085378241], [72.01987668555708, 34.28004131040744], [72.01989427966284, 34.279998200950686]]]]}, "properties": {"id": "8J6J72H9+XWWR", "height": 3.140861749649048, "hmax": 0.0, "ratio": 0.0, "vulnClass": "none"}}, {"type": "Feature", "geometry": {"type": "MultiPolygon", "coordinates": [[[[72.01934197126617, 34.279983404271704], [72.01930449738701, 34.28006668287745], [72.0198217008994, 34.28022683261635], [72.01987544174955, 34.28010726273817], [72.0198375241653, 34.280095522980815], [72.0198212599468, 34.28013172400514], [72.01934197126617, 34.279983404271704]]]]}, "properties": {"id": "8J6J72J9+2RW9", "height": 3.540982484817505, "hmax": 0.0, "ratio": 0.0, "vulnClass": "none"}}, {"type": "Feature", "geometry": {"type": "MultiPolygon", "coordinates": [[[[72.01897946274522, 34.27939128164415], [72.0188943302927, 34.2793728033412], [72.01884112944167, 34.27954160244019], [72.01892625886504, 34.279560170850736], [72.01897946274522, 34.27939128164415]]]]}, "properties": {"id": "8J6J72H9+QHMJ", "height": 2.620650291442871, "hmax": 0.0, "ratio": 0.0, "vulnClass": "none"}}, {"type": "Feature", "geometry": {"type": "MultiPolygon", "coordinates": [[[[72.01935352711982, 34.279459610708095], [72.01925397891638, 34.279425007178766], [72.01921836435446, 34.27949562127159], [72.01931791262224, 34.27953022483318], [72.01935352711982, 34.279459610708095]]]]}, "properties": {"id": "8J6J72H9+QPV2", "height": 2.563655853271484, "hmax": 0.0, "ratio": 0.0, "vulnClass": "none"}}, {"type": "Feature", "geometry": {"type": "MultiPolygon", "coordinates": [[[[72.019290181447, 34.279205585979234], [72.01915733456792, 34.2791975743293], [72.01915093748318, 34.279271063095216], [72.01928378765832, 34.27927898469537], [72.019290181447, 34.279205585979234]]]]}, "properties": {"id": "8J6J72H9+MMXC", "height": 2.58338475227356, "hmax": 0.0, "ratio": 0.0, "vulnClass": "none"}}, {"type": "Feature", "geometry": {"type": "MultiPolygon", "coordinates": [[[[72.01900538991612, 34.27903243396797], [72.01897370610851, 34.2790317526916], [72.01897227152284, 34.27907850050363], [72.01900384685258, 34.279079179139735], [72.01900538991612, 34.27903243396797]]]]}, "properties": {"id": "8J6J72H9+JHH8", "height": 2.527054309844971, "hmax": 0.0, "ratio": 0.0, "vulnClass": "none"}}, {"type": "Feature", "geometry": {"type": "MultiPolygon", "coordinates": [[[[72.01918940104267, 34.278972283491335], [72.01901019815254, 34.278960889610204], [72.01900407782448, 34.27902654291202], [72.01918328085199, 34.279037936809296], [72.01918940104267, 34.278972283491335]]]]}, "properties": {"id": "8J6J72H9+HJXR", "height": 2.595932722091675, "hmax": 0.0, "ratio": 0.0, "vulnClass": "none"}}, {"type": "Feature", "geometry": {"type": "MultiPolygon", "coordinates": [[[[72.01951397912852, 34.27911963198299], [72.01951817733459, 34.279046900921706], [72.01948369489972, 34.279045520669136], [72.0194815510808, 34.27908161468985], [72.01932052133057, 34.27907526079849], [72.01931835834907, 34.2791118951887], [72.01951397912852, 34.27911963198299]]]]}, "properties": {"id": "8J6J72H9+JQMP", "height": 2.992857694625854, "hmax": 0.0, "ratio": 0.0, "vulnClass": "none"}}, {"type": "Feature", "geometry": {"type": "MultiPolygon", "coordinates": [[[[72.01952153396276, 34.27895188475026], [72.01952979894925, 34.278862396471496], [72.01933337094218, 34.278849862638644], [72.01931303134369, 34.27906903906608], [72.0193670941726, 34.27907251856193], [72.01937916849744, 34.27894283037965], [72.01952153396276, 34.27895188475026]]]]}, "properties": {"id": "8J6J72H9+HQC9", "height": 2.854519844055176, "hmax": 0.0, "ratio": 0.0, "vulnClass": "none"}}, {"type": "Feature", "geometry": {"type": "MultiPolygon", "coordinates": [[[[72.01938431697367, 34.27873869808957], [72.01934010830578, 34.27873599934201], [72.01933229303083, 34.27882504785113], [72.01937650174474, 34.27882774660391], [72.01938431697367, 34.27873869808957]]]]}, "properties": {"id": "8J6J72H9+GP97", "height": 2.745657444000244, "hmax": 0.0, "ratio": 0.0, "vulnClass": "none"}}, {"type": "Feature", "geometry": {"type": "MultiPolygon", "coordinates": [[[[72.01932283750386, 34.27857017168171], [72.01926787809278, 34.27856441684372], [72.01925021481158, 34.27868017750836], [72.01949719912511, 34.278706291374235], [72.01950903933991, 34.27862932947051], [72.0193167976906, 34.27860896519927], [72.01932283750386, 34.27857017168171]]]]}, "properties": {"id": "8J6J72H9+FP5X", "height": 2.925751447677612, "hmax": 0.0, "ratio": 0.0, "vulnClass": "none"}}, {"type": "Feature", "geometry": {"type": "MultiPolygon", "coordinates": [[[[72.01907001170862, 34.278777017715875], [72.01909139290039, 34.278694338903556], [72.01899222390779, 34.278676690768606], [72.0189709511208, 34.27875937220051], [72.01907001170862, 34.278777017715875]]]]}, "properties": {"id": "8J6J72H9+FJR5", "height": 2.688062429428101, "hmax": 0.0, "ratio": 0.0, "vulnClass": "none"}}, {"type": "Feature", "geometry": {"type": "MultiPolygon", "coordinates": [[[[72.01901268104672, 34.27880149212147], [72.0189659165215, 34.278800443673184], [72.01896085222941, 34.27896221209201], [72.01917688529224, 34.27896693093706], [72.01917696166024, 34.2789647694324], [72.01920907942926, 34.27896546122039], [72.01921107390159, 34.27890286236303], [72.01900958252467, 34.278898407492115], [72.01901268104672, 34.27880149212147]]]]}, "properties": {"id": "8J6J72H9+HJ8C", "height": 2.731634855270386, "hmax": 0.0, "ratio": 0.0, "vulnClass": "none"}}, {"type": "Feature", "geometry": {"type": "MultiPolygon", "coordinates": [[[[72.01864124085112, 34.27874503435641], [72.01863877670574, 34.2787717459783], [72.01869381893127, 34.27877515947453], [72.01869628305946, 34.27874844785064], [72.01864124085112, 34.27874503435641]]]]}, "properties": {"id": "8J6J72H9+GF3F", "height": 2.526863098144531, "hmax": 0.0, "ratio": 0.0, "vulnClass": "none"}}, {"type": "Feature", "geometry": {"type": "MultiPolygon", "coordinates": [[[[72.01874088727715, 34.278850581048836], [72.01842674020281, 34.27881066120809], [72.0184125248098, 34.278887204575746], [72.01872678065227, 34.27892712710899], [72.01874088727715, 34.278850581048836]]]]}, "properties": {"id": "8J6J72H9+GCWM", "height": 3.452011346817017, "hmax": 0.0, "ratio": 0.0, "vulnClass": "none"}}, {"type": "Feature", "geometry": {"type": "MultiPolygon", "coordinates": [[[[72.01854780945281, 34.27889996366991], [72.01850004007508, 34.278902766598875], [72.01850379043958, 34.2789472068752], [72.01855155665993, 34.27894449400877], [72.01854780945281, 34.27889996366991]]]]}, "properties": {"id": "8J6J72H9+HC6X", "height": 2.937728881835938, "hmax": 0.0, "ratio": 0.0, "vulnClass": "none"}}, {"type": "Feature", "geometry": {"type": "MultiPolygon", "coordinates": [[[[72.01850004007508, 34.278902766598875], [72.01841059931827, 34.27890788991834], [72.01842173223258, 34.279041478293365], [72.01851128480968, 34.27903626755262], [72.01850004007508, 34.278902766598875]]]]}, "properties": {"id": "8J6J72H9+H9PW", "height": 3.094821929931641, "hmax": 0.0, "ratio": 0.0, "vulnClass": "none"}}, {"type": "Feature", "geometry": {"type": "MultiPolygon", "coordinates": [[[[72.01858557214743, 34.27910658302916], [72.0185789210546, 34.27902745830489], [72.0184399716052, 34.27903543236703], [72.01845099925508, 34.27916892803561], [72.01854751158821, 34.27916343605378], [72.01854292102969, 34.2791089697637], [72.01858557214743, 34.27910658302916]]]]}, "properties": {"id": "8J6J72H9+JCJJ", "height": 3.243902444839478, "hmax": 0.0, "ratio": 0.0, "vulnClass": "none"}}, {"type": "Feature", "geometry": {"type": "MultiPolygon", "coordinates": [[[[72.01858848400384, 34.27922699102503], [72.01859113914853, 34.27919487564886], [72.01846077507447, 34.279187284261816], [72.01845495141218, 34.279256820772055], [72.0185521573295, 34.27926243291673], [72.01855532257287, 34.279225101835145], [72.01858848400384, 34.27922699102503]]]]}, "properties": {"id": "8J6J72H9+MCJV", "height": 2.934473991394043, "hmax": 0.0, "ratio": 0.0, "vulnClass": "none"}}, {"type": "Feature", "geometry": {"type": "MultiPolygon", "coordinates": [[[[72.01909291345638, 34.277879869373336], [72.01904004484116, 34.27787641885241], [72.01903157207192, 34.27796563161731], [72.01908444074219, 34.27796908214477], [72.01909291345638, 34.277879869373336]]]]}, "properties": {"id": "8J6J72H9+5J7X", "height": 3.761040449142456, "hmax": 0.0, "ratio": 0.0, "vulnClass": "none"}}, {"type": "Feature", "geometry": {"type": "MultiPolygon", "coordinates": [[[[72.01931942654426, 34.277981293026585], [72.01927119763528, 34.27797867667543], [72.01926667865636, 34.27803589581376], [72.01931479592187, 34.27803859958988], [72.01931942654426, 34.277981293026585]]]]}, "properties": {"id": "8J6J72H9+6P37", "height": 2.660607814788818, "hmax": 0.0, "ratio": 0.0, "vulnClass": "none"}}, {"type": "Feature", "geometry": {"type": "MultiPolygon", "coordinates": [[[[72.01931497454152, 34.2779136696527], [72.01926657036012, 34.27791294197762], [72.01926501984276, 34.27797834599847], [72.01931342087988, 34.27797916373886], [72.01931497454152, 34.2779136696527]]]]}, "properties": {"id": "8J6J72H9+5PFV", "height": 3.40545916557312, "hmax": 0.0, "ratio": 0.0, "vulnClass": "none"}}, {"type": "Feature", "geometry": {"type": "MultiPolygon", "coordinates": [[[[72.01920938467619, 34.27785034461677], [72.01914653278702, 34.277828262502204], [72.01912016131588, 34.27788008204896], [72.0191830132347, 34.277902164178585], [72.01920938467619, 34.27785034461677]]]]}, "properties": {"id": "8J6J72H9+4MVM", "height": 5.414300441741943, "hmax": 0.0, "ratio": 0.0, "vulnClass": "none"}}, {"type": "Feature", "geometry": {"type": "MultiPolygon", "coordinates": [[[[72.01885154347232, 34.27780864109431], [72.01884623583291, 34.27786358750399], [72.01909291345638, 34.277879869373336], [72.01909822093764, 34.27782492294469], [72.01885154347232, 34.27780864109431]]]]}, "properties": {"id": "8J6J72H9+4HQJ", "height": 5.575114727020264, "hmax": 0.0, "ratio": 0.0, "vulnClass": "none"}}, {"type": "Feature", "geometry": {"type": "MultiPolygon", "coordinates": [[[[72.020035911508, 34.27791291978078], [72.01999639552213, 34.27786652735799], [72.01973858002336, 34.27801799752052], [72.01977809592564, 34.27806439002186], [72.020035911508, 34.27791291978078]]]]}, "properties": {"id": "8J6J72H9+5XJM", "height": 2.604351758956909, "hmax": 0.0, "ratio": 0.0, "vulnClass": "none"}}, {"type": "Feature", "geometry": {"type": "MultiPolygon", "coordinates": [[[[72.01976276491493, 34.27808033222969], [72.0197354557544, 34.2780449635298], [72.01967005047331, 34.2780797881236], [72.01969735961545, 34.27811515683706], [72.01976276491493, 34.27808033222969]]]]}, "properties": {"id": "8J6J72H9+6VP9", "height": 3.349900960922241, "hmax": 0.0, "ratio": 0.0, "vulnClass": "none"}}, {"type": "Feature", "geometry": {"type": "MultiPolygon", "coordinates": [[[[72.01994757998317, 34.27847694045768], [72.01968506254602, 34.27842331722405], [72.01967126000153, 34.27846976400422], [72.01993377757006, 34.27852338727425], [72.01994757998317, 34.27847694045768]]]]}, "properties": {"id": "8J6J72H9+9WMX", "height": 3.325419187545776, "hmax": 0.0, "ratio": 0.0, "vulnClass": "none"}}, {"type": "Feature", "geometry": {"type": "MultiPolygon", "coordinates": [[[[72.02034297641259, 34.27910339288285], [72.02022473795857, 34.27906608178655], [72.02018814575267, 34.27914595683893], [72.02030627580153, 34.279183265334794], [72.02034297641259, 34.27910339288285]]]]}, "properties": {"id": "8J6J72HC+J4RV", "height": 2.812661647796631, "hmax": 0.0, "ratio": 0.0, "vulnClass": "none"}}, {"type": "Feature", "geometry": {"type": "MultiPolygon", "coordinates": [[[[72.02020733038675, 34.27926072150684], [72.02007956961903, 34.27922245739553], [72.02005060872273, 34.2792891773865], [72.02022737287865, 34.27934197489901], [72.02027513038057, 34.27923190418226], [72.02022623880515, 34.27921728341513], [72.02020733038675, 34.27926072150684]]]]}, "properties": {"id": "8J6J72HC+P373", "height": 3.156867742538452, "hmax": 0.0, "ratio": 0.0, "vulnClass": "none"}}, {"type": "Feature", "geometry": {"type": "MultiPolygon", "coordinates": [[[[72.0210955894208, 34.278461068690845], [72.02099706158396, 34.278443708199674], [72.02087960493654, 34.278903990772065], [72.02101665941038, 34.278928147872584], [72.02103669586029, 34.278849672540254], [72.020998169756, 34.278842876059365], [72.0210955894208, 34.278461068690845]]]]}, "properties": {"id": "8J6J72HC+F9HW", "height": 3.316547870635986, "hmax": 0.0, "ratio": 0.0, "vulnClass": "none"}}, {"type": "Feature", "geometry": {"type": "MultiPolygon", "coordinates": [[[[72.02288656464458, 34.27843242750392], [72.02288955815368, 34.27839067520189], [72.02264479292934, 34.27837859389832], [72.02263888830123, 34.27845975683976], [72.02260560896666, 34.27845813630945], [72.02260841466456, 34.278418632958065], [72.02254771157581, 34.27841562440929], [72.0225464312951, 34.27843344104877], [72.02250968331712, 34.27843164600172], [72.02251096360551, 34.27841382936303], [72.02246337568896, 34.27841150027189], [72.02246209856905, 34.27842922684659], [72.02240518962476, 34.278426400635865], [72.02240048243284, 34.27849208855398], [72.02269532492062, 34.278506740190934], [72.02270142062879, 34.27842323824509], [72.02288656464458, 34.27843242750392]]]]}, "properties": {"id": "8J6J72HF+92HQ", "height": 3.246140241622925, "hmax": 0.0, "ratio": 0.0, "vulnClass": "none"}}, {"type": "Feature", "geometry": {"type": "MultiPolygon", "coordinates": [[[[72.01896798841179, 34.28175042040568], [72.01887213047294, 34.28172194574303], [72.01880552683139, 34.28187662694926], [72.01890127959936, 34.281905008967065], [72.01893215346682, 34.28183337819207], [72.01899083055105, 34.28185076169332], [72.0190134283458, 34.281798219373705], [72.01897259023842, 34.2817861378026], [72.0189614652216, 34.2818120977023], [72.01894362627047, 34.28180679578269], [72.01896798841179, 34.28175042040568]]]]}, "properties": {"id": "8J6J72J9+PHCH", "height": 6.47199535369873, "hmax": 0.0, "ratio": 0.0, "vulnClass": "none"}}, {"type": "Feature", "geometry": {"type": "MultiPolygon", "coordinates": [[[[72.01897862401471, 34.28187966988531], [72.01893735477101, 34.281864422899744], [72.01891550251312, 34.28190508485982], [72.01895687708806, 34.28192042455794], [72.01897862401471, 34.28187966988531]]]]}, "properties": {"id": "8J6J72J9+QH4M", "height": 2.96075963973999, "hmax": 0.0, "ratio": 0.0, "vulnClass": "none"}}, {"type": "Feature", "geometry": {"type": "MultiPolygon", "coordinates": [[[[72.01897060002484, 34.281897772959255], [72.01895995354225, 34.281922482547884], [72.01913308105918, 34.28197384111543], [72.0191437274998, 34.281949131509585], [72.01897060002484, 34.281897772959255]]]]}, "properties": {"id": "8J6J72J9+QJFG", "height": 2.870718240737915, "hmax": 0.0, "ratio": 0.0, "vulnClass": "none"}}, {"type": "Feature", "geometry": {"type": "MultiPolygon", "coordinates": [[[[72.01905760906564, 34.28179253457107], [72.01902063612624, 34.2817878484741], [72.01901620911738, 34.281811717959016], [72.01905318206681, 34.28181640405783], [72.01905760906564, 34.28179253457107]]]]}, "properties": {"id": "8J6J72J9+PJF2", "height": 4.101113319396973, "hmax": 0.0, "ratio": 0.0, "vulnClass": "none"}}, {"type": "Feature", "geometry": {"type": "MultiPolygon", "coordinates": [[[[72.01926523844693, 34.281838603453856], [72.01916679859524, 34.28180943517702], [72.01913107231098, 34.281892395671555], [72.01922950906055, 34.28192165404391], [72.01926523844693, 34.281838603453856]]]]}, "properties": {"id": "8J6J72J9+PMWM", "height": 8.5443115234375, "hmax": 0.0, "ratio": 0.0, "vulnClass": "none"}}, {"type": "Feature", "geometry": {"type": "MultiPolygon", "coordinates": [[[[72.01931248295077, 34.28196441746674], [72.01926787618926, 34.28195449774403], [72.0192448240352, 34.28202604861888], [72.01928943083057, 34.282035968351735], [72.01931248295077, 34.28196441746674]]]]}, "properties": {"id": "8J6J72J9+QPRX", "height": 3.601029872894287, "hmax": 0.0, "ratio": 0.0, "vulnClass": "none"}}, {"type": "Feature", "geometry": {"type": "MultiPolygon", "coordinates": [[[[72.01922950906055, 34.28192165404391], [72.01913107231098, 34.281892395671555], [72.0191108450319, 34.281939316901344], [72.01920928182678, 34.28196857529227], [72.01922950906055, 34.28192165404391]]]]}, "properties": {"id": "8J6J72J9+QMF7", "height": 3.12610650062561, "hmax": 0.0, "ratio": 0.0, "vulnClass": "none"}}, {"type": "Feature", "geometry": {"type": "MultiPolygon", "coordinates": [[[[72.01928188526375, 34.282148099252396], [72.01919802940603, 34.28212721838347], [72.01916914770429, 34.282207010341104], [72.01925300363123, 34.28222789123338], [72.01928188526375, 34.282148099252396]]]]}, "properties": {"id": "8J6J72J9+VMH2", "height": 2.524811267852783, "hmax": 0.0, "ratio": 0.0, "vulnClass": "none"}}, {"type": "Feature", "geometry": {"type": "MultiPolygon", "coordinates": [[[[72.01842297028047, 34.282420050306264], [72.01836999993115, 34.282416326519815], [72.0183558624634, 34.28255515853584], [72.0184088328984, 34.282558882332886], [72.01842297028047, 34.282420050306264]]]]}, "properties": {"id": "8J6J72J9+X9RF", "height": 4.505110263824463, "hmax": 0.0, "ratio": 0.0, "vulnClass": "none"}}, {"type": "Feature", "geometry": {"type": "MultiPolygon", "coordinates": [[[[72.01936734139301, 34.28244025068174], [72.01936519259316, 34.282396570545004], [72.01926886460315, 34.282399814053235], [72.0192710133529, 34.28244349418903], [72.01936734139301, 34.28244025068174]]]]}, "properties": {"id": "8J6J72J9+XP8R", "height": 4.60395336151123, "hmax": 0.0, "ratio": 0.0, "vulnClass": "none"}}, {"type": "Feature", "geometry": {"type": "MultiPolygon", "coordinates": [[[[72.01936816412206, 34.282530681262074], [72.01932459492741, 34.28252826844279], [72.01931715281778, 34.28262210341203], [72.01935681924454, 34.28262433108031], [72.01935238575504, 34.282679118482555], [72.01953230169272, 34.28268899705644], [72.01953949188339, 34.28259921224157], [72.0194226562535, 34.2825927623312], [72.0194291423689, 34.28251368705987], [72.01936974811974, 34.28251043829587], [72.01936816412206, 34.282530681262074]]]]}, "properties": {"id": "8J6J72M9+2QVF", "height": 5.088202476501465, "hmax": 0.0, "ratio": 0.0, "vulnClass": "none"}}, {"type": "Feature", "geometry": {"type": "MultiPolygon", "coordinates": [[[[72.01928805475045, 34.2827418221994], [72.01928305467557, 34.28271429786881], [72.01916404781662, 34.282729338335066], [72.01916905103522, 34.28275677260584], [72.01928805475045, 34.2827418221994]]]]}, "properties": {"id": "8J6J72M9+3MXC", "height": 2.500514030456543, "hmax": 0.0, "ratio": 0.0, "vulnClass": "none"}}, {"type": "Feature", "geometry": {"type": "MultiPolygon", "coordinates": [[[[72.0216259067969, 34.28361692001447], [72.0213914499845, 34.28360157109229], [72.02138761914482, 34.28364240153214], [72.02162196438753, 34.28365783789078], [72.0216259067969, 34.28361692001447]]]]}, "properties": {"id": "8J6J72MC+FJ22", "height": 2.442890167236328, "hmax": 0.0, "ratio": 0.0, "vulnClass": "none"}}, {"type": "Feature", "geometry": {"type": "MultiPolygon", "coordinates": [[[[72.02162133159409, 34.28263310880556], [72.02158390221278, 34.282632108115095], [72.0215827252757, 34.28266236658895], [72.02162015149055, 34.28266345734333], [72.02162133159409, 34.28263310880556]]]]}, "properties": {"id": "8J6J72MC+3J5V", "height": 2.591471672058105, "hmax": 0.0, "ratio": 0.0, "vulnClass": "none"}}, {"type": "Feature", "geometry": {"type": "MultiPolygon", "coordinates": [[[[72.02137219367435, 34.282815260486394], [72.021287531573, 34.282814102106336], [72.02128606324, 34.282889513716135], [72.02137072541693, 34.282890672101175], [72.02137219367435, 34.282815260486394]]]]}, "properties": {"id": "8J6J72MC+4GW4", "height": 2.441445350646973, "hmax": 0.0, "ratio": 0.0, "vulnClass": "none"}}, {"type": "Feature", "geometry": {"type": "MultiPolygon", "coordinates": [[[[72.02093107147493, 34.28279416146553], [72.0209275797838, 34.28284383387904], [72.02123264231264, 34.282858557862546], [72.02123613064565, 34.282808975493836], [72.02093107147493, 34.28279416146553]]]]}, "properties": {"id": "8J6J72MC+4CP4", "height": 2.870836496353149, "hmax": 0.0, "ratio": 0.0, "vulnClass": "none"}}, {"type": "Feature", "geometry": {"type": "MultiPolygon", "coordinates": [[[[72.01977584743491, 34.28292343097147], [72.01973244920376, 34.28291002535676], [72.01971547921129, 34.282947741540255], [72.01975887745826, 34.28296114716178], [72.01977584743491, 34.28292343097147]]]]}, "properties": {"id": "8J6J72M9+5VHH", "height": 2.720100879669189, "hmax": 0.0, "ratio": 0.0, "vulnClass": "none"}}, {"type": "Feature", "geometry": {"type": "MultiPolygon", "coordinates": [[[[72.01971467484614, 34.28294591915713], [72.01974374089556, 34.28286090342956], [72.0197001260168, 34.28285055729521], [72.01967105674659, 34.28293566307309], [72.01971467484614, 34.28294591915713]]]]}, "properties": {"id": "8J6J72M9+5V4W", "height": 3.890131950378418, "hmax": 0.0, "ratio": 0.0, "vulnClass": "none"}}, {"type": "Feature", "geometry": {"type": "MultiPolygon", "coordinates": [[[[72.01975322244405, 34.282743140791936], [72.01970330157334, 34.2827299369535], [72.0196617955286, 34.2828381764209], [72.01971171645434, 34.282851380279105], [72.01975322244405, 34.282743140791936]]]]}, "properties": {"id": "8J6J72M9+4V8P", "height": 5.016024589538574, "hmax": 0.0, "ratio": 0.0, "vulnClass": "none"}}, {"type": "Feature", "geometry": {"type": "MultiPolygon", "coordinates": [[[[72.0199087138211, 34.28284806295502], [72.01997349936985, 34.28274174213463], [72.01992373721717, 34.28272097047655], [72.01985906330759, 34.28282720384678], [72.0199087138211, 34.28284806295502]]]]}, "properties": {"id": "8J6J72M9+4X77", "height": 3.322044372558594, "hmax": 0.0, "ratio": 0.0, "vulnClass": "none"}}, {"type": "Feature", "geometry": {"type": "MultiPolygon", "coordinates": [[[[72.01998609574427, 34.28280938342518], [72.01996158644039, 34.28279923200017], [72.01992304065874, 34.282863645369126], [72.01998897327698, 34.28289085001653], [72.02001182442392, 34.282852645958855], [72.01997040113544, 34.28283559275322], [72.01998609574427, 34.28280938342518]]]]}, "properties": {"id": "8J6J72M9+4XPX", "height": 2.726382493972778, "hmax": 0.0, "ratio": 0.0, "vulnClass": "none"}}, {"type": "Feature", "geometry": {"type": "MultiPolygon", "coordinates": [[[[72.02007644507212, 34.282757137884474], [72.02002014072986, 34.28273404366626], [72.0200005121597, 34.28276709803712], [72.0200568165173, 34.28279019226513], [72.02007644507212, 34.282757137884474]]]]}, "properties": {"id": "8J6J72MC+423C", "height": 2.917318344116211, "hmax": 0.0, "ratio": 0.0, "vulnClass": "none"}}, {"type": "Feature", "geometry": {"type": "MultiPolygon", "coordinates": [[[[72.02034574404341, 34.28251769974815], [72.02029044977374, 34.28250905266415], [72.02027964654059, 34.282556654159684], [72.02033494083962, 34.2825653012501], [72.02034574404341, 34.28251769974815]]]]}, "properties": {"id": "8J6J72MC+248C", "height": 3.068673133850098, "hmax": 0.0, "ratio": 0.0, "vulnClass": "none"}}, {"type": "Feature", "geometry": {"type": "MultiPolygon", "coordinates": [[[[72.02037646144758, 34.282539630263656], [72.0203435662008, 34.28253324099265], [72.02033474292686, 34.28256475559244], [72.0203676381849, 34.28257114486643], [72.02037646144758, 34.282539630263656]]]]}, "properties": {"id": "8J6J72MC+24H3", "height": 3.068673133850098, "hmax": 0.0, "ratio": 0.0, "vulnClass": "none"}}, {"type": "Feature", "geometry": {"type": "MultiPolygon", "coordinates": [[[[72.02044654071574, 34.2825508906308], [72.02037769414362, 34.282547772878374], [72.02037603437893, 34.28257324214965], [72.02044488415272, 34.28257626984135], [72.02044654071574, 34.2825508906308]]]]}, "properties": {"id": "8J6J72MC+25FC", "height": 2.903030395507812, "hmax": 0.0, "ratio": 0.0, "vulnClass": "none"}}, {"type": "Feature", "geometry": {"type": "MultiPolygon", "coordinates": [[[[72.02043211218381, 34.28259660111121], [72.02035789465536, 34.282591820252335], [72.02035443309731, 34.28262833291163], [72.02042865065741, 34.28263311377426], [72.02043211218381, 34.28259660111121]]]]}, "properties": {"id": "8J6J72MC+25RG", "height": 2.601573705673218, "hmax": 0.0, "ratio": 0.0, "vulnClass": "none"}}, {"type": "Feature", "geometry": {"type": "MultiPolygon", "coordinates": [[[[72.0203679929964, 34.28257647177096], [72.0202846219696, 34.282560290717484], [72.02025656339637, 34.28265984368025], [72.02030887099437, 34.28267004061611], [72.02032452390362, 34.28261426425368], [72.02035569590382, 34.28262025103073], [72.0203679929964, 34.28257647177096]]]]}, "properties": {"id": "8J6J72MC+24VH", "height": 2.918265104293823, "hmax": 0.0, "ratio": 0.0, "vulnClass": "none"}}, {"type": "Feature", "geometry": {"type": "MultiPolygon", "coordinates": [[[[72.02009835736308, 34.28268402671837], [72.02003198164506, 34.282660146533374], [72.01999785267714, 34.28272556883711], [72.02006433693435, 34.28274945168348], [72.02009835736308, 34.28268402671837]]]]}, "properties": {"id": "8J6J72MC+32M4", "height": 2.715196371078491, "hmax": 0.0, "ratio": 0.0, "vulnClass": "none"}}, {"type": "Feature", "geometry": {"type": "MultiPolygon", "coordinates": [[[[72.01985755593404, 34.28269466114625], [72.01981213830456, 34.28268616411514], [72.01980164977057, 34.28272484934556], [72.01984707060097, 34.28273325631887], [72.01985755593404, 34.28269466114625]]]]}, "properties": {"id": "8J6J72M9+3WP8", "height": 4.475627899169922, "hmax": 0.0, "ratio": 0.0, "vulnClass": "none"}}, {"type": "Feature", "geometry": {"type": "MultiPolygon", "coordinates": [[[[72.01978157469065, 34.28266910477183], [72.01973165385759, 34.28265590094689], [72.01970330157334, 34.2827299369535], [72.01975322244405, 34.282743140791936], [72.01978157469065, 34.28266910477183]]]]}, "properties": {"id": "8J6J72M9+3VHX", "height": 4.148811340332031, "hmax": 0.0, "ratio": 0.0, "vulnClass": "none"}}, {"type": "Feature", "geometry": {"type": "MultiPolygon", "coordinates": [[[[72.020044689005, 34.28242338723542], [72.01993975058659, 34.28239063605727], [72.01988416076682, 34.2825133157918], [72.01998909930913, 34.282546067023965], [72.020044689005, 34.28242338723542]]]]}, "properties": {"id": "8J6J72J9+XXPQ", "height": 3.760414123535156, "hmax": 0.0, "ratio": 0.0, "vulnClass": "none"}}, {"type": "Feature", "geometry": {"type": "MultiPolygon", "coordinates": [[[[72.01992627084579, 34.28238796430662], [72.01981592791661, 34.2823667996932], [72.01978756915427, 34.28246868887332], [72.01989802070565, 34.28248985615966], [72.01992627084579, 34.28238796430662]]]]}, "properties": {"id": "8J6J72J9+XWH3", "height": 3.85653829574585, "hmax": 0.0, "ratio": 0.0, "vulnClass": "none"}}, {"type": "Feature", "geometry": {"type": "MultiPolygon", "coordinates": [[[[72.01960330985082, 34.28223443628981], [72.01955275833441, 34.28222987049942], [72.0195383263816, 34.282340211259026], [72.01958887796252, 34.282344777058746], [72.01960330985082, 34.28223443628981]]]]}, "properties": {"id": "8J6J72J9+WR8F", "height": 2.611330509185791, "hmax": 0.0, "ratio": 0.0, "vulnClass": "none"}}, {"type": "Feature", "geometry": {"type": "MultiPolygon", "coordinates": [[[[72.01990129482084, 34.28233877082834], [72.01989927781017, 34.282306721979765], [72.01984250739518, 34.28230912600503], [72.0198445212025, 34.282341264916106], [72.01990129482084, 34.28233877082834]]]]}, "properties": {"id": "8J6J72J9+WWHX", "height": 3.430146455764771, "hmax": 0.0, "ratio": 0.0, "vulnClass": "none"}}, {"type": "Feature", "geometry": {"type": "MultiPolygon", "coordinates": [[[[72.0204945069817, 34.282379619822045], [72.02024979069493, 34.28235969240384], [72.02024189988882, 34.28242629421286], [72.02048661636474, 34.282446221656734], [72.0204945069817, 34.282379619822045]]]]}, "properties": {"id": "8J6J72JC+X495", "height": 3.479578971862793, "hmax": 0.0, "ratio": 0.0, "vulnClass": "none"}}, {"type": "Feature", "geometry": {"type": "MultiPolygon", "coordinates": [[[[72.02085894564225, 34.28236730536672], [72.02072077527141, 34.28237151494277], [72.02072374435967, 34.28243811064026], [72.02079918638307, 34.28243589013648], [72.02080339394556, 34.28253199180659], [72.0208660107937, 34.28253009016096], [72.02085894564225, 34.28236730536672]]]]}, "properties": {"id": "8J6J72JC+X8F9", "height": 2.722247362136841, "hmax": 0.0, "ratio": 0.0, "vulnClass": "none"}}, {"type": "Feature", "geometry": {"type": "MultiPolygon", "coordinates": [[[[72.02071627341886, 34.28240674034071], [72.0206716609176, 34.282406195558245], [72.02066964319278, 34.28250944709204], [72.02071436424849, 34.282509994518385], [72.02071627341886, 34.28240674034071]]]]}, "properties": {"id": "8J6J72JC+X7P6", "height": 2.714006185531616, "hmax": 0.0, "ratio": 0.0, "vulnClass": "none"}}, {"type": "Feature", "geometry": {"type": "MultiPolygon", "coordinates": [[[[72.02071436424849, 34.282509994518385], [72.02066964319278, 34.28250944709204], [72.02066896460452, 34.2825471091694], [72.0207135739994, 34.282547744019524], [72.02071436424849, 34.282509994518385]]]]}, "properties": {"id": "8J6J72MC+2782", "height": 3.272472620010376, "hmax": 0.0, "ratio": 0.0, "vulnClass": "none"}}, {"type": "Feature", "geometry": {"type": "MultiPolygon", "coordinates": [[[[72.02078033827512, 34.282591373989945], [72.0206206354201, 34.2825841525114], [72.02061827488102, 34.282620241274074], [72.0206784510679, 34.282622877481195], [72.02067400711627, 34.28269028432447], [72.02077364561184, 34.282694782187725], [72.02078033827512, 34.282591373989945]]]]}, "properties": {"id": "8J6J72MC+3749", "height": 2.632902145385742, "hmax": 0.0, "ratio": 0.0, "vulnClass": "none"}}, {"type": "Feature", "geometry": {"type": "MultiPolygon", "coordinates": [[[[72.02115656377802, 34.28258664684481], [72.02098345311207, 34.28256548845003], [72.02097857705604, 34.28259286255901], [72.02101241989935, 34.28259702121331], [72.02100970285565, 34.28261245921294], [72.02114897075673, 34.282629458967456], [72.02115656377802, 34.28258664684481]]]]}, "properties": {"id": "8J6J72MC+2CPV", "height": 3.41496467590332, "hmax": 0.0, "ratio": 0.0, "vulnClass": "none"}}, {"type": "Feature", "geometry": {"type": "MultiPolygon", "coordinates": [[[[72.02092800742415, 34.28284402456505], [72.02094560677052, 34.28257322101652], [72.02089790174259, 34.282571068682266], [72.02088747579499, 34.28273099407788], [72.02084822733757, 34.28272922777586], [72.02084664086225, 34.28275262561631], [72.02088599783073, 34.282754394559554], [72.02088030224441, 34.28284187221599], [72.02092800742415, 34.28284402456505]]]]}, "properties": {"id": "8J6J72MC+39M6", "height": 3.184576034545898, "hmax": 0.0, "ratio": 0.0, "vulnClass": "none"}}, {"type": "Feature", "geometry": {"type": "MultiPolygon", "coordinates": [[[[72.02111279195402, 34.28214713997875], [72.02105686663842, 34.28214406658358], [72.02105222720695, 34.282201643417324], [72.02110826424018, 34.28220462939369], [72.02111279195402, 34.28214713997875]]]]}, "properties": {"id": "8J6J72JC+VC8W", "height": 3.912445783615112, "hmax": 0.0, "ratio": 0.0, "vulnClass": "none"}}, {"type": "Feature", "geometry": {"type": "MultiPolygon", "coordinates": [[[[72.02153364770197, 34.282071655766465], [72.02141013399763, 34.28206982274311], [72.02140835063844, 34.28215108581309], [72.02153175278212, 34.28215300626778], [72.02153364770197, 34.282071655766465]]]]}, "properties": {"id": "8J6J72JC+RHXC", "height": 4.919063568115234, "hmax": 0.0, "ratio": 0.0, "vulnClass": "none"}}, {"type": "Feature", "geometry": {"type": "MultiPolygon", "coordinates": [[[[72.0214960914537, 34.28197275971324], [72.0214417643336, 34.28196440710607], [72.02143016138196, 34.282016225860275], [72.02148448535362, 34.28202466853707], [72.0214960914537, 34.28197275971324]]]]}, "properties": {"id": "8J6J72JC+QHWQ", "height": 3.731877088546753, "hmax": 0.0, "ratio": 0.0, "vulnClass": "none"}}, {"type": "Feature", "geometry": {"type": "MultiPolygon", "coordinates": [[[[72.02106079399438, 34.28186986555471], [72.02105477098841, 34.28177903797751], [72.02099777756332, 34.28178161740531], [72.0210038005076, 34.28187244498205], [72.02106079399438, 34.28186986555471]]]]}, "properties": {"id": "8J6J72JC+PCJ5", "height": 2.75345253944397, "hmax": 0.0, "ratio": 0.0, "vulnClass": "none"}}, {"type": "Feature", "geometry": {"type": "MultiPolygon", "coordinates": [[[[72.02107334199603, 34.281926598621304], [72.02101803993271, 34.28193048117126], [72.02103180964119, 34.282063322283776], [72.02108711179199, 34.28205943973223], [72.02107334199603, 34.281926598621304]]]]}, "properties": {"id": "8J6J72JC+QCVP", "height": 3.221328258514404, "hmax": 0.0, "ratio": 0.0, "vulnClass": "none"}}, {"type": "Feature", "geometry": {"type": "MultiPolygon", "coordinates": [[[[72.02059005387646, 34.28213099479505], [72.02050669415999, 34.2821268028212], [72.02049783014763, 34.28224863689348], [72.02058118998325, 34.28225282887959], [72.02059005387646, 34.28213099479505]]]]}, "properties": {"id": "8J6J72JC+V6FF", "height": 2.641853332519531, "hmax": 0.0, "ratio": 0.0, "vulnClass": "none"}}, {"type": "Feature", "geometry": {"type": "MultiPolygon", "coordinates": [[[[72.01977362251787, 34.28221181053421], [72.01971670071542, 34.28220005881507], [72.01968259269502, 34.282314067079], [72.01973951456729, 34.28232581881762], [72.01977362251787, 34.28221181053421]]]]}, "properties": {"id": "8J6J72J9+WV5F", "height": 2.449180126190186, "hmax": 0.0, "ratio": 0.0, "vulnClass": "none"}}, {"type": "Feature", "geometry": {"type": "MultiPolygon", "coordinates": [[[[72.02008586120746, 34.28209709045267], [72.02003203566292, 34.2820929860153], [72.02001867762576, 34.282212907846976], [72.02007250006389, 34.28221710235687], [72.02008586120746, 34.28209709045267]]]]}, "properties": {"id": "8J6J72JC+V278", "height": 3.354290723800659, "hmax": 0.0, "ratio": 0.0, "vulnClass": "none"}}, {"type": "Feature", "geometry": {"type": "MultiPolygon", "coordinates": [[[[72.01983739220198, 34.28179610404553], [72.01968732579087, 34.28176513867421], [72.01961515438924, 34.282006760207125], [72.01976522437229, 34.28203763562443], [72.01983739220198, 34.28179610404553]]]]}, "properties": {"id": "8J6J72J9+QV92", "height": 4.156823635101318, "hmax": 0.0, "ratio": 0.0, "vulnClass": "none"}}, {"type": "Feature", "geometry": {"type": "MultiPolygon", "coordinates": [[[[72.02020614044282, 34.28156025862301], [72.02020539623133, 34.28161207110518], [72.0205614502612, 34.28161568846853], [72.02056219107332, 34.281563966035485], [72.02020614044282, 34.28156025862301]]]]}, "properties": {"id": "8J6J72JC+J5JF", "height": 2.470579385757446, "hmax": 0.0, "ratio": 0.0, "vulnClass": "none"}}, {"type": "Feature", "geometry": {"type": "MultiPolygon", "coordinates": [[[[72.02019460627655, 34.28157629327119], [72.02010723202842, 34.281565873802236], [72.02006585631166, 34.2818057212574], [72.02015334247909, 34.28181605334635], [72.02019460627655, 34.28157629327119]]]]}, "properties": {"id": "8J6J72JC+M3CJ", "height": 3.694779634475708, "hmax": 0.0, "ratio": 0.0, "vulnClass": "none"}}, {"type": "Feature", "geometry": {"type": "MultiPolygon", "coordinates": [[[[72.0197832527448, 34.2817178966592], [72.01969899497915, 34.28169610495722], [72.01967789466346, 34.28175237961578], [72.01976215247771, 34.28177417133479], [72.0197832527448, 34.2817178966592]]]]}, "properties": {"id": "8J6J72J9+MVXF", "height": 3.622806787490845, "hmax": 0.0, "ratio": 0.0, "vulnClass": "none"}}, {"type": "Feature", "geometry": {"type": "MultiPolygon", "coordinates": [[[[72.02075890663812, 34.281550093994426], [72.02070284779815, 34.28154773832068], [72.0206936682516, 34.281696967361356], [72.02078106428712, 34.28170062643291], [72.02078769880173, 34.28159270979589], [72.02075636174433, 34.28159140641121], [72.02075890663812, 34.281550093994426]]]]}, "properties": {"id": "8J6J72JC+M758", "height": 3.093573093414307, "hmax": 0.0, "ratio": 0.0, "vulnClass": "none"}}, {"type": "Feature", "geometry": {"type": "MultiPolygon", "coordinates": [[[[72.02078243660544, 34.28170174150846], [72.02069808489887, 34.28169797623901], [72.02067501248007, 34.282053017781955], [72.02078375780961, 34.282057917506854], [72.02078495552078, 34.282039377774964], [72.02076055907435, 34.28203833341713], [72.02078243660544, 34.28170174150846]]]]}, "properties": {"id": "8J6J72JC+Q753", "height": 2.681765556335449, "hmax": 0.0, "ratio": 0.0, "vulnClass": "none"}}, {"type": "Feature", "geometry": {"type": "MultiPolygon", "coordinates": [[[[72.02087843269338, 34.28170479851846], [72.02078106428712, 34.28170062643291], [72.02077865934135, 34.28173797608708], [72.02087613628932, 34.28174215081687], [72.02087843269338, 34.28170479851846]]]]}, "properties": {"id": "8J6J72JC+M8PW", "height": 2.951366424560547, "hmax": 0.0, "ratio": 0.0, "vulnClass": "none"}}, {"type": "Feature", "geometry": {"type": "MultiPolygon", "coordinates": [[[[72.02104878297162, 34.281687219708644], [72.02099179278925, 34.281689709074115], [72.02099777756332, 34.28178161740531], [72.02105477098841, 34.28177903797751], [72.02104878297162, 34.281687219708644]]]]}, "properties": {"id": "8J6J72JC+MCR8", "height": 5.281886100769043, "hmax": 0.0, "ratio": 0.0, "vulnClass": "none"}}, {"type": "Feature", "geometry": {"type": "MultiPolygon", "coordinates": [[[[72.02673298387484, 34.28481300357194], [72.02670255097509, 34.2848075771811], [72.02667865902757, 34.2849000217505], [72.02689827661484, 34.28493906774992], [72.02691010445744, 34.28489311299386], [72.02676710862102, 34.284867736232826], [72.02677328561167, 34.28484345821607], [72.02672720222836, 34.28483530810061], [72.02673298387484, 34.28481300357194]]]]}, "properties": {"id": "8J6J72MG+XP2H", "height": 2.755415916442871, "hmax": 0.0, "ratio": 0.0, "vulnClass": "none"}}, {"type": "Feature", "geometry": {"type": "MultiPolygon", "coordinates": [[[[72.01992411732245, 34.28781569914698], [72.01992227442472, 34.287769502560025], [72.01983313988926, 34.2877718397654], [72.01983487104894, 34.28781812377234], [72.01992411732245, 34.28781569914698]]]]}, "properties": {"id": "8J6J72Q9+4X6J", "height": 2.537430763244629, "hmax": 0.0, "ratio": 0.0, "vulnClass": "none"}}, {"type": "Feature", "geometry": {"type": "MultiPolygon", "coordinates": [[[[72.01990314403767, 34.28747184499453], [72.01983497502614, 34.287486320636674], [72.01986878567851, 34.28759594278207], [72.01993684945164, 34.287581374421706], [72.01990314403767, 34.28747184499453]]]]}, "properties": {"id": "8J6J72Q9+2X67", "height": 3.35766077041626, "hmax": 0.0, "ratio": 0.0, "vulnClass": "none"}}, {"type": "Feature", "geometry": {"type": "MultiPolygon", "coordinates": [[[[72.01884482811361, 34.28550887791213], [72.01875031429516, 34.28549756239277], [72.0187325703682, 34.28560016041072], [72.0187985348086, 34.285608076539496], [72.01880932846315, 34.28554542160019], [72.01883798643506, 34.28554882364879], [72.01884482811361, 34.28550887791213]]]]}, "properties": {"id": "8J6J72P9+6G7R", "height": 2.850902318954468, "hmax": 0.0, "ratio": 0.0, "vulnClass": "none"}}, {"type": "Feature", "geometry": {"type": "MultiPolygon", "coordinates": [[[[72.0189647385681, 34.28569883842895], [72.01896021491335, 34.28550727073952], [72.01890197103728, 34.28550828628548], [72.01890531565486, 34.285650248218346], [72.01883501184541, 34.28565142076729], [72.01883448649129, 34.285629413794894], [72.0187868950006, 34.285630147836635], [72.01878860236043, 34.28570167049522], [72.0189647385681, 34.28569883842895]]]]}, "properties": {"id": "8J6J72P9+7H24", "height": 3.31138014793396, "hmax": 0.0, "ratio": 0.0, "vulnClass": "none"}}, {"type": "Feature", "geometry": {"type": "MultiPolygon", "coordinates": [[[[72.01863771379045, 34.28564769792386], [72.01864969765822, 34.28558209736452], [72.01860590965714, 34.285576614154856], [72.01859382043641, 34.2856421220033], [72.01863771379045, 34.28564769792386]]]]}, "properties": {"id": "8J6J72P9+6CXH", "height": 2.566491603851318, "hmax": 0.0, "ratio": 0.0, "vulnClass": "none"}}, {"type": "Feature", "geometry": {"type": "MultiPolygon", "coordinates": [[[[72.01860134509684, 34.285601291515945], [72.0184487971533, 34.28558198223545], [72.01844127242211, 34.28562281270974], [72.01859382043641, 34.2856421220033], [72.01860134509684, 34.285601291515945]]]]}, "properties": {"id": "8J6J72P9+6CRG", "height": 2.566491603851318, "hmax": 0.0, "ratio": 0.0, "vulnClass": "none"}}, {"type": "Feature", "geometry": {"type": "MultiPolygon", "coordinates": [[[[72.01820779773838, 34.28545974189268], [72.01816946862104, 34.28547494341888], [72.01819136707951, 34.28551288490581], [72.01822958770768, 34.285497680730835], [72.01820779773838, 34.28545974189268]]]]}, "properties": {"id": "8J6J72P9+57WF", "height": 2.628643751144409, "hmax": 0.0, "ratio": 0.0, "vulnClass": "none"}}, {"type": "Feature", "geometry": {"type": "MultiPolygon", "coordinates": [[[[72.01851637796392, 34.28542435056793], [72.01853525278639, 34.285406511796296], [72.01848518177839, 34.28536986734976], [72.01841676010625, 34.28543454411053], [72.01844407271976, 34.285454499258066], [72.01849372488641, 34.28540775395504], [72.01851637796392, 34.28542435056793]]]]}, "properties": {"id": "8J6J72P9+599C", "height": 3.2273268699646, "hmax": 0.0, "ratio": 0.0, "vulnClass": "none"}}, {"type": "Feature", "geometry": {"type": "MultiPolygon", "coordinates": [[[[72.01864954170345, 34.285804649409805], [72.01861748153186, 34.28576231409124], [72.01854069950292, 34.28580235935644], [72.0185727596481, 34.28584469469369], [72.01864954170345, 34.285804649409805]]]]}, "properties": {"id": "8J6J72P9+8CH2", "height": 2.50889253616333, "hmax": 0.0, "ratio": 0.0, "vulnClass": "none"}}, {"type": "Feature", "geometry": {"type": "MultiPolygon", "coordinates": [[[[72.0192104493617, 34.288585517710366], [72.01925383355507, 34.288451904798656], [72.01919651186222, 34.288439061311834], [72.01915312758766, 34.288572674199024], [72.0192104493617, 34.288585517710366]]]]}, "properties": {"id": "8J6J72Q9+CM4G", "height": 3.280723810195923, "hmax": 0.0, "ratio": 0.0, "vulnClass": "none"}}, {"type": "Feature", "geometry": {"type": "MultiPolygon", "coordinates": [[[[72.01960982550376, 34.289069648531914], [72.01948894557421, 34.289048317006205], [72.01947836039305, 34.28908970400189], [72.0195992403777, 34.28911103554091], [72.01960982550376, 34.289069648531914]]]]}, "properties": {"id": "8J6J72Q9+JRM3", "height": 3.757153034210205, "hmax": 0.0, "ratio": 0.0, "vulnClass": "none"}}, {"type": "Feature", "geometry": {"type": "MultiPolygon", "coordinates": [[[[72.01937082623895, 34.28923158036987], [72.01947066555825, 34.28905237895226], [72.0194269512202, 34.289035540132836], [72.01932710865026, 34.28921483157392], [72.01937082623895, 34.28923158036987]]]]}, "properties": {"id": "8J6J72Q9+MQ29", "height": 3.122856140136719, "hmax": 0.0, "ratio": 0.0, "vulnClass": "none"}}, {"type": "Feature", "geometry": {"type": "MultiPolygon", "coordinates": [[[[72.02075624881795, 34.29174965514047], [72.02074570079141, 34.29171929164759], [72.0207040813103, 34.29172918568875], [72.02071473465247, 34.29175964188801], [72.02075624881795, 34.29174965514047]]]]}, "properties": {"id": "8J6J72RC+M7XF", "height": 2.557033061981201, "hmax": 0.0, "ratio": 0.0, "vulnClass": "none"}}, {"type": "Feature", "geometry": {"type": "MultiPolygon", "coordinates": [[[[72.02075269787777, 34.29185016504096], [72.0207277704397, 34.29177492239679], [72.02067094686845, 34.29178787172038], [72.02069587425783, 34.291863114373534], [72.02075269787777, 34.29185016504096]]]]}, "properties": {"id": "8J6J72RC+P7GQ", "height": 2.674038410186768, "hmax": 0.0, "ratio": 0.0, "vulnClass": "none"}}, {"type": "Feature", "geometry": {"type": "MultiPolygon", "coordinates": [[[[72.02109952866708, 34.29244199201162], [72.02107879514368, 34.29240173569666], [72.02088610052256, 34.29247014998095], [72.02092614370011, 34.292547923815015], [72.02097332887477, 34.292531134228724], [72.0209540159404, 34.29249370680707], [72.02109952866708, 34.29244199201162]]]]}, "properties": {"id": "8J6J72RC+X9QM", "height": 3.478921890258789, "hmax": 0.0, "ratio": 0.0, "vulnClass": "none"}}, {"type": "Feature", "geometry": {"type": "MultiPolygon", "coordinates": [[[[72.0206141487195, 34.292374923706575], [72.0205714724095, 34.29238398071007], [72.02058511449313, 34.29242821095078], [72.02062790251952, 34.29241906652208], [72.0206141487195, 34.292374923706575]]]]}, "properties": {"id": "8J6J72RC+X692", "height": 2.859644651412964, "hmax": 0.0, "ratio": 0.0, "vulnClass": "none"}}, {"type": "Feature", "geometry": {"type": "MultiPolygon", "coordinates": [[[[72.0210716564342, 34.29229330374768], [72.02104009079646, 34.292252242989875], [72.0208385441327, 34.29235911188405], [72.02087010970433, 34.29240017269021], [72.0210716564342, 34.29229330374768]]]]}, "properties": {"id": "8J6J72RC+W9P4", "height": 3.557217597961426, "hmax": 0.0, "ratio": 0.0, "vulnClass": "none"}}, {"type": "Feature", "geometry": {"type": "MultiPolygon", "coordinates": [[[[72.0206740495577, 34.29059954047201], [72.02062837405914, 34.29060744284935], [72.02065733302598, 34.29072226498504], [72.02079873510017, 34.290697672718814], [72.02077691198885, 34.29061141840029], [72.02068118875248, 34.29062801820701], [72.0206740495577, 34.29059954047201]]]]}, "properties": {"id": "8J6J72RC+778H", "height": 2.608453273773193, "hmax": 0.0, "ratio": 0.0, "vulnClass": "none"}}, {"type": "Feature", "geometry": {"type": "MultiPolygon", "coordinates": [[[[72.02051214298118, 34.290811034764495], [72.02044598669211, 34.29062707121312], [72.02036688170477, 34.29064668930796], [72.02043293250148, 34.29083056018966], [72.02051214298118, 34.290811034764495]]]]}, "properties": {"id": "8J6J72RC+75W2", "height": 4.45950984954834, "hmax": 0.0, "ratio": 0.0, "vulnClass": "none"}}, {"type": "Feature", "geometry": {"type": "MultiPolygon", "coordinates": [[[[72.02037697182392, 34.29035803596165], [72.02036946489481, 34.29032152679414], [72.02027133849073, 34.2903354537323], [72.02027884537765, 34.29037196290361], [72.02037697182392, 34.29035803596165]]]]}, "properties": {"id": "8J6J72RC+44PV", "height": 3.868181943893433, "hmax": 0.0, "ratio": 0.0, "vulnClass": "none"}}, {"type": "Feature", "geometry": {"type": "MultiPolygon", "coordinates": [[[[72.02039110936387, 34.290474300202284], [72.02035364026926, 34.290369817265834], [72.02027442700106, 34.290389432672], [72.0203120045126, 34.29049391826892], [72.02039110936387, 34.290474300202284]]]]}, "properties": {"id": "8J6J72RC+54G8", "height": 3.868181943893433, "hmax": 0.0, "ratio": 0.0, "vulnClass": "none"}}, {"type": "Feature", "geometry": {"type": "MultiPolygon", "coordinates": [[[[72.02071710489257, 34.290592025010774], [72.02069205389293, 34.290492621809776], [72.02057829932338, 34.290512388308954], [72.02059830233675, 34.29059174771394], [72.02064605543349, 34.29058344521106], [72.02065110329902, 34.29060348902199], [72.02071710489257, 34.290592025010774]]]]}, "properties": {"id": "8J6J72RC+676X", "height": 2.608453273773193, "hmax": 0.0, "ratio": 0.0, "vulnClass": "none"}}, {"type": "Feature", "geometry": {"type": "MultiPolygon", "coordinates": [[[[72.02104677256494, 34.290547405884055], [72.02104144258576, 34.29051689897082], [72.0209136100006, 34.29053244717963], [72.02091893993362, 34.290562954095996], [72.02104677256494, 34.290547405884055]]]]}, "properties": {"id": "8J6J72RC+699F", "height": 3.095247030258179, "hmax": 0.0, "ratio": 0.0, "vulnClass": "none"}}, {"type": "Feature", "geometry": {"type": "MultiPolygon", "coordinates": [[[[72.02874108695724, 34.29165824789198], [72.02874405005639, 34.29160189197522], [72.02868005629672, 34.29159952745995], [72.02867873687754, 34.29162464458171], [72.0285564941497, 34.291620235173724], [72.02854588450808, 34.29182270319258], [72.02862105206084, 34.29182542914231], [72.02862401842788, 34.29176898317101], [72.02860991496166, 34.291768550700525], [72.02861591750967, 34.29165367736521], [72.02874108695724, 34.29165824789198]]]]}, "properties": {"id": "8J6J72RH+MCHW", "height": 2.643733263015747, "hmax": 0.0, "ratio": 0.0, "vulnClass": "none"}}, {"type": "Feature", "geometry": {"type": "MultiPolygon", "coordinates": [[[[72.02857343775828, 34.292017804638064], [72.02855848239737, 34.291875110081754], [72.02844306853774, 34.2918833958111], [72.02845791201591, 34.292026177800416], [72.02857343775828, 34.292017804638064]]]]}, "properties": {"id": "8J6J72RH+QCJ3", "height": 2.829012155532837, "hmax": 0.0, "ratio": 0.0, "vulnClass": "none"}}, {"type": "Feature", "geometry": {"type": "MultiPolygon", "coordinates": [[[[72.02926541186115, 34.29169585176479], [72.02916510309107, 34.29170080899338], [72.02916762871514, 34.29173701655627], [72.02926793752849, 34.29173205932788], [72.02926541186115, 34.29169585176479]]]]}, "properties": {"id": "8J6J72RH+MMPQ", "height": 2.480521440505981, "hmax": 0.0, "ratio": 0.0, "vulnClass": "none"}}, {"type": "Feature", "geometry": {"type": "MultiPolygon", "coordinates": [[[[72.02872313664153, 34.291541981903244], [72.02854746075818, 34.29137420328125], [72.02847692241868, 34.291425042868646], [72.02865270676457, 34.29159282422281], [72.02872313664153, 34.291541981903244]]]]}, "properties": {"id": "8J6J72RH+HCX6", "height": 2.993354320526123, "hmax": 0.0, "ratio": 0.0, "vulnClass": "none"}}, {"type": "Feature", "geometry": {"type": "MultiPolygon", "coordinates": [[[[72.03185674818201, 34.29051062526548], [72.03211549042864, 34.290268561536834], [72.0320383161916, 34.29021179500754], [72.03177968243357, 34.2904538612034], [72.03185674818201, 34.29051062526548]]]]}, "properties": {"id": "8J6J72RJ+4QWF", "height": 3.41751503944397, "hmax": 0.0, "ratio": 0.0, "vulnClass": "none"}}, {"type": "Feature", "geometry": {"type": "MultiPolygon", "coordinates": [[[[72.03191130163643, 34.290330675560334], [72.03181132382433, 34.29025839269843], [72.031782217792, 34.29028617135875], [72.03188208709734, 34.29035845161366], [72.03191130163643, 34.290330675560334]]]]}, "properties": {"id": "8J6J72RJ+4PH6", "height": 2.667673587799072, "hmax": 0.0, "ratio": 0.0, "vulnClass": "none"}}, {"type": "Feature", "geometry": {"type": "MultiPolygon", "coordinates": [[[[72.03227276201461, 34.289431814684434], [72.03224355111273, 34.289394689809185], [72.03219461356909, 34.289421266696095], [72.03222393296687, 34.2894583942128], [72.03227276201461, 34.289431814684434]]]]}, "properties": {"id": "8J6J72QJ+QVH3", "height": 3.040696144104004, "hmax": 0.0, "ratio": 0.0, "vulnClass": "none"}}, {"type": "Feature", "geometry": {"type": "MultiPolygon", "coordinates": [[[[72.03153291662325, 34.28968610112075], [72.0316670503444, 34.28948527563341], [72.03158369008162, 34.289446927773945], [72.0314494508967, 34.289647660468965], [72.03153291662325, 34.28968610112075]]]]}, "properties": {"id": "8J6J72QJ+RJFQ", "height": 3.265637874603271, "hmax": 0.0, "ratio": 0.0, "vulnClass": "none"}}, {"type": "Feature", "geometry": {"type": "MultiPolygon", "coordinates": [[[[72.03233405463413, 34.28947386372983], [72.03231640823269, 34.28944450086915], [72.03225480353129, 34.28946995944132], [72.03227244991524, 34.28949932230995], [72.03233405463413, 34.28947386372983]]]]}, "properties": {"id": "8J6J72QJ+QWMV", "height": 3.094568252563477, "hmax": 0.0, "ratio": 0.0, "vulnClass": "none"}}, {"type": "Feature", "geometry": {"type": "MultiPolygon", "coordinates": [[[[72.03246311420294, 34.2883986420211], [72.03246009704304, 34.288431920854556], [72.03260303624258, 34.2884406137956], [72.03260605334687, 34.28840733495572], [72.03246311420294, 34.2883986420211]]]]}, "properties": {"id": "8J6J72QM+927J", "height": 3.800072908401489, "hmax": 0.0, "ratio": 0.0, "vulnClass": "none"}}, {"type": "Feature", "geometry": {"type": "MultiPolygon", "coordinates": [[[[72.03235097317196, 34.288406650364735], [72.03225490167326, 34.28841784251572], [72.03229805520398, 34.28867290442863], [72.03268474211272, 34.28862783289665], [72.03267197974446, 34.288552256268616], [72.03238136488481, 34.28858613561438], [72.03235097317196, 34.288406650364735]]]]}, "properties": {"id": "8J6J72QJ+CXFW", "height": 3.592613935470581, "hmax": 0.0, "ratio": 0.0, "vulnClass": "none"}}, {"type": "Feature", "geometry": {"type": "MultiPolygon", "coordinates": [[[[72.0321952058534, 34.28721320052768], [72.03217283754358, 34.28721310897569], [72.03217269238039, 34.28723266593725], [72.03219505752628, 34.28723284755318], [72.0321952058534, 34.28721320052768]]]]}, "properties": {"id": "8J6J72PJ+VVMX", "height": 2.942298650741577, "hmax": 0.0, "ratio": 0.0, "vulnClass": "none"}}]}