{"type": "FeatureCollection", "features": [{"type": "Feature", "geometry": {"type": "MultiPolygon", "coordinates": [[[[72.12334569399218, 34.4140222829291], [72.12327489589181, 34.4139997938307], [72.12324353578413, 34.41406747329314], [72.12331444261011, 34.4140899649699], [72.12334569399218, 34.4140222829291]]]]}, "properties": {"id": "8J6JC47F+J87M", "height": 2.630400419235229, "hmax": 0.0, "ratio": 0.0, "vulnClass": "none"}}, {"type": "Feature", "geometry": {"type": "MultiPolygon", "coordinates": [[[[72.12346426663672, 34.413996408567186], [72.12337410684401, 34.413967604624844], [72.12326220788655, 34.41420817334507], [72.1233524765671, 34.41423697993804], [72.12346426663672, 34.413996408567186]]]]}, "properties": {"id": "8J6JC47F+J8X4", "height": 2.865174055099487, "hmax": 0.0, "ratio": 0.0, "vulnClass": "none"}}, {"type": "Feature", "geometry": {"type": "MultiPolygon", "coordinates": [[[[72.13419265391468, 34.42423148153005], [72.13414574643637, 34.42423533931411], [72.13417452314839, 34.42447570160068], [72.13426354045457, 34.42446832420349], [72.13425153251806, 34.42436762448056], [72.13431403866193, 34.42436250988862], [72.13431006505004, 34.42432915432738], [72.13420534368758, 34.42433769590656], [72.13419265391468, 34.42423148153005]]]]}, "properties": {"id": "8J6JC4FM+PMWP", "height": 3.833308696746826, "hmax": 0.0, "ratio": 0.0, "vulnClass": "none"}}, {"type": "Feature", "geometry": {"type": "MultiPolygon", "coordinates": [[[[72.13411828654651, 34.42464123552793], [72.1340779700991, 34.42452535906261], [72.13392069384176, 34.424562955565975], [72.13394436143243, 34.42463120723825], [72.13400402327359, 34.42461701190985], [72.13402045764343, 34.424664541569705], [72.13411828654651, 34.42464123552793]]]]}, "properties": {"id": "8J6JC4FM+RJJQ", "height": 4.575963973999023, "hmax": 0.0, "ratio": 0.0, "vulnClass": "none"}}, {"type": "Feature", "geometry": {"type": "MultiPolygon", "coordinates": [[[[72.13490703854347, 34.42570916308107], [72.1347382853367, 34.42543928773056], [72.13459233255347, 34.425502029733465], [72.13461347710391, 34.42553587804702], [72.13466724528334, 34.425512710305654], [72.1347941222592, 34.42571552986459], [72.13474024835647, 34.42573860503801], [72.13476108846287, 34.42577181519626], [72.13490703854347, 34.42570916308107]]]]}, "properties": {"id": "8J6JC4GM+6WJW", "height": 3.944850206375122, "hmax": 0.0, "ratio": 0.0, "vulnClass": "none"}}]}