{"type": "FeatureCollection", "features": [{"type": "Feature", "geometry": {"type": "MultiPolygon", "coordinates": [[[[71.92602521421308, 34.56264298769527], [71.92602022472208, 34.56268675736053], [71.9260573794682, 34.56268967674871], [71.9260623689401, 34.56264590708092], [71.92602521421308, 34.56264298769527]]]]}, "properties": {"id": "Pakistan_123102132_142445", "height": 6.52677059173584, "hmax": 0.0, "ratio": 0.0, "vulnClass": "none"}}, {"type": "Feature", "geometry": {"type": "MultiPolygon", "coordinates": [[[[71.92549403255467, 34.562611301536684], [71.92561845404275, 34.562649860681915], [71.92566798764344, 34.56254150593299], [71.92554345743368, 34.56250294410121], [71.92549403255467, 34.562611301536684]]]]}, "properties": {"id": "Pakistan_123102132_284241", "height": 6.247776508331299, "hmax": 0.0, "ratio": 0.0, "vulnClass": "none"}}, {"type": "Feature", "geometry": {"type": "MultiPolygon", "coordinates": [[[[71.92447133231704, 34.562612917801474], [71.9248582356403, 34.5627576045511], [71.9248936100272, 34.56269350962412], [71.92450670692256, 34.56254882299808], [71.92447133231704, 34.562612917801474]]]]}, "properties": {"id": "Pakistan_123102132_262720", "height": 4.873583316802979, "hmax": 0.0, "ratio": 0.0, "vulnClass": "none"}}, {"type": "Feature", "geometry": {"type": "MultiPolygon", "coordinates": [[[[71.91492059628612, 34.55811341634041], [71.91492374944842, 34.558042831005395], [71.91477531381354, 34.55803826527465], [71.91477205168057, 34.558108847845936], [71.91492059628612, 34.55811341634041]]]]}, "properties": {"id": "Pakistan_123102132_569972", "height": 6.116100311279297, "hmax": 0.0, "ratio": 0.0, "vulnClass": "none"}}, {"type": "Feature", "geometry": {"type": "MultiPolygon", "coordinates": [[[[71.92589480494841, 34.55478449063452], [71.92595131229943, 34.5548298101858], [71.92601439873998, 34.554776327928046], [71.92595777922838, 34.55473109571362], [71.92589480494841, 34.55478449063452]]]]}, "properties": {"id": "Pakistan_123102132_182744", "height": 4.053745269775391, "hmax": 0.0, "ratio": 0.0, "vulnClass": "none"}}, {"type": "Feature", "geometry": {"type": "MultiPolygon", "coordinates": [[[[71.92600617241837, 34.55507374444197], [71.92633380266386, 34.55510237109552], [71.926359721687, 34.55490139351607], [71.92630401129044, 34.55489656458472], [71.92628828865072, 34.55501884133711], [71.92622584649513, 34.55501339206219], [71.92622495143053, 34.55501994931947], [71.92601547410219, 34.55500160092457], [71.92600617241837, 34.55507374444197]]]]}, "properties": {"id": "Pakistan_123102132_432144", "height": 3.640585899353027, "hmax": 0.0, "ratio": 0.0, "vulnClass": "none"}}, {"type": "Feature", "geometry": {"type": "MultiPolygon", "coordinates": [[[[71.92651800040777, 34.555757152072765], [71.92659979366245, 34.555784450655935], [71.92667539611543, 34.55563069341391], [71.92662588816636, 34.55561421328361], [71.92663990130885, 34.55558572334814], [71.92669855489437, 34.55560531820606], [71.92671915715074, 34.555563564248985], [71.92667998220998, 34.55555049919247], [71.92666314469322, 34.55558468657323], [71.92661138088872, 34.55556733838921], [71.92651800040777, 34.555757152072765]]]]}, "properties": {"id": "Pakistan_123102132_536634", "height": 3.570607900619507, "hmax": 0.0, "ratio": 0.0, "vulnClass": "none"}}, {"type": "Feature", "geometry": {"type": "MultiPolygon", "coordinates": [[[[71.92644588808294, 34.55540768656224], [71.92648433470981, 34.555416857559685], [71.92648835085645, 34.55540542155062], [71.9266096307669, 34.555434346017165], [71.92663543033918, 34.55536090557509], [71.92647570061517, 34.55532290020378], [71.92644588808294, 34.55540768656224]]]]}, "properties": {"id": "Pakistan_123102132_201202", "height": 2.995732307434082, "hmax": 0.0, "ratio": 0.0, "vulnClass": "none"}}, {"type": "Feature", "geometry": {"type": "MultiPolygon", "coordinates": [[[[71.92428492691478, 34.562275441415586], [71.92440719675717, 34.56231322643774], [71.92446895540333, 34.562177689529726], [71.92434668572209, 34.562139904577926], [71.92428492691478, 34.562275441415586]]]]}, "properties": {"id": "Pakistan_123102132_379533", "height": 3.002368927001953, "hmax": 0.0, "ratio": 0.0, "vulnClass": "none"}}, {"type": "Feature", "geometry": {"type": "MultiPolygon", "coordinates": [[[[71.9240500086562, 34.562533069669726], [71.92445751764906, 34.56256795297341], [71.9244633462251, 34.562522131464625], [71.92405573191668, 34.5624871553962], [71.9240500086562, 34.562533069669726]]]]}, "properties": {"id": "Pakistan_123102132_563907", "height": 3.086580991744995, "hmax": 0.0, "ratio": 0.0, "vulnClass": "none"}}, {"type": "Feature", "geometry": {"type": "MultiPolygon", "coordinates": [[[[71.92495343721261, 34.56224957432057], [71.92500243421053, 34.5622652311292], [71.92501188548296, 34.56224527932979], [71.92496288849439, 34.56222962252544], [71.92495343721261, 34.56224957432057]]]]}, "properties": {"id": "Pakistan_123102132_117697", "height": 3.254621982574463, "hmax": 0.0, "ratio": 0.0, "vulnClass": "none"}}, {"type": "Feature", "geometry": {"type": "MultiPolygon", "coordinates": [[[[71.92531127937441, 34.56234611625759], [71.92523947694723, 34.56232546806585], [71.92522955984012, 34.56234919378129], [71.925301256749, 34.56236974918496], [71.92531127937441, 34.56234611625759]]]]}, "properties": {"id": "Pakistan_123102132_247308", "height": 2.778355598449707, "hmax": 0.0, "ratio": 0.0, "vulnClass": "none"}}, {"type": "Feature", "geometry": {"type": "MultiPolygon", "coordinates": [[[[71.92533332022305, 34.56239552469079], [71.9256933653194, 34.562500323289456], [71.92570301486383, 34.562477942803994], [71.92566485581943, 34.56246679577225], [71.92569906160233, 34.5623870778935], [71.92559180145528, 34.562355891771844], [71.92557440649819, 34.56239628414028], [71.92550293714267, 34.562375464228374], [71.92549447890757, 34.56239508056371], [71.92535143143189, 34.562353437864225], [71.92533332022305, 34.56239552469079]]]]}, "properties": {"id": "Pakistan_123102132_151656", "height": 6.88028621673584, "hmax": 0.0, "ratio": 0.0, "vulnClass": "none"}}, {"type": "Feature", "geometry": {"type": "MultiPolygon", "coordinates": [[[[71.9258512505912, 34.56244084833419], [71.9257674786491, 34.562413859755935], [71.92574207544075, 34.5624675704446], [71.92582574188971, 34.56249446624816], [71.9258512505912, 34.56244084833419]]]]}, "properties": {"id": "Pakistan_123102132_395146", "height": 3.708626508712769, "hmax": 0.0, "ratio": 0.0, "vulnClass": "none"}}, {"type": "Feature", "geometry": {"type": "MultiPolygon", "coordinates": [[[[71.92692554577809, 34.56240500747498], [71.92712754327054, 34.56244651116264], [71.92717230894812, 34.56229891729831], [71.92697031177946, 34.56225741370183], [71.92692554577809, 34.56240500747498]]]]}, "properties": {"id": "Pakistan_123102132_530531", "height": 3.115612030029297, "hmax": 0.0, "ratio": 0.0, "vulnClass": "none"}}, {"type": "Feature", "geometry": {"type": "MultiPolygon", "coordinates": [[[[71.92683718725421, 34.553099738599315], [71.92678364102917, 34.553098299418174], [71.92678133810348, 34.55315791040613], [71.92683488436658, 34.55315934959031], [71.92683718725421, 34.553099738599315]]]]}, "properties": {"id": "Pakistan_123102132_4088", "height": 2.9752197265625, "hmax": 0.0, "ratio": 0.0, "vulnClass": "none"}}, {"type": "Feature", "geometry": {"type": "MultiPolygon", "coordinates": [[[[71.92654864976208, 34.55304514830591], [71.92662032828224, 34.55319919139506], [71.92671621945831, 34.55316897872668], [71.92664454409278, 34.55301484563431], [71.92654864976208, 34.55304514830591]]]]}, "properties": {"id": "Pakistan_123102132_16299", "height": 2.464813709259033, "hmax": 0.0, "ratio": 0.0, "vulnClass": "none"}}, {"type": "Feature", "geometry": {"type": "MultiPolygon", "coordinates": [[[[71.92685386479405, 34.553478362940375], [71.92690437510541, 34.553452775410626], [71.92685640062335, 34.55338874304683], [71.92678834877803, 34.553423262594265], [71.92677402143138, 34.55340406352507], [71.92672350780047, 34.55342974105134], [71.92676659867617, 34.553487341013415], [71.92683465058387, 34.553452821481706], [71.92685386479405, 34.553478362940375]]]]}, "properties": {"id": "Pakistan_123102132_348876", "height": 2.834315299987793, "hmax": 0.118, "ratio": 0.042, "vulnClass": "low"}}, {"type": "Feature", "geometry": {"type": "MultiPolygon", "coordinates": [[[[71.92664759648292, 34.55342620603099], [71.92656893283883, 34.553467849106426], [71.92661283522702, 34.55352411755063], [71.92655861370842, 34.55355285628674], [71.92668906808073, 34.55372018787281], [71.92674040013858, 34.55369299870147], [71.92684651305002, 34.55382907113702], [71.92689962305182, 34.553800935213815], [71.92691793400941, 34.55382438081561], [71.92694648626238, 34.553809326612004], [71.92664759648292, 34.55342620603099]]]]}, "properties": {"id": "Pakistan_123102132_213580", "height": 6.48907470703125, "hmax": 0.0, "ratio": 0.0, "vulnClass": "none"}}, {"type": "Feature", "geometry": {"type": "MultiPolygon", "coordinates": [[[[71.92672506268393, 34.55375156020364], [71.92674539687323, 34.55378515186309], [71.92678832005305, 34.553767395197845], [71.92676798253525, 34.553733893595705], [71.92672506268393, 34.55375156020364]]]]}, "properties": {"id": "Pakistan_123102132_111474", "height": 4.152801513671875, "hmax": 0.0, "ratio": 0.0, "vulnClass": "none"}}, {"type": "Feature", "geometry": {"type": "MultiPolygon", "coordinates": [[[[71.92607082799837, 34.554554487048385], [71.92613755343203, 34.55451164214893], [71.92607767211726, 34.55444848117958], [71.92591342152035, 34.5545540354484], [71.92599930771782, 34.55464471190969], [71.92609694511565, 34.55458191513523], [71.92607082799837, 34.554554487048385]]]]}, "properties": {"id": "Pakistan_123102132_62431", "height": 11.22747039794922, "hmax": 0.0, "ratio": 0.0, "vulnClass": "none"}}, {"type": "Feature", "geometry": {"type": "MultiPolygon", "coordinates": [[[[71.92592376189361, 34.55470815548671], [71.92584208731675, 34.554636242939544], [71.9257899471035, 34.554676480825464], [71.92587162498491, 34.554748303356014], [71.92592376189361, 34.55470815548671]]]]}, "properties": {"id": "Pakistan_123102132_370333", "height": 4.737666130065918, "hmax": 0.0, "ratio": 0.0, "vulnClass": "none"}}, {"type": "Feature", "geometry": {"type": "MultiPolygon", "coordinates": [[[[71.92558884673618, 34.55420875243805], [71.92568265099796, 34.55425005475255], [71.92573727971778, 34.554165894030405], [71.92576440225109, 34.55417784440428], [71.92579119527365, 34.55413660716401], [71.9256701597365, 34.55408335180611], [71.92558884673618, 34.55420875243805]]]]}, "properties": {"id": "Pakistan_123102132_422960", "height": 5.164466381072998, "hmax": 0.0, "ratio": 0.0, "vulnClass": "none"}}, {"type": "Feature", "geometry": {"type": "MultiPolygon", "coordinates": [[[[71.92538355362322, 34.55387269457286], [71.9255277244132, 34.55398403907869], [71.92556656457214, 34.55394995574953], [71.9254223937821, 34.5538386112895], [71.92538355362322, 34.55387269457286]]]]}, "properties": {"id": "Pakistan_123102132_361145", "height": 2.676233768463135, "hmax": 0.0, "ratio": 0.0, "vulnClass": "none"}}, {"type": "Feature", "geometry": {"type": "MultiPolygon", "coordinates": [[[[71.9251963858216, 34.55398524152209], [71.92546809058757, 34.55417749671641], [71.92554172465294, 34.55410679447676], [71.92549086938959, 34.55407072078843], [71.92545507007732, 34.55410506100548], [71.92540962651044, 34.55407290933362], [71.92539370286377, 34.55408819134885], [71.92536195503932, 34.55406575885206], [71.92538973812951, 34.55403905829893], [71.92525245467361, 34.55394185807475], [71.92525245467361, 34.55394185807475], [71.92518842828649, 34.55389661908777], [71.92514732105025, 34.553936053208055], [71.92520519049253, 34.55397690069875], [71.9251963858216, 34.55398524152209]]]]}, "properties": {"id": "Pakistan_123102132_478397", "height": 3.556561946868896, "hmax": 0.0, "ratio": 0.0, "vulnClass": "none"}}, {"type": "Feature", "geometry": {"type": "MultiPolygon", "coordinates": [[[[71.92476107997528, 34.553889811806336], [71.9248899023447, 34.55398896248785], [71.92494338628467, 34.55394181851159], [71.92481467275702, 34.553842670630424], [71.92476107997528, 34.553889811806336]]]]}, "properties": {"id": "Pakistan_123102132_345813", "height": 3.215429782867432, "hmax": 0.0, "ratio": 0.0, "vulnClass": "none"}}, {"type": "Feature", "geometry": {"type": "MultiPolygon", "coordinates": [[[[71.92359332417493, 34.55284905827655], [71.92350236153898, 34.552902196758325], [71.92356567427856, 34.55297563064665], [71.92365663696158, 34.55292249212026], [71.92359332417493, 34.55284905827655]]]]}, "properties": {"id": "Pakistan_123102132_179625", "height": 2.675476551055908, "hmax": 0.0, "ratio": 0.0, "vulnClass": "none"}}, {"type": "Feature", "geometry": {"type": "MultiPolygon", "coordinates": [[[[71.92459990854606, 34.55324624493251], [71.92469959393344, 34.553358541871916], [71.92478170653965, 34.55330905515299], [71.92468201777385, 34.553196848328014], [71.92459990854606, 34.55324624493251]]]]}, "properties": {"id": "Pakistan_123102132_89876", "height": 2.881006479263306, "hmax": 0.0, "ratio": 0.0, "vulnClass": "none"}}, {"type": "Feature", "geometry": {"type": "MultiPolygon", "coordinates": [[[[71.92465097463585, 34.553681799884835], [71.92458855247982, 34.55372907891688], [71.92468611285726, 34.55381626494129], [71.92474853503097, 34.55376898586039], [71.92465097463585, 34.553681799884835]]]]}, "properties": {"id": "Pakistan_123102132_154718", "height": 3.286160230636597, "hmax": 0.0, "ratio": 0.0, "vulnClass": "none"}}, {"type": "Feature", "geometry": {"type": "MultiPolygon", "coordinates": [[[[71.9246430449219, 34.55341200801578], [71.92457906850655, 34.55333585389172], [71.92446835080963, 34.55339886047383], [71.92453243600401, 34.55347501739672], [71.9246430449219, 34.55341200801578]]]]}, "properties": {"id": "Pakistan_123102132_191912", "height": 2.762269258499146, "hmax": 0.0, "ratio": 0.0, "vulnClass": "none"}}, {"type": "Feature", "geometry": {"type": "MultiPolygon", "coordinates": [[[[71.92309516113717, 34.55079954707414], [71.92297084523949, 34.55081479870046], [71.92300181288844, 34.55098548312444], [71.92304372655626, 34.550980321103204], [71.92308799924906, 34.55122453022056], [71.92317029313531, 34.55121443783524], [71.92309516113717, 34.55079954707414]]]]}, "properties": {"id": "Pakistan_123102132_613228", "height": 3.810937166213989, "hmax": 0.0, "ratio": 0.0, "vulnClass": "none"}}, {"type": "Feature", "geometry": {"type": "MultiPolygon", "coordinates": [[[[71.92330715776266, 34.55103897321591], [71.92330339912284, 34.55094288530965], [71.92323110392286, 34.55094475735733], [71.92323486247916, 34.551040845261355], [71.92330715776266, 34.55103897321591]]]]}, "properties": {"id": "Pakistan_123102132_305881", "height": 9.250542640686035, "hmax": 0.0, "ratio": 0.0, "vulnClass": "none"}}, {"type": "Feature", "geometry": {"type": "MultiPolygon", "coordinates": [[[[71.92337757593118, 34.55109987744131], [71.92347773700729, 34.55109861797784], [71.92347525610371, 34.55096488612808], [71.92341792800538, 34.55096560348245], [71.92341933668794, 34.55103972946698], [71.9233763949954, 34.55104026883601], [71.92337757593118, 34.55109987744131]]]]}, "properties": {"id": "Pakistan_123102132_198108", "height": 3.031826734542847, "hmax": 0.0, "ratio": 0.0, "vulnClass": "none"}}, {"type": "Feature", "geometry": {"type": "MultiPolygon", "coordinates": [[[[71.92574944448499, 34.551607374422225], [71.9257535641327, 34.551519146496105], [71.92570807964466, 34.551517729774574], [71.92570395994917, 34.551605957696616], [71.92574944448499, 34.551607374422225]]]]}, "properties": {"id": "Pakistan_123102132_302833", "height": 3.787208557128906, "hmax": 0.0, "ratio": 0.0, "vulnClass": "none"}}, {"type": "Feature", "geometry": {"type": "MultiPolygon", "coordinates": [[[[71.92560177386426, 34.55122427685463], [71.9254420988176, 34.55127081781925], [71.9255104319984, 34.55142982470428], [71.92567010732515, 34.551383283665345], [71.92560177386426, 34.55122427685463]]]]}, "properties": {"id": "Pakistan_123102132_210568", "height": 2.84436559677124, "hmax": 0.0, "ratio": 0.0, "vulnClass": "none"}}, {"type": "Feature", "geometry": {"type": "MultiPolygon", "coordinates": [[[[71.92729769258418, 34.55207217926073], [71.92728491660445, 34.55204634937882], [71.92735318936843, 34.55202355255832], [71.92726783942462, 34.55185023724816], [71.92712588809931, 34.55189767754231], [71.92722401374084, 34.552096822826165], [71.92729769258418, 34.55207217926073]]]]}, "properties": {"id": "Pakistan_123102132_521341", "height": 2.605157852172852, "hmax": 0.0, "ratio": 0.0, "vulnClass": "none"}}, {"type": "Feature", "geometry": {"type": "MultiPolygon", "coordinates": [[[[71.92681827000146, 34.54977447169727], [71.92682590550687, 34.549865970296], [71.92696738154524, 34.549857997183814], [71.92695985472022, 34.5497665013274], [71.92681827000146, 34.54977447169727]]]]}, "properties": {"id": "Pakistan_123102132_120818", "height": 2.765998363494873, "hmax": 0.0, "ratio": 0.0, "vulnClass": "none"}}, {"type": "Feature", "geometry": {"type": "MultiPolygon", "coordinates": [[[[71.92672601165482, 34.549706078828606], [71.9267931520227, 34.549716964037124], [71.92682136474194, 34.54959860713536], [71.92675422446321, 34.549587721947084], [71.92672601165482, 34.549706078828606]]]]}, "properties": {"id": "Pakistan_123102132_182750", "height": 2.452048778533936, "hmax": 0.0, "ratio": 0.0, "vulnClass": "none"}}, {"type": "Feature", "geometry": {"type": "MultiPolygon", "coordinates": [[[[71.92671733039174, 34.54972884441028], [71.9267096343868, 34.54977515991469], [71.92675964548836, 34.54978083646299], [71.92676734478049, 34.549734430903015], [71.92671733039174, 34.54972884441028]]]]}, "properties": {"id": "Pakistan_123102132_606993", "height": 2.802949905395508, "hmax": 0.0, "ratio": 0.0, "vulnClass": "none"}}, {"type": "Feature", "geometry": {"type": "MultiPolygon", "coordinates": [[[[71.92722593690522, 34.550232709787885], [71.92719510445654, 34.55010844886233], [71.92711267277606, 34.550122326194234], [71.92708088801956, 34.549994345740515], [71.9269341121031, 34.550019040613854], [71.92696211313758, 34.55013142264826], [71.92702536256603, 34.550120757709244], [71.92706019264334, 34.550260712642476], [71.92722593690522, 34.550232709787885]]]]}, "properties": {"id": "Pakistan_123102132_339693", "height": 2.956764936447144, "hmax": 0.0, "ratio": 0.0, "vulnClass": "none"}}, {"type": "Feature", "geometry": {"type": "MultiPolygon", "coordinates": [[[[71.92583743710851, 34.55040972223689], [71.9256606365223, 34.55033559260072], [71.92557109511246, 34.55048043530901], [71.92569543373953, 34.550532602137494], [71.92572427793708, 34.5504859183555], [71.92577662793154, 34.5505079685983], [71.92583743710851, 34.55040972223689]]]]}, "properties": {"id": "Pakistan_123102132_114546", "height": 2.83566427230835, "hmax": 0.0, "ratio": 0.0, "vulnClass": "none"}}, {"type": "Feature", "geometry": {"type": "MultiPolygon", "coordinates": [[[[71.92311279429194, 34.55061368410885], [71.92311425481516, 34.55055630535502], [71.92306330590466, 34.55055538076843], [71.9230618453465, 34.55061275951979], [71.92311279429194, 34.55061368410885]]]]}, "properties": {"id": "Pakistan_123102132_31563", "height": 5.731056690216064, "hmax": 0.0, "ratio": 0.0, "vulnClass": "none"}}, {"type": "Feature", "geometry": {"type": "MultiPolygon", "coordinates": [[[[71.92253125324761, 34.54970992886936], [71.92230472840613, 34.54991215382588], [71.92234383019058, 34.54994189321647], [71.92241130283871, 34.54988167320983], [71.92244256318233, 34.54990544613767], [71.92260161537133, 34.54976344107446], [71.92253125324761, 34.54970992886936]]]]}, "properties": {"id": "Pakistan_123102132_271941", "height": 4.258219718933105, "hmax": 0.0, "ratio": 0.0, "vulnClass": "none"}}, {"type": "Feature", "geometry": {"type": "MultiPolygon", "coordinates": [[[[71.92230128401805, 34.54951493495938], [71.92217452476774, 34.549407361189445], [71.92212423657197, 34.54944764429855], [71.92225089029385, 34.549555125323415], [71.92230128401805, 34.54951493495938]]]]}, "properties": {"id": "Pakistan_123102132_265779", "height": 2.62452220916748, "hmax": 0.0, "ratio": 0.0, "vulnClass": "none"}}, {"type": "Feature", "geometry": {"type": "MultiPolygon", "coordinates": [[[[71.9241941077657, 34.54924738583202], [71.92379643721988, 34.54886140760348], [71.92365834431722, 34.54895797436925], [71.92405601461462, 34.54934395303369], [71.9241941077657, 34.54924738583202]]]]}, "properties": {"id": "Pakistan_123102132_395137", "height": 3.072618961334229, "hmax": 0.0, "ratio": 0.0, "vulnClass": "none"}}, {"type": "Feature", "geometry": {"type": "MultiPolygon", "coordinates": [[[[71.92384062685787, 34.5492883168847], [71.92395954875576, 34.549395781481], [71.9240415612717, 34.54933412447243], [71.9239226360267, 34.54922675000503], [71.92384062685787, 34.5492883168847]]]]}, "properties": {"id": "Pakistan_123102132_351936", "height": 3.229366540908813, "hmax": 0.0, "ratio": 0.0, "vulnClass": "none"}}, {"type": "Feature", "geometry": {"type": "MultiPolygon", "coordinates": [[[[71.92504919340121, 34.547988763609645], [71.92513221030488, 34.54799148711484], [71.92513755180079, 34.547878953679614], [71.9250545316928, 34.54787632023485], [71.92504919340121, 34.547988763609645]]]]}, "properties": {"id": "Pakistan_123102132_142442", "height": 2.55969762802124, "hmax": 0.0, "ratio": 0.0, "vulnClass": "none"}}, {"type": "Feature", "geometry": {"type": "MultiPolygon", "coordinates": [[[[71.92494192013717, 34.54779867001578], [71.92498427628472, 34.54768085035906], [71.92492262651407, 34.54766586628833], [71.9249362183549, 34.547628082032524], [71.9248572945837, 34.54760887684515], [71.9248393337743, 34.54765880924213], [71.92487388189295, 34.54766725143536], [71.9248100438218, 34.547844829467], [71.92490364979153, 34.54786764964014], [71.92492961259569, 34.54779565573747], [71.92494192013717, 34.54779867001578]]]]}, "properties": {"id": "Pakistan_123102132_182738", "height": 2.439775705337524, "hmax": 0.0, "ratio": 0.0, "vulnClass": "none"}}, {"type": "Feature", "geometry": {"type": "MultiPolygon", "coordinates": [[[[71.92502185411085, 34.54786440999705], [71.92502080979192, 34.547824724512125], [71.924952356271, 34.547825883287544], [71.92495339724165, 34.5478656588222], [71.92502185411085, 34.54786440999705]]]]}, "properties": {"id": "Pakistan_123102132_422953", "height": 2.758207082748413, "hmax": 0.0, "ratio": 0.0, "vulnClass": "none"}}]}