{"type": "FeatureCollection", "features": [{"type": "Feature", "geometry": {"type": "MultiPolygon", "coordinates": [[[[72.3910670805952, 34.327884501575085], [72.3910689680522, 34.32793232136059], [72.39123504307234, 34.32792765797324], [72.39123315273054, 34.32787992827656], [72.3910670805952, 34.327884501575085]]]]}, "properties": {"id": "Pakistan_123102132_372225", "height": 2.703371524810791, "hmax": 0.394, "ratio": 0.146, "vulnClass": "low"}}, {"type": "Feature", "geometry": {"type": "MultiPolygon", "coordinates": [[[[72.39068448826714, 34.32586347358086], [72.39069062244376, 34.32590047575785], [72.39072486483794, 34.325896518012165], [72.39071872785574, 34.325859605926816], [72.39068448826714, 34.32586347358086]]]]}, "properties": {"id": "Pakistan_123102132_138289", "height": 3.117539882659912, "hmax": 0.0, "ratio": 0.0, "vulnClass": "none"}}, {"type": "Feature", "geometry": {"type": "MultiPolygon", "coordinates": [[[[72.39108824988456, 34.32427840740582], [72.39095146224068, 34.32427792551224], [72.39095124511796, 34.324320020994854], [72.39086541590757, 34.32431963366809], [72.39086527221423, 34.324345323391356], [72.39080899289246, 34.32434511523272], [72.39080867803497, 34.32439036388378], [72.39085061538084, 34.32439053674157], [72.39085066095524, 34.324375031891236], [72.39108773140603, 34.32437584864875], [72.39108824988456, 34.32427840740582]]]]}, "properties": {"id": "Pakistan_123102132_523247", "height": 3.101293563842773, "hmax": 0.0, "ratio": 0.0, "vulnClass": "none"}}, {"type": "Feature", "geometry": {"type": "MultiPolygon", "coordinates": [[[[72.39149385663076, 34.3241000815547], [72.39149539766363, 34.32417313601861], [72.39156942972556, 34.324172009367246], [72.39156788862834, 34.3240989549013], [72.39149385663076, 34.3241000815547]]]]}, "properties": {"id": "Pakistan_123102132_119667", "height": 2.963747262954712, "hmax": 0.0, "ratio": 0.0, "vulnClass": "none"}}, {"type": "Feature", "geometry": {"type": "MultiPolygon", "coordinates": [[[[72.39129802275113, 34.32400278241449], [72.39129559578014, 34.32389518156158], [72.3912017787182, 34.32389660752389], [72.39120448604434, 34.324016204320436], [72.39127155997822, 34.32401519997889], [72.39127352036736, 34.324102777553165], [72.39135929100446, 34.324101540636704], [72.39135705281853, 34.324001877021054], [72.39129802275113, 34.32400278241449]]]]}, "properties": {"id": "Pakistan_123102132_602811", "height": 3.399054288864136, "hmax": 0.0, "ratio": 0.0, "vulnClass": "none"}}, {"type": "Feature", "geometry": {"type": "MultiPolygon", "coordinates": [[[[72.3915076524379, 34.32381946772313], [72.39151016261692, 34.32388929743991], [72.39160563638883, 34.323887005047354], [72.39160302033235, 34.323817082923924], [72.3915076524379, 34.32381946772313]]]]}, "properties": {"id": "Pakistan_123102132_547684", "height": 3.72636604309082, "hmax": 0.0, "ratio": 0.0, "vulnClass": "none"}}, {"type": "Feature", "geometry": {"type": "MultiPolygon", "coordinates": [[[[72.37889550365777, 34.32319428093955], [72.37890436580912, 34.323262173252665], [72.3791376548946, 34.32324120603627], [72.37912868396951, 34.323173311406016], [72.37889550365777, 34.32319428093955]]]]}, "properties": {"id": "Pakistan_123102132_128967", "height": 3.489724159240723, "hmax": 0.0, "ratio": 0.0, "vulnClass": "none"}}, {"type": "Feature", "geometry": {"type": "MultiPolygon", "coordinates": [[[[72.37843578552518, 34.322858633214615], [72.3784670983164, 34.32305006094203], [72.37851452917425, 34.32304476639948], [72.37849881841804, 34.32294905137727], [72.37859367720873, 34.32293855233304], [72.37858875829393, 34.32290806648671], [72.37866399321389, 34.32289967126322], [72.37865330982054, 34.32283444442241], [72.37843578552518, 34.322858633214615]]]]}, "properties": {"id": "Pakistan_123102132_461769", "height": 2.587753534317017, "hmax": 0.0, "ratio": 0.0, "vulnClass": "none"}}, {"type": "Feature", "geometry": {"type": "MultiPolygon", "coordinates": [[[[72.3784421704136, 34.323065483509225], [72.37823853492475, 34.32306932512255], [72.37823961451481, 34.323111448210554], [72.37844336149459, 34.32310751883626], [72.3784421704136, 34.323065483509225]]]]}, "properties": {"id": "Pakistan_123102132_480258", "height": 3.839582681655884, "hmax": 0.0, "ratio": 0.0, "vulnClass": "none"}}, {"type": "Feature", "geometry": {"type": "MultiPolygon", "coordinates": [[[[72.38028657196323, 34.3232247856512], [72.38021173160011, 34.322829138629416], [72.3801242372352, 34.32284042763123], [72.3801479377294, 34.322965792523505], [72.37994741922405, 34.32299170028113], [72.37996356523546, 34.32307696709163], [72.37993214691566, 34.323080982294094], [72.37997312253061, 34.323297227484886], [72.38004905406183, 34.32328740392867], [72.38005437212401, 34.32331555437647], [72.3800925564692, 34.323310602183255], [72.38006577136643, 34.32316912457972], [72.3800369674755, 34.323172925324904], [72.38001830422148, 34.32307426245737], [72.38014398026675, 34.32305811141859], [72.38017813067476, 34.32323878155875], [72.38028657196323, 34.3232247856512]]]]}, "properties": {"id": "Pakistan_123102132_94832", "height": 3.767317533493042, "hmax": 0.0, "ratio": 0.0, "vulnClass": "none"}}, {"type": "Feature", "geometry": {"type": "MultiPolygon", "coordinates": [[[[72.38033558128411, 34.32300100091368], [72.38034229356673, 34.32303323793834], [72.38025115684722, 34.32304634221088], [72.3802610959666, 34.32309361318721], [72.38044598674081, 34.32306709998182], [72.38042922661518, 34.322987589670404], [72.38033558128411, 34.32300100091368]]]]}, "properties": {"id": "Pakistan_123102132_514065", "height": 3.175863742828369, "hmax": 0.0, "ratio": 0.0, "vulnClass": "none"}}, {"type": "Feature", "geometry": {"type": "MultiPolygon", "coordinates": [[[[72.38081878719657, 34.323189568991765], [72.38081810865837, 34.32288286458178], [72.38071889743009, 34.322883085278654], [72.380719190021, 34.32301696410864], [72.38066018608264, 34.323017053584756], [72.38066045812205, 34.3231411056342], [72.38050496282025, 34.32314129350678], [72.38050514038964, 34.32323343047358], [72.38071855689479, 34.323233039810546], [72.38071849255053, 34.32318967634386], [72.38081878719657, 34.323189568991765]]]]}, "properties": {"id": "Pakistan_123102132_70430", "height": 4.011483669281006, "hmax": 0.0, "ratio": 0.0, "vulnClass": "none"}}, {"type": "Feature", "geometry": {"type": "MultiPolygon", "coordinates": [[[[72.37921663976458, 34.323154189974936], [72.37921371475831, 34.323202808251054], [72.37928327609629, 34.323205650038716], [72.37928620106271, 34.32315703175912], [72.37921663976458, 34.323154189974936]]]]}, "properties": {"id": "Pakistan_123102132_122737", "height": 2.524409294128418, "hmax": 0.0, "ratio": 0.0, "vulnClass": "none"}}, {"type": "Feature", "geometry": {"type": "MultiPolygon", "coordinates": [[[[72.38022236451846, 34.323542451636364], [72.38020040247368, 34.323497447497175], [72.38015659475566, 34.3235120155328], [72.38017844819365, 34.32355701735449], [72.38022236451846, 34.323542451636364]]]]}, "properties": {"id": "Pakistan_123102132_369204", "height": 2.553597450256348, "hmax": 0.0, "ratio": 0.0, "vulnClass": "none"}}, {"type": "Feature", "geometry": {"type": "MultiPolygon", "coordinates": [[[[72.38258741489993, 34.32275934727028], [72.38242086673361, 34.32277606910997], [72.38242795864903, 34.32282409039618], [72.3825945041113, 34.32280745864134], [72.38258741489993, 34.32275934727028]]]]}, "properties": {"id": "Pakistan_123102132_166030", "height": 2.817730903625488, "hmax": 0.0, "ratio": 0.0, "vulnClass": "none"}}, {"type": "Feature", "geometry": {"type": "MultiPolygon", "coordinates": [[[[72.38255136881342, 34.3226814981986], [72.38245888663914, 34.32268547022044], [72.38246194132329, 34.32273403621103], [72.38255442355107, 34.322730064189344], [72.38255136881342, 34.3226814981986]]]]}, "properties": {"id": "Pakistan_123102132_578170", "height": 2.620498895645142, "hmax": 0.0, "ratio": 0.0, "vulnClass": "none"}}, {"type": "Feature", "geometry": {"type": "MultiPolygon", "coordinates": [[[[72.3877664321542, 34.322669411594994], [72.38772940386971, 34.32261957964102], [72.3872367147398, 34.32286950630326], [72.38727385140868, 34.32291934071428], [72.3877664321542, 34.322669411594994]]]]}, "properties": {"id": "Pakistan_123102132_526341", "height": 2.777465581893921, "hmax": 0.701, "ratio": 0.252, "vulnClass": "low"}}, {"type": "Feature", "geometry": {"type": "MultiPolygon", "coordinates": [[[[72.38721873071785, 34.32274516606195], [72.38746564074823, 34.32261773595903], [72.38742221804023, 34.32256037511672], [72.387175308124, 34.32268780513777], [72.38721873071785, 34.32274516606195]]]]}, "properties": {"id": "Pakistan_123102132_584321", "height": 3.007684946060181, "hmax": 0.701, "ratio": 0.233, "vulnClass": "low"}}, {"type": "Feature", "geometry": {"type": "MultiPolygon", "coordinates": [[[[72.3870919372014, 34.32311270544742], [72.3869156696274, 34.323173038838306], [72.38694033276845, 34.32322215627919], [72.3870456517854, 34.32318618121984], [72.38709589685654, 34.32328632881454], [72.38716003219325, 34.32326443932138], [72.38711029645688, 34.32316538442552], [72.3872270396225, 34.32312541604719], [72.3872511935339, 34.32317344075812], [72.3872991877579, 34.3231569762126], [72.38732385112381, 34.32320609358633], [72.3873879863467, 34.32318420396783], [72.38734152956204, 34.32309152965797], [72.38729112134178, 34.32310875403908], [72.38726553941835, 34.32305772389918], [72.38716944247078, 34.32309065063099], [72.3871248231729, 34.32300180177418], [72.38704926375601, 34.323027684409006], [72.3870919372014, 34.32311270544742]]]]}, "properties": {"id": "Pakistan_123102132_556740", "height": 2.528393268585205, "hmax": 0.0, "ratio": 0.0, "vulnClass": "none"}}, {"type": "Feature", "geometry": {"type": "MultiPolygon", "coordinates": [[[[72.38720288139785, 34.32324570137539], [72.38721711484443, 34.32329477640822], [72.38736536383826, 34.32326548714398], [72.38735123610036, 34.32321650453286], [72.38720288139785, 34.32324570137539]]]]}, "properties": {"id": "Pakistan_123102132_138284", "height": 2.68221378326416, "hmax": 0.0, "ratio": 0.0, "vulnClass": "none"}}, {"type": "Feature", "geometry": {"type": "MultiPolygon", "coordinates": [[[[72.38787792640764, 34.323208725014226], [72.38757579165456, 34.32328440296116], [72.38757849720228, 34.323291762866035], [72.38748026821116, 34.32331635052424], [72.38743407648015, 34.323190596835836], [72.38739224448855, 34.323201062774544], [72.38746830008665, 34.32340795795336], [72.38761318096812, 34.32337165494107], [72.38759975341344, 34.32333512800825], [72.3882212160494, 34.32317945034046], [72.38819806534293, 34.3231165724543], [72.38790721052686, 34.32318942684957], [72.38788937657931, 34.32314081594339], [72.38785597843032, 34.323149118141345], [72.38787792640764, 34.323208725014226]]]]}, "properties": {"id": "Pakistan_123102132_88723", "height": 2.468109369277954, "hmax": 0.0, "ratio": 0.0, "vulnClass": "none"}}, {"type": "Feature", "geometry": {"type": "MultiPolygon", "coordinates": [[[[72.38751327832773, 34.32315938271121], [72.38755167604626, 34.32321411206398], [72.38770631094367, 34.32314006395922], [72.38766802173812, 34.32308533696906], [72.38751327832773, 34.32315938271121]]]]}, "properties": {"id": "Pakistan_123102132_317100", "height": 2.663774728775024, "hmax": 0.0, "ratio": 0.0, "vulnClass": "none"}}, {"type": "Feature", "geometry": {"type": "MultiPolygon", "coordinates": [[[[72.38763215583563, 34.32299451151878], [72.38765668319957, 34.3230410115753], [72.38774459127175, 34.32300935207368], [72.3877199552801, 34.32296284971512], [72.38763215583563, 34.32299451151878]]]]}, "properties": {"id": "Pakistan_123102132_21327", "height": 2.926247119903564, "hmax": 0.0, "ratio": 0.0, "vulnClass": "none"}}, {"type": "Feature", "geometry": {"type": "MultiPolygon", "coordinates": [[[[72.38797960443219, 34.32299228114591], [72.38793696329846, 34.32288165846602], [72.38785173202992, 34.322904089785574], [72.38788119855937, 34.322980534887584], [72.38766921845634, 34.323036230729976], [72.38768250146185, 34.3230704106693], [72.38797960443219, 34.32299228114591]]]]}, "properties": {"id": "Pakistan_123102132_381514", "height": 2.523803234100342, "hmax": 0.261, "ratio": 0.103, "vulnClass": "low"}}, {"type": "Feature", "geometry": {"type": "MultiPolygon", "coordinates": [[[[72.38782100007093, 34.32292452898921], [72.38776847435835, 34.32282081714285], [72.38766116800792, 34.32285783222841], [72.38769075870341, 34.32291625001013], [72.38738706816297, 34.323021102924656], [72.38738071858178, 34.3230086168248], [72.3873053708111, 34.323034684437886], [72.38725541225764, 34.32293580514086], [72.38721433171601, 34.322950073365334], [72.38729347150021, 34.323106550457844], [72.38782100007093, 34.32292452898921]]]]}, "properties": {"id": "Pakistan_123102132_301673", "height": 2.942134380340576, "hmax": 0.261, "ratio": 0.089, "vulnClass": "low"}}, {"type": "Feature", "geometry": {"type": "MultiPolygon", "coordinates": [[[[72.3884900388202, 34.322835855133185], [72.38846862010281, 34.32276967869628], [72.38839608310404, 34.322785710163075], [72.3884175017668, 34.32285188661009], [72.3884900388202, 34.322835855133185]]]]}, "properties": {"id": "Pakistan_123102132_2933", "height": 3.484360456466675, "hmax": 0.0, "ratio": 0.0, "vulnClass": "none"}}, {"type": "Feature", "geometry": {"type": "MultiPolygon", "coordinates": [[[[72.38872658217718, 34.32282548650935], [72.38850298325205, 34.32289148348702], [72.38854334646251, 34.32298447811681], [72.38876683702672, 34.32291847875938], [72.38872658217718, 34.32282548650935]]]]}, "properties": {"id": "Pakistan_123102132_243053", "height": 3.393164157867432, "hmax": 0.0, "ratio": 0.0, "vulnClass": "none"}}, {"type": "Feature", "geometry": {"type": "MultiPolygon", "coordinates": [[[[72.38840928675498, 34.32268926086814], [72.38844619868529, 34.322767397269565], [72.38846485655779, 34.32276139473295], [72.38849881505931, 34.32283315759416], [72.38868737346606, 34.32277236290712], [72.38864606856984, 34.322685207984726], [72.38848549853273, 34.32273695376217], [72.38845582141091, 34.32267429726154], [72.38840928675498, 34.32268926086814]]]]}, "properties": {"id": "Pakistan_123102132_495672", "height": 3.563681125640869, "hmax": 0.0, "ratio": 0.0, "vulnClass": "none"}}, {"type": "Feature", "geometry": {"type": "MultiPolygon", "coordinates": [[[[72.38982858899844, 34.3232708961454], [72.38969460597114, 34.3232816513114], [72.38970363488761, 34.32335847147205], [72.38989491607808, 34.32334307851101], [72.38988046953779, 34.323220166263226], [72.38982306299424, 34.32322480173538], [72.38982858899844, 34.3232708961454]]]]}, "properties": {"id": "Pakistan_123102132_212496", "height": 2.486037254333496, "hmax": 0.0, "ratio": 0.0, "vulnClass": "none"}}, {"type": "Feature", "geometry": {"type": "MultiPolygon", "coordinates": [[[[72.38925065482896, 34.323161567795516], [72.38924141512126, 34.322947805109955], [72.38914657724, 34.322950650144655], [72.38915581670624, 34.32316441282627], [72.38925065482896, 34.323161567795516]]]]}, "properties": {"id": "Pakistan_123102132_283153", "height": 3.380882024765015, "hmax": 0.0, "ratio": 0.0, "vulnClass": "none"}}, {"type": "Feature", "geometry": {"type": "MultiPolygon", "coordinates": [[[[72.38909397226975, 34.322842429632544], [72.38893548513336, 34.32285852099629], [72.38894816834744, 34.32294362281817], [72.3891066556438, 34.32292753144543], [72.38909397226975, 34.322842429632544]]]]}, "properties": {"id": "Pakistan_123102132_212492", "height": 2.77903938293457, "hmax": 0.0, "ratio": 0.0, "vulnClass": "none"}}, {"type": "Feature", "geometry": {"type": "MultiPolygon", "coordinates": [[[[72.3889373579174, 34.323155695657604], [72.38893047166268, 34.3231009177902], [72.38886412480076, 34.32310653402967], [72.38887101101228, 34.32316131189882], [72.3889373579174, 34.323155695657604]]]]}, "properties": {"id": "Pakistan_123102132_508038", "height": 3.004134178161621, "hmax": 0.0, "ratio": 0.0, "vulnClass": "none"}}, {"type": "Feature", "geometry": {"type": "MultiPolygon", "coordinates": [[[[72.38901934639051, 34.32328347460571], [72.38899659708893, 34.32317607127405], [72.38893263876149, 34.32318525435885], [72.3889553851902, 34.32329274778916], [72.38901934639051, 34.32328347460571]]]]}, "properties": {"id": "Pakistan_123102132_480297", "height": 3.362640857696533, "hmax": 0.25, "ratio": 0.074, "vulnClass": "low"}}, {"type": "Feature", "geometry": {"type": "MultiPolygon", "coordinates": [[[[72.38875610027665, 34.32314218250553], [72.38876422212252, 34.32320266619714], [72.3888199024624, 34.323197633794855], [72.3888117805765, 34.32313715010507], [72.38875610027665, 34.32314218250553]]]]}, "properties": {"id": "Pakistan_123102132_172251", "height": 2.700908422470093, "hmax": 0.0, "ratio": 0.0, "vulnClass": "none"}}, {"type": "Feature", "geometry": {"type": "MultiPolygon", "coordinates": [[[[72.38897438944156, 34.3233702315505], [72.38896004264275, 34.32333179198987], [72.38891108279803, 34.323344360138584], [72.38892543236808, 34.32338270961344], [72.38897438944156, 34.3233702315505]]]]}, "properties": {"id": "Pakistan_123102132_556742", "height": 3.668951511383057, "hmax": 0.25, "ratio": 0.068, "vulnClass": "low"}}, {"type": "Feature", "geometry": {"type": "MultiPolygon", "coordinates": [[[[72.38894660395923, 34.32332014637817], [72.38895120862789, 34.32326272885654], [72.38887907118806, 34.32325884595559], [72.38887446926303, 34.32331617338176], [72.38894660395923, 34.32332014637817]]]]}, "properties": {"id": "Pakistan_123102132_553765", "height": 3.621838808059692, "hmax": 0.25, "ratio": 0.069, "vulnClass": "low"}}, {"type": "Feature", "geometry": {"type": "MultiPolygon", "coordinates": [[[[72.3891953027993, 34.323268206558915], [72.38915506993483, 34.32326915130813], [72.38915750588218, 34.32333780749519], [72.38919773877956, 34.323336862746686], [72.3891953027993, 34.323268206558915]]]]}, "properties": {"id": "Pakistan_123102132_141320", "height": 3.461181640625, "hmax": 0.0, "ratio": 0.0, "vulnClass": "none"}}, {"type": "Feature", "geometry": {"type": "MultiPolygon", "coordinates": [[[[72.38924661221834, 34.323621607655156], [72.3892144284358, 34.323394373929816], [72.38918794414488, 34.32339696422147], [72.38919533751721, 34.32344940899234], [72.38911065846125, 34.323457519098085], [72.38913544583232, 34.32363239815573], [72.38924661221834, 34.323621607655156]]]]}, "properties": {"id": "Pakistan_123102132_42728", "height": 2.624424934387207, "hmax": 0.0, "ratio": 0.0, "vulnClass": "none"}}, {"type": "Feature", "geometry": {"type": "MultiPolygon", "coordinates": [[[[72.38907280731128, 34.32347627419433], [72.38900795649955, 34.3235002228881], [72.38908009127788, 34.3236339217915], [72.38914493938515, 34.32361006315427], [72.38907280731128, 34.32347627419433]]]]}, "properties": {"id": "Pakistan_123102132_42727", "height": 2.808634042739868, "hmax": 0.25, "ratio": 0.089, "vulnClass": "low"}}, {"type": "Feature", "geometry": {"type": "MultiPolygon", "coordinates": [[[[72.38914660607207, 34.323622900021824], [72.38908927000502, 34.3236462878632], [72.3891328601072, 34.323719337832976], [72.38919030480169, 34.32369595228953], [72.38914660607207, 34.323622900021824]]]]}, "properties": {"id": "Pakistan_123102132_166041", "height": 2.891077280044556, "hmax": 0.0, "ratio": 0.0, "vulnClass": "none"}}, {"type": "Feature", "geometry": {"type": "MultiPolygon", "coordinates": [[[[72.38901707254863, 34.32352863434359], [72.38899774995157, 34.32349297343866], [72.38892751413064, 34.32351888065878], [72.38894694249711, 34.3235546339807], [72.38901707254863, 34.32352863434359]]]]}, "properties": {"id": "Pakistan_123102132_61335", "height": 4.379627227783203, "hmax": 0.25, "ratio": 0.057, "vulnClass": "low"}}, {"type": "Feature", "geometry": {"type": "MultiPolygon", "coordinates": [[[[72.38929861877017, 34.32366851327797], [72.38925294988346, 34.32368006995867], [72.38928002931057, 34.3237529479789], [72.38932558685543, 34.323741479064125], [72.38929861877017, 34.32366851327797]]]]}, "properties": {"id": "Pakistan_123102132_470952", "height": 2.98820161819458, "hmax": 0.0, "ratio": 0.0, "vulnClass": "none"}}, {"type": "Feature", "geometry": {"type": "MultiPolygon", "coordinates": [[[[72.38932154372057, 34.32367909910405], [72.38933877262991, 34.323715706952086], [72.38938531051554, 34.323700652921964], [72.38936807879637, 34.323664135170176], [72.38932154372057, 34.32367909910405]]]]}, "properties": {"id": "Pakistan_123102132_280068", "height": 2.680546045303345, "hmax": 0.0, "ratio": 0.0, "vulnClass": "none"}}, {"type": "Feature", "geometry": {"type": "MultiPolygon", "coordinates": [[[[72.38958847502848, 34.32352270285237], [72.38956991763528, 34.32345532551615], [72.38932870870494, 34.32350048429866], [72.38930674184398, 34.32342041318662], [72.38924182252553, 34.32343255088349], [72.38928234648104, 34.32357999937582], [72.38958847502848, 34.32352270285237]]]]}, "properties": {"id": "Pakistan_123102132_381518", "height": 2.53556489944458, "hmax": 0.068, "ratio": 0.027, "vulnClass": "none"}}, {"type": "Feature", "geometry": {"type": "MultiPolygon", "coordinates": [[[[72.38963664194014, 34.32325868887136], [72.38959026123096, 34.3232616662432], [72.38959595848958, 34.323323270131496], [72.38964244502799, 34.32332038516561], [72.38963664194014, 34.32325868887136]]]]}, "properties": {"id": "Pakistan_123102132_310932", "height": 3.082159042358398, "hmax": 0.068, "ratio": 0.022, "vulnClass": "none"}}, {"type": "Feature", "geometry": {"type": "MultiPolygon", "coordinates": [[[[72.39010737384457, 34.32348589953962], [72.39011062182304, 34.32335299737538], [72.39004621872121, 34.32335198459488], [72.39004297343239, 34.323484796662164], [72.39010737384457, 34.32348589953962]]]]}, "properties": {"id": "Pakistan_123102132_125833", "height": 2.582160949707031, "hmax": 0.0, "ratio": 0.0, "vulnClass": "none"}}, {"type": "Feature", "geometry": {"type": "MultiPolygon", "coordinates": [[[[72.39025217879107, 34.32356426270821], [72.39024248238975, 34.323431805718826], [72.39017566214379, 34.32343515881914], [72.39018086357238, 34.3235057671285], [72.3901514809055, 34.32350721402259], [72.39015597575111, 34.32356906270313], [72.39025217879107, 34.32356426270821]]]]}, "properties": {"id": "Pakistan_123102132_520178", "height": 3.370297431945801, "hmax": 0.0, "ratio": 0.0, "vulnClass": "none"}}, {"type": "Feature", "geometry": {"type": "MultiPolygon", "coordinates": [[[[72.38996424821379, 34.32373562828135], [72.38997441205893, 34.32379336080441], [72.39009787713916, 34.32377841445427], [72.39008760462254, 34.32372067962196], [72.38996424821379, 34.32373562828135]]]]}, "properties": {"id": "Pakistan_123102132_366146", "height": 2.669328689575195, "hmax": 0.0, "ratio": 0.0, "vulnClass": "none"}}, {"type": "Feature", "geometry": {"type": "MultiPolygon", "coordinates": [[[[72.3897606846607, 34.32350212538048], [72.38976269346865, 34.3235915971309], [72.3899128224211, 34.32358929974468], [72.38991408207693, 34.32364684237966], [72.39010823636633, 34.32364395108852], [72.39010496740306, 34.323496936687825], [72.3897606846607, 34.32350212538048]]]]}, "properties": {"id": "Pakistan_123102132_122759", "height": 3.539564609527588, "hmax": 0.0, "ratio": 0.0, "vulnClass": "none"}}, {"type": "Feature", "geometry": {"type": "MultiPolygon", "coordinates": [[[[72.38991505649692, 34.3238293269838], [72.38997426252304, 34.32381923069735], [72.38992648189058, 34.32362889649726], [72.38987765317665, 34.32363723077359], [72.38986942812123, 34.323604601321954], [72.38976401357084, 34.32362263692241], [72.38981304915012, 34.32381804634744], [72.38971014857782, 34.32383559460921], [72.38971778626605, 34.32386613808997], [72.38991583308557, 34.32383231849913], [72.38991505649692, 34.3238293269838]]]]}, "properties": {"id": "Pakistan_123102132_470955", "height": 3.653257846832275, "hmax": 0.0, "ratio": 0.0, "vulnClass": "none"}}, {"type": "Feature", "geometry": {"type": "MultiPolygon", "coordinates": [[[[72.38984916501144, 34.32387984821032], [72.38982443215396, 34.32384344099287], [72.38976247374299, 34.32387222972618], [72.38978720658048, 34.323908636955174], [72.38984916501144, 34.32387984821032]]]]}, "properties": {"id": "Pakistan_123102132_104094", "height": 2.617375373840332, "hmax": 0.0, "ratio": 0.0, "vulnClass": "none"}}, {"type": "Feature", "geometry": {"type": "MultiPolygon", "coordinates": [[[[72.39061640677006, 34.324234181428366], [72.39070486989507, 34.324233723581536], [72.39070442516315, 34.32418142702701], [72.39060791822024, 34.32418198382591], [72.390607550955, 34.32413771228484], [72.39053680169825, 34.324138096995966], [72.3905378617651, 34.324268747123725], [72.39061665222239, 34.324268353558125], [72.39061640677006, 34.324234181428366]]]]}, "properties": {"id": "Pakistan_123102132_498696", "height": 3.385091781616211, "hmax": 0.0, "ratio": 0.0, "vulnClass": "none"}}, {"type": "Feature", "geometry": {"type": "MultiPolygon", "coordinates": [[[[72.39062206705299, 34.32423736721315], [72.39062034300416, 34.32428601152176], [72.39067126519244, 34.32428727750301], [72.39067212720269, 34.32426295534773], [72.39080078999945, 34.324266149143334], [72.39080417068165, 34.32417453853613], [72.39072100354342, 34.324172404861834], [72.39071859335525, 34.32423969562138], [72.39062206705299, 34.32423736721315]]]]}, "properties": {"id": "Pakistan_123102132_612073", "height": 2.635522365570068, "hmax": 0.0, "ratio": 0.0, "vulnClass": "none"}}, {"type": "Feature", "geometry": {"type": "MultiPolygon", "coordinates": [[[[72.39014069627609, 34.32416048223368], [72.39014307291173, 34.32421354117954], [72.39025292247936, 34.324210204158405], [72.3902499536271, 34.324144691868966], [72.3903490361718, 34.324141666067696], [72.39034718763156, 34.32409961669701], [72.39018110625427, 34.324104729678275], [72.39018354963954, 34.32415914229939], [72.39014069627609, 34.32416048223368]]]]}, "properties": {"id": "Pakistan_123102132_156703", "height": 4.075576782226562, "hmax": 0.0, "ratio": 0.0, "vulnClass": "none"}}, {"type": "Feature", "geometry": {"type": "MultiPolygon", "coordinates": [[[[72.39005529418289, 34.32418489472966], [72.39001151827188, 34.32419847535937], [72.39004467663626, 34.32427157301216], [72.39008845258152, 34.32425799237223], [72.39005529418289, 34.32418489472966]]]]}, "properties": {"id": "Pakistan_123102132_572040", "height": 3.289366722106934, "hmax": 0.0, "ratio": 0.0, "vulnClass": "none"}}, {"type": "Feature", "geometry": {"type": "MultiPolygon", "coordinates": [[[[72.39004637801392, 34.324121960114425], [72.39002772791065, 34.3240224874246], [72.3899622766959, 34.32403073769713], [72.38998081534343, 34.32413029816822], [72.39004637801392, 34.324121960114425]]]]}, "properties": {"id": "Pakistan_123102132_150520", "height": 3.297685146331787, "hmax": 0.0, "ratio": 0.0, "vulnClass": "none"}}, {"type": "Feature", "geometry": {"type": "MultiPolygon", "coordinates": [[[[72.38985184907976, 34.32409482330518], [72.3897806839681, 34.3241086310755], [72.38979048480473, 34.324143006990546], [72.38986164994459, 34.32412919921584], [72.38985184907976, 34.32409482330518]]]]}, "properties": {"id": "Pakistan_123102132_255373", "height": 3.15466046333313, "hmax": 0.0, "ratio": 0.0, "vulnClass": "none"}}, {"type": "Feature", "geometry": {"type": "MultiPolygon", "coordinates": [[[[72.38986866771837, 34.324004400836024], [72.38976777984307, 34.324023614766595], [72.38978343157576, 34.324079571191646], [72.38988431951626, 34.32406035725125], [72.38986866771837, 34.324004400836024]]]]}, "properties": {"id": "Pakistan_123102132_236876", "height": 2.66167426109314, "hmax": 0.0, "ratio": 0.0, "vulnClass": "none"}}, {"type": "Feature", "geometry": {"type": "MultiPolygon", "coordinates": [[[[72.38964743308549, 34.32424299755511], [72.38974792235082, 34.32423315084061], [72.38976355318545, 34.32434238553054], [72.38989848197485, 34.32432921644863], [72.38987336434506, 34.324154420624495], [72.3897754896626, 34.32416405275715], [72.38976898078948, 34.32411811768739], [72.38963143505876, 34.324131591419004], [72.38964743308549, 34.32424299755511]]]]}, "properties": {"id": "Pakistan_123102132_608980", "height": 4.939451217651367, "hmax": 0.0, "ratio": 0.0, "vulnClass": "none"}}, {"type": "Feature", "geometry": {"type": "MultiPolygon", "coordinates": [[[[72.38971351983253, 34.32405292825853], [72.38967507287511, 34.32396466265969], [72.38962045753593, 34.323980896767644], [72.38966691897974, 34.32408754363839], [72.38970015043273, 34.32407761469384], [72.38971101003354, 34.324102367135126], [72.38975706906717, 34.3240887451564], [72.38973819489976, 34.324045611465806], [72.38971351983253, 34.32405292825853]]]]}, "properties": {"id": "Pakistan_123102132_252307", "height": 3.283111333847046, "hmax": 0.0, "ratio": 0.0, "vulnClass": "none"}}, {"type": "Feature", "geometry": {"type": "MultiPolygon", "coordinates": [[[[72.38966686014871, 34.32395267783313], [72.38965365157841, 34.32391606562519], [72.38959704289553, 34.32393000345609], [72.38961025144259, 34.323966615669036], [72.38966686014871, 34.32395267783313]]]]}, "properties": {"id": "Pakistan_123102132_193914", "height": 3.167696714401245, "hmax": 0.0, "ratio": 0.0, "vulnClass": "none"}}, {"type": "Feature", "geometry": {"type": "MultiPolygon", "coordinates": [[[[72.38943484136365, 34.32395719480561], [72.38939721059802, 34.32396883284088], [72.38938398760087, 34.32393970275675], [72.38920910399582, 34.323993938764076], [72.38923758204297, 34.32405674981783], [72.3892893658425, 34.32404072593382], [72.38943359696998, 34.32435851647583], [72.38959443401511, 34.32430875852143], [72.38943484136365, 34.32395719480561]]]]}, "properties": {"id": "Pakistan_123102132_378390", "height": 3.040054559707642, "hmax": 0.0, "ratio": 0.0, "vulnClass": "none"}}, {"type": "Feature", "geometry": {"type": "MultiPolygon", "coordinates": [[[[72.38914934912752, 34.32381137222717], [72.3891259757236, 34.32373812248978], [72.38908735687306, 34.323746584099666], [72.3891257948059, 34.32386667265714], [72.38932129213224, 34.32382396493952], [72.38930633605396, 34.323777128460726], [72.38914934912752, 34.32381137222717]]]]}, "properties": {"id": "Pakistan_123102132_73517", "height": 3.427149772644043, "hmax": 0.0, "ratio": 0.0, "vulnClass": "none"}}, {"type": "Feature", "geometry": {"type": "MultiPolygon", "coordinates": [[[[72.38844801243526, 34.32397075918798], [72.38840666972511, 34.3238392495488], [72.38833283432079, 34.323855072946614], [72.3883480653502, 34.3239035380996], [72.38816954931113, 34.323941738530095], [72.38817864555935, 34.32397078066864], [72.38807560488934, 34.32399283205307], [72.38809261997811, 34.32404683446185], [72.3882659963525, 34.32400969642228], [72.38829397831417, 34.32409900121117], [72.38840959880102, 34.32407424312906], [72.3883816167214, 34.32398493836105], [72.38844801243526, 34.32397075918798]]]]}, "properties": {"id": "Pakistan_123102132_261590", "height": 3.536475658416748, "hmax": 0.0, "ratio": 0.0, "vulnClass": "none"}}, {"type": "Feature", "geometry": {"type": "MultiPolygon", "coordinates": [[[[72.38831059812973, 34.3233981686401], [72.38828292476062, 34.32334447971594], [72.38793073482071, 34.323468041858604], [72.38793944793217, 34.323484905578134], [72.38788265215845, 34.323504878676346], [72.38791739321779, 34.32357242133662], [72.38798099962473, 34.323550069374235], [72.38796521858687, 34.32351935200384], [72.38831059812973, 34.3233981686401]]]]}, "properties": {"id": "Pakistan_123102132_615250", "height": 2.512964487075806, "hmax": 0.0, "ratio": 0.0, "vulnClass": "none"}}, {"type": "Feature", "geometry": {"type": "MultiPolygon", "coordinates": [[[[72.38739137391782, 34.323611046608825], [72.38729030017024, 34.32365026783307], [72.38735046835322, 34.3237563066188], [72.3875043288796, 34.323696756430806], [72.38747239070234, 34.32364045209768], [72.38741960126501, 34.32366087109492], [72.38739137391782, 34.323611046608825]]]]}, "properties": {"id": "Pakistan_123102132_249304", "height": 2.533586263656616, "hmax": 0.0, "ratio": 0.0, "vulnClass": "none"}}, {"type": "Feature", "geometry": {"type": "MultiPolygon", "coordinates": [[[[72.38710563648833, 34.32328410269587], [72.38712018725941, 34.32333345496324], [72.3871986943901, 34.32331764187541], [72.38718414357449, 34.32326828961529], [72.38710563648833, 34.32328410269587]]]]}, "properties": {"id": "Pakistan_123102132_415530", "height": 2.750411510467529, "hmax": 0.0, "ratio": 0.0, "vulnClass": "none"}}, {"type": "Feature", "geometry": {"type": "MultiPolygon", "coordinates": [[[[72.38695680126945, 34.32327623731009], [72.38694601563006, 34.32324562647037], [72.38683226947467, 34.323273037557314], [72.38686213518905, 34.323357604908225], [72.38700303163886, 34.32332365160294], [72.3869840600255, 34.32326969743617], [72.38695680126945, 34.32327623731009]]]]}, "properties": {"id": "Pakistan_123102132_310921", "height": 2.968280792236328, "hmax": 0.0, "ratio": 0.0, "vulnClass": "none"}}, {"type": "Feature", "geometry": {"type": "MultiPolygon", "coordinates": [[[[72.38737253118403, 34.32383322483289], [72.3873871628351, 34.32388348029808], [72.38764988582355, 34.32383139231563], [72.38763525402052, 34.32378113687471], [72.38737253118403, 34.32383322483289]]]]}, "properties": {"id": "Pakistan_123102132_203168", "height": 2.614748954772949, "hmax": 0.0, "ratio": 0.0, "vulnClass": "none"}}, {"type": "Feature", "geometry": {"type": "MultiPolygon", "coordinates": [[[[72.38744321471805, 34.32374034659996], [72.38738986943139, 34.32375065691204], [72.38740182347519, 34.32379265156333], [72.38745516878767, 34.32378234124724], [72.38744321471805, 34.32374034659996]]]]}, "properties": {"id": "Pakistan_123102132_366140", "height": 2.440418004989624, "hmax": 0.0, "ratio": 0.0, "vulnClass": "none"}}, {"type": "Feature", "geometry": {"type": "MultiPolygon", "coordinates": [[[[72.38795308834695, 34.323928103936154], [72.38815996629266, 34.32387933047984], [72.38813304143979, 34.323801497280535], [72.38772136561253, 34.32389854725195], [72.3876947417858, 34.32382153174162], [72.38748534670536, 34.32387088172636], [72.38750449402247, 34.3239261918235], [72.38760716742685, 34.32390196948193], [72.38761644749158, 34.32392858152993], [72.38771561814531, 34.32390518583048], [72.38773585672133, 34.32396385473901], [72.38794820891492, 34.323913756088714], [72.38795308834695, 34.323928103936154]]]]}, "properties": {"id": "Pakistan_123102132_240001", "height": 3.432635307312012, "hmax": 0.0, "ratio": 0.0, "vulnClass": "none"}}, {"type": "Feature", "geometry": {"type": "MultiPolygon", "coordinates": [[[[72.38771232348684, 34.323913319163], [72.38761379353801, 34.32393357328373], [72.38762629903256, 34.32397530923606], [72.38772482902856, 34.323955055107476], [72.38771232348684, 34.323913319163]]]]}, "properties": {"id": "Pakistan_123102132_172249", "height": 2.503309726715088, "hmax": 0.0, "ratio": 0.0, "vulnClass": "none"}}, {"type": "Feature", "geometry": {"type": "MultiPolygon", "coordinates": [[[[72.38656168625273, 34.32396033333618], [72.38659459404109, 34.32400638149546], [72.38664037880504, 34.32398410044444], [72.38660747099873, 34.3239380522966], [72.38656168625273, 34.32396033333618]]]]}, "properties": {"id": "Pakistan_123102132_338526", "height": 2.642616748809814, "hmax": 0.0, "ratio": 0.0, "vulnClass": "none"}}, {"type": "Feature", "geometry": {"type": "MultiPolygon", "coordinates": [[[[72.38664814180322, 34.32369181953233], [72.38667922276456, 34.323716192654736], [72.38675560891797, 34.32364967025897], [72.3867245251619, 34.323625387246224], [72.38664814180322, 34.32369181953233]]]]}, "properties": {"id": "Pakistan_123102132_36572", "height": 2.472350120544434, "hmax": 0.0, "ratio": 0.0, "vulnClass": "none"}}, {"type": "Feature", "geometry": {"type": "MultiPolygon", "coordinates": [[[[72.38655696954937, 34.32355545901865], [72.38657504558896, 34.323575227261784], [72.38662047442733, 34.32354689855935], [72.38660239838227, 34.32352713032265], [72.38655696954937, 34.32355545901865]]]]}, "properties": {"id": "Pakistan_123102132_489530", "height": 3.123417139053345, "hmax": 0.0, "ratio": 0.0, "vulnClass": "none"}}, {"type": "Feature", "geometry": {"type": "MultiPolygon", "coordinates": [[[[72.38639053671633, 34.32334077360974], [72.38641570898001, 34.323390983821746], [72.38648215281515, 34.323368242488286], [72.38645687193046, 34.32331802996948], [72.38639053671633, 34.32334077360974]]]]}, "properties": {"id": "Pakistan_123102132_458750", "height": 2.579604148864746, "hmax": 0.0, "ratio": 0.0, "vulnClass": "none"}}, {"type": "Feature", "geometry": {"type": "MultiPolygon", "coordinates": [[[[72.38621701817245, 34.323200400581015], [72.38614662709278, 34.323101715547075], [72.38607977012705, 34.32313427423013], [72.38615016115045, 34.32323295929972], [72.38621701817245, 34.323200400581015]]]]}, "properties": {"id": "Pakistan_123102132_480288", "height": 2.586644172668457, "hmax": 0.0, "ratio": 0.0, "vulnClass": "none"}}, {"type": "Feature", "geometry": {"type": "MultiPolygon", "coordinates": [[[[72.38632292750994, 34.32269710102713], [72.38627892197387, 34.32263053204775], [72.38624178363901, 34.32264731818428], [72.3862857891527, 34.322713887175915], [72.38632292750994, 34.32269710102713]]]]}, "properties": {"id": "Pakistan_123102132_359989", "height": 2.75309944152832, "hmax": 0.0, "ratio": 0.0, "vulnClass": "none"}}, {"type": "Feature", "geometry": {"type": "MultiPolygon", "coordinates": [[[[72.38664288866723, 34.32540933559617], [72.38655264834004, 34.32540749876887], [72.38655110789284, 34.3254606543751], [72.38664124248253, 34.325462398797065], [72.38664288866723, 34.32540933559617]]]]}, "properties": {"id": "Pakistan_123102132_212488", "height": 2.928270816802979, "hmax": 0.0, "ratio": 0.0, "vulnClass": "none"}}, {"type": "Feature", "geometry": {"type": "MultiPolygon", "coordinates": [[[[72.38675471967751, 34.32429133914706], [72.38675822476438, 34.32434297980025], [72.38686889043733, 34.32433786025571], [72.38686538807688, 34.324286129512195], [72.38675471967751, 34.32429133914706]]]]}, "properties": {"id": "Pakistan_123102132_261587", "height": 2.580844640731812, "hmax": 0.0, "ratio": 0.0, "vulnClass": "none"}}, {"type": "Feature", "geometry": {"type": "MultiPolygon", "coordinates": [[[[72.38805077855899, 34.32437300591088], [72.38802759106602, 34.32425874168111], [72.3879232644237, 34.32427319287722], [72.38793324674491, 34.324322718004474], [72.38768640033604, 34.324356844981594], [72.38769949938525, 34.324421491707035], [72.387886432334, 34.32439573204534], [72.387886432334, 34.32439573204534], [72.38805077855899, 34.32437300591088]]]]}, "properties": {"id": "Pakistan_123102132_455714", "height": 2.495060682296753, "hmax": 0.0, "ratio": 0.0, "vulnClass": "none"}}, {"type": "Feature", "geometry": {"type": "MultiPolygon", "coordinates": [[[[72.38747226368365, 34.324313780060535], [72.38749721763512, 34.32435704385308], [72.38756937877596, 34.32432865438225], [72.38754431899994, 34.324285298194646], [72.38747226368365, 34.324313780060535]]]]}, "properties": {"id": "Pakistan_123102132_544596", "height": 2.65718936920166, "hmax": 0.0, "ratio": 0.0, "vulnClass": "none"}}, {"type": "Feature", "geometry": {"type": "MultiPolygon", "coordinates": [[[[72.38730859162463, 34.32469315333738], [72.387488029134, 34.32467435614557], [72.38748306817409, 34.32464161593419], [72.38744872878998, 34.32464521010977], [72.38744013677591, 34.32458940412708], [72.38748330809442, 34.324584826532764], [72.38747698653239, 34.324543402873495], [72.38744537027156, 34.324546784727886], [72.38744129125575, 34.324520644294054], [72.38750997271356, 34.32451336584214], [72.3874950451313, 34.32441658665433], [72.38721683915797, 34.32444580620723], [72.38723962370793, 34.32459404852167], [72.38729249569859, 34.32458850613769], [72.38730859162463, 34.32469315333738]]]]}, "properties": {"id": "Pakistan_123102132_372216", "height": 3.653186321258545, "hmax": 0.0, "ratio": 0.0, "vulnClass": "none"}}, {"type": "Feature", "geometry": {"type": "MultiPolygon", "coordinates": [[[[72.3876539216681, 34.32472793050375], [72.38764134064192, 34.324688626994075], [72.38760118982024, 34.32469741601866], [72.38761178903864, 34.32473054702703], [72.38753914719545, 34.32474639539728], [72.38755936308786, 34.32480930089809], [72.38777991716896, 34.324761090527105], [72.38776168291868, 34.32470435755794], [72.3876539216681, 34.32472793050375]]]]}, "properties": {"id": "Pakistan_123102132_33482", "height": 3.45189905166626, "hmax": 0.0, "ratio": 0.0, "vulnClass": "none"}}, {"type": "Feature", "geometry": {"type": "MultiPolygon", "coordinates": [[[[72.38708344089899, 34.32458828012588], [72.38701477494514, 34.32460556531913], [72.38706338836526, 34.324737320750984], [72.38713205721452, 34.324719945444876], [72.38708344089899, 34.32458828012588]]]]}, "properties": {"id": "Pakistan_123102132_344669", "height": 3.135638236999512, "hmax": 0.0, "ratio": 0.0, "vulnClass": "none"}}, {"type": "Feature", "geometry": {"type": "MultiPolygon", "coordinates": [[[[72.38710131114061, 34.32455864168868], [72.38710427031651, 34.32461387668177], [72.38723546229402, 34.32460910488728], [72.38723250582593, 34.324553779803], [72.38710131114061, 34.32455864168868]]]]}, "properties": {"id": "Pakistan_123102132_535493", "height": 3.213086128234863, "hmax": 0.0, "ratio": 0.0, "vulnClass": "none"}}, {"type": "Feature", "geometry": {"type": "MultiPolygon", "coordinates": [[[[72.38722923369558, 34.32481343218108], [72.38734661201583, 34.324791597467495], [72.3873305138799, 34.32473256614109], [72.3871747752545, 34.32476151509828], [72.38716326116159, 34.324719349521914], [72.38713528094198, 34.32472461192036], [72.38720455759959, 34.32497842082806], [72.38738827970226, 34.32494411931446], [72.38737715792561, 34.32490331438133], [72.38725977945361, 34.324925149117114], [72.38722923369558, 34.32481343218108]]]]}, "properties": {"id": "Pakistan_123102132_565871", "height": 2.906347513198853, "hmax": 0.0, "ratio": 0.0, "vulnClass": "none"}}, {"type": "Feature", "geometry": {"type": "MultiPolygon", "coordinates": [[[[72.38771197199499, 34.32513006679574], [72.38753725836689, 34.32509812051139], [72.38752154296458, 34.325156382568764], [72.38769636249984, 34.325188421288786], [72.38771197199499, 34.32513006679574]]]]}, "properties": {"id": "Pakistan_123102132_264712", "height": 4.170176982879639, "hmax": 0.0, "ratio": 0.0, "vulnClass": "none"}}, {"type": "Feature", "geometry": {"type": "MultiPolygon", "coordinates": [[[[72.38775649228816, 34.324980376343326], [72.38752317687049, 34.32497755978294], [72.38752155789194, 34.3250683063067], [72.38775487076703, 34.32507121297209], [72.38775649228816, 34.324980376343326]]]]}, "properties": {"id": "Pakistan_123102132_366142", "height": 4.519504547119141, "hmax": 0.0, "ratio": 0.0, "vulnClass": "none"}}, {"type": "Feature", "geometry": {"type": "MultiPolygon", "coordinates": [[[[72.38779095901698, 34.32503925877998], [72.38787115859166, 34.325042503081555], [72.38787516921896, 34.32497623825068], [72.3878708284668, 34.32497605545476], [72.38787530488698, 34.324901777210954], [72.38779933760496, 34.32489871339891], [72.38779095901698, 34.32503925877998]]]]}, "properties": {"id": "Pakistan_123102132_332396", "height": 2.737791061401367, "hmax": 0.0, "ratio": 0.0, "vulnClass": "none"}}, {"type": "Feature", "geometry": {"type": "MultiPolygon", "coordinates": [[[[72.38813229603566, 34.32512226983027], [72.38814141228244, 34.32517520215924], [72.38818710656582, 34.325169866815415], [72.38817799029046, 34.32511693448852], [72.38813229603566, 34.32512226983027]]]]}, "properties": {"id": "Pakistan_123102132_431003", "height": 3.455543756484985, "hmax": 0.0, "ratio": 0.0, "vulnClass": "none"}}, {"type": "Feature", "geometry": {"type": "MultiPolygon", "coordinates": [[[[72.38825036510458, 34.325015076896584], [72.38813421079281, 34.32501845783811], [72.38813801108535, 34.32510616478757], [72.38825416831159, 34.325102693757586], [72.38825036510458, 34.325015076896584]]]]}, "properties": {"id": "Pakistan_123102132_125824", "height": 3.455543756484985, "hmax": 0.0, "ratio": 0.0, "vulnClass": "none"}}, {"type": "Feature", "geometry": {"type": "MultiPolygon", "coordinates": [[[[72.38849567934945, 34.32518465526035], [72.38871158754694, 34.32516014370151], [72.38871515228317, 34.32518185577525], [72.38858091790898, 34.3251971117787], [72.38859171781931, 34.325262340413815], [72.38864438696805, 34.32525634237472], [72.38864941822106, 34.325286830296655], [72.38877056618814, 34.32527309801143], [72.38876369822128, 34.3252317528976], [72.38885845585021, 34.325221063456574], [72.38884618639102, 34.32514714908008], [72.38877509038794, 34.32515518810702], [72.3887653923436, 34.325096473798126], [72.38848634882594, 34.32512811237782], [72.38849567934945, 34.32518465526035]]]]}, "properties": {"id": "Pakistan_123102132_270816", "height": 2.48048210144043, "hmax": 0.0, "ratio": 0.0, "vulnClass": "none"}}, {"type": "Feature", "geometry": {"type": "MultiPolygon", "coordinates": [[[[72.38869823064081, 34.325044196181366], [72.38873145978309, 34.32503435761448], [72.38869168283007, 34.32494344900256], [72.38854219909214, 34.32498794882265], [72.38856614198322, 34.3250428201953], [72.38868250247658, 34.325008251320774], [72.38869823064081, 34.325044196181366]]]]}, "properties": {"id": "Pakistan_123102132_30458", "height": 2.559392929077148, "hmax": 0.0, "ratio": 0.0, "vulnClass": "none"}}, {"type": "Feature", "geometry": {"type": "MultiPolygon", "coordinates": [[[[72.38841213396816, 34.3249072838], [72.38831072727909, 34.32492215821641], [72.38833152802754, 34.32501879220403], [72.38847714228247, 34.32499746879276], [72.38846498847904, 34.32494086566397], [72.38842078105756, 34.324947314643914], [72.38841213396816, 34.3249072838]]]]}, "properties": {"id": "Pakistan_123102132_76576", "height": 2.61613392829895, "hmax": 0.0, "ratio": 0.0, "vulnClass": "none"}}, {"type": "Feature", "geometry": {"type": "MultiPolygon", "coordinates": [[[[72.38803437924047, 34.324649596880874], [72.38803230769811, 34.324621786454735], [72.3879618947062, 34.324625332092104], [72.38795906413237, 34.324586957909915], [72.38779168682491, 34.324595285357475], [72.38779863231441, 34.324690181297115], [72.3881327357603, 34.32467351226554], [72.3881305835291, 34.324644798617825], [72.38803437924047, 34.324649596880874]]]]}, "properties": {"id": "Pakistan_123102132_289286", "height": 2.898377656936646, "hmax": 0.0, "ratio": 0.0, "vulnClass": "none"}}, {"type": "Feature", "geometry": {"type": "MultiPolygon", "coordinates": [[[[72.38801699365385, 34.32456899229401], [72.38801345218182, 34.324511491129385], [72.38791182981656, 34.32451581306666], [72.38791537121897, 34.324573314231], [72.38801699365385, 34.32456899229401]]]]}, "properties": {"id": "Pakistan_123102132_477250", "height": 2.727118492126465, "hmax": 0.0, "ratio": 0.0, "vulnClass": "none"}}, {"type": "Feature", "geometry": {"type": "MultiPolygon", "coordinates": [[[[72.38814189935187, 34.3245847297233], [72.38816483213354, 34.3246581505226], [72.38821919432812, 34.3246465994854], [72.3882113811715, 34.32462173163452], [72.38826924329729, 34.324609443913644], [72.38825412638755, 34.324560800888435], [72.38814189935187, 34.3245847297233]]]]}, "properties": {"id": "Pakistan_123102132_520171", "height": 3.397175788879395, "hmax": 0.0, "ratio": 0.0, "vulnClass": "none"}}, {"type": "Feature", "geometry": {"type": "MultiPolygon", "coordinates": [[[[72.38823413762341, 34.32447653477266], [72.38822666449128, 34.32441967090813], [72.38811530773171, 34.324429554886734], [72.38812277799539, 34.32448650884501], [72.38823413762341, 34.32447653477266]]]]}, "properties": {"id": "Pakistan_123102132_562833", "height": 3.32008957862854, "hmax": 0.0, "ratio": 0.0, "vulnClass": "none"}}, {"type": "Feature", "geometry": {"type": "MultiPolygon", "coordinates": [[[[72.38834872279588, 34.32427839609968], [72.38835023730049, 34.32433819790948], [72.38844938673446, 34.32433652733511], [72.38844798074709, 34.324276727840385], [72.38834872279588, 34.32427839609968]]]]}, "properties": {"id": "Pakistan_123102132_372220", "height": 2.506618976593018, "hmax": 0.0, "ratio": 0.0, "vulnClass": "none"}}, {"type": "Feature", "geometry": {"type": "MultiPolygon", "coordinates": [[[[72.38836636245296, 34.324441944127315], [72.38825931254108, 34.324456607944065], [72.38828133139609, 34.324566519994676], [72.38838838144646, 34.32455185616513], [72.38836636245296, 34.324441944127315]]]]}, "properties": {"id": "Pakistan_123102132_51984", "height": 3.34530782699585, "hmax": 0.0, "ratio": 0.0, "vulnClass": "none"}}, {"type": "Feature", "geometry": {"type": "MultiPolygon", "coordinates": [[[[72.38858475181141, 34.32439341562213], [72.3883782386533, 34.324430387895916], [72.38839037938905, 34.3244768939481], [72.38859700124667, 34.32443992397604], [72.38858475181141, 34.32439341562213]]]]}, "properties": {"id": "Pakistan_123102132_467837", "height": 2.786841630935669, "hmax": 0.0, "ratio": 0.0, "vulnClass": "none"}}, {"type": "Feature", "geometry": {"type": "MultiPolygon", "coordinates": [[[[72.38880784904241, 34.32446993516644], [72.38861263037846, 34.32446153287296], [72.3886055784591, 34.32457334878848], [72.38853070288317, 34.32457012843167], [72.38852217855604, 34.32470490118591], [72.38863449210152, 34.324709731720006], [72.38863068596305, 34.32476942000156], [72.38866020247099, 34.32477068084275], [72.38867580636409, 34.32452319124376], [72.38871758207608, 34.32452507423816], [72.38871184086436, 34.32461564271165], [72.38879843844224, 34.324619293355255], [72.38880784904241, 34.32446993516644]]]]}, "properties": {"id": "Pakistan_123102132_153620", "height": 5.062744617462158, "hmax": 0.113, "ratio": 0.022, "vulnClass": "low"}}, {"type": "Feature", "geometry": {"type": "MultiPolygon", "coordinates": [[[[72.3886883632061, 34.324345953675255], [72.38860546283979, 34.32434923325358], [72.38861088622298, 34.32444418684475], [72.38874644102646, 34.324438875457815], [72.38874247962671, 34.3243703670329], [72.38868993391425, 34.324372401159344], [72.3886883632061, 34.324345953675255]]]]}, "properties": {"id": "Pakistan_123102132_110322", "height": 3.011767148971558, "hmax": 0.113, "ratio": 0.037, "vulnClass": "low"}}, {"type": "Feature", "geometry": {"type": "MultiPolygon", "coordinates": [[[[72.38892018509168, 34.32431276622312], [72.38879237462112, 34.32433816620459], [72.38880572400836, 34.32438424725825], [72.38898327992428, 34.324349000385304], [72.3889589273997, 34.32426527232322], [72.38890918207007, 34.3242751191963], [72.38892018509168, 34.32431276622312]]]]}, "properties": {"id": "Pakistan_123102132_55100", "height": 3.658819913864136, "hmax": 0.113, "ratio": 0.031, "vulnClass": "low"}}, {"type": "Feature", "geometry": {"type": "MultiPolygon", "coordinates": [[[[72.38905044223421, 34.3244222828223], [72.38893230619296, 34.32445807629431], [72.38895190662663, 34.32450230739458], [72.38907004551632, 34.32446642381581], [72.38905044223421, 34.3244222828223]]]]}, "properties": {"id": "Pakistan_123102132_116537", "height": 2.953543663024902, "hmax": 0.113, "ratio": 0.038, "vulnClass": "low"}}, {"type": "Feature", "geometry": {"type": "MultiPolygon", "coordinates": [[[[72.38882001622272, 34.32459622455965], [72.38893255304657, 34.324593847574334], [72.38893358584791, 34.32462713498609], [72.38899523638328, 34.324625835901685], [72.38899389268603, 34.32458154354789], [72.38895366198736, 34.32458239811125], [72.38895261273578, 34.32454613539584], [72.38900088731953, 34.324545181990075], [72.38899950204394, 34.32449872514694], [72.38895383639412, 34.32449964406255], [72.38895484686671, 34.32453365219896], [72.38881817562711, 34.32453641579208], [72.38882001622272, 34.32459622455965]]]]}, "properties": {"id": "Pakistan_123102132_249309", "height": 3.596047878265381, "hmax": 0.113, "ratio": 0.031, "vulnClass": "low"}}, {"type": "Feature", "geometry": {"type": "MultiPolygon", "coordinates": [[[[72.38888134942329, 34.3247488950853], [72.38888581465915, 34.32469598210861], [72.38884839076684, 34.324693921566485], [72.38884403409618, 34.32474683685753], [72.38888134942329, 34.3247488950853]]]]}, "properties": {"id": "Pakistan_123102132_286230", "height": 4.029555320739746, "hmax": 0.0, "ratio": 0.0, "vulnClass": "none"}}, {"type": "Feature", "geometry": {"type": "MultiPolygon", "coordinates": [[[[72.38917497357211, 34.32477616416139], [72.3893027675777, 34.32475482019692], [72.38929216020125, 34.32471141203556], [72.38911695966212, 34.324740759682584], [72.38910441515844, 34.32468973757591], [72.389166239157, 34.3246793369487], [72.3891544739887, 34.32463121627404], [72.38901018557921, 34.32465536345149], [72.38902273002138, 34.32470638556524], [72.38906226798274, 34.32469983674726], [72.38908408098246, 34.32478837871729], [72.38911663022496, 34.32478294289095], [72.38913911127749, 34.32487447405628], [72.38901120846948, 34.3248958155225], [72.38902240302595, 34.32494130968273], [72.38912027090011, 34.32492491677799], [72.38913021022701, 34.32496533574757], [72.38919880601853, 34.32495381747043], [72.38918732468791, 34.32490705510537], [72.38920633079954, 34.32490385454872], [72.38917497357211, 34.32477616416139]]]]}, "properties": {"id": "Pakistan_123102132_144411", "height": 2.549138069152832, "hmax": 0.0, "ratio": 0.0, "vulnClass": "none"}}, {"type": "Feature", "geometry": {"type": "MultiPolygon", "coordinates": [[[[72.38976807878899, 34.32457506930402], [72.38971951301939, 34.32459593997349], [72.38969579640569, 34.32455829230274], [72.3896148534334, 34.32459307669213], [72.38969677443116, 34.32472310753437], [72.38982628331337, 34.32466745240511], [72.38976807878899, 34.32457506930402]]]]}, "properties": {"id": "Pakistan_123102132_159774", "height": 3.159318447113037, "hmax": 0.169, "ratio": 0.053, "vulnClass": "low"}}, {"type": "Feature", "geometry": {"type": "MultiPolygon", "coordinates": [[[[72.38956774529747, 34.32435650972541], [72.38966016192875, 34.32449848396488], [72.38969145040808, 34.32448463713235], [72.38959903373609, 34.32434266291452], [72.38956774529747, 34.32435650972541]]]]}, "properties": {"id": "Pakistan_123102132_73519", "height": 2.786000728607178, "hmax": 0.483, "ratio": 0.173, "vulnClass": "low"}}, {"type": "Feature", "geometry": {"type": "MultiPolygon", "coordinates": [[[[72.39046838717209, 34.32435426068158], [72.39025936835137, 34.32435990064491], [72.39026114707207, 34.32440420227856], [72.39047016600307, 34.32439856231726], [72.39046838717209, 34.32435426068158]]]]}, "properties": {"id": "Pakistan_123102132_107175", "height": 2.49021577835083, "hmax": 0.0, "ratio": 0.0, "vulnClass": "none"}}, {"type": "Feature", "geometry": {"type": "MultiPolygon", "coordinates": [[[[72.39005425895783, 34.324509413038314], [72.39007371792142, 34.32455472275736], [72.39014992920227, 34.32453236802212], [72.39013047020121, 34.324487058313395], [72.39005425895783, 34.324509413038314]]]]}, "properties": {"id": "Pakistan_123102132_100971", "height": 2.57059907913208, "hmax": 0.0, "ratio": 0.0, "vulnClass": "none"}}, {"type": "Feature", "geometry": {"type": "MultiPolygon", "coordinates": [[[[72.3900347541432, 34.32451819240147], [72.3899074957475, 34.32453278731106], [72.38991631243688, 34.32458490179798], [72.39004357091106, 34.324570306882876], [72.3900347541432, 34.32451819240147]]]]}, "properties": {"id": "Pakistan_123102132_255374", "height": 2.783346176147461, "hmax": 0.121, "ratio": 0.043, "vulnClass": "low"}}, {"type": "Feature", "geometry": {"type": "MultiPolygon", "coordinates": [[[[72.38980408033751, 34.32495969623387], [72.38982946642172, 34.32501360650765], [72.38994119898531, 34.32497758546734], [72.389915810046, 34.32492376530424], [72.38980408033751, 34.32495969623387]]]]}, "properties": {"id": "Pakistan_123102132_159775", "height": 3.187605381011963, "hmax": 0.291, "ratio": 0.091, "vulnClass": "low"}}, {"type": "Feature", "geometry": {"type": "MultiPolygon", "coordinates": [[[[72.39000264194814, 34.32481815817964], [72.38999933798502, 34.324731904223825], [72.38995649270454, 34.32473297380821], [72.38995979383239, 34.32481931785374], [72.39000264194814, 34.32481815817964]]]]}, "properties": {"id": "Pakistan_123102132_128995", "height": 2.66829252243042, "hmax": 0.0, "ratio": 0.0, "vulnClass": "none"}}, {"type": "Feature", "geometry": {"type": "MultiPolygon", "coordinates": [[[[72.38995215563702, 34.325009732266544], [72.38987832221109, 34.32502546647038], [72.38989364615071, 34.32507447433235], [72.389967479618, 34.32505874012121], [72.38995215563702, 34.325009732266544]]]]}, "properties": {"id": "Pakistan_123102132_393987", "height": 2.499424457550049, "hmax": 0.291, "ratio": 0.116, "vulnClass": "low"}}, {"type": "Feature", "geometry": {"type": "MultiPolygon", "coordinates": [[[[72.38943224111061, 34.32502640954632], [72.3894413099745, 34.325056352516995], [72.38948166403674, 34.3250480179729], [72.38947259515899, 34.32501807500456], [72.38943224111061, 34.32502640954632]]]]}, "properties": {"id": "Pakistan_123102132_110324", "height": 2.557146072387695, "hmax": 0.0, "ratio": 0.0, "vulnClass": "none"}}, {"type": "Feature", "geometry": {"type": "MultiPolygon", "coordinates": [[[[72.3895150793903, 34.325007622283714], [72.38947026900094, 34.32486522099361], [72.38940999554913, 34.3248781790486], [72.38945480584051, 34.32502058035617], [72.3895150793903, 34.325007622283714]]]]}, "properties": {"id": "Pakistan_123102132_212493", "height": 2.992641925811768, "hmax": 0.471, "ratio": 0.157, "vulnClass": "low"}}, {"type": "Feature", "geometry": {"type": "MultiPolygon", "coordinates": [[[[72.38908330380225, 34.324792418890894], [72.38908665641837, 34.324820977837334], [72.38909994889626, 34.32481981900787], [72.38910435886902, 34.32485633371739], [72.38912560065712, 34.32485462326836], [72.38911783525513, 34.324789639703624], [72.38908330380225, 34.324792418890894]]]]}, "properties": {"id": "Pakistan_123102132_520174", "height": 2.810556411743164, "hmax": 0.0, "ratio": 0.0, "vulnClass": "none"}}, {"type": "Feature", "geometry": {"type": "MultiPolygon", "coordinates": [[[[72.38874885320976, 34.32494647181034], [72.38874535001192, 34.32489122522539], [72.38869453580591, 34.32489347658943], [72.38869804176294, 34.32494863308382], [72.38874885320976, 34.32494647181034]]]]}, "properties": {"id": "Pakistan_123102132_292388", "height": 3.004404783248901, "hmax": 0.0, "ratio": 0.0, "vulnClass": "none"}}, {"type": "Feature", "geometry": {"type": "MultiPolygon", "coordinates": [[[[72.38872487680695, 34.32495227074953], [72.38872808988299, 34.325013370898425], [72.38884328924242, 34.32500924781651], [72.38883996749382, 34.32494814534999], [72.38872487680695, 34.32495227074953]]]]}, "properties": {"id": "Pakistan_123102132_150518", "height": 3.230486392974854, "hmax": 0.0, "ratio": 0.0, "vulnClass": "none"}}, {"type": "Feature", "geometry": {"type": "MultiPolygon", "coordinates": [[[[72.3891622118611, 34.32511079945502], [72.38940562786304, 34.325099764935494], [72.38940264954165, 34.325055618015796], [72.38929035409036, 34.325060705070584], [72.38928975899648, 34.32505185766853], [72.3891587471766, 34.325057807449745], [72.3891622118611, 34.32511079945502]]]]}, "properties": {"id": "Pakistan_123102132_286231", "height": 3.528633117675781, "hmax": 0.0, "ratio": 0.0, "vulnClass": "none"}}, {"type": "Feature", "geometry": {"type": "MultiPolygon", "coordinates": [[[[72.38902998871735, 34.325117264155125], [72.3890390530999, 34.32516487647034], [72.3890940360436, 34.3251578457961], [72.38908508021909, 34.3251102358001], [72.38902998871735, 34.325117264155125]]]]}, "properties": {"id": "Pakistan_123102132_369216", "height": 2.739733695983887, "hmax": 0.0, "ratio": 0.0, "vulnClass": "none"}}, {"type": "Feature", "geometry": {"type": "MultiPolygon", "coordinates": [[[[72.38891371934622, 34.325190960433346], [72.38890874331503, 34.3251025973544], [72.3888481476031, 34.325104910542215], [72.3888531235705, 34.325193273620684], [72.38891371934622, 34.325190960433346]]]]}, "properties": {"id": "Pakistan_123102132_406312", "height": 2.614216804504395, "hmax": 0.0, "ratio": 0.0, "vulnClass": "none"}}, {"type": "Feature", "geometry": {"type": "MultiPolygon", "coordinates": [[[[72.38946949446768, 34.32570720622561], [72.38962589061056, 34.325653567271424], [72.38960255874488, 34.325607002929864], [72.38940948052368, 34.32567320161087], [72.38955276493641, 34.32595851780335], [72.38973353927835, 34.3258966541452], [72.3896719313002, 34.32577381782776], [72.38962613566623, 34.32578942866827], [72.38960044299864, 34.32573839661839], [72.38950203540743, 34.3257721773377], [72.38946949446768, 34.32570720622561]]]]}, "properties": {"id": "Pakistan_123102132_153623", "height": 3.306273937225342, "hmax": 0.0, "ratio": 0.0, "vulnClass": "none"}}, {"type": "Feature", "geometry": {"type": "MultiPolygon", "coordinates": [[[[72.38971898939884, 34.32536328637817], [72.38963407414727, 34.32541051689749], [72.389694892187, 34.32548519623888], [72.38977980469384, 34.325438055770285], [72.38971898939884, 34.32536328637817]]]]}, "properties": {"id": "Pakistan_123102132_283155", "height": 3.33546781539917, "hmax": 0.143, "ratio": 0.043, "vulnClass": "low"}}, {"type": "Feature", "geometry": {"type": "MultiPolygon", "coordinates": [[[[72.38957466055896, 34.325357142903435], [72.38955042695144, 34.325374746177594], [72.3895877009107, 34.32540970809437], [72.38961193452148, 34.325392104813005], [72.38957466055896, 34.325357142903435]]]]}, "properties": {"id": "Pakistan_123102132_79555", "height": 2.523708343505859, "hmax": 0.0, "ratio": 0.0, "vulnClass": "none"}}, {"type": "Feature", "geometry": {"type": "MultiPolygon", "coordinates": [[[[72.38957039803257, 34.32521767995724], [72.38942681959728, 34.325197849507575], [72.38941654667744, 34.32524883562472], [72.38956001939826, 34.32526857368349], [72.38957039803257, 34.32521767995724]]]]}, "properties": {"id": "Pakistan_123102132_304780", "height": 2.914513349533081, "hmax": 0.0, "ratio": 0.0, "vulnClass": "none"}}, {"type": "Feature", "geometry": {"type": "MultiPolygon", "coordinates": [[[[72.39024636234063, 34.325386523165335], [72.390223400874, 34.325335008577035], [72.39003670338259, 34.325391698282836], [72.39010710753819, 34.32554979039544], [72.39025365688546, 34.325505316244566], [72.39020610533565, 34.32539873648356], [72.39024636234063, 34.325386523165335]]]]}, "properties": {"id": "Pakistan_123102132_363162", "height": 3.650968074798584, "hmax": 0.183, "ratio": 0.05, "vulnClass": "low"}}, {"type": "Feature", "geometry": {"type": "MultiPolygon", "coordinates": [[[[72.39038234648284, 34.325816373690344], [72.39033807764433, 34.325744121011134], [72.39027620726243, 34.325770027042], [72.39032047605849, 34.32584227974152], [72.39038234648284, 34.325816373690344]]]]}, "properties": {"id": "Pakistan_123102132_273947", "height": 2.451355695724487, "hmax": 0.0, "ratio": 0.0, "vulnClass": "none"}}, {"type": "Feature", "geometry": {"type": "MultiPolygon", "coordinates": [[[[72.39082701972377, 34.325906629142665], [72.39054963684818, 34.32596877852474], [72.3905673165663, 34.32602243419425], [72.39064719579673, 34.326004484593504], [72.39066010696415, 34.32604370471483], [72.3908575050666, 34.325999412479035], [72.39082701972377, 34.325906629142665]]]]}, "properties": {"id": "Pakistan_123102132_596650", "height": 3.400908946990967, "hmax": 0.0, "ratio": 0.0, "vulnClass": "none"}}, {"type": "Feature", "geometry": {"type": "MultiPolygon", "coordinates": [[[[72.3905510941835, 34.32618832509046], [72.39057648157282, 34.32623520354134], [72.39068519197393, 34.32619506066627], [72.39065980453316, 34.326148182235464], [72.3905510941835, 34.32618832509046]]]]}, "properties": {"id": "Pakistan_123102132_602810", "height": 2.453933954238892, "hmax": 0.955, "ratio": 0.389, "vulnClass": "moderate"}}, {"type": "Feature", "geometry": {"type": "MultiPolygon", "coordinates": [[[[72.39050057374082, 34.32616002256814], [72.39041814777696, 34.326200545438624], [72.39047242930293, 34.32627580623982], [72.39055485531922, 34.3262352833354], [72.39050057374082, 34.32616002256814]]]]}, "properties": {"id": "Pakistan_123102132_553767", "height": 2.617184638977051, "hmax": 0.955, "ratio": 0.365, "vulnClass": "moderate"}}, {"type": "Feature", "geometry": {"type": "MultiPolygon", "coordinates": [[[[72.38956266413048, 34.326151019058955], [72.38968524913321, 34.3261821211342], [72.38970327075205, 34.32613355402076], [72.38942629580404, 34.32606327905908], [72.38941657056687, 34.32608957573137], [72.38957096061591, 34.32612874865273], [72.38956266413048, 34.326151019058955]]]]}, "properties": {"id": "Pakistan_123102132_184683", "height": 2.455386400222778, "hmax": 0.0, "ratio": 0.0, "vulnClass": "none"}}, {"type": "Feature", "geometry": {"type": "MultiPolygon", "coordinates": [[[[72.38926786091181, 34.325919716046], [72.38926435975512, 34.325966068643574], [72.38941396862229, 34.325973677388816], [72.38941746969749, 34.32592732478325], [72.38926786091181, 34.325919716046]]]]}, "properties": {"id": "Pakistan_123102132_556744", "height": 3.618651866912842, "hmax": 0.0, "ratio": 0.0, "vulnClass": "none"}}, {"type": "Feature", "geometry": {"type": "MultiPolygon", "coordinates": [[[[72.38919667629987, 34.326042784895606], [72.38919198618682, 34.326088931825424], [72.38922495013787, 34.3260911675857], [72.3892278984741, 34.32606265291056], [72.38922952732648, 34.326062687658045], [72.38923474980753, 34.32600988097793], [72.38909356935805, 34.32600028821916], [72.38909008857765, 34.32603546263586], [72.38919667629987, 34.326042784895606]]]]}, "properties": {"id": "Pakistan_123102132_85652", "height": 2.859526395797729, "hmax": 0.0, "ratio": 0.0, "vulnClass": "none"}}, {"type": "Feature", "geometry": {"type": "MultiPolygon", "coordinates": [[[[72.38816283317554, 34.32595275267449], [72.38828477760478, 34.325976450162536], [72.38830159533417, 34.325917670627376], [72.38817965098313, 34.325893973159594], [72.38816283317554, 34.32595275267449]]]]}, "properties": {"id": "Pakistan_123102132_440241", "height": 2.81415057182312, "hmax": 0.0, "ratio": 0.0, "vulnClass": "none"}}, {"type": "Feature", "geometry": {"type": "MultiPolygon", "coordinates": [[[[72.38805851312854, 34.32599145443228], [72.38813617206776, 34.3259890550572], [72.3881330407895, 34.32592182645319], [72.38805537911904, 34.32592431591954], [72.38805851312854, 34.32599145443228]]]]}, "properties": {"id": "Pakistan_123102132_455715", "height": 2.612666606903076, "hmax": 0.0, "ratio": 0.0, "vulnClass": "none"}}, {"type": "Feature", "geometry": {"type": "MultiPolygon", "coordinates": [[[[72.38846412345787, 34.325953683043444], [72.38848444799882, 34.32587992325256], [72.38837987208323, 34.32586029275214], [72.3883595474577, 34.32593405252187], [72.38846412345787, 34.325953683043444]]]]}, "properties": {"id": "Pakistan_123102132_434171", "height": 3.000754356384277, "hmax": 0.0, "ratio": 0.0, "vulnClass": "none"}}, {"type": "Feature", "geometry": {"type": "MultiPolygon", "coordinates": [[[[72.38930294834891, 34.32638636007261], [72.38905408519905, 34.32630307127472], [72.38902705511303, 34.32635829749709], [72.3892759211843, 34.32644149626507], [72.38930294834891, 34.32638636007261]]]]}, "properties": {"id": "Pakistan_123102132_18236", "height": 3.148046255111694, "hmax": 0.0, "ratio": 0.0, "vulnClass": "none"}}, {"type": "Feature", "geometry": {"type": "MultiPolygon", "coordinates": [[[[72.38928784600385, 34.326449413402685], [72.38933791905524, 34.326464094216725], [72.38936414756553, 34.32640317136926], [72.38941411201469, 34.326417849835146], [72.38945110695428, 34.32633209490705], [72.38935117815944, 34.326302737989565], [72.38928784600385, 34.326449413402685]]]]}, "properties": {"id": "Pakistan_123102132_612070", "height": 2.59453010559082, "hmax": 0.0, "ratio": 0.0, "vulnClass": "none"}}, {"type": "Feature", "geometry": {"type": "MultiPolygon", "coordinates": [[[[72.38941588941334, 34.3263079046677], [72.3895316933287, 34.32635445821491], [72.38955589577725, 34.326313325120644], [72.38944020049247, 34.32626677391437], [72.38941588941334, 34.3263079046677]]]]}, "properties": {"id": "Pakistan_123102132_437229", "height": 3.055492401123047, "hmax": 0.0, "ratio": 0.0, "vulnClass": "none"}}, {"type": "Feature", "geometry": {"type": "MultiPolygon", "coordinates": [[[[72.38982037229266, 34.32638720969945], [72.38981758665275, 34.32633333069189], [72.38973023768759, 34.32633633580706], [72.38973302327142, 34.32639021481403], [72.38982037229266, 34.32638720969945]]]]}, "properties": {"id": "Pakistan_123102132_562839", "height": 2.68174934387207, "hmax": 0.0, "ratio": 0.0, "vulnClass": "none"}}, {"type": "Feature", "geometry": {"type": "MultiPolygon", "coordinates": [[[[72.39007868303013, 34.32655489861282], [72.390068718987, 34.326466158741795], [72.38998201835916, 34.32647278386333], [72.38997862381254, 34.326442060442346], [72.39006368996533, 34.32643558076615], [72.39005874829142, 34.32639166244073], [72.38992739158194, 34.32640166239423], [72.38994569161959, 34.326565044018636], [72.39007868303013, 34.32655489861282]]]]}, "properties": {"id": "Pakistan_123102132_79559", "height": 2.844115257263184, "hmax": 0.0, "ratio": 0.0, "vulnClass": "none"}}, {"type": "Feature", "geometry": {"type": "MultiPolygon", "coordinates": [[[[72.39059729912616, 34.32874118869981], [72.39060083144497, 34.32879553435802], [72.39075328115229, 34.32878877814679], [72.39074974594389, 34.32873452257898], [72.39059729912616, 34.32874118869981]]]]}, "properties": {"id": "Pakistan_123102132_517154", "height": 2.589869260787964, "hmax": 0.0, "ratio": 0.0, "vulnClass": "none"}}]}