{"type": "FeatureCollection", "features": [{"type": "Feature", "geometry": {"type": "MultiPolygon", "coordinates": [[[[71.81351600965365, 34.375043537811095], [71.81346536676311, 34.37503744086939], [71.81344856015852, 34.375133805437045], [71.81349909450681, 34.37513989955841], [71.81351600965365, 34.375043537811095]]]]}, "properties": {"id": "8J6H9RG7+29QF", "height": 2.842316150665283, "hmax": 0.0, "ratio": 0.0, "vulnClass": "none"}}, {"type": "Feature", "geometry": {"type": "MultiPolygon", "coordinates": [[[[71.8133342138286, 34.37502167434614], [71.8133283998637, 34.37505460153725], [71.81345966144548, 34.3750703708999], [71.81346536676311, 34.37503744086939], [71.8133342138286, 34.37502167434614]]]]}, "properties": {"id": "8J6H9RG7+296W", "height": 2.589800834655762, "hmax": 0.0, "ratio": 0.0, "vulnClass": "none"}}, {"type": "Feature", "geometry": {"type": "MultiPolygon", "coordinates": [[[[71.81188804764487, 34.37500037670213], [71.81183933116291, 34.374957825567904], [71.81166273013115, 34.37509707212865], [71.81171155519078, 34.375139626164], [71.81188804764487, 34.37500037670213]]]]}, "properties": {"id": "8J6H9RG6+2P6X", "height": 3.091332674026489, "hmax": 0.0, "ratio": 0.0, "vulnClass": "none"}}, {"type": "Feature", "geometry": {"type": "MultiPolygon", "coordinates": [[[[71.81191710144573, 34.374942277636265], [71.81188422498991, 34.374963593001844], [71.8119714580472, 34.37505681159508], [71.81200454830146, 34.375035591914184], [71.81191710144573, 34.374942277636265]]]]}, "properties": {"id": "8J6H9RF6+XQWR", "height": 4.666680812835693, "hmax": 0.0, "ratio": 0.0, "vulnClass": "none"}}, {"type": "Feature", "geometry": {"type": "MultiPolygon", "coordinates": [[[[71.81212125747125, 34.374850347782605], [71.81202604822876, 34.37483272294771], [71.81200857895426, 34.37489779393379], [71.81210367966708, 34.37491541595445], [71.81212125747125, 34.374850347782605]]]]}, "properties": {"id": "8J6H9RF6+WRWR", "height": 2.827161312103271, "hmax": 0.0, "ratio": 0.0, "vulnClass": "none"}}, {"type": "Feature", "geometry": {"type": "MultiPolygon", "coordinates": [[[[71.8123902861691, 34.37458705406863], [71.8123468314968, 34.37455194107221], [71.81229336355386, 34.37459741606223], [71.81233670962702, 34.37463252624616], [71.8123902861691, 34.37458705406863]]]]}, "properties": {"id": "8J6H9RF6+RWPQ", "height": 3.805621385574341, "hmax": 0.0, "ratio": 0.0, "vulnClass": "none"}}, {"type": "Feature", "geometry": {"type": "MultiPolygon", "coordinates": [[[[71.80778164016091, 34.370136209061904], [71.8077982774201, 34.3699127539294], [71.8077475048568, 34.36991016650037], [71.80773086746417, 34.37013362161853], [71.80778164016091, 34.370136209061904]]]]}, "properties": {"id": "8J6H9RC5+242V", "height": 2.724240064620972, "hmax": 0.0, "ratio": 0.0, "vulnClass": "none"}}, {"type": "Feature", "geometry": {"type": "MultiPolygon", "coordinates": [[[[71.80767240553115, 34.36847284327496], [71.80762950598202, 34.368460456648506], [71.80760953220438, 34.3685084265273], [71.80765243519294, 34.36852072311849], [71.80767240553115, 34.36847284327496]]]]}, "properties": {"id": "8J6H9R95+93RP", "height": 3.516823530197144, "hmax": 0.0, "ratio": 0.0, "vulnClass": "none"}}, {"type": "Feature", "geometry": {"type": "MultiPolygon", "coordinates": [[[[71.8077396736887, 34.36837590425198], [71.80761234335404, 34.36834851445472], [71.80758265444712, 34.36844337005912], [71.80762427224892, 34.36845229819581], [71.807631204558, 34.36843003615744], [71.80771691719957, 34.36844849785011], [71.8077396736887, 34.36837590425198]]]]}, "properties": {"id": "8J6H9R95+9372", "height": 3.120704174041748, "hmax": 0.0, "ratio": 0.0, "vulnClass": "none"}}, {"type": "Feature", "geometry": {"type": "MultiPolygon", "coordinates": [[[[71.8168432533907, 34.36765161067463], [71.81676478706969, 34.36765416472392], [71.8167668085991, 34.36769838250105], [71.8168452749616, 34.36769582845277], [71.8168432533907, 34.36765161067463]]]]}, "properties": {"id": "8J6H9R98+3P7X", "height": 3.244535446166992, "hmax": 0.0, "ratio": 0.0, "vulnClass": "none"}}, {"type": "Feature", "geometry": {"type": "MultiPolygon", "coordinates": [[[[71.8178989483792, 34.36777399896421], [71.81780447597504, 34.36777154034972], [71.81780196129263, 34.36783510879583], [71.81757327961306, 34.36782897684909], [71.81756994286678, 34.367917130192836], [71.81770100654562, 34.367920631455654], [71.81769990569991, 34.36794971575936], [71.81789188799031, 34.36795480227071], [71.8178989483792, 34.36777399896421]]]]}, "properties": {"id": "8J6H9R99+44RV", "height": 3.08884859085083, "hmax": 0.0, "ratio": 0.0, "vulnClass": "none"}}, {"type": "Feature", "geometry": {"type": "MultiPolygon", "coordinates": [[[[71.81450510030416, 34.370070004352684], [71.81431471024372, 34.37000844055425], [71.81429461529564, 34.370051090627406], [71.8144851174365, 34.37011256724656], [71.81450510030416, 34.370070004352684]]]]}, "properties": {"id": "8J6H9RC7+2QCH", "height": 3.976261615753174, "hmax": 0.0, "ratio": 0.0, "vulnClass": "none"}}, {"type": "Feature", "geometry": {"type": "MultiPolygon", "coordinates": [[[[71.81462947389771, 34.371397656813166], [71.81456649542572, 34.37140160429557], [71.8145978422514, 34.37174762977968], [71.8146609295778, 34.371743685124784], [71.81468795295123, 34.37174195555391], [71.81466145117747, 34.371448784024636], [71.81463431930541, 34.37145051076585], [71.81462947389771, 34.371397656813166]]]]}, "properties": {"id": "8J6H9RC7+JVJ2", "height": 2.693827152252197, "hmax": 0.0, "ratio": 0.0, "vulnClass": "none"}}, {"type": "Feature", "geometry": {"type": "MultiPolygon", "coordinates": [[[[71.81296251460711, 34.37442630301074], [71.8129203167095, 34.374415378555504], [71.81290386775201, 34.37445929509327], [71.81294595707152, 34.374470216724404], [71.81296251460711, 34.37442630301074]]]]}, "properties": {"id": "8J6H9RF7+Q5FQ", "height": 2.793652296066284, "hmax": 0.0, "ratio": 0.0, "vulnClass": "none"}}, {"type": "Feature", "geometry": {"type": "MultiPolygon", "coordinates": [[[[71.81289501778102, 34.37487331457672], [71.81297030074725, 34.37469113577644], [71.8128924341985, 34.37466909652163], [71.81283593536241, 34.37480597749909], [71.8128712105106, 34.37481600046462], [71.81285253485252, 34.37486130106891], [71.81289501778102, 34.37487331457672]]]]}, "properties": {"id": "8J6H9RF7+W52H", "height": 3.442235469818115, "hmax": 0.0, "ratio": 0.0, "vulnClass": "none"}}, {"type": "Feature", "geometry": {"type": "MultiPolygon", "coordinates": [[[[71.81304506208701, 34.37468326009454], [71.81298107142938, 34.37466509776889], [71.81289501778102, 34.37487331457672], [71.8130331085647, 34.37491251666389], [71.81309140342086, 34.374771265898936], [71.81305257526903, 34.374760339187766], [71.81306956655831, 34.37471932101606], [71.81303429142149, 34.37470929810863], [71.81304506208701, 34.37468326009454]]]]}, "properties": {"id": "8J6H9RF7+W59X", "height": 3.442235469818115, "hmax": 0.0, "ratio": 0.0, "vulnClass": "none"}}, {"type": "Feature", "geometry": {"type": "MultiPolygon", "coordinates": [[[[71.81297829288592, 34.37493046633294], [71.81297232856954, 34.37496735542579], [71.81319348710095, 34.37499177769228], [71.81319945132361, 34.37495488858345], [71.81297829288592, 34.37493046633294]]]]}, "properties": {"id": "8J6H9RF7+X6PG", "height": 2.825836896896362, "hmax": 0.0, "ratio": 0.0, "vulnClass": "none"}}, {"type": "Feature", "geometry": {"type": "MultiPolygon", "coordinates": [[[[71.81679106137558, 34.37133533722662], [71.81665950386699, 34.37135047948622], [71.81666987363563, 34.37141249051847], [71.8168014312413, 34.371397348253154], [71.81679106137558, 34.37133533722662]]]]}, "properties": {"id": "8J6H9RC8+GMXV", "height": 2.562964916229248, "hmax": 0.0, "ratio": 0.0, "vulnClass": "none"}}, {"type": "Feature", "geometry": {"type": "MultiPolygon", "coordinates": [[[[71.8091673025001, 34.381012449892715], [71.80912826197076, 34.38101278289745], [71.80913007670175, 34.381162540475394], [71.80925491973709, 34.38116147255918], [71.80925432193165, 34.3811142274839], [71.80916862814904, 34.381114965235625], [71.8091673025001, 34.381012449892715]]]]}, "properties": {"id": "8J6H9RJ5+CMV8", "height": 4.767759323120117, "hmax": 0.0, "ratio": 0.0, "vulnClass": "none"}}, {"type": "Feature", "geometry": {"type": "MultiPolygon", "coordinates": [[[[71.80936896166493, 34.381645306309224], [71.80918748532085, 34.381637595434086], [71.80918091869988, 34.381744681803774], [71.80923953179826, 34.38174711295572], [71.8092413117067, 34.381717415661896], [71.80936417513868, 34.38172269540344], [71.80936896166493, 34.381645306309224]]]]}, "properties": {"id": "8J6H9RJ5+MPCG", "height": 2.5608229637146, "hmax": 0.0, "ratio": 0.0, "vulnClass": "none"}}, {"type": "Feature", "geometry": {"type": "MultiPolygon", "coordinates": [[[[71.80953414912973, 34.381781391276604], [71.80944930036493, 34.38177989794403], [71.80944523739244, 34.38194130949023], [71.80953019834496, 34.381942715625726], [71.80953414912973, 34.381781391276604]]]]}, "properties": {"id": "8J6H9RJ5+PQXG", "height": 2.540042400360107, "hmax": 0.0, "ratio": 0.0, "vulnClass": "none"}}, {"type": "Feature", "geometry": {"type": "MultiPolygon", "coordinates": [[[[71.8090009716588, 34.381765402319516], [71.8090095972563, 34.38162700357629], [71.80891256512207, 34.381622848417074], [71.80890404455283, 34.381761340022855], [71.8090009716588, 34.381765402319516]]]]}, "properties": {"id": "8J6H9RJ5+MHGP", "height": 2.595771312713623, "hmax": 0.0, "ratio": 0.0, "vulnClass": "none"}}, {"type": "Feature", "geometry": {"type": "MultiPolygon", "coordinates": [[[[71.80953019834496, 34.381942715625726], [71.80944523739244, 34.38194130949023], [71.8094434148372, 34.38201508050625], [71.80952837586418, 34.38201648664718], [71.80953019834496, 34.381942715625726]]]]}, "properties": {"id": "8J6H9RJ5+QQX4", "height": 2.540042400360107, "hmax": 0.0, "ratio": 0.0, "vulnClass": "none"}}, {"type": "Feature", "geometry": {"type": "MultiPolygon", "coordinates": [[[[71.80834312013516, 34.38258465920542], [71.80823429242709, 34.38258190803554], [71.80823218900632, 34.38263728462621], [71.80818993741072, 34.38263627161529], [71.80818655051846, 34.38272829863386], [71.80833762663825, 34.38273215287714], [71.80834312013516, 34.38258465920542]]]]}, "properties": {"id": "8J6H9RM5+386G", "height": 3.255977153778076, "hmax": 0.0, "ratio": 0.0, "vulnClass": "none"}}, {"type": "Feature", "geometry": {"type": "MultiPolygon", "coordinates": [[[[71.80783354181675, 34.38251682398902], [71.80775369177528, 34.38251536984861], [71.8077517051993, 34.38258769438667], [71.80786544754548, 34.38258985325694], [71.80786295652626, 34.382681182589124], [71.80792259895937, 34.38268228928247], [71.80792673686074, 34.382530433892796], [71.80783330750968, 34.38252871536369], [71.80783354181675, 34.38251682398902]]]]}, "properties": {"id": "8J6H9RM5+24Q7", "height": 2.678890943527222, "hmax": 0.0, "ratio": 0.0, "vulnClass": "none"}}, {"type": "Feature", "geometry": {"type": "MultiPolygon", "coordinates": [[[[71.80767076483491, 34.38250905828461], [71.80762911451495, 34.38250652852987], [71.80762614786505, 34.38254169287329], [71.807667801623, 34.38254413258681], [71.80767076483491, 34.38250905828461]]]]}, "properties": {"id": "8J6H9RM5+2364", "height": 3.004135608673096, "hmax": 0.0, "ratio": 0.0, "vulnClass": "none"}}, {"type": "Feature", "geometry": {"type": "MultiPolygon", "coordinates": [[[[71.80791525689995, 34.38246632030901], [71.80786876289363, 34.382465376679576], [71.80786811385184, 34.38249104750119], [71.80783433026232, 34.38249034561535], [71.80783354181675, 34.38251682398902], [71.80791393147943, 34.38251838229993], [71.80791525689995, 34.38246632030901]]]]}, "properties": {"id": "8J6H9RJ5+X5RR", "height": 2.678890943527222, "hmax": 0.0, "ratio": 0.0, "vulnClass": "none"}}, {"type": "Feature", "geometry": {"type": "MultiPolygon", "coordinates": [[[[71.8077120971191, 34.38233681276585], [71.80764178924476, 34.38234173674176], [71.80764713570795, 34.382395595336874], [71.80771755223435, 34.38239067419647], [71.8077120971191, 34.38233681276585]]]]}, "properties": {"id": "8J6H9RJ5+W3VP", "height": 2.476348876953125, "hmax": 0.0, "ratio": 0.0, "vulnClass": "none"}}, {"type": "Feature", "geometry": {"type": "MultiPolygon", "coordinates": [[[[71.80818516919904, 34.382029104497555], [71.80804777276482, 34.38202290330468], [71.80804526726703, 34.38206024288747], [71.80808292631696, 34.38206194722254], [71.8080782556876, 34.38213339050547], [71.80817799321639, 34.38213788737795], [71.80818516919904, 34.382029104497555]]]]}, "properties": {"id": "8J6H9RJ5+R6Q5", "height": 2.44258713722229, "hmax": 0.0, "ratio": 0.0, "vulnClass": "none"}}, {"type": "Feature", "geometry": {"type": "MultiPolygon", "coordinates": [[[[71.80831782430074, 34.382234554931756], [71.80805131310143, 34.3822302104362], [71.808048955762, 34.38232947493533], [71.80809523932793, 34.38233023273424], [71.80809225957479, 34.38245733193554], [71.80814604050899, 34.3824581953395], [71.80814530862365, 34.38248891142397], [71.80831164742332, 34.38249163193214], [71.80831237924797, 34.38246091584329], [71.80828880128671, 34.3824605706646], [71.80828981440445, 34.3824195868108], [71.80826754315768, 34.38241918561176], [71.80826961812588, 34.382333073080076], [71.80831546727555, 34.38233381945357], [71.80831782430074, 34.382234554931756]]]]}, "properties": {"id": "8J6H9RJ5+W7PR", "height": 3.440161943435669, "hmax": 0.0, "ratio": 0.0, "vulnClass": "none"}}, {"type": "Feature", "geometry": {"type": "MultiPolygon", "coordinates": [[[[71.80765460372619, 34.38137485926753], [71.8076552869883, 34.381439862661985], [71.80774260669233, 34.38143925857391], [71.80774224492582, 34.3814001316092], [71.80778748295904, 34.38139978061808], [71.80778716138181, 34.38137390418438], [71.80765460372619, 34.38137485926753]]]]}, "properties": {"id": "8J6H9RJ5+H384", "height": 3.436933994293213, "hmax": 0.0, "ratio": 0.0, "vulnClass": "none"}}, {"type": "Feature", "geometry": {"type": "MultiPolygon", "coordinates": [[[[71.81543904010384, 34.378798191264025], [71.81545554971899, 34.37887316113851], [71.8158268391422, 34.37881748571059], [71.81581478476555, 34.378762641399106], [71.81576023026653, 34.37877077458052], [71.81575577471226, 34.37875064904802], [71.81543904010384, 34.378798191264025]]]]}, "properties": {"id": "Pakistan_123102132_603205", "height": 2.516910076141357, "hmax": 0.0, "ratio": 0.0, "vulnClass": "none"}}, {"type": "Feature", "geometry": {"type": "MultiPolygon", "coordinates": [[[[71.80790694206262, 34.38012950731469], [71.80762373916093, 34.38013833626556], [71.80762992368622, 34.380273155774326], [71.80791301844036, 34.38026432399893], [71.80790694206262, 34.38012950731469]]]]}, "properties": {"id": "8J6H9RJ5+34J4", "height": 2.491938591003418, "hmax": 0.0, "ratio": 0.0, "vulnClass": "none"}}, {"type": "Feature", "geometry": {"type": "MultiPolygon", "coordinates": [[[[71.80836284006196, 34.380439658848516], [71.80834883870583, 34.3803503324789], [71.80794310145801, 34.38039390888946], [71.80795699377776, 34.38048323244566], [71.80836284006196, 34.380439658848516]]]]}, "properties": {"id": "8J6H9RJ5+576Q", "height": 2.543668270111084, "hmax": 0.0, "ratio": 0.0, "vulnClass": "none"}}, {"type": "Feature", "geometry": {"type": "MultiPolygon", "coordinates": [[[[71.81071459252766, 34.379173920168256], [71.81023575400343, 34.379167376436214], [71.81023406112134, 34.379254941185636], [71.8107127949579, 34.37926139207545], [71.81071459252766, 34.379173920168256]]]]}, "properties": {"id": "8J6H9RH6+M5QC", "height": 3.115602731704712, "hmax": 0.0, "ratio": 0.0, "vulnClass": "none"}}, {"type": "Feature", "geometry": {"type": "MultiPolygon", "coordinates": [[[[71.80901886945833, 34.3805611575099], [71.80895938755553, 34.38056158784123], [71.80896003345369, 34.380630465989725], [71.80901951540535, 34.380630035660815], [71.80901886945833, 34.3805611575099]]]]}, "properties": {"id": "8J6H9RJ5+6HQW", "height": 3.303790092468262, "hmax": 0.0, "ratio": 0.0, "vulnClass": "none"}}, {"type": "Feature", "geometry": {"type": "MultiPolygon", "coordinates": [[[[71.8086628380475, 34.38088174920759], [71.8086607029882, 34.38056010047472], [71.80860894569582, 34.38056037175157], [71.80861119258113, 34.380881933266096], [71.8086628380475, 34.38088174920759]]]]}, "properties": {"id": "8J6H9RJ5+7FJV", "height": 3.977377414703369, "hmax": 0.0, "ratio": 0.0, "vulnClass": "none"}}, {"type": "Feature", "geometry": {"type": "MultiPolygon", "coordinates": [[[[71.80988833657872, 34.38039826582942], [71.80985167613939, 34.38039604733585], [71.80984677680642, 34.38045351422545], [71.80988332866599, 34.3804557298879], [71.80988833657872, 34.38039826582942]]]]}, "properties": {"id": "8J6H9RJ5+5WH5", "height": 3.455923080444336, "hmax": 0.0, "ratio": 0.0, "vulnClass": "none"}}, {"type": "Feature", "geometry": {"type": "MultiPolygon", "coordinates": [[[[71.81021788296908, 34.38066356239159], [71.81014741366475, 34.380655594684185], [71.81012509987498, 34.38079093244398], [71.81037028014572, 34.380818691014866], [71.81038795354274, 34.38071108310975], [71.81021334808844, 34.38069138517958], [71.81021788296908, 34.38066356239159]]]]}, "properties": {"id": "8J6H9RJ6+74RR", "height": 3.667981863021851, "hmax": 0.0, "ratio": 0.0, "vulnClass": "none"}}, {"type": "Feature", "geometry": {"type": "MultiPolygon", "coordinates": [[[[71.81033518800511, 34.380557472427526], [71.81015282333941, 34.38054171807649], [71.81014689855543, 34.38058897324119], [71.81032926332125, 34.38060472760664], [71.81033518800511, 34.380557472427526]]]]}, "properties": {"id": "8J6H9RJ6+63HW", "height": 3.525006532669067, "hmax": 0.0, "ratio": 0.0, "vulnClass": "none"}}, {"type": "Feature", "geometry": {"type": "MultiPolygon", "coordinates": [[[[71.8103578826225, 34.38041781818385], [71.81017153365026, 34.38041538967679], [71.81016975093942, 34.38050817975821], [71.81032947831575, 34.38051027422856], [71.81033065211734, 34.380447842946616], [71.81035738250354, 34.3804481798297], [71.8103578826225, 34.38041781818385]]]]}, "properties": {"id": "8J6H9RJ6+54JC", "height": 2.992692470550537, "hmax": 0.0, "ratio": 0.0, "vulnClass": "none"}}, {"type": "Feature", "geometry": {"type": "MultiPolygon", "coordinates": [[[[71.81054699251331, 34.38033604442644], [71.81048790793874, 34.380348924177525], [71.81052200915633, 34.38045580982694], [71.81058098519901, 34.380442927230106], [71.81054699251331, 34.38033604442644]]]]}, "properties": {"id": "8J6H9RJ6+563R", "height": 3.27714204788208, "hmax": 0.0, "ratio": 0.0, "vulnClass": "none"}}, {"type": "Feature", "geometry": {"type": "MultiPolygon", "coordinates": [[[[71.81021782605646, 34.38023831520945], [71.81012354731897, 34.380236125685336], [71.81012264765107, 34.380262691333186], [71.8102169230005, 34.38026497090312], [71.81021782605646, 34.38023831520945]]]]}, "properties": {"id": "8J6H9RJ6+4333", "height": 3.522923946380615, "hmax": 0.0, "ratio": 0.0, "vulnClass": "none"}}, {"type": "Feature", "geometry": {"type": "MultiPolygon", "coordinates": [[[[71.81032510577396, 34.38029609516556], [71.81028192149934, 34.380296771099516], [71.81028379503728, 34.38037343271128], [71.81032698276908, 34.38037266673542], [71.81032510577396, 34.38029609516556]]]]}, "properties": {"id": "8J6H9RJ6+44M8", "height": 4.746545314788818, "hmax": 0.0, "ratio": 0.0, "vulnClass": "none"}}, {"type": "Feature", "geometry": {"type": "MultiPolygon", "coordinates": [[[[71.80976790208585, 34.38036628067245], [71.80967605277772, 34.38036595684708], [71.80967583514119, 34.380417507016226], [71.80976768450569, 34.38041783084489], [71.80976790208585, 34.38036628067245]]]]}, "properties": {"id": "8J6H9RJ5+5V5J", "height": 3.042813777923584, "hmax": 0.0, "ratio": 0.0, "vulnClass": "none"}}, {"type": "Feature", "geometry": {"type": "MultiPolygon", "coordinates": [[[[71.81012796437837, 34.380102574262715], [71.81007657414946, 34.38010177415756], [71.81007419058427, 34.380207527656836], [71.81012547227353, 34.380208324932866], [71.81012796437837, 34.380102574262715]]]]}, "properties": {"id": "8J6H9RJ6+3296", "height": 4.057506561279297, "hmax": 0.0, "ratio": 0.0, "vulnClass": "none"}}, {"type": "Feature", "geometry": {"type": "MultiPolygon", "coordinates": [[[[71.81019379742216, 34.38010951967358], [71.81012797651562, 34.3801079825366], [71.81012452217863, 34.380207579081684], [71.81021890948843, 34.38020977143693], [71.81021782605646, 34.38023831520945], [71.8103079744251, 34.380240487028495], [71.81030894922236, 34.3802119404199], [71.81036738513352, 34.38021328478445], [71.81036550734704, 34.38026848709199], [71.8104197077324, 34.380269720925874], [71.81042422951421, 34.38013626234391], [71.8101930994302, 34.38013077276047], [71.81019379742216, 34.38010951967358]]]]}, "properties": {"id": "8J6H9RJ6+34C9", "height": 4.821426391601562, "hmax": 0.0, "ratio": 0.0, "vulnClass": "none"}}, {"type": "Feature", "geometry": {"type": "MultiPolygon", "coordinates": [[[[71.81057269466517, 34.377708086506615], [71.81046896693049, 34.37767996302235], [71.81043961834189, 34.3777543679867], [71.81054334615463, 34.37778249150017], [71.81057269466517, 34.377708086506615]]]]}, "properties": {"id": "8J6H9RH6+36R6", "height": 2.526747703552246, "hmax": 0.0, "ratio": 0.0, "vulnClass": "none"}}, {"type": "Feature", "geometry": {"type": "MultiPolygon", "coordinates": [[[[71.81030607750212, 34.377603787490095], [71.81026181011696, 34.37759866671038], [71.81024817966808, 34.37767997126637], [71.81029233849351, 34.37768508921989], [71.81030607750212, 34.377603787490095]]]]}, "properties": {"id": "8J6H9RH6+342Q", "height": 2.659314155578613, "hmax": 0.0, "ratio": 0.0, "vulnClass": "none"}}, {"type": "Feature", "geometry": {"type": "MultiPolygon", "coordinates": [[[[71.81040013941417, 34.37769754590505], [71.81024817966808, 34.37767997126637], [71.8102312250991, 34.377780116946745], [71.81038329020332, 34.37779778449304], [71.81040013941417, 34.37769754590505]]]]}, "properties": {"id": "8J6H9RH6+34WC", "height": 2.895483016967773, "hmax": 0.0, "ratio": 0.0, "vulnClass": "none"}}, {"type": "Feature", "geometry": {"type": "MultiPolygon", "coordinates": [[[[71.810371604742, 34.37743541675883], [71.81029097064952, 34.37742610242642], [71.81026181011696, 34.37759866671038], [71.81034244095154, 34.37760807111439], [71.810371604742, 34.37743541675883]]]]}, "properties": {"id": "8J6H9RH6+244J", "height": 3.623332500457764, "hmax": 0.0, "ratio": 0.0, "vulnClass": "none"}}, {"type": "Feature", "geometry": {"type": "MultiPolygon", "coordinates": [[[[71.81041779176596, 34.37739281726995], [71.81030190277362, 34.37738438582925], [71.81029698318443, 34.377430946191474], [71.81041276022192, 34.37743946485058], [71.81041779176596, 34.37739281726995]]]]}, "properties": {"id": "8J6H9RG6+X49F", "height": 2.891574621200562, "hmax": 0.0, "ratio": 0.0, "vulnClass": "none"}}, {"type": "Feature", "geometry": {"type": "MultiPolygon", "coordinates": [[[[71.81108656873974, 34.377192142070434], [71.81080397222972, 34.37717665871513], [71.81079925011207, 34.37723521190374], [71.81082387849418, 34.37723648528116], [71.81082153928129, 34.37726661870613], [71.81074115516847, 34.37726217835972], [71.8107313527858, 34.37738585506918], [71.81069967557346, 34.37738412739349], [71.81069371746543, 34.377458061016924], [71.81072539470527, 34.37745978869568], [71.81071560592035, 34.37758310522379], [71.81079588515227, 34.37758745272741], [71.8107929980134, 34.3776234304802], [71.81076837293607, 34.37762206704677], [71.81076363365915, 34.377681070445284], [71.811046337029, 34.377696646863505], [71.81105107952645, 34.37763755339956], [71.81108221384366, 34.37763926682626], [71.81108948262553, 34.37754797175602], [71.81114307337778, 34.37755090183617], [71.81116668015878, 34.37725534158385], [71.81108184681653, 34.37725069528081], [71.81108656873974, 34.377192142070434]]]]}, "properties": {"id": "8J6H9RG6+X9F9", "height": 2.453125238418579, "hmax": 0.0, "ratio": 0.0, "vulnClass": "none"}}, {"type": "Feature", "geometry": {"type": "MultiPolygon", "coordinates": [[[[71.81127081636319, 34.376146631491416], [71.81110427860762, 34.37614661418281], [71.81110419931063, 34.376300558749875], [71.81127084597084, 34.376300578908086], [71.81127081636319, 34.376146631491416]]]]}, "properties": {"id": "8J6H9RG6+FFPR", "height": 3.669719219207764, "hmax": 0.0, "ratio": 0.0, "vulnClass": "none"}}, {"type": "Feature", "geometry": {"type": "MultiPolygon", "coordinates": [[[[71.81190482030317, 34.37518008806164], [71.81197380690445, 34.37505507018794], [71.81193190529144, 34.37503919581131], [71.81186281004679, 34.375164210827045], [71.81190482030317, 34.37518008806164]]]]}, "properties": {"id": "8J6H9RG6+2QV7", "height": 4.666680812835693, "hmax": 0.0, "ratio": 0.0, "vulnClass": "none"}}, {"type": "Feature", "geometry": {"type": "MultiPolygon", "coordinates": [[[[71.81101964844545, 34.37533726848811], [71.81099663467208, 34.37532783520581], [71.81098455814309, 34.37534816059416], [71.81100746332227, 34.375357591046345], [71.81101964844545, 34.37533726848811]]]]}, "properties": {"id": "8J6H9RG6+4CJJ", "height": 2.655265331268311, "hmax": 0.0, "ratio": 0.0, "vulnClass": "none"}}, {"type": "Feature", "geometry": {"type": "MultiPolygon", "coordinates": [[[[71.80994251385444, 34.375897915011635], [71.80982746212861, 34.375824519384224], [71.80980082732415, 34.37585320763682], [71.80991577046328, 34.37592660045634], [71.80994251385444, 34.375897915011635]]]]}, "properties": {"id": "8J6H9RG5+9W55", "height": 2.451665878295898, "hmax": 0.0, "ratio": 0.0, "vulnClass": "none"}}, {"type": "Feature", "geometry": {"type": "MultiPolygon", "coordinates": [[[[71.80980655081625, 34.375834158727585], [71.8097526761963, 34.37579291430899], [71.80961647682456, 34.375915816366735], [71.80966992730544, 34.37595677937965], [71.80980655081625, 34.375834158727585]]]]}, "properties": {"id": "8J6H9RG5+8VWX", "height": 2.464273929595947, "hmax": 0.0, "ratio": 0.0, "vulnClass": "none"}}, {"type": "Feature", "geometry": {"type": "MultiPolygon", "coordinates": [[[[71.80994376738771, 34.37576464151891], [71.80989814237127, 34.375763811579326], [71.80989528450675, 34.37586775009505], [71.80994101817805, 34.37586858287243], [71.80994376738771, 34.37576464151891]]]]}, "properties": {"id": "8J6H9RG5+8XFM", "height": 3.080606698989868, "hmax": 0.0, "ratio": 0.0, "vulnClass": "none"}}, {"type": "Feature", "geometry": {"type": "MultiPolygon", "coordinates": [[[[71.81026650510813, 34.375590182876465], [71.81023897240894, 34.375588112566355], [71.8102325664288, 34.375648063925446], [71.81025999396606, 34.375650041361254], [71.81026650510813, 34.375590182876465]]]]}, "properties": {"id": "8J6H9RG6+63XQ", "height": 4.057377815246582, "hmax": 0.0, "ratio": 0.0, "vulnClass": "none"}}, {"type": "Feature", "geometry": {"type": "MultiPolygon", "coordinates": [[[[71.81039192600969, 34.37539606443394], [71.81029998791529, 34.37539249414772], [71.81028585970262, 34.37564161278734], [71.81044205411712, 34.37564776076606], [71.81044691551126, 34.37556262207954], [71.810382547511, 34.375560131629264], [71.81039192600969, 34.37539606443394]]]]}, "properties": {"id": "8J6H9RG6+649F", "height": 3.992875337600708, "hmax": 0.0, "ratio": 0.0, "vulnClass": "none"}}, {"type": "Feature", "geometry": {"type": "MultiPolygon", "coordinates": [[[[71.80963527187677, 34.375939020249824], [71.80958129784337, 34.37588894016304], [71.80954617251366, 34.37591506334462], [71.80960014995826, 34.375965053403064], [71.80963527187677, 34.375939020249824]]]]}, "properties": {"id": "8J6H9RG5+9RG5", "height": 2.464273929595947, "hmax": 0.0, "ratio": 0.0, "vulnClass": "none"}}, {"type": "Feature", "geometry": {"type": "MultiPolygon", "coordinates": [[[[71.8102962129685, 34.376571871744694], [71.81007231266338, 34.37649644763928], [71.80997002052598, 34.37670550023658], [71.81000694478321, 34.376717910520725], [71.80998656103377, 34.37675947061118], [71.81021572522961, 34.37683656448299], [71.81031873006528, 34.376625907875166], [71.8102766545243, 34.37661174090109], [71.8102962129685, 34.376571871744694]]]]}, "properties": {"id": "8J6H9RG6+M36P", "height": 4.54634952545166, "hmax": 0.0, "ratio": 0.0, "vulnClass": "none"}}, {"type": "Feature", "geometry": {"type": "MultiPolygon", "coordinates": [[[[71.80990963439817, 34.376964678346944], [71.80968530526545, 34.37686616836817], [71.8096471636196, 34.37692592246077], [71.80987149285585, 34.3770244325152], [71.80990963439817, 34.376964678346944]]]]}, "properties": {"id": "8J6H9RG5+QWCX", "height": 2.734407424926758, "hmax": 0.0, "ratio": 0.0, "vulnClass": "none"}}, {"type": "Feature", "geometry": {"type": "MultiPolygon", "coordinates": [[[[71.8097415004449, 34.37684915756629], [71.8097061076006, 34.37683363252063], [71.80968530526545, 34.37686616836817], [71.80972069811865, 34.376881693420344], [71.8097415004449, 34.37684915756629]]]]}, "properties": {"id": "8J6H9RG5+PVW9", "height": 2.997917175292969, "hmax": 0.0, "ratio": 0.0, "vulnClass": "none"}}, {"type": "Feature", "geometry": {"type": "MultiPolygon", "coordinates": [[[[71.80856897393556, 34.376826487301514], [71.80854241962436, 34.3768558984156], [71.80856578159887, 34.3768704788118], [71.80851301582028, 34.37692885931772], [71.80878838935949, 34.37710017895871], [71.8088248089745, 34.37706002911715], [71.80877149523232, 34.377026910836136], [71.80880247637973, 34.37699256779555], [71.80877900914717, 34.376977894562614], [71.80876437068243, 34.37699409686439], [71.80870713112327, 34.376958442503295], [71.80873368541504, 34.3769290313524], [71.80856897393556, 34.376826487301514]]]]}, "properties": {"id": "8J6H9RG5+QFMC", "height": 3.868675231933594, "hmax": 0.0, "ratio": 0.0, "vulnClass": "none"}}, {"type": "Feature", "geometry": {"type": "MultiPolygon", "coordinates": [[[[71.8077506678181, 34.377589547331226], [71.80767754388354, 34.3774082741657], [71.8075865762285, 34.37743347939927], [71.8076474912885, 34.3775841492767], [71.8074290794152, 34.377644693393385], [71.80746236174586, 34.37772722260818], [71.80764616786941, 34.37767623020209], [71.80762520265019, 34.37762430719859], [71.8077506678181, 34.377589547331226]]]]}, "properties": {"id": "8J6H9RH5+22Q7", "height": 2.553800821304321, "hmax": 0.0, "ratio": 0.0, "vulnClass": "none"}}, {"type": "Feature", "geometry": {"type": "MultiPolygon", "coordinates": [[[[71.8083532792169, 34.37741383896148], [71.80831063562219, 34.37745184324751], [71.80841794073146, 34.37753459214653], [71.808460587745, 34.37749649777978], [71.8083532792169, 34.37741383896148]]]]}, "properties": {"id": "8J6H9RG5+X9JV", "height": 3.447430610656738, "hmax": 0.0, "ratio": 0.0, "vulnClass": "none"}}, {"type": "Feature", "geometry": {"type": "MultiPolygon", "coordinates": [[[[71.80810364731, 34.37762093605473], [71.80809547118373, 34.37758719327194], [71.80797808778816, 34.3776066617033], [71.80798615184739, 34.37764049169915], [71.80810364731, 34.37762093605473]]]]}, "properties": {"id": "8J6H9RH5+26VF", "height": 3.032567739486694, "hmax": 0.0, "ratio": 0.0, "vulnClass": "none"}}, {"type": "Feature", "geometry": {"type": "MultiPolygon", "coordinates": [[[[71.80812870877733, 34.377662330284494], [71.8081039987091, 34.37761454581585], [71.80799501956957, 34.37765316152183], [71.80801972958359, 34.37770094600943], [71.80812870877733, 34.377662330284494]]]]}, "properties": {"id": "8J6H9RH5+3679", "height": 2.800754547119141, "hmax": 0.0, "ratio": 0.0, "vulnClass": "none"}}, {"type": "Feature", "geometry": {"type": "MultiPolygon", "coordinates": [[[[71.80809868630435, 34.377571233613196], [71.80808324297855, 34.37749412759077], [71.80792762466467, 34.37751566223555], [71.80794317986877, 34.377592681061884], [71.80809868630435, 34.377571233613196]]]]}, "properties": {"id": "8J6H9RH5+266M", "height": 2.507465600967407, "hmax": 0.0, "ratio": 0.0, "vulnClass": "none"}}, {"type": "Feature", "geometry": {"type": "MultiPolygon", "coordinates": [[[[71.80824587787573, 34.377917580228996], [71.80821438875894, 34.37792234635938], [71.80823823934188, 34.37803284064622], [71.80826983368136, 34.37802816739054], [71.80824587787573, 34.377917580228996]]]]}, "properties": {"id": "8J6H9RH5+57X4", "height": 2.72676682472229, "hmax": 0.0, "ratio": 0.0, "vulnClass": "none"}}, {"type": "Feature", "geometry": {"type": "MultiPolygon", "coordinates": [[[[71.80815461247914, 34.37816243119252], [71.8080446916526, 34.37815712777166], [71.80804210516584, 34.378193744198946], [71.80815202603979, 34.37819904762478], [71.80815461247914, 34.37816243119252]]]]}, "properties": {"id": "8J6H9RH5+76H2", "height": 4.980101585388184, "hmax": 0.0, "ratio": 0.0, "vulnClass": "none"}}, {"type": "Feature", "geometry": {"type": "MultiPolygon", "coordinates": [[[[71.80844436212021, 34.37805832130262], [71.80856862215451, 34.3780381306233], [71.80855306306007, 34.377972648731294], [71.80842891172269, 34.377992842235244], [71.80844436212021, 34.37805832130262]]]]}, "properties": {"id": "8J6H9RH5+695Q", "height": 4.381824493408203, "hmax": 0.0, "ratio": 0.0, "vulnClass": "none"}}, {"type": "Feature", "geometry": {"type": "MultiPolygon", "coordinates": [[[[71.80814035220219, 34.378243088072665], [71.8080156400413, 34.37822937665135], [71.80799479802361, 34.37836024577318], [71.80811940519018, 34.37837386434753], [71.80814035220219, 34.378243088072665]]]]}, "properties": {"id": "8J6H9RH5+86G2", "height": 4.682948112487793, "hmax": 0.0, "ratio": 0.0, "vulnClass": "none"}}, {"type": "Feature", "geometry": {"type": "MultiPolygon", "coordinates": [[[[71.82109088142707, 34.375866698858616], [71.82116747088718, 34.37605481490868], [71.82129512841978, 34.37601937679288], [71.82121853528764, 34.37583135085232], [71.82109088142707, 34.375866698858616]]]]}, "properties": {"id": "Pakistan_123102132_237341", "height": 2.703905582427979, "hmax": 0.0, "ratio": 0.0, "vulnClass": "none"}}, {"type": "Feature", "geometry": {"type": "MultiPolygon", "coordinates": [[[[71.81897020082323, 34.378148146859175], [71.8187585761301, 34.37822195734529], [71.81884127856527, 34.37838346430554], [71.81905290361594, 34.37830965369639], [71.81897020082323, 34.378148146859175]]]]}, "properties": {"id": "Pakistan_123102132_329781", "height": 2.773722887039185, "hmax": 0.0, "ratio": 0.0, "vulnClass": "none"}}, {"type": "Feature", "geometry": {"type": "MultiPolygon", "coordinates": [[[[71.81822980684161, 34.379241480616194], [71.81840657209352, 34.37929313028062], [71.8184913365163, 34.37909578194432], [71.81847424238401, 34.379090740317785], [71.81847704842258, 34.37905394898618], [71.81842232142559, 34.379037923256234], [71.8184955606632, 34.37904163186689], [71.81819837358397, 34.378954761023984], [71.81820210164182, 34.37890510469466], [71.81825288370578, 34.37890759805116], [71.81825626838794, 34.378861267699435], [71.8182006060206, 34.37885846706611], [71.81818295774039, 34.37889964915056], [71.8181025576522, 34.378895573718424], [71.8181046191935, 34.37886696511525], [71.8180228107108, 34.37886276284305], [71.81801436767086, 34.378976651324585], [71.81808955827047, 34.37898050109867], [71.81810213873612, 34.37898416344232], [71.8181734264438, 34.378987731320265], [71.81817071524442, 34.379024885641115], [71.81837317378661, 34.37908414426513], [71.8182932079175, 34.37908008025362], [71.81823097031031, 34.37922510671074], [71.81822980684161, 34.379241480616194]]]]}, "properties": {"id": "Pakistan_123102132_317525", "height": 3.242459774017334, "hmax": 0.063, "ratio": 0.019, "vulnClass": "none"}}, {"type": "Feature", "geometry": {"type": "MultiPolygon", "coordinates": [[[[71.81865025894265, 34.37700252467277], [71.81867345461443, 34.37711345095191], [71.81872176305131, 34.377106596023786], [71.81869856731613, 34.37699566975026], [71.81865025894265, 34.37700252467277]]]]}, "properties": {"id": "Pakistan_123102132_499149", "height": 2.608968496322632, "hmax": 0.0, "ratio": 0.0, "vulnClass": "none"}}, {"type": "Feature", "geometry": {"type": "MultiPolygon", "coordinates": [[[[71.81866710395673, 34.37728697183985], [71.81861769576514, 34.377294158657094], [71.81863912501187, 34.37739431315736], [71.8186885366703, 34.377387036290486], [71.81866710395673, 34.37728697183985]]]]}, "properties": {"id": "Pakistan_123102132_351283", "height": 3.030894041061401, "hmax": 0.0, "ratio": 0.0, "vulnClass": "none"}}, {"type": "Feature", "geometry": {"type": "MultiPolygon", "coordinates": [[[[71.81901451061448, 34.37765528118962], [71.81887298916678, 34.37769215873073], [71.8188629985274, 34.37766603062709], [71.81876056190757, 34.37769274852913], [71.81877145495159, 34.377720883045626], [71.81880066002738, 34.37771326061507], [71.81881530164526, 34.37775149742159], [71.81887382040946, 34.37773625535882], [71.81893665142584, 34.37790003932316], [71.81912923209785, 34.37784970837491], [71.81911894622743, 34.37782276141218], [71.8191491389569, 34.37781489419612], [71.81910907424997, 34.37771019893377], [71.8190422097743, 34.377727657558516], [71.81901451061448, 34.37765528118962]]]]}, "properties": {"id": "Pakistan_123102132_73981", "height": 2.930405855178833, "hmax": 0.0, "ratio": 0.0, "vulnClass": "none"}}, {"type": "Feature", "geometry": {"type": "MultiPolygon", "coordinates": [[[[71.81899883241852, 34.377647302097714], [71.81898926844165, 34.377584050338264], [71.81888897266408, 34.377594419862525], [71.81889853997343, 34.37765758158135], [71.81899883241852, 34.377647302097714]]]]}, "properties": {"id": "Pakistan_123102132_234247", "height": 2.605290651321411, "hmax": 0.0, "ratio": 0.0, "vulnClass": "none"}}, {"type": "Feature", "geometry": {"type": "MultiPolygon", "coordinates": [[[[71.8186081144852, 34.37700449252812], [71.81860508888268, 34.37695231696783], [71.81852071527632, 34.37695561949983], [71.81852363222525, 34.37700779223321], [71.8186081144852, 34.37700449252812]]]]}, "properties": {"id": "Pakistan_123102132_477666", "height": 2.747119903564453, "hmax": 0.0, "ratio": 0.0, "vulnClass": "none"}}, {"type": "Feature", "geometry": {"type": "MultiPolygon", "coordinates": [[[[71.81857038511026, 34.376631351902226], [71.81856600398613, 34.37654606228318], [71.81849775136202, 34.37654852244818], [71.81850224101703, 34.376633814891846], [71.81857038511026, 34.376631351902226]]]]}, "properties": {"id": "Pakistan_123102132_182041", "height": 2.697924852371216, "hmax": 0.0, "ratio": 0.0, "vulnClass": "none"}}, {"type": "Feature", "geometry": {"type": "MultiPolygon", "coordinates": [[[[71.81913240040407, 34.3765969429938], [71.81912917513964, 34.376320241076286], [71.81887972270806, 34.376322313394304], [71.8188809476956, 34.376430685057656], [71.81872272985393, 34.37643197621621], [71.81872473239827, 34.37660021637178], [71.81913240040407, 34.3765969429938]]]]}, "properties": {"id": "Pakistan_123102132_529858", "height": 2.500558376312256, "hmax": 0.0, "ratio": 0.0, "vulnClass": "none"}}, {"type": "Feature", "geometry": {"type": "MultiPolygon", "coordinates": [[[[71.81543904010384, 34.378798191264025], [71.81545554971899, 34.37887316113851], [71.8158268391422, 34.37881748571059], [71.81581478476555, 34.378762641399106], [71.81576023026653, 34.37877077458052], [71.81575577471226, 34.37875064904802], [71.81543904010384, 34.378798191264025]]]]}, "properties": {"id": "Pakistan_123102132_603205", "height": 2.516910076141357, "hmax": 0.0, "ratio": 0.0, "vulnClass": "none"}}]}