{"type": "FeatureCollection", "features": [{"type": "Feature", "geometry": {"type": "MultiPolygon", "coordinates": [[[[72.12357436672349, 34.056684395258046], [72.12341757789765, 34.05670884863142], [72.12344878553161, 34.056846150272825], [72.12360557460758, 34.056821696872596], [72.12357436672349, 34.056684395258046]]]]}, "properties": {"id": "Pakistan_123102310_156132", "height": 8.121391296386719, "hmax": 0.0, "ratio": 0.0, "vulnClass": "none"}}, {"type": "Feature", "geometry": {"type": "MultiPolygon", "coordinates": [[[[72.12383754771815, 34.056777459114706], [72.12383980639738, 34.05673307017557], [72.12377824973446, 34.056730997620036], [72.12377599102331, 34.0567753865564], [72.12383754771815, 34.056777459114706]]]]}, "properties": {"id": "Pakistan_123102310_51690", "height": 4.537553787231445, "hmax": 0.0, "ratio": 0.0, "vulnClass": "none"}}, {"type": "Feature", "geometry": {"type": "MultiPolygon", "coordinates": [[[[72.12378392598546, 34.056652793931335], [72.12378127498854, 34.05672160316738], [72.1238442537474, 34.05672325829497], [72.12384690469356, 34.05665444905497], [72.12378392598546, 34.056652793931335]]]]}, "properties": {"id": "Pakistan_123102310_498902", "height": 4.617033004760742, "hmax": 0.0, "ratio": 0.0, "vulnClass": "none"}}, {"type": "Feature", "geometry": {"type": "MultiPolygon", "coordinates": [[[[72.13750021727698, 34.06667493686071], [72.13748746992552, 34.066619199935104], [72.13738129782733, 34.06663583600335], [72.13739404207836, 34.066691663011746], [72.13750021727698, 34.06667493686071]]]]}, "properties": {"id": "Pakistan_123102310_70398", "height": 7.28321647644043, "hmax": 0.0, "ratio": 0.0, "vulnClass": "none"}}, {"type": "Feature", "geometry": {"type": "MultiPolygon", "coordinates": [[[[72.13749442598333, 34.06681804385902], [72.13752187365169, 34.06685861832947], [72.13755246637658, 34.0668443671901], [72.13752501566566, 34.066803882801246], [72.13749442598333, 34.06681804385902]]]]}, "properties": {"id": "Pakistan_123102310_565315", "height": 3.478874683380127, "hmax": 0.0, "ratio": 0.0, "vulnClass": "none"}}, {"type": "Feature", "geometry": {"type": "MultiPolygon", "coordinates": [[[[72.12859145477687, 34.0670624566155], [72.128538435392, 34.06706716650279], [72.12854539602, 34.06712087582544], [72.12859841543842, 34.0671161659369], [72.12859145477687, 34.0670624566155]]]]}, "properties": {"id": "Pakistan_123102310_212576", "height": 4.014866352081299, "hmax": 0.0, "ratio": 0.0, "vulnClass": "none"}}, {"type": "Feature", "geometry": {"type": "MultiPolygon", "coordinates": [[[[72.12869045092734, 34.06740281784019], [72.12859620208067, 34.0671175565151], [72.12852263126632, 34.06713422596249], [72.12861698811162, 34.0674194898625], [72.12869045092734, 34.06740281784019]]]]}, "properties": {"id": "Pakistan_123102310_480203", "height": 3.450401306152344, "hmax": 0.0, "ratio": 0.0, "vulnClass": "none"}}, {"type": "Feature", "geometry": {"type": "MultiPolygon", "coordinates": [[[[72.13259249426851, 34.06240651963391], [72.13258574042935, 34.062311258017154], [72.13246976090201, 34.06231693361098], [72.13247651764705, 34.062412105152426], [72.13259249426851, 34.06240651963391]]]]}, "properties": {"id": "Pakistan_123102310_835774", "height": 10.264612197875977, "hmax": 0.0, "ratio": 0.0, "vulnClass": "none"}}, {"type": "Feature", "geometry": {"type": "MultiPolygon", "coordinates": [[[[72.13096879471239, 34.0594890688573], [72.13104781811141, 34.05941969960856], [72.130919385356, 34.059319431959395], [72.13079560260681, 34.05942814082496], [72.130902080335, 34.059511399015115], [72.13094684272372, 34.059471969202406], [72.13096879471239, 34.0594890688573]]]]}, "properties": {"id": "Pakistan_123102310_816897", "height": 4.252183437347412, "hmax": 0.179, "ratio": 0.042, "vulnClass": "low"}}, {"type": "Feature", "geometry": {"type": "MultiPolygon", "coordinates": [[[[72.13023149796251, 34.05937421502862], [72.13020507214743, 34.05940947560073], [72.13025915129248, 34.05943742241789], [72.13028568532094, 34.05940216436237], [72.13023149796251, 34.05937421502862]]]]}, "properties": {"id": "Pakistan_123102310_717471", "height": 5.714155673980713, "hmax": 0.0, "ratio": 0.0, "vulnClass": "none"}}, {"type": "Feature", "geometry": {"type": "MultiPolygon", "coordinates": [[[[72.12974309190366, 34.05938804255192], [72.12944279583795, 34.059383367909085], [72.12944096581329, 34.059463284497134], [72.12979105498239, 34.05946885239608], [72.12979238885434, 34.05941326357854], [72.12974258998713, 34.05941255049318], [72.12974309190366, 34.05938804255192]]]]}, "properties": {"id": "Pakistan_123102310_194891", "height": 9.300910949707031, "hmax": 0.0, "ratio": 0.0, "vulnClass": "none"}}, {"type": "Feature", "geometry": {"type": "MultiPolygon", "coordinates": [[[[72.12946930499193, 34.05925255486378], [72.12946686163241, 34.059209408042435], [72.1293036455183, 34.05921559932266], [72.12930598056954, 34.05925874361333], [72.12946930499193, 34.05925255486378]]]]}, "properties": {"id": "Pakistan_123102310_269250", "height": 4.294921398162842, "hmax": 0.0, "ratio": 0.0, "vulnClass": "none"}}, {"type": "Feature", "geometry": {"type": "MultiPolygon", "coordinates": [[[[72.13046399350638, 34.05982839355486], [72.13024444993096, 34.05979297476697], [72.13019881415323, 34.05998671360854], [72.13041835515976, 34.060022222576634], [72.13046399350638, 34.05982839355486]]]]}, "properties": {"id": "Pakistan_123102310_555772", "height": 12.448657989501951, "hmax": 0.0, "ratio": 0.0, "vulnClass": "none"}}, {"type": "Feature", "geometry": {"type": "MultiPolygon", "coordinates": [[[[72.13085659802246, 34.05962355971778], [72.13090841313354, 34.05964478257082], [72.13092862127809, 34.05961081892582], [72.1308768061814, 34.05958959608202], [72.13085659802246, 34.05962355971778]]]]}, "properties": {"id": "Pakistan_123102310_222264", "height": 3.4722580909729, "hmax": 0.0, "ratio": 0.0, "vulnClass": "none"}}, {"type": "Feature", "geometry": {"type": "MultiPolygon", "coordinates": [[[[72.1309079867172, 34.0596606382845], [72.13094843130214, 34.059675375427176], [72.13096820462908, 34.05963824651194], [72.13092776309512, 34.0596234193015], [72.1309079867172, 34.0596606382845]]]]}, "properties": {"id": "Pakistan_123102310_684129", "height": 4.667158603668213, "hmax": 0.0, "ratio": 0.0, "vulnClass": "none"}}, {"type": "Feature", "geometry": {"type": "MultiPolygon", "coordinates": [[[[72.13132031404763, 34.05976059618945], [72.13127918130786, 34.05975341534772], [72.13127055951709, 34.05978746939764], [72.13131169227218, 34.05979465024303], [72.13132031404763, 34.05976059618945]]]]}, "properties": {"id": "Pakistan_123102310_584488", "height": 7.48910665512085, "hmax": 0.0, "ratio": 0.0, "vulnClass": "none"}}, {"type": "Feature", "geometry": {"type": "MultiPolygon", "coordinates": [[[[72.1314126570247, 34.05966882105507], [72.13134948412076, 34.059647152830856], [72.1313096473027, 34.05972681276565], [72.13137282025266, 34.05974848101266], [72.1314126570247, 34.05966882105507]]]]}, "properties": {"id": "Pakistan_123102310_802695", "height": 2.803860902786255, "hmax": 0.0, "ratio": 0.0, "vulnClass": "none"}}, {"type": "Feature", "geometry": {"type": "MultiPolygon", "coordinates": [[[[72.13146437030333, 34.059750889779906], [72.1314315191255, 34.05981610928048], [72.13148954591838, 34.05983621493721], [72.13152239706176, 34.059770995419385], [72.13146437030333, 34.059750889779906]]]]}, "properties": {"id": "Pakistan_123102310_324130", "height": 6.370502948760986, "hmax": 0.0, "ratio": 0.0, "vulnClass": "none"}}, {"type": "Feature", "geometry": {"type": "MultiPolygon", "coordinates": [[[[72.13264347813599, 34.060170919411476], [72.13257441847075, 34.060111793948955], [72.13253567783381, 34.06014289124388], [72.13260473749415, 34.060202016727835], [72.13264347813599, 34.060170919411476]]]]}, "properties": {"id": "Pakistan_123102310_546352", "height": 3.109428644180298, "hmax": 0.0, "ratio": 0.0, "vulnClass": "none"}}, {"type": "Feature", "geometry": {"type": "MultiPolygon", "coordinates": [[[[72.13273321944993, 34.060098463892786], [72.1327457822385, 34.06007279515895], [72.13290577569673, 34.060126921876375], [72.13294007337447, 34.06005731857182], [72.13274795210918, 34.0599923454998], [72.13270098632145, 34.060087524872976], [72.13273321944993, 34.060098463892786]]]]}, "properties": {"id": "Pakistan_123102310_89536", "height": 2.645910978317261, "hmax": 0.0, "ratio": 0.0, "vulnClass": "none"}}, {"type": "Feature", "geometry": {"type": "MultiPolygon", "coordinates": [[[[72.13240225218404, 34.059660470079415], [72.13286029733108, 34.059846948652286], [72.1329033622892, 34.05977430477326], [72.1324453143794, 34.059587916449466], [72.13240225218404, 34.059660470079415]]]]}, "properties": {"id": "Pakistan_123102310_859343", "height": 3.917623996734619, "hmax": 0.0, "ratio": 0.0, "vulnClass": "none"}}, {"type": "Feature", "geometry": {"type": "MultiPolygon", "coordinates": [[[[72.13092078818508, 34.058908489625864], [72.13089000908928, 34.05892832386259], [72.1309485676628, 34.05899045016528], [72.13091025609691, 34.05901524675915], [72.13106898907338, 34.05918374148637], [72.1311379746251, 34.059139017953164], [72.13092078818508, 34.058908489625864]]]]}, "properties": {"id": "Pakistan_123102310_579655", "height": 3.855671882629395, "hmax": 0.0, "ratio": 0.0, "vulnClass": "none"}}, {"type": "Feature", "geometry": {"type": "MultiPolygon", "coordinates": [[[[72.12992100240385, 34.057469388951226], [72.1299255568226, 34.05742748740191], [72.12988828070564, 34.0574248133967], [72.12988383449176, 34.05746671747274], [72.12992100240385, 34.057469388951226]]]]}, "properties": {"id": "Pakistan_123102310_788524", "height": 2.629531621932983, "hmax": 0.0, "ratio": 0.0, "vulnClass": "none"}}, {"type": "Feature", "geometry": {"type": "MultiPolygon", "coordinates": [[[[72.12963840083083, 34.05708489318405], [72.12954455681707, 34.057083150686715], [72.12954259505858, 34.05715413978293], [72.12963113320944, 34.05715584842828], [72.1296318132115, 34.057129271288176], [72.12973106840639, 34.057131140178775], [72.12973507060306, 34.05698682001629], [72.12964122972876, 34.05698498752347], [72.12963840083083, 34.05708489318405]]]]}, "properties": {"id": "Pakistan_123102310_62475", "height": 5.468043327331543, "hmax": 0.0, "ratio": 0.0, "vulnClass": "none"}}, {"type": "Feature", "geometry": {"type": "MultiPolygon", "coordinates": [[[[72.12969801043732, 34.05697775064815], [72.12969568222509, 34.05687339745887], [72.12980426363066, 34.05687169810874], [72.12980333706054, 34.05683174183063], [72.12964122410392, 34.056834263489414], [72.12964447874408, 34.05697857295174], [72.12969801043732, 34.05697775064815]]]]}, "properties": {"id": "Pakistan_123102310_43879", "height": 3.359578847885132, "hmax": 0.0, "ratio": 0.0, "vulnClass": "none"}}, {"type": "Feature", "geometry": {"type": "MultiPolygon", "coordinates": [[[[72.12962407681017, 34.056867397012944], [72.12962180490425, 34.05683200673407], [72.12951344794048, 34.05683668598311], [72.12951571980113, 34.056872076261655], [72.12962407681017, 34.056867397012944]]]]}, "properties": {"id": "Pakistan_123102310_175911", "height": 3.497793197631836, "hmax": 0.0, "ratio": 0.0, "vulnClass": "none"}}, {"type": "Feature", "geometry": {"type": "MultiPolygon", "coordinates": [[[[72.12920965456021, 34.05735964314542], [72.12925479439998, 34.05736358291154], [72.12925820744621, 34.0573362583464], [72.12921306762061, 34.05733231858225], [72.12920965456021, 34.05735964314542]]]]}, "properties": {"id": "Pakistan_123102310_755493", "height": 3.431678295135498, "hmax": 0.0, "ratio": 0.0, "vulnClass": "none"}}, {"type": "Feature", "geometry": {"type": "MultiPolygon", "coordinates": [[[[72.12962887759532, 34.05715850008917], [72.12941051197566, 34.05715258522465], [72.12940879728306, 34.05719698705945], [72.12962716301622, 34.05720290193284], [72.12962887759532, 34.05715850008917]]]]}, "properties": {"id": "Pakistan_123102310_338217", "height": 5.478569984436035, "hmax": 0.0, "ratio": 0.0, "vulnClass": "none"}}, {"type": "Feature", "geometry": {"type": "MultiPolygon", "coordinates": [[[[72.12967317198992, 34.0572806011787], [72.12967506071989, 34.057211773872766], [72.12962148447231, 34.05721070205763], [72.12961948443763, 34.05727961690613], [72.12967317198992, 34.0572806011787]]]]}, "properties": {"id": "Pakistan_123102310_338218", "height": 3.963543891906738, "hmax": 0.0, "ratio": 0.0, "vulnClass": "none"}}, {"type": "Feature", "geometry": {"type": "MultiPolygon", "coordinates": [[[[72.1296881753657, 34.05714086512597], [72.12963746156721, 34.05713841788111], [72.12963262159025, 34.05720483242099], [72.12968344061174, 34.0572073722739], [72.1296881753657, 34.05714086512597]]]]}, "properties": {"id": "Pakistan_123102310_703068", "height": 4.767117977142334, "hmax": 0.0, "ratio": 0.0, "vulnClass": "none"}}, {"type": "Feature", "geometry": {"type": "MultiPolygon", "coordinates": [[[[72.12626581034421, 34.05678661256802], [72.1262627935675, 34.05671559725528], [72.12618506176581, 34.05671783502108], [72.12618807847737, 34.05678885033239], [72.12626581034421, 34.05678661256802]]]]}, "properties": {"id": "Pakistan_123102310_617427", "height": 3.368049621582031, "hmax": 0.0, "ratio": 0.0, "vulnClass": "none"}}, {"type": "Feature", "geometry": {"type": "MultiPolygon", "coordinates": [[[[72.12632506624861, 34.056754194357026], [72.1263284429492, 34.05682738158937], [72.12637669290103, 34.05682580613528], [72.12637275156376, 34.05674368126001], [72.12632601980417, 34.05674520209001], [72.12632133050245, 34.05664674332721], [72.12626635874908, 34.056648522069196], [72.12627139612783, 34.05675591340851], [72.12632506624861, 34.056754194357026]]]]}, "properties": {"id": "Pakistan_123102310_584463", "height": 2.914720058441162, "hmax": 0.0, "ratio": 0.0, "vulnClass": "none"}}, {"type": "Feature", "geometry": {"type": "MultiPolygon", "coordinates": [[[[72.12808907138682, 34.057501657417404], [72.12803526130938, 34.057443336839896], [72.12791174818258, 34.057521579808274], [72.12796555821683, 34.05757990043749], [72.12808907138682, 34.057501657417404]]]]}, "properties": {"id": "Pakistan_123102310_89490", "height": 4.014280319213867, "hmax": 0.0, "ratio": 0.0, "vulnClass": "none"}}, {"type": "Feature", "geometry": {"type": "MultiPolygon", "coordinates": [[[[72.1283699268957, 34.05708733355067], [72.12838545669085, 34.0571438575064], [72.12835101217293, 34.05715035397247], [72.1283684784015, 34.057213684143434], [72.12833746234628, 34.057208451661545], [72.12831865431994, 34.05713995180123], [72.12819242987236, 34.05716377374579], [72.12821433304009, 34.05724325363934], [72.12827388820396, 34.05725330015923], [72.128267980877, 34.05727750140943], [72.1282773322861, 34.057311705040185], [72.12834098172401, 34.057322388135255], [72.1283962457921, 34.057311961307875], [72.12838193232324, 34.05737022143792], [72.12842019208323, 34.05736300285606], [72.12837581809708, 34.057201595919175], [72.12858678925649, 34.05723726817213], [72.12856991139535, 34.05717575470026], [72.12861100307701, 34.05716806138912], [72.12862425059652, 34.0571702641649], [72.12863767862743, 34.057115769424485], [72.12875883603151, 34.05713618031584], [72.12873559964015, 34.057051260586384], [72.1286980124536, 34.057044973118494], [72.12858824834727, 34.05706566460335], [72.12858335281963, 34.05708556252677], [72.12847772844822, 34.05710553938136], [72.1283699268957, 34.05708733355067]]]]}, "properties": {"id": "Pakistan_123102310_314549", "height": 2.646841764450073, "hmax": 0.0, "ratio": 0.0, "vulnClass": "none"}}, {"type": "Feature", "geometry": {"type": "MultiPolygon", "coordinates": [[[[72.12831769238238, 34.05694061687043], [72.1283194080236, 34.05698284523521], [72.12858197809264, 34.05697546231353], [72.12858015105859, 34.056933321490334], [72.12831769238238, 34.05694061687043]]]]}, "properties": {"id": "Pakistan_123102310_589120", "height": 2.506614685058594, "hmax": 0.0, "ratio": 0.0, "vulnClass": "none"}}, {"type": "Feature", "geometry": {"type": "MultiPolygon", "coordinates": [[[[72.12789237240278, 34.05606779572818], [72.12779397070824, 34.05610164309101], [72.12781142016276, 34.05613657700352], [72.12790982189287, 34.056102729628584], [72.12789237240278, 34.05606779572818]]]]}, "properties": {"id": "Pakistan_123102310_242045", "height": 2.901326656341553, "hmax": 0.0, "ratio": 0.0, "vulnClass": "none"}}, {"type": "Feature", "geometry": {"type": "MultiPolygon", "coordinates": [[[[72.12789887607026, 34.05623769241388], [72.12784847405742, 34.05625490352627], [72.12788528941799, 34.05632896285892], [72.12793579969077, 34.05631175426414], [72.12789887607026, 34.05623769241388]]]]}, "properties": {"id": "Pakistan_123102310_570094", "height": 5.67291259765625, "hmax": 0.0, "ratio": 0.0, "vulnClass": "none"}}, {"type": "Feature", "geometry": {"type": "MultiPolygon", "coordinates": [[[[72.12650794162155, 34.056595489471306], [72.12664725263411, 34.056591446899674], [72.1266434583264, 34.056501753217105], [72.12647736811019, 34.05650661159268], [72.12647832088291, 34.056529711205016], [72.12640329782411, 34.05653192234272], [72.12640242287173, 34.056509726008954], [72.12631135569055, 34.05651237302059], [72.12631510227025, 34.056600262671246], [72.12645701668332, 34.05659610093804], [72.12645799987071, 34.05661829980391], [72.12650895524274, 34.056616787591324], [72.12650794162155, 34.056595489471306]]]]}, "properties": {"id": "Pakistan_123102310_944484", "height": 2.615704536437988, "hmax": 0.0, "ratio": 0.0, "vulnClass": "none"}}, {"type": "Feature", "geometry": {"type": "MultiPolygon", "coordinates": [[[[72.12611770122875, 34.056884380721606], [72.12609732074316, 34.05656749217241], [72.12604384588839, 34.0565698467169], [72.1260642261739, 34.05688673526467], [72.12611770122875, 34.056884380721606]]]]}, "properties": {"id": "Pakistan_123102310_826288", "height": 5.486154079437256, "hmax": 0.0, "ratio": 0.0, "vulnClass": "none"}}, {"type": "Feature", "geometry": {"type": "MultiPolygon", "coordinates": [[[[72.12562139722672, 34.05671564252317], [72.12562086870597, 34.056397866351205], [72.12552295463003, 34.05639800875066], [72.12552359100623, 34.05671578743708], [72.12562139722672, 34.05671564252317]]]]}, "properties": {"id": "Pakistan_123102310_551000", "height": 10.386168479919434, "hmax": 0.0, "ratio": 0.0, "vulnClass": "none"}}, {"type": "Feature", "geometry": {"type": "MultiPolygon", "coordinates": [[[[72.12907732927769, 34.05652107826869], [72.12909066683234, 34.056809496205474], [72.12913880554191, 34.056808007207266], [72.12912712362515, 34.05655397354503], [72.12962522098587, 34.05653812086596], [72.12962304072035, 34.05649038274221], [72.12947309061684, 34.056495171657545], [72.12947168218797, 34.056466292060264], [72.12921190004003, 34.05647455341284], [72.12921383561658, 34.05651669677448], [72.12907732927769, 34.05652107826869]]]]}, "properties": {"id": "Pakistan_123102310_376028", "height": 3.966695785522461, "hmax": 0.0, "ratio": 0.0, "vulnClass": "none"}}, {"type": "Feature", "geometry": {"type": "MultiPolygon", "coordinates": [[[[72.1293395896492, 34.05656777396383], [72.12933829094831, 34.056625527111635], [72.12938126715675, 34.05662617099913], [72.12938256582854, 34.05656841784937], [72.1293395896492, 34.05656777396383]]]]}, "properties": {"id": "Pakistan_123102310_807490", "height": 4.050464153289795, "hmax": 0.0, "ratio": 0.0, "vulnClass": "none"}}, {"type": "Feature", "geometry": {"type": "MultiPolygon", "coordinates": [[[[72.12933521870511, 34.05661707173858], [72.12933491788101, 34.05656820564632], [72.1292866054093, 34.05656842862199], [72.12928690620562, 34.05661729471292], [72.12933521870511, 34.05661707173858]]]]}, "properties": {"id": "Pakistan_123102310_175116", "height": 4.399322509765625, "hmax": 0.0, "ratio": 0.0, "vulnClass": "none"}}, {"type": "Feature", "geometry": {"type": "MultiPolygon", "coordinates": [[[[72.12961110045286, 34.05672231947094], [72.12961679509736, 34.05655351918511], [72.12946127745104, 34.05654997469141], [72.12945992817107, 34.05658996792387], [72.1295591705678, 34.05659219722059], [72.12955482504552, 34.05672100426219], [72.12961110045286, 34.05672231947094]]]]}, "properties": {"id": "Pakistan_123102310_184524", "height": 2.703866004943848, "hmax": 0.0, "ratio": 0.0, "vulnClass": "none"}}, {"type": "Feature", "geometry": {"type": "MultiPolygon", "coordinates": [[[[72.13040585533435, 34.05614439544144], [72.1303772053387, 34.05630986495977], [72.13051388149901, 34.05632612938591], [72.13054253123879, 34.05616065982271], [72.13040585533435, 34.05614439544144]]]]}, "properties": {"id": "Pakistan_123102310_560563", "height": 3.688446998596191, "hmax": 0.0, "ratio": 0.0, "vulnClass": "none"}}]}