{"type": "FeatureCollection", "features": [{"type": "Feature", "geometry": {"type": "MultiPolygon", "coordinates": [[[[72.12215906322616, 34.179099858725614], [72.12199440364864, 34.17905551907009], [72.12197907008942, 34.17909500293483], [72.12200475798313, 34.179101915995986], [72.1219969102718, 34.17912219454807], [72.12205301489281, 34.17913730352955], [72.12206086259262, 34.1791170249733], [72.1221437297327, 34.179139342614235], [72.12215906322616, 34.179099858725614]]]]}, "properties": {"id": "8J6J54HC+JRW2", "height": 2.686751365661621, "hmax": 0.0, "ratio": 0.0, "vulnClass": "none"}}, {"type": "Feature", "geometry": {"type": "MultiPolygon", "coordinates": [[[[72.12249810687807, 34.17433061640681], [72.12236058439076, 34.174320988859115], [72.12235292672274, 34.17439635012878], [72.12249044933036, 34.17440597769117], [72.12249810687807, 34.17433061640681]]]]}, "properties": {"id": "8J6J54FC+PXVG", "height": 2.632926940917969, "hmax": 0.0, "ratio": 0.0, "vulnClass": "none"}}, {"type": "Feature", "geometry": {"type": "MultiPolygon", "coordinates": [[[[72.12233093586535, 34.17427107424002], [72.1222892680825, 34.174268473766375], [72.12227753221595, 34.17439683435166], [72.12234809846261, 34.17440119475895], [72.12235368075862, 34.17433903600693], [72.12232489074911, 34.17433727862609], [72.12233093586535, 34.17427107424002]]]]}, "properties": {"id": "8J6J54FC+PWMQ", "height": 2.632926940917969, "hmax": 0.0, "ratio": 0.0, "vulnClass": "none"}}, {"type": "Feature", "geometry": {"type": "MultiPolygon", "coordinates": [[[[72.12245327644409, 34.17300354056955], [72.12233928044627, 34.1730069952139], [72.1223452816418, 34.17314640911724], [72.12251963843924, 34.17314121587836], [72.12251766064475, 34.17309726915092], [72.12245751374444, 34.17309910290889], [72.12245327644409, 34.17300354056955]]]]}, "properties": {"id": "8J6J54FC+6XM6", "height": 4.67474365234375, "hmax": 0.0, "ratio": 0.0, "vulnClass": "none"}}, {"type": "Feature", "geometry": {"type": "MultiPolygon", "coordinates": [[[[72.1225692870342, 34.17298228450384], [72.12251891665866, 34.17298047149963], [72.12251054891001, 34.17314379705639], [72.1225608110124, 34.173145607525946], [72.1225692870342, 34.17298228450384]]]]}, "properties": {"id": "8J6J54FF+62FF", "height": 3.009537220001221, "hmax": 0.0, "ratio": 0.0, "vulnClass": "none"}}, {"type": "Feature", "geometry": {"type": "MultiPolygon", "coordinates": [[[[72.12260471403796, 34.17295147514217], [72.12256486597526, 34.17295279368911], [72.12257458393329, 34.173155215591876], [72.12265210979666, 34.1731526177027], [72.12264390334884, 34.17298232267215], [72.12260633408933, 34.17298360456042], [72.12260471403796, 34.17295147514217]]]]}, "properties": {"id": "8J6J54FF+62H7", "height": 3.827455043792725, "hmax": 0.0, "ratio": 0.0, "vulnClass": "none"}}]}