{"type": "FeatureCollection", "features": [{"type": "Feature", "geometry": {"type": "MultiPolygon", "coordinates": [[[[72.37574834438645, 34.249917869784944], [72.37584625866727, 34.249921679992646], [72.37584847202, 34.24988188083705], [72.37575066627605, 34.24987807295717], [72.37574834438645, 34.249917869784944]]]]}, "properties": {"id": "Pakistan_123102310_884658", "height": 3.249216318130493, "hmax": 0.0, "ratio": 0.0, "vulnClass": "none"}}, {"type": "Feature", "geometry": {"type": "MultiPolygon", "coordinates": [[[[72.37130068050887, 34.249409988633694], [72.3712766598685, 34.249327165831986], [72.37113716786246, 34.24935473368455], [72.37116107707665, 34.24943764426964], [72.37130068050887, 34.249409988633694]]]]}, "properties": {"id": "Pakistan_123102310_226361", "height": 2.912783861160278, "hmax": 0.0, "ratio": 0.0, "vulnClass": "none"}}, {"type": "Feature", "geometry": {"type": "MultiPolygon", "coordinates": [[[[72.37001399657342, 34.24876141737671], [72.3700126830807, 34.24873037742216], [72.36990555020269, 34.24873330626251], [72.36990675516681, 34.24876434388733], [72.37001399657342, 34.24876141737671]]]]}, "properties": {"id": "Pakistan_123102310_908283", "height": 3.516607761383057, "hmax": 0.0, "ratio": 0.0, "vulnClass": "none"}}, {"type": "Feature", "geometry": {"type": "MultiPolygon", "coordinates": [[[[72.36765807017977, 34.24984599335264], [72.36754289362317, 34.24984919800377], [72.36754484935099, 34.24989792123259], [72.36766002597426, 34.24989471658274], [72.36765807017977, 34.24984599335264]]]]}, "properties": {"id": "Pakistan_123102310_510171", "height": 5.014474868774414, "hmax": 0.0, "ratio": 0.0, "vulnClass": "none"}}, {"type": "Feature", "geometry": {"type": "MultiPolygon", "coordinates": [[[[72.37350352293224, 34.26118968805355], [72.37354912827708, 34.26099062217056], [72.37342994595112, 34.26097201985155], [72.37342264945579, 34.261004137239475], [72.37348477929449, 34.2610138534543], [72.37347158164482, 34.26107162732683], [72.37344305676763, 34.26106713921137], [72.37342596018588, 34.261142048201094], [72.37337928206348, 34.26113473674996], [72.37339298106396, 34.26107481003052], [72.37330762066378, 34.261061440353956], [72.37329431157684, 34.26111930196453], [72.37334877123443, 34.26112777196593], [72.37334337129538, 34.26115127557759], [72.3732682739907, 34.2611395683553], [72.37324716979674, 34.261231610101206], [72.373687374342, 34.261300458344024], [72.3737054732732, 34.26122124358556], [72.37350352293224, 34.26118968805355]]]]}, "properties": {"id": "Pakistan_123102310_818503", "height": 6.249244689941406, "hmax": 0.0, "ratio": 0.0, "vulnClass": "none"}}, {"type": "Feature", "geometry": {"type": "MultiPolygon", "coordinates": [[[[72.37300981235288, 34.26028598078341], [72.37299292939375, 34.26035052699959], [72.37319797849582, 34.260387108047865], [72.3732148641116, 34.26032247170652], [72.37300981235288, 34.26028598078341]]]]}, "properties": {"id": "Pakistan_123102310_149870", "height": 3.475018262863159, "hmax": 0.0, "ratio": 0.0, "vulnClass": "none"}}, {"type": "Feature", "geometry": {"type": "MultiPolygon", "coordinates": [[[[72.37296822120284, 34.26022685165038], [72.37314620597863, 34.260246895721394], [72.37315035148981, 34.26022183265765], [72.37323994066284, 34.26023186739065], [72.3732506582926, 34.26016655787177], [72.3731556608012, 34.26015586626552], [72.37313427911693, 34.260159103904144], [72.37297252247829, 34.26014094041178], [72.37272436984445, 34.26017762828778], [72.3727423180674, 34.26026032055893], [72.37296822120284, 34.26022685165038]]]]}, "properties": {"id": "Pakistan_123102310_600049", "height": 3.030847549438477, "hmax": 0.0, "ratio": 0.0, "vulnClass": "none"}}, {"type": "Feature", "geometry": {"type": "MultiPolygon", "coordinates": [[[[72.3742431594789, 34.259042024938246], [72.37423058609008, 34.25907276717442], [72.3742811789995, 34.25908683332395], [72.37429375237267, 34.25905609108188], [72.3742431594789, 34.259042024938246]]]]}, "properties": {"id": "Pakistan_123102310_26856", "height": 2.470191240310669, "hmax": 0.0, "ratio": 0.0, "vulnClass": "none"}}, {"type": "Feature", "geometry": {"type": "MultiPolygon", "coordinates": [[[[72.37405309252907, 34.259211580348705], [72.37427291679951, 34.25925478681058], [72.37428643402244, 34.25920765742054], [72.37406671836739, 34.25916445331397], [72.37405309252907, 34.259211580348705]]]]}, "properties": {"id": "Pakistan_123102310_931939", "height": 2.614532947540283, "hmax": 0.0, "ratio": 0.0, "vulnClass": "none"}}, {"type": "Feature", "geometry": {"type": "MultiPolygon", "coordinates": [[[[72.37499206302712, 34.25894223248787], [72.37512232070405, 34.25897819914349], [72.37515301165098, 34.2589024993439], [72.37502275687376, 34.258866442634876], [72.37499206302712, 34.25894223248787]]]]}, "properties": {"id": "Pakistan_123102310_666656", "height": 2.850203037261963, "hmax": 0.0, "ratio": 0.0, "vulnClass": "none"}}, {"type": "Feature", "geometry": {"type": "MultiPolygon", "coordinates": [[[[72.37214493409955, 34.25781777282349], [72.37210339150019, 34.25791415391814], [72.3718820860964, 34.25784891518642], [72.37186511989113, 34.25788821735949], [72.37212687698066, 34.25796541242371], [72.37218538844856, 34.25782963900952], [72.37214493409955, 34.25781777282349]]]]}, "properties": {"id": "Pakistan_123102310_771159", "height": 2.732263088226318, "hmax": 0.0, "ratio": 0.0, "vulnClass": "none"}}, {"type": "Feature", "geometry": {"type": "MultiPolygon", "coordinates": [[[[72.37114331232948, 34.25814669607142], [72.3712369670148, 34.25816556405], [72.37126537087032, 34.258069261929975], [72.3712526378403, 34.258066734923275], [72.37127302808824, 34.25799766654562], [72.37119199528571, 34.25798141337782], [72.37114331232948, 34.25814669607142]]]]}, "properties": {"id": "Pakistan_123102310_946047", "height": 3.183780670166016, "hmax": 0.0, "ratio": 0.0, "vulnClass": "none"}}, {"type": "Feature", "geometry": {"type": "MultiPolygon", "coordinates": [[[[72.3676567226435, 34.257919107251446], [72.36758449224237, 34.25803150502434], [72.36763461632395, 34.25805358718429], [72.3677068466812, 34.257941189379956], [72.3676567226435, 34.257919107251446]]]]}, "properties": {"id": "Pakistan_123102310_851387", "height": 2.491561651229858, "hmax": 0.0, "ratio": 0.0, "vulnClass": "none"}}, {"type": "Feature", "geometry": {"type": "MultiPolygon", "coordinates": [[[[72.36778218822597, 34.258300254248006], [72.3678283466388, 34.25823011752238], [72.36753668479341, 34.25809881156053], [72.36742625375014, 34.25826637160792], [72.36747486452242, 34.25828824101188], [72.367420734386, 34.25837028641108], [72.36750457033239, 34.25840805807689], [72.36762286710008, 34.25822849670482], [72.36778218822597, 34.258300254248006]]]]}, "properties": {"id": "Pakistan_123102310_775899", "height": 3.375134706497192, "hmax": 0.0, "ratio": 0.0, "vulnClass": "none"}}, {"type": "Feature", "geometry": {"type": "MultiPolygon", "coordinates": [[[[72.36821271799971, 34.26099219693317], [72.36843656509545, 34.261049203196784], [72.3684554036079, 34.26099867301075], [72.36823155943664, 34.26094157669684], [72.36821271799971, 34.26099219693317]]]]}, "properties": {"id": "Pakistan_123102310_335016", "height": 5.354182243347168, "hmax": 0.0, "ratio": 0.0, "vulnClass": "none"}}, {"type": "Feature", "geometry": {"type": "MultiPolygon", "coordinates": [[[[72.36798128416756, 34.26103229938049], [72.36819972617673, 34.26105718659039], [72.3682244211611, 34.26090932983295], [72.36812802160418, 34.2608983337404], [72.36812627129248, 34.26090920431518], [72.36800412349811, 34.260895220834975], [72.36798128416756, 34.26103229938049]]]]}, "properties": {"id": "Pakistan_123102310_244124", "height": 3.925650596618652, "hmax": 0.0, "ratio": 0.0, "vulnClass": "none"}}, {"type": "Feature", "geometry": {"type": "MultiPolygon", "coordinates": [[[[72.36447428221234, 34.261180465297464], [72.36446699612134, 34.26105211499238], [72.36439307254481, 34.261055031930496], [72.36439679591851, 34.26112011031411], [72.36431548273097, 34.26112322880405], [72.36431904527433, 34.261186500724165], [72.36447428221234, 34.261180465297464]]]]}, "properties": {"id": "Pakistan_123102310_538404", "height": 2.53851580619812, "hmax": 0.0, "ratio": 0.0, "vulnClass": "none"}}, {"type": "Feature", "geometry": {"type": "MultiPolygon", "coordinates": [[[[72.3665349771904, 34.25893469966239], [72.3663262923267, 34.25886521473125], [72.36629126586502, 34.25893694244152], [72.3663974345919, 34.258972310223506], [72.36610743823152, 34.25956737708523], [72.36586844678328, 34.25948786406133], [72.36591450377583, 34.259393205082986], [72.36576911079187, 34.259344823085215], [72.36569231925122, 34.25950237694819], [72.36617932664369, 34.25966448207105], [72.3665349771904, 34.25893469966239]]]]}, "properties": {"id": "Pakistan_123102310_680925", "height": 3.110554218292236, "hmax": 0.0, "ratio": 0.0, "vulnClass": "none"}}, {"type": "Feature", "geometry": {"type": "MultiPolygon", "coordinates": [[[[72.36387432670338, 34.25972524274696], [72.3638315147163, 34.259768044231485], [72.36390156967411, 34.259815979195096], [72.3639443844655, 34.259773087596194], [72.36387432670338, 34.25972524274696]]]]}, "properties": {"id": "Pakistan_123102310_510137", "height": 3.958166599273682, "hmax": 0.0, "ratio": 0.0, "vulnClass": "none"}}, {"type": "Feature", "geometry": {"type": "MultiPolygon", "coordinates": [[[[72.36401460932827, 34.25960340364101], [72.36399632959703, 34.259656829923266], [72.36405345913484, 34.25967013943492], [72.36407173602186, 34.25961680323235], [72.36401460932827, 34.25960340364101]]]]}, "properties": {"id": "Pakistan_123102310_742829", "height": 2.75342845916748, "hmax": 0.0, "ratio": 0.0, "vulnClass": "none"}}, {"type": "Feature", "geometry": {"type": "MultiPolygon", "coordinates": [[[[72.36410828464145, 34.259558992100224], [72.36406077580149, 34.2595540031594], [72.36405437700768, 34.25959551484373], [72.3641019971848, 34.259600416033244], [72.36410828464145, 34.259558992100224]]]]}, "properties": {"id": "Pakistan_123102310_566801", "height": 2.837796926498413, "hmax": 0.0, "ratio": 0.0, "vulnClass": "none"}}, {"type": "Feature", "geometry": {"type": "MultiPolygon", "coordinates": [[[[72.36378566109597, 34.25971350821281], [72.36374737080462, 34.25975406307539], [72.36379580018405, 34.25978521549901], [72.3638340904683, 34.25974466062104], [72.36378566109597, 34.25971350821281]]]]}, "properties": {"id": "Pakistan_123102310_804108", "height": 2.848629474639893, "hmax": 0.0, "ratio": 0.0, "vulnClass": "none"}}, {"type": "Feature", "geometry": {"type": "MultiPolygon", "coordinates": [[[[72.36339461469149, 34.259607819748894], [72.36346405549018, 34.259619771822706], [72.36348277389435, 34.259545350083], [72.36341333034007, 34.25953348811202], [72.36341805535803, 34.25951429768096], [72.36328586454493, 34.259491709419805], [72.36326403399018, 34.25957886545687], [72.36339622493081, 34.259601453747365], [72.36339461469149, 34.259607819748894]]]]}, "properties": {"id": "Pakistan_123102310_756950", "height": 3.382235288619995, "hmax": 0.0, "ratio": 0.0, "vulnClass": "none"}}, {"type": "Feature", "geometry": {"type": "MultiPolygon", "coordinates": [[[[72.36589068874568, 34.26257923229636], [72.36583030175919, 34.26238834782116], [72.36578253322318, 34.26239858930579], [72.36579113853992, 34.26242554897475], [72.36575593813909, 34.262433175928116], [72.36578025296555, 34.262509965896925], [72.36568230610797, 34.262531118179204], [72.36570010309683, 34.26258712359343], [72.36581302782149, 34.26256268739929], [72.36582617196801, 34.262604258855696], [72.3656780495082, 34.26263623189615], [72.36569445670943, 34.26268806051284], [72.3660559634766, 34.26261001176226], [72.36603629853076, 34.26254774586278], [72.36589068874568, 34.26257923229636]]]]}, "properties": {"id": "Pakistan_123102310_424690", "height": 3.068288803100586, "hmax": 0.0, "ratio": 0.0, "vulnClass": "none"}}, {"type": "Feature", "geometry": {"type": "MultiPolygon", "coordinates": [[[[72.3657675210249, 34.26237861371567], [72.3657456524882, 34.26231738218635], [72.36556545602299, 34.262361196189644], [72.36558732443598, 34.26242242774522], [72.3657675210249, 34.26237861371567]]]]}, "properties": {"id": "Pakistan_123102310_614235", "height": 2.502959728240967, "hmax": 0.0, "ratio": 0.0, "vulnClass": "none"}}, {"type": "Feature", "geometry": {"type": "MultiPolygon", "coordinates": [[[[72.36581994995727, 34.262598355436516], [72.36580821589705, 34.26256727172576], [72.3657031306293, 34.262594490869716], [72.36571486746386, 34.26262548449906], [72.36581994995727, 34.262598355436516]]]]}, "properties": {"id": "Pakistan_123102310_581165", "height": 2.74472975730896, "hmax": 0.0, "ratio": 0.0, "vulnClass": "none"}}, {"type": "Feature", "geometry": {"type": "MultiPolygon", "coordinates": [[[[72.36371120433893, 34.25178914485105], [72.363709348847, 34.251831205090426], [72.36382996438543, 34.25183470213164], [72.3638317113251, 34.251792639553074], [72.36371120433893, 34.25178914485105]]]]}, "properties": {"id": "Pakistan_123102310_818429", "height": 4.879915237426758, "hmax": 0.0, "ratio": 0.0, "vulnClass": "none"}}, {"type": "Feature", "geometry": {"type": "MultiPolygon", "coordinates": [[[[72.36340636971941, 34.252578160446205], [72.3634534012631, 34.252584401377774], [72.36347496993508, 34.252474251230815], [72.36363703622693, 34.25249585926546], [72.36364504779112, 34.252454833015236], [72.3634359529234, 34.25242689398839], [72.36340636971941, 34.252578160446205]]]]}, "properties": {"id": "Pakistan_123102310_927068", "height": 2.624026536941528, "hmax": 0.051, "ratio": 0.019, "vulnClass": "none"}}, {"type": "Feature", "geometry": {"type": "MultiPolygon", "coordinates": [[[[72.36337626066984, 34.25266279454992], [72.36360044958883, 34.25269412363647], [72.36363504027686, 34.25252502499096], [72.36359861297888, 34.252519913843464], [72.36357786248026, 34.25262124689953], [72.36339010388438, 34.25259493891201], [72.36337626066984, 34.25266279454992]]]]}, "properties": {"id": "Pakistan_123102310_514840", "height": 2.995368957519531, "hmax": 0.051, "ratio": 0.017, "vulnClass": "none"}}, {"type": "Feature", "geometry": {"type": "MultiPolygon", "coordinates": [[[[72.36366574185259, 34.25255705798277], [72.36365753771608, 34.25262512516271], [72.36379560827157, 34.25263639022126], [72.36380380948745, 34.252568413116805], [72.36366574185259, 34.25255705798277]]]]}, "properties": {"id": "Pakistan_123102310_150609", "height": 2.46619725227356, "hmax": 0.0, "ratio": 0.0, "vulnClass": "none"}}, {"type": "Feature", "geometry": {"type": "MultiPolygon", "coordinates": [[[[72.36398513966863, 34.25272070234935], [72.36393836319051, 34.25271672086433], [72.36394183016058, 34.2526891193397], [72.36377638371563, 34.25267492143044], [72.36376788790898, 34.2527419005392], [72.36398021666393, 34.25276017237805], [72.36398513966863, 34.25272070234935]]]]}, "properties": {"id": "Pakistan_123102310_718959", "height": 3.332673311233521, "hmax": 0.0, "ratio": 0.0, "vulnClass": "none"}}, {"type": "Feature", "geometry": {"type": "MultiPolygon", "coordinates": [[[[72.36355783206812, 34.2528490762318], [72.3635632255602, 34.252784103833385], [72.36352323637756, 34.25278180081291], [72.36351773436131, 34.25284677087321], [72.36355783206812, 34.2528490762318]]]]}, "properties": {"id": "Pakistan_123102310_647335", "height": 2.926353454589844, "hmax": 0.0, "ratio": 0.0, "vulnClass": "none"}}, {"type": "Feature", "geometry": {"type": "MultiPolygon", "coordinates": [[[[72.36374925016712, 34.25273032083466], [72.36365039065409, 34.25271845715763], [72.3636242890985, 34.25286601228586], [72.36357442529604, 34.25286007106395], [72.36356716747923, 34.252901293827534], [72.36371588821926, 34.25291918885689], [72.36374925016712, 34.25273032083466]]]]}, "properties": {"id": "Pakistan_123102310_207381", "height": 2.512556791305542, "hmax": 0.0, "ratio": 0.0, "vulnClass": "none"}}, {"type": "Feature", "geometry": {"type": "MultiPolygon", "coordinates": [[[[72.36492086821318, 34.25227196181243], [72.36481802794621, 34.25226938909196], [72.36481569858091, 34.25233361613408], [72.36491853892579, 34.25233618886011], [72.36492086821318, 34.25227196181243]]]]}, "properties": {"id": "Pakistan_123102310_491083", "height": 3.031309843063354, "hmax": 0.0, "ratio": 0.0, "vulnClass": "none"}}, {"type": "Feature", "geometry": {"type": "MultiPolygon", "coordinates": [[[[72.36528336738614, 34.25390444694218], [72.36532002083284, 34.253909292017134], [72.36533514834036, 34.25383154722704], [72.36529860342114, 34.25382670449151], [72.36528336738614, 34.25390444694218]]]]}, "properties": {"id": "Pakistan_123102310_931876", "height": 2.643934726715088, "hmax": 0.0, "ratio": 0.0, "vulnClass": "none"}}, {"type": "Feature", "geometry": {"type": "MultiPolygon", "coordinates": [[[[72.36536450298786, 34.253788455667355], [72.36520591210817, 34.25374582943901], [72.3651890483897, 34.253788738864344], [72.36534763933855, 34.25383136511763], [72.36536450298786, 34.253788455667355]]]]}, "properties": {"id": "Pakistan_123102310_913009", "height": 3.534961223602295, "hmax": 0.0, "ratio": 0.0, "vulnClass": "none"}}, {"type": "Feature", "geometry": {"type": "MultiPolygon", "coordinates": [[[[72.36479683185169, 34.2538013975732], [72.36475637666504, 34.25379313500209], [72.3647183094858, 34.253920599926055], [72.36488272034224, 34.253954156653066], [72.36490261307665, 34.253887242311244], [72.36477876323663, 34.253862040618294], [72.36479683185169, 34.2538013975732]]]]}, "properties": {"id": "Pakistan_123102310_401234", "height": 3.278831005096436, "hmax": 0.0, "ratio": 0.0, "vulnClass": "none"}}, {"type": "Feature", "geometry": {"type": "MultiPolygon", "coordinates": [[[[72.36456645400293, 34.25409357686422], [72.36466650480416, 34.254109071479384], [72.36471688500006, 34.25388622203467], [72.36461683163732, 34.25387081756182], [72.36456645400293, 34.25409357686422]]]]}, "properties": {"id": "Pakistan_123102310_599982", "height": 5.259122371673584, "hmax": 0.0, "ratio": 0.0, "vulnClass": "none"}}, {"type": "Feature", "geometry": {"type": "MultiPolygon", "coordinates": [[[[72.36443004751098, 34.253823617203885], [72.36434263875353, 34.25380659139344], [72.36429107790852, 34.253987224946094], [72.36455276233681, 34.25403829065823], [72.36457079574735, 34.25397530298899], [72.3643609080926, 34.253934366757086], [72.36438126727116, 34.25386295503322], [72.36441687951846, 34.253869851431915], [72.36443004751098, 34.253823617203885]]]]}, "properties": {"id": "Pakistan_123102310_45302", "height": 3.155244588851929, "hmax": 0.0, "ratio": 0.0, "vulnClass": "none"}}, {"type": "Feature", "geometry": {"type": "MultiPolygon", "coordinates": [[[[72.36389815458801, 34.253347628567816], [72.36389718740091, 34.253378619438415], [72.36395251959229, 34.253379810092675], [72.36395348675914, 34.253348819220705], [72.36389815458801, 34.253347628567816]]]]}, "properties": {"id": "Pakistan_123102310_789967", "height": 3.392792701721191, "hmax": 0.0, "ratio": 0.0, "vulnClass": "none"}}, {"type": "Feature", "geometry": {"type": "MultiPolygon", "coordinates": [[[[72.36386408574333, 34.253047776948485], [72.36387127975982, 34.25302250938516], [72.36383912004796, 34.25301631818328], [72.36381360784658, 34.253106730781234], [72.36398573665426, 34.25313991385153], [72.36400405751954, 34.25307467869356], [72.36386408574333, 34.253047776948485]]]]}, "properties": {"id": "Pakistan_123102310_533644", "height": 3.671515464782715, "hmax": 0.0, "ratio": 0.0, "vulnClass": "none"}}, {"type": "Feature", "geometry": {"type": "MultiPolygon", "coordinates": [[[[72.3635649311709, 34.2534181671461], [72.36345726903679, 34.253389165607715], [72.36342684781286, 34.25346640067178], [72.36353440153684, 34.25349539990574], [72.3635649311709, 34.2534181671461]]]]}, "properties": {"id": "Pakistan_123102310_656944", "height": 2.607687711715698, "hmax": 0.0, "ratio": 0.0, "vulnClass": "none"}}, {"type": "Feature", "geometry": {"type": "MultiPolygon", "coordinates": [[[[72.36375967805215, 34.25359283228289], [72.36365760249306, 34.253544839286285], [72.36363167627454, 34.2535824148858], [72.36373386035623, 34.25363041023997], [72.36375967805215, 34.25359283228289]]]]}, "properties": {"id": "Pakistan_123102310_84359", "height": 2.584216594696045, "hmax": 0.0, "ratio": 0.0, "vulnClass": "none"}}, {"type": "Feature", "geometry": {"type": "MultiPolygon", "coordinates": [[[[72.36384813515413, 34.25363539357858], [72.36374110391995, 34.2536070369096], [72.36371300459467, 34.25367945390166], [72.36382003590792, 34.25370781059875], [72.36384813515413, 34.25363539357858]]]]}, "properties": {"id": "Pakistan_123102310_799431", "height": 2.584216594696045, "hmax": 0.0, "ratio": 0.0, "vulnClass": "none"}}, {"type": "Feature", "geometry": {"type": "MultiPolygon", "coordinates": [[[[72.36391792459284, 34.253486434607396], [72.36374429355068, 34.25345961976511], [72.36372629601871, 34.25353883511829], [72.36389992721469, 34.25356564999312], [72.36391792459284, 34.253486434607396]]]]}, "properties": {"id": "Pakistan_123102310_927074", "height": 2.725959300994873, "hmax": 0.0, "ratio": 0.0, "vulnClass": "none"}}, {"type": "Feature", "geometry": {"type": "MultiPolygon", "coordinates": [[[[72.36399672727873, 34.25366788986969], [72.36387027438664, 34.25362523226257], [72.36384733034559, 34.25367161665503], [72.36397378048083, 34.25371436437798], [72.36399672727873, 34.25366788986969]]]]}, "properties": {"id": "Pakistan_123102310_680901", "height": 3.14491868019104, "hmax": 0.0, "ratio": 0.0, "vulnClass": "none"}}, {"type": "Feature", "geometry": {"type": "MultiPolygon", "coordinates": [[[[72.36328143951705, 34.25381188195884], [72.36347973223027, 34.25386600286108], [72.36352294405606, 34.253758121538645], [72.36332465437144, 34.25370391062635], [72.36328143951705, 34.25381188195884]]]]}, "properties": {"id": "Pakistan_123102310_112683", "height": 3.818557262420654, "hmax": 0.132, "ratio": 0.035, "vulnClass": "low"}}, {"type": "Feature", "geometry": {"type": "MultiPolygon", "coordinates": [[[[72.36317123668151, 34.253627767099736], [72.36324254094632, 34.25368420335367], [72.36328281561653, 34.25364955103018], [72.36321140566857, 34.25359302237458], [72.36317123668151, 34.253627767099736]]]]}, "properties": {"id": "Pakistan_123102310_358639", "height": 4.029952526092529, "hmax": 0.132, "ratio": 0.033, "vulnClass": "low"}}, {"type": "Feature", "geometry": {"type": "MultiPolygon", "coordinates": [[[[72.3629631319963, 34.25340458314759], [72.36285410267554, 34.25336374197528], [72.36282992374204, 34.25340793597742], [72.36293895310527, 34.25344877717313], [72.3629631319963, 34.25340458314759]]]]}, "properties": {"id": "Pakistan_123102310_150593", "height": 2.468618154525757, "hmax": 0.0, "ratio": 0.0, "vulnClass": "none"}}, {"type": "Feature", "geometry": {"type": "MultiPolygon", "coordinates": [[[[72.36325488838327, 34.25306955444088], [72.36309797659771, 34.2530462538222], [72.36307933648314, 34.25313212635627], [72.36323613711355, 34.253155514760216], [72.36325488838327, 34.25306955444088]]]]}, "properties": {"id": "Pakistan_123102310_637903", "height": 3.542614936828613, "hmax": 0.0, "ratio": 0.0, "vulnClass": "none"}}, {"type": "Feature", "geometry": {"type": "MultiPolygon", "coordinates": [[[[72.36330669729307, 34.25286711032857], [72.36321947233671, 34.253282448186354], [72.36330636992247, 34.25329495626846], [72.36332193191554, 34.25322073697541], [72.36340526320839, 34.253232717476926], [72.36341252722472, 34.25319825612813], [72.36345835161475, 34.253204921836215], [72.36346880038157, 34.25315538378664], [72.36342189107557, 34.25314869473315], [72.36341284100149, 34.253191681914544], [72.36334258692484, 34.25318160558475], [72.36339460832274, 34.25293409089164], [72.36345707876339, 34.252943098165446], [72.36345031625842, 34.252975406706966], [72.3635023050037, 34.252982836116914], [72.36352001483561, 34.25289892678928], [72.3633715095422, 34.25287761045162], [72.36341204804275, 34.25268493038683], [72.3633078567724, 34.25266997672584], [72.36327368763422, 34.2528325033641], [72.36316182128601, 34.25281648287829], [72.36315570801972, 34.25284537966729], [72.36330669729307, 34.25286711032857]]]]}, "properties": {"id": "Pakistan_123102310_794675", "height": 5.046733379364014, "hmax": 0.051, "ratio": 0.01, "vulnClass": "none"}}, {"type": "Feature", "geometry": {"type": "MultiPolygon", "coordinates": [[[[72.36257992916131, 34.25216199694669], [72.36272646480519, 34.25218723841929], [72.36274628757987, 34.252108693560366], [72.36259986336879, 34.25208336436332], [72.36257992916131, 34.25216199694669]]]]}, "properties": {"id": "Pakistan_123102310_287385", "height": 3.273870468139648, "hmax": 0.0, "ratio": 0.0, "vulnClass": "none"}}, {"type": "Feature", "geometry": {"type": "MultiPolygon", "coordinates": [[[[72.36298567491913, 34.2555966198614], [72.36279146127961, 34.25555430541535], [72.36276473909388, 34.25563820085548], [72.36295895290736, 34.25568051535176], [72.36298567491913, 34.2555966198614]]]]}, "properties": {"id": "Pakistan_123102310_599967", "height": 5.588594913482666, "hmax": 0.0, "ratio": 0.0, "vulnClass": "none"}}, {"type": "Feature", "geometry": {"type": "MultiPolygon", "coordinates": [[[[72.36719006132518, 34.25654384231801], [72.367134861036, 34.2565975574387], [72.36711690494079, 34.25664765566917], [72.36709119304614, 34.25662961388075], [72.36708239458434, 34.256654125950874], [72.36700858676839, 34.256636042042395], [72.36699403136303, 34.25662581265565], [72.366957614315, 34.25661682622063], [72.36692040728133, 34.256720240198106], [72.36698837549707, 34.256653998277166], [72.36702500956275, 34.256662989368], [72.36705433458665, 34.25668354288741], [72.3670508932146, 34.256692934699736], [72.36710078000475, 34.25670518557742], [72.36726749963505, 34.25654298243027], [72.36730909093686, 34.25655316177948], [72.36731491848869, 34.256536879668715], [72.36727666819098, 34.256527493328285], [72.36728938965517, 34.25649206721807], [72.36712302745164, 34.25645125962812], [72.36711065669883, 34.2564858819049], [72.3671611235945, 34.256521313848765], [72.36715627484949, 34.25652012783227], [72.36719006132518, 34.25654384231801]]]]}, "properties": {"id": "Pakistan_123102310_785334", "height": 3.783777713775635, "hmax": 0.0, "ratio": 0.0, "vulnClass": "none"}}, {"type": "Feature", "geometry": {"type": "MultiPolygon", "coordinates": [[[[72.36695177531989, 34.25651158548148], [72.36683672088559, 34.25647575678894], [72.36677098287176, 34.2566202068613], [72.3669072235769, 34.256662531086285], [72.3669376399033, 34.256595842615106], [72.36691645661558, 34.25658925706752], [72.36695177531989, 34.25651158548148]]]]}, "properties": {"id": "Pakistan_123102310_330311", "height": 2.910977363586426, "hmax": 0.0, "ratio": 0.0, "vulnClass": "none"}}, {"type": "Feature", "geometry": {"type": "MultiPolygon", "coordinates": [[[[72.3652347093612, 34.25629607839459], [72.36540947916026, 34.256349239631035], [72.36544251954034, 34.25627503537058], [72.3652677498678, 34.256221874186906], [72.3652347093612, 34.25629607839459]]]]}, "properties": {"id": "Pakistan_123102310_396468", "height": 3.029493808746338, "hmax": 0.0, "ratio": 0.0, "vulnClass": "none"}}, {"type": "Feature", "geometry": {"type": "MultiPolygon", "coordinates": [[[[72.36550922661426, 34.25600908435617], [72.36536670791699, 34.25598708769774], [72.36534920982257, 34.25606424057452], [72.36549172864284, 34.25608623725891], [72.36550922661426, 34.25600908435617]]]]}, "properties": {"id": "Pakistan_123102310_633193", "height": 3.193598747253418, "hmax": 0.0, "ratio": 0.0, "vulnClass": "none"}}, {"type": "Feature", "geometry": {"type": "MultiPolygon", "coordinates": [[[[72.36691320563133, 34.25623733062067], [72.36711736707349, 34.256305455097], [72.36720677940227, 34.25612247855009], [72.36717217995677, 34.25611091688907], [72.36711349964493, 34.256230997982065], [72.36694393780773, 34.25617443524159], [72.36691320563133, 34.25623733062067]]]]}, "properties": {"id": "Pakistan_123102310_789985", "height": 2.865966320037842, "hmax": 0.0, "ratio": 0.0, "vulnClass": "none"}}, {"type": "Feature", "geometry": {"type": "MultiPolygon", "coordinates": [[[[72.36606309053286, 34.255353161346555], [72.36610312175698, 34.25522186175974], [72.3660566292407, 34.25521220768751], [72.36601720786581, 34.25534135676381], [72.36590125051751, 34.255317137205914], [72.36592797339624, 34.25522963500012], [72.3658825602512, 34.255220184371744], [72.36582778881925, 34.25539939730953], [72.36597405698876, 34.255429948157605], [72.3659765967242, 34.25542161879196], [72.3661353776447, 34.25545478240654], [72.36616027903081, 34.255373461352164], [72.36606309053286, 34.255353161346555]]]]}, "properties": {"id": "Pakistan_123102310_372842", "height": 3.20468282699585, "hmax": 0.0, "ratio": 0.0, "vulnClass": "none"}}, {"type": "Feature", "geometry": {"type": "MultiPolygon", "coordinates": [[[[72.36485446697762, 34.25487019669176], [72.36478123466512, 34.25485113221203], [72.36474245189103, 34.25495279875131], [72.36481568427988, 34.25497186325764], [72.36485446697762, 34.25487019669176]]]]}, "properties": {"id": "Pakistan_123102310_297052", "height": 2.55031418800354, "hmax": 0.0, "ratio": 0.0, "vulnClass": "none"}}, {"type": "Feature", "geometry": {"type": "MultiPolygon", "coordinates": [[[[72.36390902672858, 34.25447771541783], [72.36421874723642, 34.254558573466845], [72.36424996256363, 34.25447675763205], [72.36401584124327, 34.25441564661982], [72.36409008880547, 34.25422125763371], [72.36401449002827, 34.2542015107401], [72.36390902672858, 34.25447771541783]]]]}, "properties": {"id": "Pakistan_123102310_884580", "height": 3.024221897125244, "hmax": 0.0, "ratio": 0.0, "vulnClass": "none"}}, {"type": "Feature", "geometry": {"type": "MultiPolygon", "coordinates": [[[[72.36475922629263, 34.25409501936453], [72.36467692713475, 34.25408820052941], [72.36467371946898, 34.254114455398934], [72.36475601584118, 34.254121364327155], [72.36475922629263, 34.25409501936453]]]]}, "properties": {"id": "Pakistan_123102310_623652", "height": 3.44243860244751, "hmax": 0.0, "ratio": 0.0, "vulnClass": "none"}}, {"type": "Feature", "geometry": {"type": "MultiPolygon", "coordinates": [[[[72.36454295130723, 34.25418222983925], [72.36459942183593, 34.25419218927782], [72.36461302041224, 34.2541391128748], [72.36455654710561, 34.25412924353378], [72.36454295130723, 34.25418222983925]]]]}, "properties": {"id": "Pakistan_123102310_841927", "height": 4.654986381530762, "hmax": 0.0, "ratio": 0.0, "vulnClass": "none"}}, {"type": "Feature", "geometry": {"type": "MultiPolygon", "coordinates": [[[[72.36464940713934, 34.25438564523711], [72.3647393715515, 34.254425173233194], [72.36477828278502, 34.25436461796095], [72.36468831841535, 34.25432508999528], [72.36464940713934, 34.25438564523711]]]]}, "properties": {"id": "Pakistan_123102310_590579", "height": 6.882229804992676, "hmax": 0.0, "ratio": 0.0, "vulnClass": "none"}}, {"type": "Feature", "geometry": {"type": "MultiPolygon", "coordinates": [[[[72.36546341361026, 34.25474897041075], [72.36552988661303, 34.254765455063726], [72.36554877575904, 34.25471330367721], [72.36548229998223, 34.25469690912594], [72.36546341361026, 34.25474897041075]]]]}, "properties": {"id": "Pakistan_123102310_879814", "height": 2.643523693084717, "hmax": 0.0, "ratio": 0.0, "vulnClass": "none"}}, {"type": "Feature", "geometry": {"type": "MultiPolygon", "coordinates": [[[[72.3666151884656, 34.254572519730324], [72.3664908212114, 34.254560380406765], [72.36647582273862, 34.25466535351903], [72.3666001901433, 34.25467749286472], [72.3666151884656, 34.254572519730324]]]]}, "properties": {"id": "Pakistan_123102310_254509", "height": 2.465160608291626, "hmax": 0.0, "ratio": 0.0, "vulnClass": "none"}}, {"type": "Feature", "geometry": {"type": "MultiPolygon", "coordinates": [[[[72.36717303381751, 34.254530149625374], [72.36728878222844, 34.25454363558318], [72.36730419553436, 34.25445318546037], [72.36718844724304, 34.254439699522614], [72.36717303381751, 34.254530149625374]]]]}, "properties": {"id": "Pakistan_123102310_533670", "height": 2.549876689910889, "hmax": 0.0, "ratio": 0.0, "vulnClass": "none"}}, {"type": "Feature", "geometry": {"type": "MultiPolygon", "coordinates": [[[[72.37100095228614, 34.25415367436527], [72.3710003345193, 34.25417701006671], [72.37124968670862, 34.254181459577595], [72.3712519780514, 34.25409388253026], [72.37112600012574, 34.25409162990705], [72.37112432638546, 34.25415587124234], [72.37100095228614, 34.25415367436527]]]]}, "properties": {"id": "Pakistan_123102310_837306", "height": 2.535931348800659, "hmax": 0.0, "ratio": 0.0, "vulnClass": "none"}}, {"type": "Feature", "geometry": {"type": "MultiPolygon", "coordinates": [[[[72.37097467525801, 34.25422703378445], [72.37097163653112, 34.25418513877562], [72.37089530398879, 34.25418890961009], [72.37089833987346, 34.254230894709295], [72.37097467525801, 34.25422703378445]]]]}, "properties": {"id": "Pakistan_123102310_680953", "height": 3.145548820495605, "hmax": 0.0, "ratio": 0.0, "vulnClass": "none"}}, {"type": "Feature", "geometry": {"type": "MultiPolygon", "coordinates": [[[[72.37100495278958, 34.25430070540462], [72.37104510763552, 34.25430120654683], [72.37104644646591, 34.254230286896906], [72.37100618315743, 34.254229783428286], [72.37100495278958, 34.25430070540462]]]]}, "properties": {"id": "Pakistan_123102310_505278", "height": 4.31064510345459, "hmax": 0.0, "ratio": 0.0, "vulnClass": "none"}}, {"type": "Feature", "geometry": {"type": "MultiPolygon", "coordinates": [[[[72.37097097959997, 34.254356230173265], [72.37096926740908, 34.25432752559488], [72.37088904289111, 34.25433076214438], [72.37089075225039, 34.25435955681286], [72.37097097959997, 34.254356230173265]]]]}, "properties": {"id": "Pakistan_123102310_628534", "height": 2.723978996276855, "hmax": 0.0, "ratio": 0.0, "vulnClass": "none"}}, {"type": "Feature", "geometry": {"type": "MultiPolygon", "coordinates": [[[[72.37061360694223, 34.25479101827928], [72.37067261242477, 34.254792825662776], [72.37067467127312, 34.25474761434928], [72.37061577712343, 34.254745719206795], [72.37061360694223, 34.25479101827928]]]]}, "properties": {"id": "Pakistan_123102310_804163", "height": 3.541215419769287, "hmax": 0.0, "ratio": 0.0, "vulnClass": "none"}}, {"type": "Feature", "geometry": {"type": "MultiPolygon", "coordinates": [[[[72.37088175160237, 34.255688090511164], [72.37084191230774, 34.25569138238823], [72.37084613778951, 34.25572654158258], [72.37088597990515, 34.25572315961472], [72.37088175160237, 34.255688090511164]]]]}, "properties": {"id": "Pakistan_123102310_647396", "height": 5.450159549713135, "hmax": 0.0, "ratio": 0.0, "vulnClass": "none"}}, {"type": "Feature", "geometry": {"type": "MultiPolygon", "coordinates": [[[[72.37114704797496, 34.25582224837005], [72.37112127091447, 34.25576093381899], [72.37108051700667, 34.25577268028348], [72.37110640534243, 34.25583390707998], [72.37114704797496, 34.25582224837005]]]]}, "properties": {"id": "Pakistan_123102310_387007", "height": 3.167953968048096, "hmax": 0.0, "ratio": 0.0, "vulnClass": "none"}}, {"type": "Feature", "geometry": {"type": "MultiPolygon", "coordinates": [[[[72.36837091074042, 34.25576949250118], [72.36824606175561, 34.25574138795787], [72.3682226785288, 34.255812374808976], [72.36834752760764, 34.25584047938034], [72.36837091074042, 34.25576949250118]]]]}, "properties": {"id": "Pakistan_123102310_45352", "height": 2.783683300018311, "hmax": 0.0, "ratio": 0.0, "vulnClass": "none"}}, {"type": "Feature", "geometry": {"type": "MultiPolygon", "coordinates": [[[[72.36830625011679, 34.255663438867735], [72.36827892258485, 34.25574254467599], [72.36836331222645, 34.25576247783947], [72.36839064249533, 34.2556832819192], [72.36830625011679, 34.255663438867735]]]]}, "properties": {"id": "Pakistan_123102310_704597", "height": 2.613556146621704, "hmax": 0.0, "ratio": 0.0, "vulnClass": "none"}}, {"type": "Feature", "geometry": {"type": "MultiPolygon", "coordinates": [[[[72.36730004970495, 34.256045601591914], [72.36726264506304, 34.25611358238356], [72.36733379313392, 34.25614035354781], [72.36731963625851, 34.25616610273502], [72.36747298997544, 34.2562236689014], [72.36741072315355, 34.256336911796836], [72.36750516013117, 34.256372387036016], [72.36757858862374, 34.25623891982767], [72.36759532906244, 34.25624522948641], [72.36763262501032, 34.25617724625319], [72.36775936617676, 34.256224774408174], [72.36779573503624, 34.25615866435698], [72.36759784577718, 34.25608436526953], [72.36756458035302, 34.256144952631224], [72.36730004970495, 34.256045601591914]]]]}, "properties": {"id": "Pakistan_123102310_557268", "height": 2.921029567718506, "hmax": 0.0, "ratio": 0.0, "vulnClass": "none"}}, {"type": "Feature", "geometry": {"type": "MultiPolygon", "coordinates": [[[[72.36887076542912, 34.256794240706895], [72.36879659849035, 34.25681554584739], [72.36881297972096, 34.25685430174797], [72.3688871494976, 34.25683290650902], [72.36887076542912, 34.256794240706895]]]]}, "properties": {"id": "Pakistan_123102310_339762", "height": 5.818811893463135, "hmax": 0.0, "ratio": 0.0, "vulnClass": "none"}}, {"type": "Feature", "geometry": {"type": "MultiPolygon", "coordinates": [[[[72.36847199015946, 34.25672076658554], [72.36843767549692, 34.25671398935806], [72.36842453718438, 34.256759323178535], [72.36845885186379, 34.25676610041046], [72.36847199015946, 34.25672076658554]]]]}, "properties": {"id": "Pakistan_123102310_846740", "height": 5.15575647354126, "hmax": 0.0, "ratio": 0.0, "vulnClass": "none"}}, {"type": "Feature", "geometry": {"type": "MultiPolygon", "coordinates": [[[[72.36771925596425, 34.257239996600056], [72.36766533785286, 34.25729437055659], [72.36771265435439, 34.25732639902746], [72.36776656965068, 34.25727211513984], [72.36771925596425, 34.257239996600056]]]]}, "properties": {"id": "Pakistan_123102310_695145", "height": 3.994182586669922, "hmax": 0.0, "ratio": 0.0, "vulnClass": "none"}}, {"type": "Feature", "geometry": {"type": "MultiPolygon", "coordinates": [[[[72.36778659967845, 34.257381897856696], [72.367725796661, 34.25733668811802], [72.36768790604576, 34.25737148327116], [72.36774871187336, 34.25741660293869], [72.36778659967845, 34.257381897856696]]]]}, "properties": {"id": "Pakistan_123102310_349279", "height": 4.36459493637085, "hmax": 0.0, "ratio": 0.0, "vulnClass": "none"}}, {"type": "Feature", "geometry": {"type": "MultiPolygon", "coordinates": [[[[72.36818520353454, 34.256896528807864], [72.36822381845371, 34.25693603290916], [72.36829200820162, 34.25689052957646], [72.3682535017678, 34.25685102782689], [72.36818520353454, 34.256896528807864]]]]}, "properties": {"id": "Pakistan_123102310_714237", "height": 3.901506662368774, "hmax": 0.331, "ratio": 0.085, "vulnClass": "low"}}, {"type": "Feature", "geometry": {"type": "MultiPolygon", "coordinates": [[[[72.36872648202133, 34.256888053183054], [72.36868411759691, 34.256895707466164], [72.36869246614893, 34.25692743941105], [72.36873482778209, 34.25691987521583], [72.36872648202133, 34.256888053183054]]]]}, "properties": {"id": "Pakistan_123102310_685638", "height": 8.954198837280273, "hmax": 0.0, "ratio": 0.0, "vulnClass": "none"}}, {"type": "Feature", "geometry": {"type": "MultiPolygon", "coordinates": [[[[72.36917731530761, 34.257067940124635], [72.36900930370358, 34.25703818812194], [72.36903385318108, 34.25694369693394], [72.36899282263035, 34.25693641501663], [72.36894556151965, 34.257118675565636], [72.3691544954196, 34.257155707213535], [72.36917731530761, 34.257067940124635]]]]}, "properties": {"id": "Pakistan_123102310_752256", "height": 5.453410148620605, "hmax": 0.0, "ratio": 0.0, "vulnClass": "none"}}, {"type": "Feature", "geometry": {"type": "MultiPolygon", "coordinates": [[[[72.37082355027322, 34.25684274970437], [72.37082026895727, 34.25689235213996], [72.37080162104841, 34.256891501147436], [72.37079632078249, 34.25697108032643], [72.37090062178176, 34.25697575297266], [72.37090909471672, 34.25684656901582], [72.37082355027322, 34.25684274970437]]]]}, "properties": {"id": "Pakistan_123102310_647395", "height": 2.611689805984497, "hmax": 0.0, "ratio": 0.0, "vulnClass": "none"}}, {"type": "Feature", "geometry": {"type": "MultiPolygon", "coordinates": [[[[72.37077320466734, 34.25660457361663], [72.37085360540574, 34.25660620910125], [72.37085653331498, 34.25651215493489], [72.37077602416677, 34.25651051712758], [72.37077320466734, 34.25660457361663]]]]}, "properties": {"id": "Pakistan_123102310_410592", "height": 2.668355941772461, "hmax": 0.0, "ratio": 0.0, "vulnClass": "none"}}, {"type": "Feature", "geometry": {"type": "MultiPolygon", "coordinates": [[[[72.3706866506974, 34.25675525030566], [72.3706551539812, 34.25674862433072], [72.3706702449827, 34.256699816288325], [72.37054932965715, 34.25667432269067], [72.37052458254458, 34.25675429577735], [72.37067699189596, 34.256786505472206], [72.3706866506974, 34.25675525030566]]]]}, "properties": {"id": "Pakistan_123102310_168732", "height": 2.668431043624878, "hmax": 0.0, "ratio": 0.0, "vulnClass": "none"}}, {"type": "Feature", "geometry": {"type": "MultiPolygon", "coordinates": [[[[72.37005984248832, 34.25676992180075], [72.37003586539097, 34.256818178378445], [72.37018295082018, 34.256867943858175], [72.37020693065662, 34.25681959715863], [72.37005984248832, 34.25676992180075]]]]}, "properties": {"id": "Pakistan_123102310_159226", "height": 7.380937576293945, "hmax": 0.0, "ratio": 0.0, "vulnClass": "none"}}, {"type": "Feature", "geometry": {"type": "MultiPolygon", "coordinates": [[[[72.36947562305458, 34.25666515391256], [72.36951605306845, 34.256712629827334], [72.36956271519938, 34.25668550491027], [72.36952228517018, 34.2566380290101], [72.36947562305458, 34.25666515391256]]]]}, "properties": {"id": "Pakistan_123102310_752261", "height": 3.096936225891113, "hmax": 0.0, "ratio": 0.0, "vulnClass": "none"}}, {"type": "Feature", "geometry": {"type": "MultiPolygon", "coordinates": [[[[72.3696566715015, 34.25656563913146], [72.36962362128149, 34.256521747439436], [72.36952012635976, 34.25657487740538], [72.36955317654301, 34.256618769123484], [72.3696566715015, 34.25656563913146]]]]}, "properties": {"id": "Pakistan_123102310_813648", "height": 5.343413829803467, "hmax": 0.0, "ratio": 0.0, "vulnClass": "none"}}, {"type": "Feature", "geometry": {"type": "MultiPolygon", "coordinates": [[[[72.37049430874687, 34.25647823652744], [72.37070613536677, 34.25648161135266], [72.37070549605984, 34.25651260936367], [72.37077245122987, 34.25651368585482], [72.3707733990171, 34.256472777921125], [72.370741277686, 34.2564722687907], [72.37074164965847, 34.2564533451931], [72.37070562237038, 34.25645275221806], [72.37070652900002, 34.25640967979264], [72.37071857519099, 34.25640984819799], [72.37071830786805, 34.256421922612226], [72.3707987196474, 34.25642319776404], [72.37080055260782, 34.25634687972429], [72.37063158897904, 34.25634424480331], [72.37063111881852, 34.256366321556214], [72.37049698892756, 34.25636425382591], [72.37049430874687, 34.25647823652744]]]]}, "properties": {"id": "Pakistan_123102310_794737", "height": 2.449008941650391, "hmax": 0.0, "ratio": 0.0, "vulnClass": "none"}}, {"type": "Feature", "geometry": {"type": "MultiPolygon", "coordinates": [[[[72.37079332285188, 34.2562547711533], [72.37079305466308, 34.25627036141489], [72.37070449159671, 34.25626936205824], [72.37070387120387, 34.2563137027336], [72.37088349571441, 34.25631566485644], [72.37088448987937, 34.256255826332094], [72.37079332285188, 34.2562547711533]]]]}, "properties": {"id": "Pakistan_123102310_913059", "height": 2.764617681503296, "hmax": 0.0, "ratio": 0.0, "vulnClass": "none"}}, {"type": "Feature", "geometry": {"type": "MultiPolygon", "coordinates": [[[[72.370814418738, 34.25633392522413], [72.37080590372685, 34.256408657442094], [72.37086579990029, 34.25641327853923], [72.37087431485942, 34.25633854631471], [72.370814418738, 34.25633392522413]]]]}, "properties": {"id": "Pakistan_123102310_472222", "height": 2.797873973846436, "hmax": 0.0, "ratio": 0.0, "vulnClass": "none"}}, {"type": "Feature", "geometry": {"type": "MultiPolygon", "coordinates": [[[[72.37179906941735, 34.25765917048669], [72.3718547067379, 34.25768903201078], [72.37190071684958, 34.2576305198695], [72.37184507954852, 34.25760065836713], [72.37179906941735, 34.25765917048669]]]]}, "properties": {"id": "Pakistan_123102310_149838", "height": 2.740521430969238, "hmax": 0.0, "ratio": 0.0, "vulnClass": "none"}}, {"type": "Feature", "geometry": {"type": "MultiPolygon", "coordinates": [[[[72.37185954160974, 34.25769066829839], [72.37179433211628, 34.257668354338364], [72.37178252488555, 34.257691900717056], [72.37181679177094, 34.25770372441871], [72.37175184911493, 34.25783331958443], [72.37185036038183, 34.25786707595515], [72.37196126528801, 34.257645611893274], [72.37192237492691, 34.25763233678334], [72.37189678986933, 34.25768344405661], [72.37186810614097, 34.25767363332038], [72.37185954160974, 34.25769066829839]]]]}, "properties": {"id": "Pakistan_123102310_552617", "height": 2.86081862449646, "hmax": 0.0, "ratio": 0.0, "vulnClass": "none"}}, {"type": "Feature", "geometry": {"type": "MultiPolygon", "coordinates": [[[[72.37202628500026, 34.25776474323108], [72.3719441436699, 34.257742246403815], [72.37192331019712, 34.25779417682519], [72.37201029486314, 34.257818039679684], [72.37200147045756, 34.25783993721435], [72.37190242618948, 34.25781284065921], [72.3718887747415, 34.25784680492807], [72.37201688722882, 34.25788182729514], [72.37208410314744, 34.25771405697491], [72.37205030022523, 34.25770476751208], [72.37202628500026, 34.25776474323108]]]]}, "properties": {"id": "Pakistan_123102310_699880", "height": 3.782689094543457, "hmax": 0.0, "ratio": 0.0, "vulnClass": "none"}}, {"type": "Feature", "geometry": {"type": "MultiPolygon", "coordinates": [[[[72.37201492267548, 34.25449059661533], [72.37199617138174, 34.25445819094432], [72.37192637063708, 34.25448581210795], [72.37194523040539, 34.25451822011614], [72.37201492267548, 34.25449059661533]]]]}, "properties": {"id": "Pakistan_123102310_936657", "height": 3.034939765930176, "hmax": 0.443, "ratio": 0.146, "vulnClass": "low"}}, {"type": "Feature", "geometry": {"type": "MultiPolygon", "coordinates": [[[[72.37262560241251, 34.25421205894359], [72.3726586662629, 34.25427298858348], [72.37270556589672, 34.254255603743374], [72.3726723935213, 34.25419467178781], [72.37262560241251, 34.25421205894359]]]]}, "properties": {"id": "Pakistan_123102310_771163", "height": 3.642668962478638, "hmax": 0.382, "ratio": 0.105, "vulnClass": "low"}}, {"type": "Feature", "geometry": {"type": "MultiPolygon", "coordinates": [[[[72.37468821799108, 34.254169284080184], [72.37464937427065, 34.254137079251734], [72.37459165258674, 34.25418479394441], [72.37463060760142, 34.25421691102563], [72.37468821799108, 34.254169284080184]]]]}, "properties": {"id": "Pakistan_123102310_875147", "height": 5.818185806274414, "hmax": 0.0, "ratio": 0.0, "vulnClass": "none"}}, {"type": "Feature", "geometry": {"type": "MultiPolygon", "coordinates": [[[[72.37329078989592, 34.253912239401025], [72.3732598676032, 34.25385225734584], [72.3732008103796, 34.25387307788795], [72.37323184113201, 34.253933062282684], [72.37329078989592, 34.253912239401025]]]]}, "properties": {"id": "Pakistan_123102310_235763", "height": 2.699034452438354, "hmax": 0.0, "ratio": 0.0, "vulnClass": "none"}}, {"type": "Feature", "geometry": {"type": "MultiPolygon", "coordinates": [[[[72.3707265054516, 34.25321499785049], [72.3706281715908, 34.25320711767939], [72.37062179281789, 34.25326206267672], [72.37072012954572, 34.253269852765584], [72.3707265054516, 34.25321499785049]]]]}, "properties": {"id": "Pakistan_123102310_429456", "height": 2.789116859436035, "hmax": 0.0, "ratio": 0.0, "vulnClass": "none"}}, {"type": "Feature", "geometry": {"type": "MultiPolygon", "coordinates": [[[[72.36985430685748, 34.251449700968465], [72.36985781514414, 34.25135097142497], [72.3697532368841, 34.25134845571762], [72.36974972847563, 34.251447185252474], [72.36985430685748, 34.251449700968465]]]]}, "properties": {"id": "Pakistan_123102310_188325", "height": 4.050341129302979, "hmax": 0.0, "ratio": 0.0, "vulnClass": "none"}}, {"type": "Feature", "geometry": {"type": "MultiPolygon", "coordinates": [[[[72.37284403691802, 34.25047369518953], [72.37284517645335, 34.25044054423731], [72.3727325678868, 34.250437949048674], [72.37273142550555, 34.25047119008824], [72.37284403691802, 34.25047369518953]]]]}, "properties": {"id": "Pakistan_123102310_254611", "height": 2.819470882415771, "hmax": 0.0, "ratio": 0.0, "vulnClass": "none"}}, {"type": "Feature", "geometry": {"type": "MultiPolygon", "coordinates": [[[[72.37647653865288, 34.2537156440332], [72.37647784821867, 34.2536734816106], [72.37628482551983, 34.25366961818183], [72.37628351585793, 34.25371178059791], [72.37647653865288, 34.2537156440332]]]]}, "properties": {"id": "Pakistan_123102310_401317", "height": 3.125778913497925, "hmax": 0.0, "ratio": 0.0, "vulnClass": "none"}}, {"type": "Feature", "geometry": {"type": "MultiPolygon", "coordinates": [[[[72.37539157203264, 34.25564921126811], [72.37548267430601, 34.25565233507723], [72.37548491683748, 34.255608119215154], [72.37539381461154, 34.25560499540989], [72.37539157203264, 34.25564921126811]]]]}, "properties": {"id": "Pakistan_123102310_131589", "height": 3.8378586769104, "hmax": 0.0, "ratio": 0.0, "vulnClass": "none"}}, {"type": "Feature", "geometry": {"type": "MultiPolygon", "coordinates": [[[[72.37539502080037, 34.255468353060806], [72.3753991573526, 34.25554137345992], [72.37546600976782, 34.2555387489895], [72.37546197885625, 34.255465821005025], [72.37539502080037, 34.255468353060806]]]]}, "properties": {"id": "Pakistan_123102310_628562", "height": 2.602599620819092, "hmax": 0.0, "ratio": 0.0, "vulnClass": "none"}}, {"type": "Feature", "geometry": {"type": "MultiPolygon", "coordinates": [[[[72.3751651459761, 34.255846657583724], [72.37516275415713, 34.25588519075318], [72.37521360644679, 34.25588736216888], [72.37522199346292, 34.255750242641504], [72.37517656338115, 34.255748277563626], [72.37517416037387, 34.2557871710963], [72.37507787525092, 34.25578312464228], [72.37507417441921, 34.25584281513], [72.3751651459761, 34.255846657583724]]]]}, "properties": {"id": "Pakistan_123102310_571671", "height": 6.175543308258057, "hmax": 0.0, "ratio": 0.0, "vulnClass": "none"}}, {"type": "Feature", "geometry": {"type": "MultiPolygon", "coordinates": [[[[72.37551258774025, 34.256048826894556], [72.37543420037697, 34.25603831272067], [72.37542737209507, 34.256072874373764], [72.37550575948903, 34.256083388553414], [72.37551258774025, 34.256048826894556]]]]}, "properties": {"id": "Pakistan_123102310_311408", "height": 2.685706853866577, "hmax": 0.0, "ratio": 0.0, "vulnClass": "none"}}, {"type": "Feature", "geometry": {"type": "MultiPolygon", "coordinates": [[[[72.37573046080377, 34.25850612929045], [72.37585511853274, 34.25850916040685], [72.37585771713566, 34.2584360138684], [72.37573305671478, 34.258433072850124], [72.37573046080377, 34.25850612929045]]]]}, "properties": {"id": "Pakistan_123102310_623731", "height": 3.17208456993103, "hmax": 0.0, "ratio": 0.0, "vulnClass": "none"}}, {"type": "Feature", "geometry": {"type": "MultiPolygon", "coordinates": [[[[72.37505500625579, 34.258719647530505], [72.37504377022815, 34.25875627829922], [72.375173542546, 34.25878339974686], [72.37518720898119, 34.25873843704874], [72.37507005869013, 34.25871393000426], [72.37508371396505, 34.25866932768116], [72.3750394856653, 34.258660086077974], [72.37502328859335, 34.25871310807189], [72.37505500625579, 34.258719647530505]]]]}, "properties": {"id": "Pakistan_123102310_690405", "height": 2.662597894668579, "hmax": 0.0, "ratio": 0.0, "vulnClass": "none"}}, {"type": "Feature", "geometry": {"type": "MultiPolygon", "coordinates": [[[[72.37576132758926, 34.25964764501636], [72.37573273825024, 34.259847887807766], [72.37582420842298, 34.25985678898639], [72.37585279755083, 34.25965654616398], [72.37576132758926, 34.25964764501636]]]]}, "properties": {"id": "Pakistan_123102310_714291", "height": 3.094334602355957, "hmax": 0.0, "ratio": 0.0, "vulnClass": "none"}}, {"type": "Feature", "geometry": {"type": "MultiPolygon", "coordinates": [[[[72.37588478641887, 34.259643889172985], [72.37587700108698, 34.25969177260222], [72.37595068771176, 34.25969993211239], [72.37594193852581, 34.25975437588429], [72.37600512834435, 34.25976140899598], [72.37602177125125, 34.259659084100726], [72.37588478641887, 34.259643889172985]]]]}, "properties": {"id": "Pakistan_123102310_83088", "height": 2.942789554595947, "hmax": 0.0, "ratio": 0.0, "vulnClass": "none"}}, {"type": "Feature", "geometry": {"type": "MultiPolygon", "coordinates": [[[[72.37678933916641, 34.25918925207707], [72.3765116565973, 34.25917356898304], [72.3765047108254, 34.259257350348506], [72.37655163950902, 34.259260068278934], [72.37655511377375, 34.25921813254879], [72.37678586501978, 34.259231187819466], [72.37678933916641, 34.25918925207707]]]]}, "properties": {"id": "Pakistan_123102310_685694", "height": 3.347652912139893, "hmax": 0.0, "ratio": 0.0, "vulnClass": "none"}}, {"type": "Feature", "geometry": {"type": "MultiPolygon", "coordinates": [[[[72.37563305794411, 34.26015208357041], [72.37587662075273, 34.26019318144571], [72.37592580889351, 34.25999392079868], [72.37587018127591, 34.25998461558099], [72.37584410035605, 34.26009016397499], [72.37565616548325, 34.26005837138958], [72.37563305794411, 34.26015208357041]]]]}, "properties": {"id": "Pakistan_123102310_168804", "height": 3.711732149124146, "hmax": 0.0, "ratio": 0.0, "vulnClass": "none"}}]}