{"type": "FeatureCollection", "features": [{"type": "Feature", "geometry": {"type": "MultiPolygon", "coordinates": [[[[72.3981331114512, 34.26426064904554], [72.39832558324485, 34.26426915474367], [72.39833127821744, 34.26418300117256], [72.39830178533803, 34.264181653527125], [72.39830593210492, 34.26411755407417], [72.39823382486082, 34.26411430959997], [72.39823754921865, 34.26405687235361], [72.39818669356487, 34.26405462016004], [72.39818933126897, 34.26401482943471], [72.39814920991526, 34.264013075689036], [72.3981331114512, 34.26426064904554]]]]}, "properties": {"id": "Pakistan_123102310_169084", "height": 3.359790086746216, "hmax": 0.0, "ratio": 0.0, "vulnClass": "none"}}, {"type": "Feature", "geometry": {"type": "MultiPolygon", "coordinates": [[[[72.39843553194112, 34.26402041940828], [72.39843707710077, 34.26395617453961], [72.39838769901259, 34.26395530607883], [72.39838615381544, 34.26401955094518], [72.39843553194112, 34.26402041940828]]]]}, "properties": {"id": "Pakistan_123102310_121840", "height": 4.732879638671875, "hmax": 0.0, "ratio": 0.0, "vulnClass": "none"}}, {"type": "Feature", "geometry": {"type": "MultiPolygon", "coordinates": [[[[72.39810030464157, 34.26384534760725], [72.39803325046016, 34.26384374292478], [72.39803397253239, 34.26382383488698], [72.39797765817049, 34.26382254846555], [72.39797347048436, 34.26394434368883], [72.39809673067825, 34.26394723249896], [72.39810030464157, 34.26384534760725]]]]}, "properties": {"id": "Pakistan_123102310_851573", "height": 5.849410057067871, "hmax": 0.0, "ratio": 0.0, "vulnClass": "none"}}, {"type": "Feature", "geometry": {"type": "MultiPolygon", "coordinates": [[[[72.39846171895339, 34.26393875785539], [72.39845418929855, 34.264006932416315], [72.39864160271165, 34.26402100968342], [72.3986477892318, 34.26396470651971], [72.3985961154851, 34.26396081440461], [72.3985997384347, 34.263927805917554], [72.39863007156691, 34.26393007284447], [72.398632946547, 34.263903719647736], [72.39853458231518, 34.263896311674905], [72.39852931604494, 34.26394388972584], [72.39846171895339, 34.26393875785539]]]]}, "properties": {"id": "Pakistan_123102310_349502", "height": 3.627806901931763, "hmax": 0.0, "ratio": 0.0, "vulnClass": "none"}}, {"type": "Feature", "geometry": {"type": "MultiPolygon", "coordinates": [[[[72.39881208611324, 34.264077098126755], [72.39875742895212, 34.26406430791959], [72.3987433506421, 34.26410538827014], [72.39879801060236, 34.264118088392514], [72.39881208611324, 34.264077098126755]]]]}, "properties": {"id": "Pakistan_123102310_766716", "height": 2.858973979949951, "hmax": 0.0, "ratio": 0.0, "vulnClass": "none"}}, {"type": "Feature", "geometry": {"type": "MultiPolygon", "coordinates": [[[[72.39888687704695, 34.26406372130618], [72.39888112811072, 34.264091726349704], [72.3989644822527, 34.2641035031664], [72.39898105319848, 34.264023800919254], [72.39889759062025, 34.264012021812945], [72.39889937621433, 34.26400340523055], [72.39882121128923, 34.26399236962814], [72.39880871484417, 34.26405259560131], [72.39888687704695, 34.26406372130618]]]]}, "properties": {"id": "Pakistan_123102310_121846", "height": 2.858268260955811, "hmax": 0.0, "ratio": 0.0, "vulnClass": "none"}}, {"type": "Feature", "geometry": {"type": "MultiPolygon", "coordinates": [[[[72.39872166772666, 34.26432633874267], [72.39904548461944, 34.26435376965737], [72.3990557366314, 34.26427122869199], [72.39873191727288, 34.26424388791056], [72.39872166772666, 34.26432633874267]]]]}, "properties": {"id": "Pakistan_123102310_141621", "height": 3.847130298614502, "hmax": 0.0, "ratio": 0.0, "vulnClass": "none"}}, {"type": "Feature", "geometry": {"type": "MultiPolygon", "coordinates": [[[[72.4045186670168, 34.26471174255115], [72.40438453214365, 34.2647128668472], [72.40438443875604, 34.26470177627294], [72.40425845065589, 34.26470280261403], [72.40425941741722, 34.26479144170903], [72.40451953787695, 34.264789381174154], [72.4045186670168, 34.26471174255115]]]]}, "properties": {"id": "Pakistan_123102310_18775", "height": 3.857306480407715, "hmax": 0.0, "ratio": 0.0, "vulnClass": "none"}}, {"type": "Feature", "geometry": {"type": "MultiPolygon", "coordinates": [[[[72.40451677170033, 34.26468862368657], [72.4045182699826, 34.26463988364352], [72.40448463111623, 34.26463917084081], [72.4044831328146, 34.264687910882564], [72.40451677170033, 34.26468862368657]]]]}, "properties": {"id": "Pakistan_123102310_84899", "height": 3.512331008911133, "hmax": 0.0, "ratio": 0.0, "vulnClass": "none"}}, {"type": "Feature", "geometry": {"type": "MultiPolygon", "coordinates": [[[[72.4057291818372, 34.2642125266553], [72.40569050782186, 34.26411064802551], [72.40566993042209, 34.26411598187303], [72.40563356681655, 34.26402019229341], [72.40557008463851, 34.264036607488116], [72.40560795128404, 34.26413648572512], [72.40555672477727, 34.26414982489797], [72.4055356287193, 34.26409429566428], [72.4055600372552, 34.26408796117231], [72.40551252038905, 34.26396290662915], [72.40551744770839, 34.26396156857703], [72.4054680242749, 34.26383142516587], [72.405285891351, 34.263878682880694], [72.40544109492866, 34.26428729036287], [72.4057291818372, 34.2642125266553]]]]}, "properties": {"id": "Pakistan_123102310_93106", "height": 3.564120531082153, "hmax": 0.171, "ratio": 0.048, "vulnClass": "low"}}, {"type": "Feature", "geometry": {"type": "MultiPolygon", "coordinates": [[[[72.40581067316032, 34.264136542233594], [72.4057454326375, 34.26424198968613], [72.40596142177235, 34.26433328953362], [72.40604231985508, 34.264202390293526], [72.40599344175493, 34.264181702217755], [72.40598750020239, 34.26419131272301], [72.40585662076732, 34.2641359827788], [72.40584679603695, 34.26415182162235], [72.40581067316032, 34.264136542233594]]]]}, "properties": {"id": "Pakistan_123102310_515113", "height": 7.734315395355225, "hmax": 0.265, "ratio": 0.034, "vulnClass": "low"}}, {"type": "Feature", "geometry": {"type": "MultiPolygon", "coordinates": [[[[72.40614420204373, 34.263780746863816], [72.40612807057329, 34.26381808847725], [72.40618983590075, 34.26383634485693], [72.40623669501011, 34.26372834427796], [72.4061297368877, 34.26369669004572], [72.40609911766302, 34.263767351269934], [72.40614420204373, 34.263780746863816]]]]}, "properties": {"id": "Pakistan_123102310_614494", "height": 5.434821605682373, "hmax": 0.0, "ratio": 0.0, "vulnClass": "none"}}, {"type": "Feature", "geometry": {"type": "MultiPolygon", "coordinates": [[[[72.40621166955941, 34.26385727153195], [72.4063153060135, 34.26387334934837], [72.4063021272629, 34.26393121784069], [72.40634351843744, 34.26393759351464], [72.40638304901215, 34.26376416819783], [72.40633117658173, 34.26375612818284], [72.40631660774852, 34.263820367981985], [72.40622334695367, 34.26380586214734], [72.40621166955941, 34.26385727153195]]]]}, "properties": {"id": "Pakistan_123102310_391932", "height": 6.020633220672607, "hmax": 0.0, "ratio": 0.0, "vulnClass": "none"}}, {"type": "Feature", "geometry": {"type": "MultiPolygon", "coordinates": [[[[72.40628117453632, 34.26370133925667], [72.4062406349687, 34.26369552250491], [72.4062241096462, 34.263773964758684], [72.40626464924965, 34.26377978151753], [72.40628117453632, 34.26370133925667]]]]}, "properties": {"id": "Pakistan_123102310_263552", "height": 5.235836982727051, "hmax": 0.0, "ratio": 0.0, "vulnClass": "none"}}, {"type": "Feature", "geometry": {"type": "MultiPolygon", "coordinates": [[[[72.40623808400261, 34.26347811384013], [72.40636109223526, 34.26352101612489], [72.40638177212111, 34.26348052533932], [72.40625876393422, 34.26343762307731], [72.40623808400261, 34.26347811384013]]]]}, "properties": {"id": "Pakistan_123102310_604945", "height": 3.325060844421387, "hmax": 0.0, "ratio": 0.0, "vulnClass": "none"}}, {"type": "Feature", "geometry": {"type": "MultiPolygon", "coordinates": [[[[72.40638425520639, 34.264142017595944], [72.4064076429674, 34.264154773382394], [72.40641538499858, 34.26402998769178], [72.40629501433828, 34.26402491466564], [72.4062997456702, 34.26394865675127], [72.4059311579119, 34.263932918059155], [72.40593104940021, 34.26393291576111], [72.40590236642558, 34.26396881955891], [72.40586220846961, 34.26382688240445], [72.40571386157038, 34.26382058525741], [72.40578941479788, 34.26372581376539], [72.40573794272042, 34.2636976782557], [72.40568057399292, 34.26376957584764], [72.40549550237913, 34.2636686531826], [72.40539748028922, 34.26379143633234], [72.40687337817208, 34.26459591761712], [72.40694486396849, 34.26450628806873], [72.40676459197022, 34.26440808325112], [72.40669053357236, 34.26442238193634], [72.40667153539127, 34.2643550874835], [72.40672997409379, 34.26434379371229], [72.40659192928432, 34.264337896020706], [72.40659534241395, 34.2642833366319], [72.4065557981109, 34.264291063736565], [72.40655321472298, 34.26433274906401], [72.40637828615871, 34.26423736136813], [72.40638425520639, 34.264142017595944]]]]}, "properties": {"id": "Pakistan_123102310_65927", "height": 6.915425300598145, "hmax": 0.213, "ratio": 0.031, "vulnClass": "low"}}, {"type": "Feature", "geometry": {"type": "MultiPolygon", "coordinates": [[[[72.40543871819702, 34.26349183581738], [72.40592182081569, 34.26371022707745], [72.40600541945048, 34.263714070977116], [72.40600252193238, 34.263758904930604], [72.40612204040401, 34.26381291231102], [72.40613946466324, 34.26378650637461], [72.40611408509015, 34.26377497047763], [72.40612077405504, 34.26367387228506], [72.40632407792138, 34.263683225817296], [72.40632046424864, 34.26373724004518], [72.40637164292029, 34.26373958584613], [72.40639509216301, 34.26370438247206], [72.40639790921593, 34.263662161186154], [72.40633100751043, 34.26365912186415], [72.40633357494238, 34.2636214930081], [72.4062225182714, 34.263571271069196], [72.40618653254658, 34.26359394837189], [72.40617879122617, 34.26360559425579], [72.4060613620745, 34.26360022269844], [72.40606578635305, 34.26353396507867], [72.40602360871517, 34.26353199007138], [72.4059993555119, 34.26356861876642], [72.40589873183248, 34.26356405370387], [72.4058571232124, 34.26351881809744], [72.40582014859072, 34.26351713351439], [72.40582211944843, 34.26348832686008], [72.40575717989111, 34.263417895662016], [72.40565547407537, 34.26341321733377], [72.4056240496114, 34.26346060236242], [72.4055632219715, 34.26345778142652], [72.40551204913507, 34.26340224619205], [72.40548791205913, 34.2634174212498], [72.40543871819702, 34.26349183581738]]]]}, "properties": {"id": "Pakistan_123102310_349542", "height": 5.641338348388672, "hmax": 0.373, "ratio": 0.066, "vulnClass": "low"}}, {"type": "Feature", "geometry": {"type": "MultiPolygon", "coordinates": [[[[72.40576913744125, 34.26325488502895], [72.40566027176067, 34.263225263481], [72.40564274451097, 34.26326915650771], [72.40575160747198, 34.263298868165975], [72.40576913744125, 34.26325488502895]]]]}, "properties": {"id": "Pakistan_123102310_311584", "height": 2.732149362564087, "hmax": 0.0, "ratio": 0.0, "vulnClass": "none"}}, {"type": "Feature", "geometry": {"type": "MultiPolygon", "coordinates": [[[[72.40580579475376, 34.26327396209286], [72.40579107998566, 34.263314669262705], [72.40587233531342, 34.26333469083764], [72.4058870500471, 34.2632939836565], [72.40580579475376, 34.26327396209286]]]]}, "properties": {"id": "Pakistan_123102310_179393", "height": 2.510507583618164, "hmax": 0.0, "ratio": 0.0, "vulnClass": "none"}}, {"type": "Feature", "geometry": {"type": "MultiPolygon", "coordinates": [[[[72.4061293448526, 34.263391339491484], [72.4060558601029, 34.26336931901103], [72.40603519784129, 34.26341630100136], [72.4061086826249, 34.2634383214957], [72.4061293448526, 34.263391339491484]]]]}, "properties": {"id": "Pakistan_123102310_339974", "height": 2.639079093933105, "hmax": 0.0, "ratio": 0.0, "vulnClass": "none"}}, {"type": "Feature", "geometry": {"type": "MultiPolygon", "coordinates": [[[[72.40261936282695, 34.263687031602885], [72.40263036037811, 34.26363308396547], [72.40242525501311, 34.26360466420778], [72.40242179307114, 34.26362189981131], [72.40245574357279, 34.26362658643037], [72.40244831636372, 34.26366330074404], [72.40261936282695, 34.263687031602885]]]]}, "properties": {"id": "Pakistan_123102310_837517", "height": 3.12285304069519, "hmax": 0.0, "ratio": 0.0, "vulnClass": "none"}}, {"type": "Feature", "geometry": {"type": "MultiPolygon", "coordinates": [[[[72.4024821387462, 34.263527439005294], [72.40253111764471, 34.263541279106875], [72.40254343418313, 34.26351151995454], [72.40259532070677, 34.263526142897355], [72.40260353171689, 34.263506303457554], [72.4025026691009, 34.263477750334], [72.4024821387462, 34.263527439005294]]]]}, "properties": {"id": "Pakistan_123102310_941586", "height": 2.642609596252441, "hmax": 0.0, "ratio": 0.0, "vulnClass": "none"}}, {"type": "Feature", "geometry": {"type": "MultiPolygon", "coordinates": [[[[72.40562584114005, 34.26278739090372], [72.40561401624984, 34.262575014589025], [72.40537746684028, 34.262584067797484], [72.40538929113333, 34.26279644410754], [72.40562584114005, 34.26278739090372]]]]}, "properties": {"id": "Pakistan_123102310_263544", "height": 3.955949783325195, "hmax": 0.17, "ratio": 0.043, "vulnClass": "low"}}, {"type": "Feature", "geometry": {"type": "MultiPolygon", "coordinates": [[[[72.407161370332, 34.26277392682748], [72.40704049601683, 34.26274288034956], [72.40702074804264, 34.262795471260624], [72.4071416251898, 34.26282642766821], [72.407161370332, 34.26277392682748]]]]}, "properties": {"id": "Pakistan_123102310_28213", "height": 2.811718702316284, "hmax": 0.0, "ratio": 0.0, "vulnClass": "none"}}, {"type": "Feature", "geometry": {"type": "MultiPolygon", "coordinates": [[[[72.40645673462055, 34.26343676650455], [72.406740766906, 34.26344440286182], [72.40674469525649, 34.263344778737604], [72.40646066607212, 34.263337052311996], [72.40645673462055, 34.26343676650455]]]]}, "properties": {"id": "Pakistan_123102310_244620", "height": 2.954854965209961, "hmax": 0.0, "ratio": 0.0, "vulnClass": "none"}}, {"type": "Feature", "geometry": {"type": "MultiPolygon", "coordinates": [[[[72.40642218734695, 34.26364239121997], [72.40638776148752, 34.26382638218824], [72.40663922636614, 34.26385857157008], [72.40664689589128, 34.2638174446773], [72.4065787577268, 34.2638086997806], [72.40660551364584, 34.26366583563061], [72.40642218734695, 34.26364239121997]]]]}, "properties": {"id": "Pakistan_123102310_595516", "height": 6.108858585357666, "hmax": 0.0, "ratio": 0.0, "vulnClass": "none"}}, {"type": "Feature", "geometry": {"type": "MultiPolygon", "coordinates": [[[[72.40683244868059, 34.2637118392981], [72.40693291337607, 34.263728660803146], [72.40693452046807, 34.26372229408537], [72.40700149879666, 34.26373344831437], [72.40702085575676, 34.26365470527496], [72.40685330714163, 34.263626637185645], [72.40683244868059, 34.2637118392981]]]]}, "properties": {"id": "Pakistan_123102310_272820", "height": 5.737619876861572, "hmax": 0.0, "ratio": 0.0, "vulnClass": "none"}}, {"type": "Feature", "geometry": {"type": "MultiPolygon", "coordinates": [[[[72.40722119569787, 34.26381716157585], [72.40735849532912, 34.26386144720546], [72.40739170677328, 34.26379120111354], [72.40712184362096, 34.26370399215448], [72.40712497815888, 34.26369738731323], [72.40703982556727, 34.2636698916521], [72.40701404003656, 34.26372460852373], [72.40723175911295, 34.26379493750986], [72.40722119569787, 34.26381716157585]]]]}, "properties": {"id": "Pakistan_123102310_311594", "height": 5.311993598937988, "hmax": 0.0, "ratio": 0.0, "vulnClass": "none"}}, {"type": "Feature", "geometry": {"type": "MultiPolygon", "coordinates": [[[[72.40723273606427, 34.263575710305375], [72.40721308841498, 34.26355077327255], [72.40715545785913, 34.263581737374004], [72.40717510549739, 34.26360667441553], [72.40723273606427, 34.263575710305375]]]]}, "properties": {"id": "Pakistan_123102310_529198", "height": 5.43889331817627, "hmax": 0.0, "ratio": 0.0, "vulnClass": "none"}}, {"type": "Feature", "geometry": {"type": "MultiPolygon", "coordinates": [[[[72.4073854982425, 34.263300286169745], [72.40731200138728, 34.26335291143715], [72.40737645653546, 34.26341440661117], [72.40744995617538, 34.26336169121343], [72.4073854982425, 34.263300286169745]]]]}, "properties": {"id": "Pakistan_123102310_941612", "height": 3.945865392684937, "hmax": 0.0, "ratio": 0.0, "vulnClass": "none"}}, {"type": "Feature", "geometry": {"type": "MultiPolygon", "coordinates": [[[[72.40758633090184, 34.26324864301224], [72.40758705306573, 34.26321097506014], [72.40748676133501, 34.263209753935854], [72.40748603912644, 34.263247421885346], [72.40758633090184, 34.26324864301224]]]]}, "properties": {"id": "Pakistan_123102310_131358", "height": 3.169962882995605, "hmax": 0.0, "ratio": 0.0, "vulnClass": "none"}}, {"type": "Feature", "geometry": {"type": "MultiPolygon", "coordinates": [[[[72.40759255829572, 34.263328738997366], [72.40749456602394, 34.26331981353227], [72.40748666926949, 34.263378965938514], [72.4075847728855, 34.26338780361679], [72.40759255829572, 34.263328738997366]]]]}, "properties": {"id": "Pakistan_123102310_396731", "height": 3.37096118927002, "hmax": 0.0, "ratio": 0.0, "vulnClass": "none"}}, {"type": "Feature", "geometry": {"type": "MultiPolygon", "coordinates": [[[[72.40745701104524, 34.263464342534334], [72.40748339509885, 34.26342902075089], [72.4073923156543, 34.26338237797628], [72.40727818932825, 34.26353466192397], [72.40753496919191, 34.263666038205734], [72.40762260273699, 34.26354907353262], [72.40745701104524, 34.263464342534334]]]]}, "properties": {"id": "Pakistan_123102310_410799", "height": 4.413538932800293, "hmax": 0.0, "ratio": 0.0, "vulnClass": "none"}}, {"type": "Feature", "geometry": {"type": "MultiPolygon", "coordinates": [[[[72.40746967558763, 34.263709641749756], [72.40731318094423, 34.263650435602855], [72.40726237498751, 34.26374203570803], [72.40741886975658, 34.26380124192524], [72.40746967558763, 34.263709641749756]]]]}, "properties": {"id": "Pakistan_123102310_515120", "height": 4.944942474365234, "hmax": 0.0, "ratio": 0.0, "vulnClass": "none"}}, {"type": "Feature", "geometry": {"type": "MultiPolygon", "coordinates": [[[[72.4073900900584, 34.26293148432649], [72.40737551567898, 34.26297471891641], [72.40750996812544, 34.263005601695895], [72.40752443116673, 34.2629624548834], [72.4073900900584, 34.26293148432649]]]]}, "properties": {"id": "Pakistan_123102310_93122", "height": 2.461605548858643, "hmax": 0.0, "ratio": 0.0, "vulnClass": "none"}}, {"type": "Feature", "geometry": {"type": "MultiPolygon", "coordinates": [[[[72.40755369876238, 34.26387648708325], [72.40754632264121, 34.263922217968116], [72.40770182816567, 34.26393939240246], [72.40770920420532, 34.263893661504554], [72.40755369876238, 34.26387648708325]]]]}, "properties": {"id": "Pakistan_123102310_757214", "height": 3.142110586166382, "hmax": 0.0, "ratio": 0.0, "vulnClass": "none"}}, {"type": "Feature", "geometry": {"type": "MultiPolygon", "coordinates": [[[[72.40743346737696, 34.26385627271602], [72.40748007674553, 34.2638695197982], [72.40749906641206, 34.26382394456907], [72.40745245706472, 34.26381069749505], [72.40743346737696, 34.26385627271602]]]]}, "properties": {"id": "Pakistan_123102310_297327", "height": 3.354897975921631, "hmax": 0.0, "ratio": 0.0, "vulnClass": "none"}}, {"type": "Feature", "geometry": {"type": "MultiPolygon", "coordinates": [[[[72.4073458465143, 34.264001094244676], [72.40730629923844, 34.264132689373184], [72.40736694275543, 34.26414506159179], [72.40736815512949, 34.26414094029499], [72.40750961503612, 34.264169988109515], [72.40750090036975, 34.26419919297595], [72.40778889301205, 34.26425829701138], [72.40781079071643, 34.26418519698572], [72.40767947271064, 34.26415825733431], [72.40769386824444, 34.264110240913396], [72.40759535272396, 34.264090035524525], [72.4076041786224, 34.26406074285274], [72.40765715651352, 34.26407169057139], [72.40766658856741, 34.26404033724372], [72.40752761075245, 34.264011792904085], [72.40751382132865, 34.26405774865325], [72.40747087699037, 34.264048906414445], [72.40747716414853, 34.26402803423857], [72.4073458465143, 34.264001094244676]]]]}, "properties": {"id": "Pakistan_123102310_84921", "height": 4.290100574493408, "hmax": 0.0, "ratio": 0.0, "vulnClass": "none"}}, {"type": "Feature", "geometry": {"type": "MultiPolygon", "coordinates": [[[[72.40701017108239, 34.26413345273401], [72.40694039421014, 34.26411088019986], [72.40692123911398, 34.264151223056594], [72.40699090750095, 34.26417379330569], [72.40701017108239, 34.26413345273401]]]]}, "properties": {"id": "Pakistan_123102310_264445", "height": 2.801205396652222, "hmax": 0.0, "ratio": 0.0, "vulnClass": "none"}}, {"type": "Feature", "geometry": {"type": "MultiPolygon", "coordinates": [[[[72.40684650354494, 34.264141617425416], [72.40691337090898, 34.26415285951207], [72.40692501533599, 34.26410604706901], [72.4068580394947, 34.26409480269303], [72.40684650354494, 34.264141617425416]]]]}, "properties": {"id": "Pakistan_123102310_486588", "height": 3.618851661682129, "hmax": 0.0, "ratio": 0.0, "vulnClass": "none"}}, {"type": "Feature", "geometry": {"type": "MultiPolygon", "coordinates": [[[[72.40698905137494, 34.26404330514423], [72.4069644033709, 34.264096333205984], [72.40706731420586, 34.26412898286556], [72.40709196492413, 34.264075864688124], [72.40698905137494, 34.26404330514423]]]]}, "properties": {"id": "Pakistan_123102310_453367", "height": 3.350836277008057, "hmax": 0.0, "ratio": 0.0, "vulnClass": "none"}}, {"type": "Feature", "geometry": {"type": "MultiPolygon", "coordinates": [[[[72.40679957201174, 34.264050472598676], [72.40686584019313, 34.26405647325155], [72.4068713532301, 34.26401484993358], [72.40680508508062, 34.26400884928512], [72.40679957201174, 34.264050472598676]]]]}, "properties": {"id": "Pakistan_123102310_64376", "height": 4.479274272918701, "hmax": 0.0, "ratio": 0.0, "vulnClass": "none"}}, {"type": "Feature", "geometry": {"type": "MultiPolygon", "coordinates": [[[[72.40682433174261, 34.263983203039295], [72.4068614765945, 34.26398642349913], [72.40685518304177, 34.26403578330075], [72.4069719236996, 34.264045917552835], [72.40698280180621, 34.26396041399015], [72.4069429496971, 34.26395695595303], [72.40694220516096, 34.263963521233194], [72.40682806337107, 34.26395362227774], [72.40682433174261, 34.263983203039295]]]]}, "properties": {"id": "Pakistan_123102310_609666", "height": 4.869666576385498, "hmax": 0.0, "ratio": 0.0, "vulnClass": "none"}}, {"type": "Feature", "geometry": {"type": "MultiPolygon", "coordinates": [[[[72.40674834078602, 34.26393669891227], [72.40674608679085, 34.26396766322302], [72.40682089629787, 34.263971320494306], [72.40682314749894, 34.26394044627363], [72.40674834078602, 34.26393669891227]]]]}, "properties": {"id": "Pakistan_123102310_75293", "height": 5.227636337280273, "hmax": 0.0, "ratio": 0.0, "vulnClass": "none"}}, {"type": "Feature", "geometry": {"type": "MultiPolygon", "coordinates": [[[[72.40719188323999, 34.26406806313077], [72.40719477739866, 34.26405514261158], [72.40732187291113, 34.26407460099664], [72.40733961859497, 34.263995282891955], [72.40713622092325, 34.263964202588156], [72.40712993491567, 34.26399210656748], [72.40702467043867, 34.26397599497096], [72.407010316336, 34.26404032955992], [72.40719188323999, 34.26406806313077]]]]}, "properties": {"id": "Pakistan_123102310_884818", "height": 4.635610103607178, "hmax": 0.0, "ratio": 0.0, "vulnClass": "none"}}, {"type": "Feature", "geometry": {"type": "MultiPolygon", "coordinates": [[[[72.40718586119975, 34.263871676357304], [72.40717476751286, 34.263932383783555], [72.40742387904692, 34.26396343993541], [72.40743497256165, 34.26390273247884], [72.40718586119975, 34.263871676357304]]]]}, "properties": {"id": "Pakistan_123102310_103937", "height": 3.60903525352478, "hmax": 0.0, "ratio": 0.0, "vulnClass": "none"}}, {"type": "Feature", "geometry": {"type": "MultiPolygon", "coordinates": [[[[72.40691349829414, 34.26377747237722], [72.40684547115579, 34.26375097018203], [72.40681908023853, 34.26379710982266], [72.40688710740388, 34.263823612033654], [72.40691349829414, 34.26377747237722]]]]}, "properties": {"id": "Pakistan_123102310_131350", "height": 5.120686531066895, "hmax": 0.0, "ratio": 0.0, "vulnClass": "none"}}, {"type": "Feature", "geometry": {"type": "MultiPolygon", "coordinates": [[[[72.40718273095922, 34.26387106918974], [72.40695574701827, 34.263819565896206], [72.40693935088467, 34.263869072442226], [72.40716633494478, 34.263920575771394], [72.40718273095922, 34.26387106918974]]]]}, "properties": {"id": "Pakistan_123102310_396729", "height": 3.900370597839355, "hmax": 0.0, "ratio": 0.0, "vulnClass": "none"}}, {"type": "Feature", "geometry": {"type": "MultiPolygon", "coordinates": [[[[72.40665098911899, 34.263885685685004], [72.40661826207044, 34.26396135088946], [72.40667765973298, 34.263978925839645], [72.4067104952489, 34.263903262914745], [72.40665098911899, 34.263885685685004]]]]}, "properties": {"id": "Pakistan_123102310_102594", "height": 8.618191719055176, "hmax": 0.0, "ratio": 0.0, "vulnClass": "none"}}, {"type": "Feature", "geometry": {"type": "MultiPolygon", "coordinates": [[[[72.40639518033802, 34.263849978599744], [72.40636828999146, 34.26392297263097], [72.40643951257982, 34.26394088823134], [72.4064662971282, 34.26386780179186], [72.40639518033802, 34.263849978599744]]]]}, "properties": {"id": "Pakistan_123102310_236137", "height": 6.292141914367676, "hmax": 0.0, "ratio": 0.0, "vulnClass": "none"}}, {"type": "Feature", "geometry": {"type": "MultiPolygon", "coordinates": [[[[72.40638163154475, 34.263941105075524], [72.40636626977317, 34.263988740260835], [72.40643885267191, 34.26400479149045], [72.40645421163929, 34.26395724638705], [72.40638163154475, 34.263941105075524]]]]}, "properties": {"id": "Pakistan_123102310_785562", "height": 4.837741851806641, "hmax": 0.0, "ratio": 0.0, "vulnClass": "none"}}, {"type": "Feature", "geometry": {"type": "MultiPolygon", "coordinates": [[[[72.40671949375015, 34.26402037959993], [72.40670249757326, 34.264092952124514], [72.40676451780685, 34.26410291970288], [72.4067816252124, 34.264030259372056], [72.40671949375015, 34.26402037959993]]]]}, "properties": {"id": "Pakistan_123102310_870613", "height": 4.116424560546875, "hmax": 0.0, "ratio": 0.0, "vulnClass": "none"}}, {"type": "Feature", "geometry": {"type": "MultiPolygon", "coordinates": [[[[72.40655044442845, 34.26412245770805], [72.40653287096107, 34.26417139835518], [72.40661423858836, 34.264191331685744], [72.40663181201425, 34.26414239102512], [72.40655044442845, 34.26412245770805]]]]}, "properties": {"id": "Pakistan_123102310_151129", "height": 6.110169887542725, "hmax": 0.0, "ratio": 0.0, "vulnClass": "none"}}, {"type": "Feature", "geometry": {"type": "MultiPolygon", "coordinates": [[[[72.40641704898445, 34.264131352921055], [72.40653326332436, 34.26415508928754], [72.4065482657073, 34.26410501238776], [72.40643205419764, 34.26408118594566], [72.40641704898445, 34.264131352921055]]]]}, "properties": {"id": "Pakistan_123102310_382557", "height": 6.462201595306396, "hmax": 0.0, "ratio": 0.0, "vulnClass": "none"}}, {"type": "Feature", "geometry": {"type": "MultiPolygon", "coordinates": [[[[72.40643894338318, 34.26418212090502], [72.40639971300632, 34.26425386198745], [72.4064887037784, 34.26428720904905], [72.4065098710313, 34.26424853159307], [72.40648313931031, 34.26423858986165], [72.40650131366506, 34.26420543841348], [72.40643894338318, 34.26418212090502]]]]}, "properties": {"id": "Pakistan_123102310_140714", "height": 4.427909374237061, "hmax": 0.0, "ratio": 0.0, "vulnClass": "none"}}, {"type": "Feature", "geometry": {"type": "MultiPolygon", "coordinates": [[[[72.4067339366393, 34.26431376708883], [72.40680107671326, 34.26434088163316], [72.40682226381078, 34.26430508938029], [72.40662953364802, 34.264227175109674], [72.40658463368865, 34.264303213626896], [72.40671011813245, 34.26435392102503], [72.4067339366393, 34.26431376708883]]]]}, "properties": {"id": "Pakistan_123102310_132005", "height": 4.918285369873047, "hmax": 0.0, "ratio": 0.0, "vulnClass": "none"}}, {"type": "Feature", "geometry": {"type": "MultiPolygon", "coordinates": [[[[72.40661255358005, 34.26421437472887], [72.40651657595915, 34.26417871619388], [72.40649861587356, 34.26421196233278], [72.40659459629003, 34.26424753079042], [72.40661255358005, 34.26421437472887]]]]}, "properties": {"id": "Pakistan_123102310_391936", "height": 5.574991226196289, "hmax": 0.0, "ratio": 0.0, "vulnClass": "none"}}, {"type": "Feature", "geometry": {"type": "MultiPolygon", "coordinates": [[[[72.4071740239853, 34.264342015375654], [72.4068834971775, 34.26425229497228], [72.40685274155587, 34.2643203391169], [72.40714315727658, 34.2644101473973], [72.4071740239853, 34.264342015375654]]]]}, "properties": {"id": "Pakistan_123102310_676393", "height": 4.44956111907959, "hmax": 0.0, "ratio": 0.0, "vulnClass": "none"}}, {"type": "Feature", "geometry": {"type": "MultiPolygon", "coordinates": [[[[72.40676488527697, 34.26439853342858], [72.40698272229012, 34.26448274867948], [72.40703565441254, 34.26438912024787], [72.40694100621322, 34.264352588667755], [72.40692309328604, 34.264384303298534], [72.40679979610259, 34.264336617412674], [72.40676488527697, 34.26439853342858]]]]}, "properties": {"id": "Pakistan_123102310_140718", "height": 4.301596164703369, "hmax": 0.0, "ratio": 0.0, "vulnClass": "none"}}, {"type": "Feature", "geometry": {"type": "MultiPolygon", "coordinates": [[[[72.40651814770402, 34.26487697082211], [72.40667624001753, 34.264880678682516], [72.4066778517049, 34.26483527658056], [72.40651976224349, 34.264831478633454], [72.40651814770402, 34.26487697082211]]]]}, "properties": {"id": "Pakistan_123102310_188773", "height": 3.243907451629639, "hmax": 0.0, "ratio": 0.0, "vulnClass": "none"}}, {"type": "Feature", "geometry": {"type": "MultiPolygon", "coordinates": [[[[72.40736317332549, 34.26586614958636], [72.40758187893455, 34.26589746346215], [72.40759791140434, 34.2658209037708], [72.4075158561569, 34.26580916026494], [72.40753494945277, 34.26571779040939], [72.40746856799883, 34.26570836194233], [72.40746003882388, 34.265749200233095], [72.40738965893267, 34.2657391461844], [72.40736317332549, 34.26586614958636]]]]}, "properties": {"id": "Pakistan_123102310_83438", "height": 2.658040523529053, "hmax": 0.0, "ratio": 0.0, "vulnClass": "none"}}, {"type": "Feature", "geometry": {"type": "MultiPolygon", "coordinates": [[[[72.39750420551552, 34.273703942724424], [72.39744416035659, 34.273682563119856], [72.39742234099356, 34.27372456052337], [72.39748238617544, 34.273745940139634], [72.39750420551552, 34.273703942724424]]]]}, "properties": {"id": "Pakistan_123102310_93004", "height": 3.800765991210938, "hmax": 0.0, "ratio": 0.0, "vulnClass": "none"}}, {"type": "Feature", "geometry": {"type": "MultiPolygon", "coordinates": [[[[72.39661058351207, 34.273862277041076], [72.39714163864649, 34.27401987942916], [72.39717319883029, 34.27394725749747], [72.39713865441378, 34.27393705749611], [72.39715232965266, 34.273905615020716], [72.39705020748535, 34.27387531753985], [72.39703478488724, 34.27391059935334], [72.3969363220046, 34.27388137121069], [72.39695513632957, 34.273838228221535], [72.39690391531012, 34.273822985860676], [72.3968774967676, 34.27388381708872], [72.39677289814715, 34.27385283568635], [72.39679089452974, 34.27381156850666], [72.39674333001717, 34.27379748561103], [72.39672544213884, 34.27383875508965], [72.39663279249508, 34.27381118283822], [72.39661058351207, 34.273862277041076]]]]}, "properties": {"id": "Pakistan_123102310_647549", "height": 3.147771596908569, "hmax": 0.0, "ratio": 0.0, "vulnClass": "none"}}, {"type": "Feature", "geometry": {"type": "MultiPolygon", "coordinates": [[[[72.40528019698023, 34.27523490236892], [72.405362893525, 34.27531084873643], [72.40551414827638, 34.27519847941549], [72.4054687311089, 34.27515685912131], [72.40544205893018, 34.27517666821438], [72.40540477951654, 34.27514234223287], [72.40528019698023, 34.27523490236892]]]]}, "properties": {"id": "Pakistan_123102310_932141", "height": 3.885905981063843, "hmax": 0.0, "ratio": 0.0, "vulnClass": "none"}}, {"type": "Feature", "geometry": {"type": "MultiPolygon", "coordinates": [[[[72.40591874193889, 34.27227055761664], [72.4061158440235, 34.272330445575605], [72.40611993024028, 34.27232115639869], [72.4061309354334, 34.27221392931824], [72.40608726460773, 34.2722109309422], [72.40605197659877, 34.27220017679355], [72.40604847175368, 34.272208216165474], [72.40603048473382, 34.27220693369867], [72.4059546354526, 34.27218387125244], [72.40598064204056, 34.272185684189026], [72.40599918174664, 34.27214424673021], [72.40597099256485, 34.2721357163865], [72.40598367893509, 34.27201265832782], [72.40594530336865, 34.27209884137897], [72.40593040542218, 34.27224439037204], [72.40591874193889, 34.27227055761664]]]]}, "properties": {"id": "Pakistan_123102310_272812", "height": 2.943869113922119, "hmax": 0.0, "ratio": 0.0, "vulnClass": "none"}}, {"type": "Feature", "geometry": {"type": "MultiPolygon", "coordinates": [[[[72.40353589586151, 34.2732163240465], [72.40345562053565, 34.273135920291885], [72.40341502243689, 34.2731636374557], [72.4034952977469, 34.27324404123606], [72.40353589586151, 34.2732163240465]]]]}, "properties": {"id": "Pakistan_123102310_188741", "height": 5.204911231994629, "hmax": 0.0, "ratio": 0.0, "vulnClass": "none"}}, {"type": "Feature", "geometry": {"type": "MultiPolygon", "coordinates": [[[[72.40223355373806, 34.27221687905702], [72.40227774870708, 34.27223106865274], [72.40230807200798, 34.272166712913936], [72.40226376854419, 34.27215252102858], [72.40223355373806, 34.27221687905702]]]]}, "properties": {"id": "Pakistan_123102310_524588", "height": 3.77514123916626, "hmax": 0.0, "ratio": 0.0, "vulnClass": "none"}}, {"type": "Feature", "geometry": {"type": "MultiPolygon", "coordinates": [[[[72.40212798076121, 34.27223519418273], [72.40216018948726, 34.272158978539395], [72.40209098109267, 34.27213893941602], [72.40205866379215, 34.272215152736884], [72.40212798076121, 34.27223519418273]]]]}, "properties": {"id": "Pakistan_123102310_263516", "height": 4.696696758270264, "hmax": 0.0, "ratio": 0.0, "vulnClass": "none"}}, {"type": "Feature", "geometry": {"type": "MultiPolygon", "coordinates": [[[[72.39990446028673, 34.270267162802725], [72.39985470235922, 34.27026087772055], [72.39984517370635, 34.270312872859], [72.39989493166331, 34.27031915794639], [72.39990446028673, 34.270267162802725]]]]}, "properties": {"id": "Pakistan_123102310_56529", "height": 2.930611371994019, "hmax": 0.0, "ratio": 0.0, "vulnClass": "none"}}, {"type": "Feature", "geometry": {"type": "MultiPolygon", "coordinates": [[[[72.39986625760446, 34.27038634276625], [72.39973675829643, 34.27035654820588], [72.39970675305908, 34.27044579171589], [72.39983625248931, 34.2704755863134], [72.39986625760446, 34.27038634276625]]]]}, "properties": {"id": "Pakistan_123102310_28135", "height": 2.5246262550354, "hmax": 0.0, "ratio": 0.0, "vulnClass": "none"}}, {"type": "Feature", "geometry": {"type": "MultiPolygon", "coordinates": [[[[72.39787617147161, 34.26649544331313], [72.39779054106607, 34.26664904440316], [72.39786899602268, 34.26667892843613], [72.39784255765075, 34.26672641723431], [72.39788795394954, 34.26674378914521], [72.39794852592712, 34.26663518189816], [72.39796172604389, 34.26664024032325], [72.39801333393925, 34.266547669784956], [72.39787617147161, 34.26649544331313]]]]}, "properties": {"id": "Pakistan_123102310_884776", "height": 3.271355390548706, "hmax": 0.0, "ratio": 0.0, "vulnClass": "none"}}, {"type": "Feature", "geometry": {"type": "MultiPolygon", "coordinates": [[[[72.39382287023075, 34.26851194453468], [72.39378536806036, 34.26851322001701], [72.3937881846531, 34.26856971438693], [72.39382568684869, 34.26856843890489], [72.39382287023075, 34.26851194453468]]]]}, "properties": {"id": "Pakistan_123102310_344676", "height": 7.732814788818359, "hmax": 0.0, "ratio": 0.0, "vulnClass": "none"}}, {"type": "Feature", "geometry": {"type": "MultiPolygon", "coordinates": [[[[72.39305921310998, 34.26877786496363], [72.39311036350588, 34.26878472332221], [72.39312118431336, 34.268729691170435], [72.39307003394934, 34.2687228328178], [72.39305921310998, 34.26877786496363]]]]}, "properties": {"id": "Pakistan_123102310_496000", "height": 3.157824039459229, "hmax": 0.0, "ratio": 0.0, "vulnClass": "none"}}, {"type": "Feature", "geometry": {"type": "MultiPolygon", "coordinates": [[[[72.3930614808919, 34.268792337366136], [72.39305375138227, 34.268849238325004], [72.39311471285495, 34.26885486309449], [72.39312244232448, 34.268797962129945], [72.3930614808919, 34.268792337366136]]]]}, "properties": {"id": "Pakistan_123102310_647530", "height": 4.234125137329102, "hmax": 0.0, "ratio": 0.0, "vulnClass": "none"}}, {"type": "Feature", "geometry": {"type": "MultiPolygon", "coordinates": [[[[72.39280249870129, 34.26890834807972], [72.39280651094242, 34.26880656305154], [72.3926897691167, 34.268803356744066], [72.39268575395285, 34.26890523185357], [72.39280249870129, 34.26890834807972]]]]}, "properties": {"id": "Pakistan_123102310_752423", "height": 3.84459924697876, "hmax": 0.0, "ratio": 0.0, "vulnClass": "none"}}, {"type": "Feature", "geometry": {"type": "MultiPolygon", "coordinates": [[[[72.39282084089129, 34.268947323077896], [72.39281553199149, 34.26903132079065], [72.39286107857059, 34.269033281976085], [72.39286627890843, 34.26894928194937], [72.39282084089129, 34.268947323077896]]]]}, "properties": {"id": "Pakistan_123102310_198241", "height": 2.822489976882935, "hmax": 0.0, "ratio": 0.0, "vulnClass": "none"}}, {"type": "Feature", "geometry": {"type": "MultiPolygon", "coordinates": [[[[72.39297803739136, 34.26890992097972], [72.3930285172681, 34.26891388027539], [72.39303310544265, 34.26887431156733], [72.39298262558911, 34.268870352274625], [72.39297803739136, 34.26890992097972]]]]}, "properties": {"id": "Pakistan_123102310_804327", "height": 3.033029079437256, "hmax": 0.0, "ratio": 0.0, "vulnClass": "none"}}, {"type": "Feature", "geometry": {"type": "MultiPolygon", "coordinates": [[[[72.39309199395035, 34.268873221063984], [72.39303940496194, 34.268867233584714], [72.3930087175428, 34.26904868508662], [72.3928693536945, 34.26903255661425], [72.39286139027908, 34.26907944583469], [72.39305345184515, 34.269101564131354], [72.39309199395035, 34.268873221063984]]]]}, "properties": {"id": "Pakistan_123102310_685794", "height": 4.201003551483154, "hmax": 0.0, "ratio": 0.0, "vulnClass": "none"}}, {"type": "Feature", "geometry": {"type": "MultiPolygon", "coordinates": [[[[72.39494363965503, 34.27156161126238], [72.39516519154769, 34.27157488780191], [72.3951717424956, 34.27149984131214], [72.39512903547107, 34.271497310291295], [72.395127052078, 34.27151935506781], [72.39503101691139, 34.27151361632235], [72.39503721191493, 34.2714430698142], [72.39498919298785, 34.27144024546352], [72.39499206099572, 34.27140713094998], [72.39504712260606, 34.2714104656943], [72.39505349560947, 34.27133766919828], [72.39501978473298, 34.2713356900838], [72.39502732609138, 34.27124966626276], [72.39510363531082, 34.2712541741044], [72.39510766881043, 34.27120792234874], [72.39494865890254, 34.27119841007616], [72.39493559560313, 34.271347241736635], [72.39499867932983, 34.271351017584514], [72.39499669590882, 34.27137306235798], [72.39496038331387, 34.27137093773865], [72.39494363965503, 34.27156161126238]]]]}, "properties": {"id": "Pakistan_123102310_771290", "height": 3.073989629745483, "hmax": 0.0, "ratio": 0.0, "vulnClass": "none"}}, {"type": "Feature", "geometry": {"type": "MultiPolygon", "coordinates": [[[[72.39538470396312, 34.27206601028455], [72.39559816223542, 34.272063608000444], [72.39559750699557, 34.272021493613266], [72.39538404883, 34.27202389590113], [72.39538470396312, 34.27206601028455]]]]}, "properties": {"id": "Pakistan_123102310_733433", "height": 3.394637584686279, "hmax": 0.0, "ratio": 0.0, "vulnClass": "none"}}, {"type": "Feature", "geometry": {"type": "MultiPolygon", "coordinates": [[[[72.39573366290766, 34.27179684806936], [72.39572426299493, 34.2720381623713], [72.39578589193106, 34.27203983342182], [72.39579204447317, 34.27188265097588], [72.39586441688176, 34.27188455042371], [72.39586649083695, 34.2718314055059], [72.39578880372639, 34.27182930290226], [72.39578997692288, 34.27179831594814], [72.39573366290766, 34.27179684806936]]]]}, "properties": {"id": "Pakistan_123102310_282334", "height": 4.554099082946777, "hmax": 0.0, "ratio": 0.0, "vulnClass": "none"}}]}