{"type": "FeatureCollection", "features": [{"type": "Feature", "geometry": {"type": "MultiPolygon", "coordinates": [[[[72.43233078316072, 34.32762039341371], [72.43219513594077, 34.32761790802703], [72.43219320965986, 34.3276917915672], [72.4324077059122, 34.32769566075732], [72.43240879591072, 34.32765277166749], [72.43232994703712, 34.32765138787404], [72.43233078316072, 34.32762039341371]]]]}, "properties": {"id": "Pakistan_123102133_69690", "height": 3.829540967941284, "hmax": 0.0, "ratio": 0.0, "vulnClass": "none"}}]}