{"type": "FeatureCollection", "features": [{"type": "Feature", "geometry": {"type": "MultiPolygon", "coordinates": [[[[71.83642415049391, 34.46677834906238], [71.83625181961506, 34.4667136758414], [71.83622763135966, 34.46675766478132], [71.8363998535859, 34.46682233522344], [71.83642415049391, 34.46677834906238]]]]}, "properties": {"id": "Pakistan_123102132_52541", "height": 3.034655332565308, "hmax": 0.0, "ratio": 0.0, "vulnClass": "none"}}, {"type": "Feature", "geometry": {"type": "MultiPolygon", "coordinates": [[[[71.830680223777, 34.46812785764985], [71.83083148368056, 34.468363964420476], [71.83090904922814, 34.468330194922984], [71.83092837123607, 34.46836025979813], [71.83103736182133, 34.4683127944578], [71.83101300886759, 34.46827475752006], [71.83106125238517, 34.46825374681645], [71.83095160821344, 34.468082624199205], [71.83098513635711, 34.46806799155405], [71.8309485510014, 34.46801097974749], [71.830680223777, 34.46812785764985]]]]}, "properties": {"id": "Pakistan_123102132_259001", "height": 2.880043029785156, "hmax": 0.0, "ratio": 0.0, "vulnClass": "none"}}, {"type": "Feature", "geometry": {"type": "MultiPolygon", "coordinates": [[[[71.82939282558068, 34.46817898128084], [71.82943591782481, 34.468081315128245], [71.8293175529619, 34.46804579413156], [71.82927446401317, 34.46814337019239], [71.82939282558068, 34.46817898128084]]]]}, "properties": {"id": "Pakistan_123102132_129507", "height": 2.772801399230957, "hmax": 0.0, "ratio": 0.0, "vulnClass": "none"}}, {"type": "Feature", "geometry": {"type": "MultiPolygon", "coordinates": [[[[71.82874129319268, 34.46702882887868], [71.82897572648211, 34.46712595053149], [71.82901912443793, 34.46705470122464], [71.82878469128437, 34.46695757966253], [71.82874129319268, 34.46702882887868]]]]}, "properties": {"id": "Pakistan_123102132_6479", "height": 3.158639669418335, "hmax": 0.172, "ratio": 0.054, "vulnClass": "low"}}, {"type": "Feature", "geometry": {"type": "MultiPolygon", "coordinates": [[[[71.82934026607109, 34.46697425975665], [71.82944155992524, 34.46704385814501], [71.82947117571865, 34.467014703154305], [71.8294188828316, 34.46697882472417], [71.82944737734078, 34.4669505419486], [71.82948694096187, 34.466977707558335], [71.8295133933128, 34.46695162505303], [71.82949589100838, 34.46693963368843], [71.82951488164377, 34.466920928565145], [71.82954978094581, 34.46694481841999], [71.82959149985037, 34.46690353936942], [71.82952647772336, 34.46685894818804], [71.82948351178752, 34.46690154682377], [71.82944235832457, 34.46687325834671], [71.82934026607109, 34.46697425975665]]]]}, "properties": {"id": "Pakistan_123102132_539008", "height": 3.020483255386353, "hmax": 0.0, "ratio": 0.0, "vulnClass": "none"}}, {"type": "Feature", "geometry": {"type": "MultiPolygon", "coordinates": [[[[71.83098008043834, 34.46629450555816], [71.83090427699562, 34.466258738684076], [71.83087354265844, 34.46630309739465], [71.83108599504001, 34.46640306957927], [71.8311305418797, 34.466338789459556], [71.83109001908754, 34.46631971140064], [71.83111891164683, 34.46627800880995], [71.83102289773977, 34.46623279443356], [71.83098008043834, 34.46629450555816]]]]}, "properties": {"id": "Pakistan_123102132_554287", "height": 3.017563819885254, "hmax": 0.0, "ratio": 0.0, "vulnClass": "none"}}, {"type": "Feature", "geometry": {"type": "MultiPolygon", "coordinates": [[[[71.83561984686634, 34.46392851893082], [71.83588951138222, 34.46402635994109], [71.83593600083259, 34.4639393246917], [71.8356663365264, 34.46384148379548], [71.83561984686634, 34.46392851893082]]]]}, "properties": {"id": "Pakistan_123102132_523775", "height": 3.572904109954834, "hmax": 0.0, "ratio": 0.0, "vulnClass": "none"}}, {"type": "Feature", "geometry": {"type": "MultiPolygon", "coordinates": [[[[71.83039492124848, 34.46461799827385], [71.83019077985108, 34.46455735820808], [71.83017101248473, 34.464602361958406], [71.83032059390855, 34.464646804189876], [71.83031034832955, 34.46467024307325], [71.8303649049989, 34.46468653099477], [71.83039492124848, 34.46461799827385]]]]}, "properties": {"id": "Pakistan_123102132_511575", "height": 3.581741809844971, "hmax": 0.0, "ratio": 0.0, "vulnClass": "none"}}, {"type": "Feature", "geometry": {"type": "MultiPolygon", "coordinates": [[[[71.8300784947513, 34.464700638281066], [71.83011678151884, 34.46471551251826], [71.83014847484371, 34.464660182726846], [71.83011007937871, 34.46464530567854], [71.8300784947513, 34.464700638281066]]]]}, "properties": {"id": "Pakistan_123102132_477755", "height": 2.892068862915039, "hmax": 0.0, "ratio": 0.0, "vulnClass": "none"}}, {"type": "Feature", "geometry": {"type": "MultiPolygon", "coordinates": [[[[71.83016591683278, 34.46481755596889], [71.83027836055119, 34.46484264724539], [71.8303019834585, 34.46477052357187], [71.83010709434322, 34.464727068402155], [71.8300922122782, 34.464772379213585], [71.83002217369435, 34.46475686100194], [71.82999511466737, 34.464839260640524], [71.8301475955008, 34.46487323286918], [71.83016591683278, 34.46481755596889]]]]}, "properties": {"id": "Pakistan_123102132_30955", "height": 2.472844123840332, "hmax": 0.0, "ratio": 0.0, "vulnClass": "none"}}, {"type": "Feature", "geometry": {"type": "MultiPolygon", "coordinates": [[[[71.83054348256283, 34.46345833490808], [71.8309063985779, 34.46335193330307], [71.83086447165786, 34.463254944351114], [71.83081451267003, 34.46326960128234], [71.83082801728439, 34.463300957303204], [71.83051516584376, 34.46339279476813], [71.83054348256283, 34.46345833490808]]]]}, "properties": {"id": "Pakistan_123102132_283619", "height": 2.908150672912598, "hmax": 0.0, "ratio": 0.0, "vulnClass": "none"}}, {"type": "Feature", "geometry": {"type": "MultiPolygon", "coordinates": [[[[71.83050721861015, 34.46340151161314], [71.830104819632, 34.46340098155972], [71.83010465354836, 34.46349165044436], [71.8305070529624, 34.46349218052239], [71.83050721861015, 34.46340151161314]]]]}, "properties": {"id": "Pakistan_123102132_240547", "height": 2.876734256744385, "hmax": 0.0, "ratio": 0.0, "vulnClass": "none"}}, {"type": "Feature", "geometry": {"type": "MultiPolygon", "coordinates": [[[[71.83073338020327, 34.46382063839565], [71.83068579820421, 34.463976684578], [71.83092787786126, 34.4640268615107], [71.83092985573607, 34.464020603569004], [71.8309449702191, 34.46402378990868], [71.83095702110644, 34.46398426410813], [71.8309141542764, 34.46397540028653], [71.83092745240971, 34.46393167063242], [71.83091741006643, 34.46392960737511], [71.83093766479612, 34.46386307448211], [71.83073338020327, 34.46382063839565]]]]}, "properties": {"id": "Pakistan_123102132_428470", "height": 2.756985664367676, "hmax": 0.883, "ratio": 0.32, "vulnClass": "moderate"}}, {"type": "Feature", "geometry": {"type": "MultiPolygon", "coordinates": [[[[71.83267770419009, 34.46251639175216], [71.83267572771896, 34.46246217086244], [71.83260765614422, 34.46246374023394], [71.83260518855344, 34.46239084918054], [71.83256227737617, 34.46239180924758], [71.83256361646157, 34.46242834763764], [71.83244130034194, 34.46243130407027], [71.83244260192495, 34.46246883294457], [71.83229262158935, 34.46247242365497], [71.83229442804972, 34.46252537827894], [71.83267770419009, 34.46251639175216]]]]}, "properties": {"id": "Pakistan_123102132_348288", "height": 2.625511646270752, "hmax": 0.0, "ratio": 0.0, "vulnClass": "none"}}, {"type": "Feature", "geometry": {"type": "MultiPolygon", "coordinates": [[[[71.83223227768285, 34.462695558629676], [71.83223673180046, 34.46260941738854], [71.83207338704456, 34.462603828168334], [71.83206904487814, 34.46268988217031], [71.83223227768285, 34.462695558629676]]]]}, "properties": {"id": "Pakistan_123102132_366646", "height": 2.879881381988525, "hmax": 0.0, "ratio": 0.0, "vulnClass": "none"}}, {"type": "Feature", "geometry": {"type": "MultiPolygon", "coordinates": [[[[71.835804547188, 34.46257068044609], [71.83597378428584, 34.46264500823497], [71.83595216938933, 34.46267851833064], [71.83621121669948, 34.462792307318885], [71.83625848594531, 34.46271917252742], [71.83618119841232, 34.46268526329004], [71.83624234293177, 34.46259049561922], [71.83604891730195, 34.46250544666361], [71.83601666832672, 34.462555445923144], [71.83593638468388, 34.46252019705527], [71.83595868922791, 34.462485713370434], [71.83588140203966, 34.46245180396058], [71.835804547188, 34.46257068044609]]]]}, "properties": {"id": "Pakistan_123102132_366667", "height": 2.528194189071655, "hmax": 0.0, "ratio": 0.0, "vulnClass": "none"}}, {"type": "Feature", "geometry": {"type": "MultiPolygon", "coordinates": [[[[71.83587265256915, 34.46222246020894], [71.83599140493297, 34.46230809846047], [71.83583542750797, 34.46224862562047], [71.8359182680887, 34.462308366729545], [71.83586106247812, 34.462362225962984], [71.83590693144848, 34.46239532135497], [71.83605561530541, 34.46245199130221], [71.83607252811693, 34.46242196466582], [71.8360597138616, 34.46241261941067], [71.83609288954611, 34.46238130159414], [71.83599458131242, 34.46231043407172], [71.83601931858009, 34.462266279080836], [71.83590988813454, 34.46218737193033], [71.83587265256915, 34.46222246020894]]]]}, "properties": {"id": "Pakistan_123102132_385270", "height": 2.536612510681152, "hmax": 0.0, "ratio": 0.0, "vulnClass": "none"}}, {"type": "Feature", "geometry": {"type": "MultiPolygon", "coordinates": [[[[71.83575751361857, 34.46251943818853], [71.83532939613525, 34.46237593979998], [71.8353130163084, 34.46240913477794], [71.83538673304975, 34.462433848626596], [71.83525238822723, 34.46270626296451], [71.83578184422282, 34.462883663470635], [71.83579963737053, 34.46284762080591], [71.83562469532362, 34.46278891814442], [71.83568833215485, 34.462659874839474], [71.83563632017228, 34.462642483522366], [71.83565400460783, 34.46260643806133], [71.83568764082153, 34.46261767487613], [71.83570637847127, 34.46257967377999], [71.83572475081519, 34.4625859183151], [71.83575751361857, 34.46251943818853]]]]}, "properties": {"id": "Pakistan_123102132_332953", "height": 3.614955425262451, "hmax": 0.0, "ratio": 0.0, "vulnClass": "none"}}, {"type": "Feature", "geometry": {"type": "MultiPolygon", "coordinates": [[[[71.83536306730981, 34.46166602682366], [71.83542532393217, 34.46170315235143], [71.83538962033329, 34.46174377827055], [71.83543548903089, 34.4617711053346], [71.83549917043808, 34.461698486255486], [71.83539104514243, 34.461634033703135], [71.83536306730981, 34.46166602682366]]]]}, "properties": {"id": "Pakistan_123102132_237422", "height": 2.768050909042358, "hmax": 0.0, "ratio": 0.0, "vulnClass": "none"}}, {"type": "Feature", "geometry": {"type": "MultiPolygon", "coordinates": [[[[71.83502555076068, 34.46149504139136], [71.83498072706676, 34.46157256544768], [71.83502018886672, 34.46158800938028], [71.83500039480286, 34.46162228755816], [71.83507181066305, 34.46165027685072], [71.83504992372156, 34.461688106100176], [71.83511855055171, 34.461715031627335], [71.8351341520353, 34.46168803564778], [71.8352405252203, 34.46172972960827], [71.83528210075853, 34.46165752923399], [71.83518451958639, 34.46161930793176], [71.83524693549718, 34.461511053820516], [71.83518045240943, 34.461484995117566], [71.83514725858288, 34.461542721064724], [71.83502555076068, 34.46149504139136]]]]}, "properties": {"id": "Pakistan_123102132_342135", "height": 2.71826171875, "hmax": 0.0, "ratio": 0.0, "vulnClass": "none"}}, {"type": "Feature", "geometry": {"type": "MultiPolygon", "coordinates": [[[[71.83524027903252, 34.461839955373634], [71.8354596182157, 34.46196776897162], [71.83551141560166, 34.46190728023649], [71.835248528076, 34.4617540925321], [71.83516258284517, 34.461854345992975], [71.83508815752741, 34.46181095621727], [71.8350489984607, 34.461856630034255], [71.83513119653865, 34.46190454763515], [71.83515714628771, 34.46187439479893], [71.8351928132642, 34.46189523842237], [71.83524027903252, 34.461839955373634]]]]}, "properties": {"id": "Pakistan_123102132_135698", "height": 3.189878702163696, "hmax": 0.0, "ratio": 0.0, "vulnClass": "none"}}, {"type": "Feature", "geometry": {"type": "MultiPolygon", "coordinates": [[[[71.83492810141038, 34.46175579304938], [71.83490678855165, 34.461792825955555], [71.8350558476194, 34.46185103905507], [71.83509475632319, 34.46178318613373], [71.83502022510426, 34.461754124653666], [71.83500263259424, 34.46178485458405], [71.83492810141038, 34.46175579304938]]]]}, "properties": {"id": "Pakistan_123102132_311466", "height": 2.849792242050171, "hmax": 0.0, "ratio": 0.0, "vulnClass": "none"}}, {"type": "Feature", "geometry": {"type": "MultiPolygon", "coordinates": [[[[71.8345224304307, 34.461888138548595], [71.8357599904034, 34.4622579375877], [71.83577153541198, 34.4622317377447], [71.83565945147076, 34.462165470318304], [71.83569824342884, 34.46212086837992], [71.83573964851652, 34.462145375701844], [71.83578776977366, 34.462090019286464], [71.83564637035938, 34.461869316204684], [71.83560023460599, 34.46188939203948], [71.83568892163096, 34.46202770013932], [71.83560660754112, 34.46206351307194], [71.83562800308307, 34.462076145236594], [71.83560966965383, 34.462117852235345], [71.83559266647386, 34.46211281488728], [71.835571165617, 34.46210008985482], [71.83553542898034, 34.46211565809711], [71.8353470149322, 34.462059309965156], [71.83529152428814, 34.46197269667797], [71.83525546035044, 34.462014214539046], [71.83516808363672, 34.46198815515916], [71.83509644391127, 34.46194591916644], [71.8350592417444, 34.46198875945717], [71.83496293382906, 34.461960034888456], [71.83497769320556, 34.46192652756242], [71.83494460290788, 34.46187492531898], [71.83481526403558, 34.46183624117199], [71.83478206856232, 34.461784546029264], [71.83476067323096, 34.4617719137269], [71.83473279125865, 34.46178408001421], [71.8347030973983, 34.46181828181004], [71.83457052799291, 34.461778702482555], [71.8345224304307, 34.461888138548595]]]]}, "properties": {"id": "Pakistan_123102132_203706", "height": 3.166157007217407, "hmax": 0.157, "ratio": 0.05, "vulnClass": "low"}}, {"type": "Feature", "geometry": {"type": "MultiPolygon", "coordinates": [[[[71.83519447168132, 34.461436506569896], [71.83514063891971, 34.461360752098294], [71.83510139981688, 34.46137974462371], [71.83515523255242, 34.46145549911116], [71.83519447168132, 34.461436506569896]]]]}, "properties": {"id": "Pakistan_123102132_107750", "height": 2.512597322463989, "hmax": 0.0, "ratio": 0.0, "vulnClass": "none"}}, {"type": "Feature", "geometry": {"type": "MultiPolygon", "coordinates": [[[[71.83714965935098, 34.46189068359106], [71.83713440185045, 34.461905701114226], [71.83708243456867, 34.46186983438553], [71.83703169509877, 34.46191962543985], [71.83690793452865, 34.46183403873133], [71.83684114245021, 34.46189972792737], [71.83721581881997, 34.46215882913286], [71.83734860778029, 34.46202833102098], [71.83714965935098, 34.46189068359106]]]]}, "properties": {"id": "Pakistan_123102132_179054", "height": 2.939270496368408, "hmax": 0.0, "ratio": 0.0, "vulnClass": "none"}}, {"type": "Feature", "geometry": {"type": "MultiPolygon", "coordinates": [[[[71.83656513217996, 34.46321221006778], [71.83729825109003, 34.463699528040166], [71.83733232386537, 34.463664627820165], [71.83721045613699, 34.463583597004494], [71.83724260595588, 34.46355062992337], [71.83693697627926, 34.46334757692054], [71.83700047750139, 34.46328261367175], [71.83701183458463, 34.46329020857217], [71.83707680678476, 34.463223751125064], [71.83702149920681, 34.46318698664447], [71.83690547392865, 34.463305750619504], [71.83670706682248, 34.463173884927336], [71.83685070295965, 34.463027084018556], [71.83678733052992, 34.4629848828494], [71.83656513217996, 34.46321221006778]]]]}, "properties": {"id": "Pakistan_123102132_52542", "height": 4.159302711486816, "hmax": 0.0, "ratio": 0.0, "vulnClass": "none"}}, {"type": "Feature", "geometry": {"type": "MultiPolygon", "coordinates": [[[[71.83596828054642, 34.46381361490628], [71.83593937664935, 34.46388163717479], [71.83599664519328, 34.46389817312009], [71.83602565436605, 34.4638302436971], [71.83596828054642, 34.46381361490628]]]]}, "properties": {"id": "Pakistan_123102132_77111", "height": 3.098495483398438, "hmax": 0.0, "ratio": 0.0, "vulnClass": "none"}}, {"type": "Feature", "geometry": {"type": "MultiPolygon", "coordinates": [[[[71.83659823241187, 34.46398406180112], [71.83647927540001, 34.46393834750938], [71.83644697485728, 34.46399546600526], [71.83641168694942, 34.46398184314671], [71.83636550729216, 34.46406356879378], [71.83641613411615, 34.46408308712509], [71.83635387030705, 34.46419305825188], [71.83619308199798, 34.46413120782498], [71.83620334608722, 34.46411299656457], [71.83612064526328, 34.464081200325694], [71.83608053336663, 34.46415208688483], [71.83650787232308, 34.4643164734992], [71.8365232666944, 34.46428920158761], [71.83644303542098, 34.46425828072715], [71.83659823241187, 34.46398406180112]]]]}, "properties": {"id": "Pakistan_123102132_329881", "height": 2.547839164733887, "hmax": 0.0, "ratio": 0.0, "vulnClass": "none"}}, {"type": "Feature", "geometry": {"type": "MultiPolygon", "coordinates": [[[[71.83598345069882, 34.463965160296745], [71.83601926487366, 34.46398501606052], [71.83604105652769, 34.46395836062289], [71.83600524575887, 34.46393841482132], [71.83598345069882, 34.463965160296745]]]]}, "properties": {"id": "Pakistan_123102132_135706", "height": 4.195836544036865, "hmax": 0.0, "ratio": 0.0, "vulnClass": "none"}}, {"type": "Feature", "geometry": {"type": "MultiPolygon", "coordinates": [[[[71.83747742203687, 34.46460621550591], [71.83742814705985, 34.464573933778595], [71.83738239343161, 34.46462133033113], [71.83743166841592, 34.464653612077285], [71.83747742203687, 34.46460621550591]]]]}, "properties": {"id": "Pakistan_123102132_58814", "height": 4.425137519836426, "hmax": 0.0, "ratio": 0.0, "vulnClass": "none"}}, {"type": "Feature", "geometry": {"type": "MultiPolygon", "coordinates": [[[[71.83728969625543, 34.464012607479354], [71.83733521020274, 34.46403496739305], [71.83736116004438, 34.463999045604915], [71.83731564610811, 34.46397668570148], [71.83728969625543, 34.464012607479354]]]]}, "properties": {"id": "Pakistan_123102132_478", "height": 2.722522497177124, "hmax": 0.0, "ratio": 0.0, "vulnClass": "none"}}, {"type": "Feature", "geometry": {"type": "MultiPolygon", "coordinates": [[[[71.83499708544313, 34.457800760087615], [71.83513161284013, 34.45783155653408], [71.83514337850218, 34.45779661957954], [71.83507476447758, 34.45778096105676], [71.83513691554344, 34.45759608728537], [71.83507099894875, 34.45758103946243], [71.83499708544313, 34.457800760087615]]]]}, "properties": {"id": "Pakistan_123102132_98432", "height": 2.930552244186401, "hmax": 0.0, "ratio": 0.0, "vulnClass": "none"}}, {"type": "Feature", "geometry": {"type": "MultiPolygon", "coordinates": [[[[71.83400355510733, 34.45900045076214], [71.83394326191392, 34.45895174837259], [71.83399956896227, 34.458904356238136], [71.83394888250771, 34.45886347403344], [71.83386706162707, 34.45893237730987], [71.83368892059828, 34.45878868431207], [71.83362721852572, 34.45884062331678], [71.83391633918151, 34.459073901099984], [71.83400355510733, 34.45900045076214]]]]}, "properties": {"id": "Pakistan_123102132_514605", "height": 2.998265266418457, "hmax": 0.0, "ratio": 0.0, "vulnClass": "none"}}, {"type": "Feature", "geometry": {"type": "MultiPolygon", "coordinates": [[[[71.83316577828664, 34.45847957530779], [71.83356465570353, 34.45874832787825], [71.83364022634595, 34.458672052151684], [71.83356392986745, 34.45862068135549], [71.83358757539851, 34.45859677836599], [71.83326499115908, 34.45837948695043], [71.83316577828664, 34.45847957530779]]]]}, "properties": {"id": "Pakistan_123102132_600244", "height": 3.070789575576782, "hmax": 0.0, "ratio": 0.0, "vulnClass": "none"}}, {"type": "Feature", "geometry": {"type": "MultiPolygon", "coordinates": [[[[71.83370663159162, 34.459926796625005], [71.83387723150769, 34.45992743404329], [71.83387667835122, 34.460031342539104], [71.83395283998018, 34.46003160451832], [71.83395344374023, 34.45993211382665], [71.83397922838931, 34.459932241489085], [71.8339794898419, 34.459876366080174], [71.83391300794959, 34.459858959486205], [71.83394738745078, 34.45985912971131], [71.83369362864465, 34.45979288305922], [71.83366729709282, 34.459792831290535], [71.83364702282182, 34.45984557397393], [71.83364698090865, 34.45986395992736], [71.83363045091882, 34.459906885105234], [71.83370663159162, 34.459926796625005]]]]}, "properties": {"id": "Pakistan_123102132_43263", "height": 3.178004741668701, "hmax": 0.0, "ratio": 0.0, "vulnClass": "none"}}, {"type": "Feature", "geometry": {"type": "MultiPolygon", "coordinates": [[[[71.83553319046169, 34.45969716221741], [71.8353769755335, 34.459589371692644], [71.83521727079858, 34.4597468409211], [71.835356092683, 34.459842643969814], [71.83538909771275, 34.45981006003519], [71.83550904564562, 34.459892755271106], [71.83560534269381, 34.45979781712647], [71.83550278788096, 34.459727109650785], [71.83553319046169, 34.45969716221741]]]]}, "properties": {"id": "Pakistan_123102132_536063", "height": 2.833527088165283, "hmax": 0.0, "ratio": 0.0, "vulnClass": "none"}}, {"type": "Feature", "geometry": {"type": "MultiPolygon", "coordinates": [[[[71.83358949927666, 34.46074000001506], [71.83359124517175, 34.46079745970968], [71.83363143096813, 34.46079660885782], [71.83362968504538, 34.460739149162244], [71.83358949927666, 34.46074000001506]]]]}, "properties": {"id": "Pakistan_123102132_385260", "height": 2.711235523223877, "hmax": 0.0, "ratio": 0.0, "vulnClass": "none"}}, {"type": "Feature", "geometry": {"type": "MultiPolygon", "coordinates": [[[[71.83371604358364, 34.46017301237568], [71.83384459036127, 34.46016922464015], [71.83384232436453, 34.460114004770176], [71.83360113667567, 34.46012109118354], [71.83360722231541, 34.460262396535434], [71.83371975479231, 34.46025909504631], [71.83371604358364, 34.46017301237568]]]]}, "properties": {"id": "Pakistan_123102132_188248", "height": 2.928959369659424, "hmax": 0.0, "ratio": 0.0, "vulnClass": "none"}}, {"type": "Feature", "geometry": {"type": "MultiPolygon", "coordinates": [[[[71.82346441897243, 34.46645606574705], [71.82346277615342, 34.46635877040974], [71.82340376955119, 34.46635939862522], [71.82340752944852, 34.46659600321938], [71.82356582646841, 34.46659426240023], [71.82356359692575, 34.46645504034389], [71.82346441897243, 34.46645606574705]]]]}, "properties": {"id": "Pakistan_123102132_225005", "height": 2.53933310508728, "hmax": 0.0, "ratio": 0.0, "vulnClass": "none"}}, {"type": "Feature", "geometry": {"type": "MultiPolygon", "coordinates": [[[[71.82347412589799, 34.466346447147984], [71.82347619932429, 34.46632333711805], [71.82341214164566, 34.46631941746903], [71.82341006820194, 34.46634252749691], [71.82347412589799, 34.466346447147984]]]]}, "properties": {"id": "Pakistan_123102132_188182", "height": 3.171404838562012, "hmax": 0.0, "ratio": 0.0, "vulnClass": "none"}}, {"type": "Feature", "geometry": {"type": "MultiPolygon", "coordinates": [[[[71.82365463200554, 34.466341588502615], [71.82365515082661, 34.46631068666407], [71.82357476797185, 34.466309677348065], [71.82357414040409, 34.466340576356664], [71.82365463200554, 34.466341588502615]]]]}, "properties": {"id": "Pakistan_123102132_166520", "height": 2.90380334854126, "hmax": 0.0, "ratio": 0.0, "vulnClass": "none"}}, {"type": "Feature", "geometry": {"type": "MultiPolygon", "coordinates": [[[[71.82607798276564, 34.46692042618302], [71.82616256455368, 34.46712082538283], [71.82626785326912, 34.4670906636452], [71.82619994989837, 34.46692972525875], [71.82626937322475, 34.466909807735284], [71.82625269454378, 34.46687034698963], [71.82607798276564, 34.46692042618302]]]]}, "properties": {"id": "Pakistan_123102132_416051", "height": 2.866185665130615, "hmax": 0.0, "ratio": 0.0, "vulnClass": "none"}}, {"type": "Feature", "geometry": {"type": "MultiPolygon", "coordinates": [[[[71.82527518112559, 34.46814356201686], [71.82493181226832, 34.46828191035228], [71.82503236264208, 34.468451449606356], [71.82537572866147, 34.468313191063864], [71.82527518112559, 34.46814356201686]]]]}, "properties": {"id": "Pakistan_123102132_219011", "height": 3.028826236724854, "hmax": 0.0, "ratio": 0.0, "vulnClass": "none"}}, {"type": "Feature", "geometry": {"type": "MultiPolygon", "coordinates": [[[[71.82737995831455, 34.46898647218495], [71.82734646678794, 34.469023097028604], [71.82736964611416, 34.469037489509674], [71.8274032463583, 34.46900086748424], [71.82737995831455, 34.46898647218495]]]]}, "properties": {"id": "Pakistan_123102132_191330", "height": 4.68590784072876, "hmax": 0.0, "ratio": 0.0, "vulnClass": "none"}}, {"type": "Feature", "geometry": {"type": "MultiPolygon", "coordinates": [[[[71.82777900824173, 34.46916520665771], [71.82773029079624, 34.469141227704924], [71.82769962868718, 34.46918360448601], [71.8277482374254, 34.469207580627334], [71.82777900824173, 34.46916520665771]]]]}, "properties": {"id": "Pakistan_123102132_64804", "height": 4.574359893798828, "hmax": 0.0, "ratio": 0.0, "vulnClass": "none"}}, {"type": "Feature", "geometry": {"type": "MultiPolygon", "coordinates": [[[[71.82740429101834, 34.469269218358356], [71.82755989877535, 34.46936447506456], [71.82760102597429, 34.469318764917844], [71.8274453061152, 34.469223595484515], [71.82740429101834, 34.469269218358356]]]]}, "properties": {"id": "Pakistan_123102132_234309", "height": 3.059956073760986, "hmax": 0.0, "ratio": 0.0, "vulnClass": "none"}}, {"type": "Feature", "geometry": {"type": "MultiPolygon", "coordinates": [[[[71.8274042182973, 34.469138975357126], [71.82748576649253, 34.46918399704457], [71.82758485999797, 34.46906173836954], [71.82750341716832, 34.46901680961952], [71.8274042182973, 34.469138975357126]]]]}, "properties": {"id": "Pakistan_123102132_95378", "height": 3.075437068939209, "hmax": 0.0, "ratio": 0.0, "vulnClass": "none"}}, {"type": "Feature", "geometry": {"type": "MultiPolygon", "coordinates": [[[[71.82905906402816, 34.469851732966234], [71.8297621608316, 34.47001113641823], [71.82977982432331, 34.469958507068746], [71.82946064700863, 34.46988613594559], [71.82949833653616, 34.469773097169806], [71.82946844887765, 34.46976628227653], [71.82948281568716, 34.46972312140002], [71.82941796797212, 34.469708368437736], [71.829393289091, 34.46978244732813], [71.82933588522845, 34.46976941985429], [71.82932839077817, 34.46979202872778], [71.82909650935336, 34.469739409046745], [71.82905906402816, 34.469851732966234]]]]}, "properties": {"id": "Pakistan_123102132_37088", "height": 4.045354843139648, "hmax": 0.0, "ratio": 0.0, "vulnClass": "none"}}, {"type": "Feature", "geometry": {"type": "MultiPolygon", "coordinates": [[[[71.82820562001956, 34.46967372874748], [71.82825849872918, 34.46973152508228], [71.82830966031851, 34.469699595175705], [71.82825677818033, 34.46964188890569], [71.82820562001956, 34.46967372874748]]]]}, "properties": {"id": "Pakistan_123102132_428455", "height": 4.974845886230469, "hmax": 0.0, "ratio": 0.0, "vulnClass": "none"}}]}