{"type": "FeatureCollection", "features": [{"type": "Feature", "geometry": {"type": "MultiPolygon", "coordinates": [[[[72.02652098715157, 34.543003152773366], [72.02643423075348, 34.5430044635533], [72.02643727461444, 34.54313622867315], [72.02652403435545, 34.54313482783872], [72.02652098715157, 34.543003152773366]]]]}, "properties": {"id": "Pakistan_123102132_324801", "height": 2.503546476364136, "hmax": 0.0, "ratio": 0.0, "vulnClass": "none"}}, {"type": "Feature", "geometry": {"type": "MultiPolygon", "coordinates": [[[[72.02579269759887, 34.54359590217654], [72.02566627583043, 34.543643477472784], [72.02572707779956, 34.54375312475876], [72.02585349970889, 34.543705549406965], [72.02579269759887, 34.54359590217654]]]]}, "properties": {"id": "Pakistan_123102132_167750", "height": 2.844155788421631, "hmax": 0.0, "ratio": 0.0, "vulnClass": "none"}}, {"type": "Feature", "geometry": {"type": "MultiPolygon", "coordinates": [[[[72.02655247360542, 34.54215833989114], [72.02646948888908, 34.542160824291585], [72.02647571110946, 34.542301229953964], [72.02655869596585, 34.542298745556515], [72.02655247360542, 34.54215833989114]]]]}, "properties": {"id": "Pakistan_123102132_90445", "height": 2.832182884216309, "hmax": 0.0, "ratio": 0.0, "vulnClass": "none"}}, {"type": "Feature", "geometry": {"type": "MultiPolygon", "coordinates": [[[[72.02589652118833, 34.5422432155798], [72.0259000453543, 34.54213504631993], [72.02583397535516, 34.542133616009465], [72.02583055994025, 34.54224178791616], [72.02589652118833, 34.5422432155798]]]]}, "properties": {"id": "Pakistan_123102132_257070", "height": 2.856514692306519, "hmax": 0.0, "ratio": 0.0, "vulnClass": "none"}}, {"type": "Feature", "geometry": {"type": "MultiPolygon", "coordinates": [[[[72.02578782884642, 34.541967268996714], [72.02570737981044, 34.541965848644644], [72.02570231075863, 34.54215717716384], [72.02578275997844, 34.5421585975287], [72.02578782884642, 34.541967268996714]]]]}, "properties": {"id": "Pakistan_123102132_355588", "height": 2.613916873931885, "hmax": 0.0, "ratio": 0.0, "vulnClass": "none"}}, {"type": "Feature", "geometry": {"type": "MultiPolygon", "coordinates": [[[[72.0258374680729, 34.54207222736075], [72.0259097416841, 34.54207380889106], [72.02591282318198, 34.541981132492005], [72.02584044081468, 34.54197954831452], [72.0258374680729, 34.54207222736075]]]]}, "properties": {"id": "Pakistan_123102132_601368", "height": 2.629009246826172, "hmax": 0.0, "ratio": 0.0, "vulnClass": "none"}}, {"type": "Feature", "geometry": {"type": "MultiPolygon", "coordinates": [[[[72.02641008312987, 34.54178855058987], [72.02632431713951, 34.54178961505185], [72.02633335618624, 34.54229767025734], [72.02641912269956, 34.54229660581599], [72.02641008312987, 34.54178855058987]]]]}, "properties": {"id": "Pakistan_123102132_112010", "height": 3.567175388336182, "hmax": 0.0, "ratio": 0.0, "vulnClass": "none"}}, {"type": "Feature", "geometry": {"type": "MultiPolygon", "coordinates": [[[[72.03023656633304, 34.538461206608496], [72.03028147544403, 34.53849402815139], [72.03031799495761, 34.53849320439776], [72.03031964339048, 34.53854795809974], [72.03049199494053, 34.53861146348942], [72.03049337779764, 34.538658368748166], [72.0306162239155, 34.5387478906895], [72.03064780751873, 34.538689799412225], [72.03060953375977, 34.53867561771133], [72.03055973336791, 34.538639432286416], [72.03059865989367, 34.538567818796956], [72.0303245985167, 34.538466774503185], [72.03030049547311, 34.538449241966106], [72.03029779077796, 34.5383598496799], [72.03043928166038, 34.538356893618534], [72.03046113441816, 34.538336603664526], [72.03040968581895, 34.53833760493959], [72.03040825178525, 34.53828907595535], [72.03032507878639, 34.538290837410074], [72.03032384645513, 34.53824889338708], [72.0302420915108, 34.53825059916262], [72.03024285008638, 34.53827828989847], [72.03009143966351, 34.538281454971916], [72.03009425617408, 34.53837075984149], [72.03015453616486, 34.53836952297315], [72.0301533647268, 34.538331997180165], [72.03020568717221, 34.53833092714528], [72.03020752757743, 34.53839253598504], [72.0302350267727, 34.53841258491939], [72.03023656633304, 34.538461206608496]]]]}, "properties": {"id": "Pakistan_123102132_121376", "height": 3.42139720916748, "hmax": 0.0, "ratio": 0.0, "vulnClass": "none"}}, {"type": "Feature", "geometry": {"type": "MultiPolygon", "coordinates": [[[[72.02935102238554, 34.53753223340553], [72.02930139564397, 34.53753102513979], [72.02930026213446, 34.53756290627883], [72.02925477093997, 34.537561798682894], [72.02925613821645, 34.53752334318624], [72.02918648666358, 34.537521647315245], [72.02918002158782, 34.53770041317833], [72.02936089836186, 34.53770481709052], [72.0293643468275, 34.53761088745407], [72.02934823988694, 34.53761049530084], [72.02935102238554, 34.53753223340553]]]]}, "properties": {"id": "Pakistan_123102132_211108", "height": 2.743797302246094, "hmax": 0.0, "ratio": 0.0, "vulnClass": "none"}}, {"type": "Feature", "geometry": {"type": "MultiPolygon", "coordinates": [[[[72.029857316564, 34.5378628352125], [72.02981836757965, 34.53790443206634], [72.02996813477822, 34.537999567534975], [72.0300070837395, 34.537957970632284], [72.029857316564, 34.5378628352125]]]]}, "properties": {"id": "Pakistan_123102132_549312", "height": 2.762123823165894, "hmax": 0.0, "ratio": 0.0, "vulnClass": "none"}}, {"type": "Feature", "geometry": {"type": "MultiPolygon", "coordinates": [[[[72.03027195657594, 34.537891496378876], [72.03017144413721, 34.538108354936206], [72.03027205554551, 34.53814000842198], [72.0303725677734, 34.53792314977118], [72.03027195657594, 34.537891496378876]]]]}, "properties": {"id": "Pakistan_123102132_370896", "height": 4.644412040710449, "hmax": 0.0, "ratio": 0.0, "vulnClass": "none"}}, {"type": "Feature", "geometry": {"type": "MultiPolygon", "coordinates": [[[[72.03005541146639, 34.53788234968329], [72.0300762880099, 34.53782823439877], [72.02992768262335, 34.53778928312885], [72.02989277299596, 34.53787965268764], [72.02993669909137, 34.53789108778636], [72.02995061684233, 34.53785501094693], [72.03005541146639, 34.53788234968329]]]]}, "properties": {"id": "Pakistan_123102132_32150", "height": 2.530081033706665, "hmax": 0.0, "ratio": 0.0, "vulnClass": "none"}}, {"type": "Feature", "geometry": {"type": "MultiPolygon", "coordinates": [[[[72.03008657601995, 34.53773798657268], [72.02999962023299, 34.53770828782595], [72.02997875653479, 34.53774978413328], [72.03014126019917, 34.537805298416465], [72.03017548128689, 34.53773735630521], [72.03009993028964, 34.537711630868664], [72.03008657601995, 34.53773798657268]]]]}, "properties": {"id": "Pakistan_123102132_35224", "height": 4.026324272155762, "hmax": 0.0, "ratio": 0.0, "vulnClass": "none"}}, {"type": "Feature", "geometry": {"type": "MultiPolygon", "coordinates": [[[[72.0304923400315, 34.53813284069635], [72.03052098179356, 34.538068638619905], [72.0304359556525, 34.538042863056454], [72.03034933866284, 34.538236534013535], [72.0303990202899, 34.5382515342674], [72.03045688656938, 34.5381220626886], [72.0304923400315, 34.53813284069635]]]]}, "properties": {"id": "Pakistan_123102132_23035", "height": 2.817915916442871, "hmax": 0.0, "ratio": 0.0, "vulnClass": "none"}}, {"type": "Feature", "geometry": {"type": "MultiPolygon", "coordinates": [[[[72.02986877099131, 34.53697066074688], [72.02995787685744, 34.53702871514204], [72.02999102211338, 34.53699409783365], [72.02985262929543, 34.53690383633445], [72.02980105645851, 34.53695738462874], [72.02985056108903, 34.536989597077074], [72.02986877099131, 34.53697066074688]]]]}, "properties": {"id": "Pakistan_123102132_610713", "height": 2.971607685089111, "hmax": 0.0, "ratio": 0.0, "vulnClass": "none"}}, {"type": "Feature", "geometry": {"type": "MultiPolygon", "coordinates": [[[[72.03245040894436, 34.537908353940004], [72.03245048709833, 34.537961356845486], [72.03258185297399, 34.537961306837566], [72.03258188356797, 34.53790830657473], [72.03245040894436, 34.537908353940004]]]]}, "properties": {"id": "Pakistan_123102132_398938", "height": 2.829401016235352, "hmax": 0.0, "ratio": 0.0, "vulnClass": "none"}}, {"type": "Feature", "geometry": {"type": "MultiPolygon", "coordinates": [[[[72.0323426816668, 34.53789608905886], [72.03232472303371, 34.53796929480949], [72.03239424096118, 34.53798090079949], [72.03240365714116, 34.53794273113335], [72.03243202703119, 34.53794747733996], [72.03244056941625, 34.53791244123976], [72.0323426816668, 34.53789608905886]]]]}, "properties": {"id": "Pakistan_123102132_312689", "height": 2.590830326080322, "hmax": 0.0, "ratio": 0.0, "vulnClass": "none"}}, {"type": "Feature", "geometry": {"type": "MultiPolygon", "coordinates": [[[[72.03145622040674, 34.53799494896542], [72.03142667145764, 34.53814908666665], [72.03146071658595, 34.5381535204899], [72.03144722557616, 34.53822358982414], [72.03153884598873, 34.53823546364057], [72.03152854293374, 34.538289385753], [72.0315755999461, 34.53829548818018], [72.03158146362273, 34.53826534455798], [72.03163643654969, 34.538272450785385], [72.03164592976415, 34.53822292570887], [72.03153598718342, 34.53820862318156], [72.03156326347589, 34.538066328339944], [72.03151349540482, 34.53805988954008], [72.03152431054754, 34.53800381657997], [72.03145622040674, 34.53799494896542]]]]}, "properties": {"id": "Pakistan_123102132_582992", "height": 2.851907014846802, "hmax": 0.0, "ratio": 0.0, "vulnClass": "none"}}]}