{"type": "FeatureCollection", "features": [{"type": "Feature", "geometry": {"type": "MultiPolygon", "coordinates": [[[[72.35909494755681, 34.125873822681], [72.3590851827152, 34.12567203358052], [72.35903591649472, 34.125673677904466], [72.35903897102251, 34.12573576793444], [72.35889974439466, 34.12574043451445], [72.35890656549529, 34.12588004582031], [72.35909494755681, 34.125873822681]]]]}, "properties": {"id": "Pakistan_123102310_457783", "height": 3.1961350440979, "hmax": 0.0, "ratio": 0.0, "vulnClass": "none"}}, {"type": "Feature", "geometry": {"type": "MultiPolygon", "coordinates": [[[[72.3593621740383, 34.12599190201556], [72.35934249259884, 34.126035652792254], [72.35939285143384, 34.12605116066427], [72.359412532852, 34.12600740987854], [72.3593621740383, 34.12599190201556]]]]}, "properties": {"id": "Pakistan_123102310_368025", "height": 2.59916353225708, "hmax": 0.0, "ratio": 0.0, "vulnClass": "none"}}, {"type": "Feature", "geometry": {"type": "MultiPolygon", "coordinates": [[[[72.35885906430026, 34.126894400741364], [72.35885390148458, 34.126774658487456], [72.35878955964697, 34.12677651914198], [72.35879236647392, 34.126839595501785], [72.3587199939916, 34.12684173403378], [72.35872212118792, 34.12689181393945], [72.35870769057644, 34.12689222455499], [72.35871064569781, 34.12696098365489], [72.3588537658811, 34.126956671595195], [72.35885103650256, 34.126894588570664], [72.35885906430026, 34.126894400741364]]]]}, "properties": {"id": "Pakistan_123102310_262922", "height": 2.588901281356812, "hmax": 0.0, "ratio": 0.0, "vulnClass": "none"}}, {"type": "Feature", "geometry": {"type": "MultiPolygon", "coordinates": [[[[72.35664443139987, 34.12602183034217], [72.35681141312826, 34.12602750052013], [72.35681348451794, 34.12598535422019], [72.35664650287201, 34.12597968404893], [72.35664443139987, 34.12602183034217]]]]}, "properties": {"id": "Pakistan_123102310_467355", "height": 2.921502113342285, "hmax": 0.0, "ratio": 0.0, "vulnClass": "none"}}, {"type": "Feature", "geometry": {"type": "MultiPolygon", "coordinates": [[[[72.35655905310887, 34.126204892020894], [72.35657364644096, 34.12611920182341], [72.35635546604767, 34.126093676865274], [72.35634076417199, 34.126179364693215], [72.35655905310887, 34.126204892020894]]]]}, "properties": {"id": "Pakistan_123102310_84173", "height": 2.870501279830933, "hmax": 0.0, "ratio": 0.0, "vulnClass": "none"}}, {"type": "Feature", "geometry": {"type": "MultiPolygon", "coordinates": [[[[72.35892624298545, 34.126958141301195], [72.3588656095379, 34.12695927043906], [72.35886923025133, 34.127090248447175], [72.3590772726428, 34.1270863417212], [72.35907502068473, 34.1270054272931], [72.35892761197557, 34.12700820488775], [72.35892624298545, 34.126958141301195]]]]}, "properties": {"id": "Pakistan_123102310_472119", "height": 2.681455135345459, "hmax": 0.0, "ratio": 0.0, "vulnClass": "none"}}, {"type": "Feature", "geometry": {"type": "MultiPolygon", "coordinates": [[[[72.35941512873887, 34.1275371579053], [72.35936163462739, 34.127535285596814], [72.35935910106521, 34.1275853553564], [72.3594127063443, 34.12758713990731], [72.35941512873887, 34.1275371579053]]]]}, "properties": {"id": "Pakistan_123102310_131357", "height": 2.808303594589233, "hmax": 0.0, "ratio": 0.0, "vulnClass": "none"}}, {"type": "Feature", "geometry": {"type": "MultiPolygon", "coordinates": [[[[72.3596035234552, 34.12706025290643], [72.35960111545384, 34.1270191821211], [72.35956258456685, 34.127020697014714], [72.3595649925495, 34.12706176779992], [72.3596035234552, 34.12706025290643]]]]}, "properties": {"id": "Pakistan_123102310_922313", "height": 4.08844518661499, "hmax": 0.0, "ratio": 0.0, "vulnClass": "none"}}, {"type": "Feature", "geometry": {"type": "MultiPolygon", "coordinates": [[[[72.35954376991421, 34.126834489756526], [72.35955358835069, 34.12701716783752], [72.35960557207669, 34.12701531134097], [72.35959575633075, 34.12683254316755], [72.35954376991421, 34.126834489756526]]]]}, "properties": {"id": "Pakistan_123102310_571529", "height": 4.08844518661499, "hmax": 0.0, "ratio": 0.0, "vulnClass": "none"}}, {"type": "Feature", "geometry": {"type": "MultiPolygon", "coordinates": [[[[72.36187121065537, 34.124818991536436], [72.36186802855381, 34.124914393757244], [72.36193226541182, 34.124915864802404], [72.36193707817695, 34.12477497103314], [72.36174047086472, 34.12477038388804], [72.36173884002415, 34.124815875423934], [72.36187121065537, 34.124818991536436]]]]}, "properties": {"id": "Pakistan_123102310_368043", "height": 2.661290884017944, "hmax": 0.0, "ratio": 0.0, "vulnClass": "none"}}, {"type": "Feature", "geometry": {"type": "MultiPolygon", "coordinates": [[[[72.35297727677211, 34.114639590735614], [72.35297459064986, 34.11470489268231], [72.35300946283239, 34.114705825058145], [72.35301204061186, 34.11464052077345], [72.35297727677211, 34.114639590735614]]]]}, "properties": {"id": "Pakistan_123102310_281652", "height": 2.458729982376099, "hmax": 0.0, "ratio": 0.0, "vulnClass": "none"}}, {"type": "Feature", "geometry": {"type": "MultiPolygon", "coordinates": [[[[72.34864265756924, 34.12086411164624], [72.3486410930933, 34.12090726035156], [72.34888089922843, 34.12091316207694], [72.34888246358291, 34.120870013362854], [72.34864265756924, 34.12086411164624]]]]}, "properties": {"id": "Pakistan_123102310_349093", "height": 2.650259971618652, "hmax": 0.0, "ratio": 0.0, "vulnClass": "none"}}, {"type": "Feature", "geometry": {"type": "MultiPolygon", "coordinates": [[[[72.34863895418202, 34.121114562279864], [72.34892867995761, 34.121111715880204], [72.34892625311727, 34.120942990240245], [72.34871969663028, 34.12094492886518], [72.34872052514193, 34.120998226221424], [72.3486373591919, 34.120999043925195], [72.34863895418202, 34.121114562279864]]]]}, "properties": {"id": "Pakistan_123102310_870226", "height": 2.902490854263306, "hmax": 0.0, "ratio": 0.0, "vulnClass": "none"}}, {"type": "Feature", "geometry": {"type": "MultiPolygon", "coordinates": [[[[72.35899319288978, 34.120984694028394], [72.35899060214264, 34.12094253745857], [72.35885145248403, 34.1209484679661], [72.35885404596482, 34.12099053444428], [72.35899319288978, 34.120984694028394]]]]}, "properties": {"id": "Pakistan_123102310_927026", "height": 2.677714109420776, "hmax": 0.0, "ratio": 0.0, "vulnClass": "none"}}, {"type": "Feature", "geometry": {"type": "MultiPolygon", "coordinates": [[[[72.35847906061957, 34.12080369327758], [72.35829400330555, 34.120800972161796], [72.3582920382661, 34.120891983008086], [72.35847709577821, 34.12089470413612], [72.35847906061957, 34.12080369327758]]]]}, "properties": {"id": "Pakistan_123102310_889199", "height": 2.843764781951904, "hmax": 0.0, "ratio": 0.0, "vulnClass": "none"}}, {"type": "Feature", "geometry": {"type": "MultiPolygon", "coordinates": [[[[72.35858747098568, 34.12099137837241], [72.35857898677124, 34.12082162054334], [72.35848251814927, 34.12082495332982], [72.35848549305504, 34.12088262425379], [72.35851891587384, 34.12088145044323], [72.35852174423879, 34.1209368644217], [72.35836244622254, 34.120942360712405], [72.35836028628418, 34.12090030356163], [72.35829474613423, 34.12090249888406], [72.35829969220475, 34.121001321379985], [72.35858747098568, 34.12099137837241]]]]}, "properties": {"id": "Pakistan_123102310_614151", "height": 2.826046943664551, "hmax": 0.0, "ratio": 0.0, "vulnClass": "none"}}, {"type": "Feature", "geometry": {"type": "MultiPolygon", "coordinates": [[[[72.35321512500363, 34.123020607055], [72.35320699298464, 34.12281209163195], [72.35314537082701, 34.122813737596516], [72.35315350269413, 34.12302225301648], [72.35321512500363, 34.123020607055]]]]}, "properties": {"id": "Pakistan_123102310_26476", "height": 2.807863235473633, "hmax": 0.0, "ratio": 0.0, "vulnClass": "none"}}, {"type": "Feature", "geometry": {"type": "MultiPolygon", "coordinates": [[[[72.35336333683976, 34.1229084096002], [72.35336470386534, 34.12295495723997], [72.35349877544522, 34.12295207885611], [72.35349730001926, 34.12290552887832], [72.35336333683976, 34.1229084096002]]]]}, "properties": {"id": "Pakistan_123102310_93671", "height": 3.058773040771484, "hmax": 0.0, "ratio": 0.0, "vulnClass": "none"}}, {"type": "Feature", "geometry": {"type": "MultiPolygon", "coordinates": [[[[72.35355143085691, 34.1229042621012], [72.35351117987473, 34.12290537743748], [72.3535154991827, 34.12301716825827], [72.35360923397532, 34.12301468201683], [72.35360239679369, 34.122834141475074], [72.35354880482404, 34.12283551004774], [72.35355143085691, 34.1229042621012]]]]}, "properties": {"id": "Pakistan_123102310_178645", "height": 2.606909275054932, "hmax": 0.0, "ratio": 0.0, "vulnClass": "none"}}, {"type": "Feature", "geometry": {"type": "MultiPolygon", "coordinates": [[[[72.35345715506513, 34.12280937304348], [72.35346057645577, 34.122755265790204], [72.35338187649884, 34.122751855712295], [72.35338381773458, 34.12272088546987], [72.35326463183775, 34.12271570068671], [72.35325926904306, 34.12280077816712], [72.35345715506513, 34.12280937304348]]]]}, "properties": {"id": "Pakistan_123102310_27499", "height": 3.495308876037598, "hmax": 0.0, "ratio": 0.0, "vulnClass": "none"}}, {"type": "Feature", "geometry": {"type": "MultiPolygon", "coordinates": [[[[72.3531419686529, 34.122804649072805], [72.35325200993763, 34.1228041375186], [72.35325156506804, 34.122741923410686], [72.35322088340972, 34.12274207306395], [72.35321983412345, 34.12260538080675], [72.35314058303203, 34.12260574505278], [72.3531419686529, 34.122804649072805]]]]}, "properties": {"id": "Pakistan_123102310_226017", "height": 3.693206787109375, "hmax": 0.0, "ratio": 0.0, "vulnClass": "none"}}, {"type": "Feature", "geometry": {"type": "MultiPolygon", "coordinates": [[[[72.35350734446523, 34.12260770470565], [72.35350620846533, 34.12264761731264], [72.35356904054171, 34.12264888210146], [72.35357017932093, 34.12260887940158], [72.35350734446523, 34.12260770470565]]]]}, "properties": {"id": "Pakistan_123102310_642504", "height": 2.652370452880859, "hmax": 0.0, "ratio": 0.0, "vulnClass": "none"}}, {"type": "Feature", "geometry": {"type": "MultiPolygon", "coordinates": [[[[72.35328780523152, 34.12254960053934], [72.3532915861301, 34.122619549470805], [72.35341888318206, 34.122614902331456], [72.35341510217818, 34.122544953398936], [72.35328780523152, 34.12254960053934]]]]}, "properties": {"id": "Pakistan_123102310_538275", "height": 3.524603843688965, "hmax": 0.0, "ratio": 0.0, "vulnClass": "none"}}, {"type": "Feature", "geometry": {"type": "MultiPolygon", "coordinates": [[[[72.35387816897327, 34.122124645696815], [72.35387646667394, 34.12219664003541], [72.35395425862684, 34.12219786656977], [72.35395500804455, 34.12216687061373], [72.3540461240426, 34.122168384367015], [72.35404718233191, 34.122127478403996], [72.35387816897327, 34.122124645696815]]]]}, "properties": {"id": "Pakistan_123102310_301619", "height": 2.767818212509155, "hmax": 0.0, "ratio": 0.0, "vulnClass": "none"}}, {"type": "Feature", "geometry": {"type": "MultiPolygon", "coordinates": [[[[72.35380435020598, 34.12217678431745], [72.35387136292134, 34.122176065601614], [72.35387049028618, 34.12212060361811], [72.35380347761468, 34.122121322335545], [72.35380435020598, 34.12217678431745]]]]}, "properties": {"id": "Pakistan_123102310_813494", "height": 2.720262289047241, "hmax": 0.0, "ratio": 0.0, "vulnClass": "none"}}, {"type": "Feature", "geometry": {"type": "MultiPolygon", "coordinates": [[[[72.35416029250733, 34.12183025342997], [72.35415824739285, 34.12199671916572], [72.35421058828979, 34.12199721652238], [72.35421263610974, 34.121830660689966], [72.35416029250733, 34.12183025342997]]]]}, "properties": {"id": "Pakistan_123102310_405813", "height": 3.282901287078857, "hmax": 0.0, "ratio": 0.0, "vulnClass": "none"}}, {"type": "Feature", "geometry": {"type": "MultiPolygon", "coordinates": [[[[72.35421714722364, 34.122002406409045], [72.35414865177526, 34.122002011533034], [72.35414687363341, 34.12223294134228], [72.35430120827576, 34.12223374436115], [72.35430167620524, 34.12218047491005], [72.35421583725146, 34.122180066779826], [72.35421714722364, 34.122002406409045]]]]}, "properties": {"id": "Pakistan_123102310_761630", "height": 2.935741662979126, "hmax": 0.0, "ratio": 0.0, "vulnClass": "none"}}, {"type": "Feature", "geometry": {"type": "MultiPolygon", "coordinates": [[[[72.35391282542776, 34.12194481949316], [72.35410848930891, 34.12194813656947], [72.35411054802631, 34.1218647006636], [72.3539148843371, 34.12186138359959], [72.35391282542776, 34.12194481949316]]]]}, "properties": {"id": "Pakistan_123102310_931752", "height": 3.422043323516846, "hmax": 0.0, "ratio": 0.0, "vulnClass": "none"}}, {"type": "Feature", "geometry": {"type": "MultiPolygon", "coordinates": [[[[72.35384708510534, 34.1218560452368], [72.35384468148095, 34.121818400236805], [72.35379920050528, 34.12182039457986], [72.35379460874547, 34.12174862513335], [72.35374912780742, 34.12175061945956], [72.35375623143784, 34.121860036241564], [72.35384708510534, 34.1218560452368]]]]}, "properties": {"id": "Pakistan_123102310_505128", "height": 2.591936588287354, "hmax": 0.0, "ratio": 0.0, "vulnClass": "none"}}, {"type": "Feature", "geometry": {"type": "MultiPolygon", "coordinates": [[[[72.35655686656975, 34.12361244741863], [72.35642697317749, 34.123529865313], [72.35632075030391, 34.12364441350303], [72.35636284282333, 34.12367119374794], [72.35638751673115, 34.12364467980075], [72.35641951173056, 34.12366502205385], [72.35647783716306, 34.12360218069353], [72.35653353474319, 34.12363763803728], [72.35655686656975, 34.12361244741863]]]]}, "properties": {"id": "Pakistan_123102310_538314", "height": 2.589006662368774, "hmax": 0.0, "ratio": 0.0, "vulnClass": "none"}}, {"type": "Feature", "geometry": {"type": "MultiPolygon", "coordinates": [[[[72.35661053827296, 34.123963571811395], [72.35648313134546, 34.12387770770473], [72.35641742145623, 34.123944446809], [72.35654482840823, 34.12403031098468], [72.35661053827296, 34.123963571811395]]]]}, "properties": {"id": "Pakistan_123102310_860728", "height": 3.317694425582886, "hmax": 1.104, "ratio": 0.333, "vulnClass": "moderate"}}, {"type": "Feature", "geometry": {"type": "MultiPolygon", "coordinates": [[[[72.3563435379436, 34.12376895291499], [72.35638552743093, 34.12372595364018], [72.35633848657066, 34.12369446907706], [72.35630052596036, 34.12373340815599], [72.3562648489257, 34.123709470641714], [72.35620707443209, 34.12376853739813], [72.35643080685342, 34.12391841089772], [72.35648455242666, 34.12386340422048], [72.3563435379436, 34.12376895291499]]]]}, "properties": {"id": "Pakistan_123102310_391589", "height": 2.65079402923584, "hmax": 0.0, "ratio": 0.0, "vulnClass": "none"}}, {"type": "Feature", "geometry": {"type": "MultiPolygon", "coordinates": [[[[72.35449360055642, 34.12455406404163], [72.35449462545327, 34.12458726188084], [72.35455634882678, 34.12458588790616], [72.35455521838482, 34.12455259764016], [72.35449360055642, 34.12455406404163]]]]}, "properties": {"id": "Pakistan_123102310_54370", "height": 2.442471027374268, "hmax": 0.0, "ratio": 0.0, "vulnClass": "none"}}, {"type": "Feature", "geometry": {"type": "MultiPolygon", "coordinates": [[[[72.35445115499714, 34.1245699172008], [72.35440583821928, 34.12456659633363], [72.35439940415756, 34.12462694927056], [72.35444472096708, 34.12463027014157], [72.35445115499714, 34.1245699172008]]]]}, "properties": {"id": "Pakistan_123102310_272062", "height": 3.111172199249268, "hmax": 0.0, "ratio": 0.0, "vulnClass": "none"}}, {"type": "Feature", "geometry": {"type": "MultiPolygon", "coordinates": [[[[72.35454218299557, 34.124452609098], [72.35454158282955, 34.124461431005805], [72.35442933580818, 34.124456126418686], [72.35442562079389, 34.12450923570506], [72.35457791584335, 34.12451648541842], [72.35458233925381, 34.124454556550006], [72.35454218299557, 34.124452609098]]]]}, "properties": {"id": "Pakistan_123102310_410429", "height": 3.700603008270264, "hmax": 0.0, "ratio": 0.0, "vulnClass": "none"}}, {"type": "Feature", "geometry": {"type": "MultiPolygon", "coordinates": [[[[72.35481289040445, 34.12407602174998], [72.35452286348448, 34.12404993669815], [72.35449526592852, 34.12426065686325], [72.35478529635942, 34.12428665192208], [72.35481289040445, 34.12407602174998]]]]}, "properties": {"id": "Pakistan_123102310_112509", "height": 3.285807609558105, "hmax": 0.0, "ratio": 0.0, "vulnClass": "none"}}, {"type": "Feature", "geometry": {"type": "MultiPolygon", "coordinates": [[[[72.35530778461701, 34.12429728186528], [72.35517443146728, 34.12424572615187], [72.35514701378652, 34.12429417767183], [72.35528047251321, 34.12434582584308], [72.35530778461701, 34.12429728186528]]]]}, "properties": {"id": "Pakistan_123102310_453031", "height": 2.809381008148193, "hmax": 0.0, "ratio": 0.0, "vulnClass": "none"}}, {"type": "Feature", "geometry": {"type": "MultiPolygon", "coordinates": [[[[72.35457174491489, 34.12361889431519], [72.35458100021486, 34.123742781675276], [72.35471726047369, 34.12373580219917], [72.35470800497406, 34.12361191483989], [72.35457174491489, 34.12361889431519]]]]}, "properties": {"id": "Pakistan_123102310_813502", "height": 3.077040433883667, "hmax": 0.0, "ratio": 0.0, "vulnClass": "none"}}, {"type": "Feature", "geometry": {"type": "MultiPolygon", "coordinates": [[[[72.35441965341296, 34.12349039526639], [72.35443058072589, 34.12353976339492], [72.35451107000378, 34.12352752503026], [72.35448483312832, 34.123409401896275], [72.35422789883073, 34.123448487889824], [72.35424320814145, 34.123517242922425], [72.35441965341296, 34.12349039526639]]]]}, "properties": {"id": "Pakistan_123102310_367981", "height": 3.363587379455566, "hmax": 0.0, "ratio": 0.0, "vulnClass": "none"}}, {"type": "Feature", "geometry": {"type": "MultiPolygon", "coordinates": [[[[72.35381812185119, 34.12401950706821], [72.35379679344764, 34.124112534243764], [72.35388330755823, 34.12412611938993], [72.35390452754423, 34.12403308985945], [72.35381812185119, 34.12401950706821]]]]}, "properties": {"id": "Pakistan_123102310_140018", "height": 3.032726526260376, "hmax": 0.0, "ratio": 0.0, "vulnClass": "none"}}, {"type": "Feature", "geometry": {"type": "MultiPolygon", "coordinates": [[[[72.35441163988811, 34.12400138145708], [72.3539829787484, 34.123801108766095], [72.35385724747084, 34.12378676824721], [72.35383468778825, 34.12392277113755], [72.35403872958334, 34.12394610241354], [72.35405542892639, 34.12392158065532], [72.3541653707208, 34.12397299342462], [72.35414646947564, 34.123970782887646], [72.35424711602286, 34.12401784821309], [72.35427952179282, 34.124021521846515], [72.35422178423619, 34.12436799133241], [72.3540981046933, 34.1243538755765], [72.35405450860202, 34.12461527639946], [72.3540722307892, 34.12458924412267], [72.35406261683295, 34.12464727468809], [72.35396950412508, 34.124636702680846], [72.35395311548318, 34.12473470456454], [72.35435731456114, 34.12478092213129], [72.35436378979601, 34.12477141551902], [72.35437913723976, 34.12467898051413], [72.35434783211596, 34.12466433214896], [72.35418148575349, 34.12464532996345], [72.35419272986154, 34.124628894361294], [72.35438651312019, 34.12465101226363], [72.35447652826204, 34.12411060146519], [72.35445395223809, 34.12410804130213], [72.35442055368428, 34.12415708493036], [72.35439894681681, 34.12428688802697], [72.35436470497099, 34.124282994537104], [72.35441163988811, 34.12400138145708]]]]}, "properties": {"id": "Pakistan_123102310_92378", "height": 3.820703029632568, "hmax": 0.0, "ratio": 0.0, "vulnClass": "none"}}, {"type": "Feature", "geometry": {"type": "MultiPolygon", "coordinates": [[[[72.35327837343499, 34.12388805622298], [72.35326703051393, 34.123813797244225], [72.35307007631467, 34.12383434101948], [72.35305811295082, 34.12375565122243], [72.35297361081007, 34.12376446646217], [72.3529892681976, 34.12386721622846], [72.35306583160524, 34.12385922141885], [72.3530734774141, 34.12390951053542], [72.35327837343499, 34.12388805622298]]]]}, "properties": {"id": "Pakistan_123102310_35758", "height": 2.575402975082397, "hmax": 0.0, "ratio": 0.0, "vulnClass": "none"}}, {"type": "Feature", "geometry": {"type": "MultiPolygon", "coordinates": [[[[72.35380135158304, 34.123757706191306], [72.35374464401238, 34.123754680383485], [72.3537035673736, 34.123740542370534], [72.35364740145954, 34.12373752819802], [72.35364960864341, 34.123708456869124], [72.3535863357385, 34.12368653790959], [72.35357351083145, 34.1237119545158], [72.35362648821791, 34.123730315865174], [72.35362483914342, 34.12375191665667], [72.35374602488999, 34.12379383589775], [72.35374331860956, 34.12382848585789], [72.35372315801408, 34.12382147007322], [72.35360952614849, 34.123815413683495], [72.3536777316767, 34.123839061725334], [72.3537369280312, 34.123842231383115], [72.3537331139497, 34.12389155214439], [72.35367530943316, 34.123871554172695], [72.3536607528658, 34.1239003592021], [72.35345589036642, 34.12388945050437], [72.35345986349893, 34.123838510459514], [72.35338616247448, 34.12383466725457], [72.35337662596199, 34.12395625621063], [72.35377358265465, 34.12397734745854], [72.35378513596797, 34.12382929741291], [72.35377682236995, 34.1238456158673], [72.35378044102487, 34.12379908558535], [72.35380135158304, 34.123757706191306]]]]}, "properties": {"id": "Pakistan_123102310_728316", "height": 3.4308021068573, "hmax": 0.0, "ratio": 0.0, "vulnClass": "none"}}, {"type": "Feature", "geometry": {"type": "MultiPolygon", "coordinates": [[[[72.35357876101467, 34.123366246698815], [72.35350099048453, 34.12336429914911], [72.35350025857083, 34.12338429699144], [72.35336518853433, 34.123380933375444], [72.35336299550322, 34.12344083680418], [72.35357583904668, 34.123446057891115], [72.35357876101467, 34.123366246698815]]]]}, "properties": {"id": "Pakistan_123102310_538280", "height": 2.751053333282471, "hmax": 0.0, "ratio": 0.0, "vulnClass": "none"}}, {"type": "Feature", "geometry": {"type": "MultiPolygon", "coordinates": [[[[72.35343868696205, 34.12317571095972], [72.35344168304387, 34.12327431112681], [72.35357716057614, 34.1232715531415], [72.35357427266347, 34.12317295530626], [72.35343868696205, 34.12317571095972]]]]}, "properties": {"id": "Pakistan_123102310_462579", "height": 2.483464479446411, "hmax": 0.0, "ratio": 0.0, "vulnClass": "none"}}, {"type": "Feature", "geometry": {"type": "MultiPolygon", "coordinates": [[[[72.35343077433713, 34.12316526305281], [72.35316009404019, 34.1231724072103], [72.35316290426577, 34.12324567080701], [72.35343358760615, 34.12323843656348], [72.35343077433713, 34.12316526305281]]]]}, "properties": {"id": "Pakistan_123102310_306441", "height": 2.463761329650879, "hmax": 0.0, "ratio": 0.0, "vulnClass": "none"}}, {"type": "Feature", "geometry": {"type": "MultiPolygon", "coordinates": [[[[72.35324146991428, 34.12334031142033], [72.35317723066372, 34.1233424418567], [72.35317447324832, 34.123284865754], [72.35310480925747, 34.12328714960895], [72.35311191528662, 34.123434700507126], [72.35306644749001, 34.12343624408203], [72.35306861196447, 34.12348154679745], [72.35324809161585, 34.12347559127159], [72.35324146991428, 34.12334031142033]]]]}, "properties": {"id": "Pakistan_123102310_733109", "height": 2.922796726226807, "hmax": 0.0, "ratio": 0.0, "vulnClass": "none"}}, {"type": "Feature", "geometry": {"type": "MultiPolygon", "coordinates": [[[[72.35299974359621, 34.12332274709923], [72.35299287803232, 34.123289152825265], [72.35294856695408, 34.123295319031904], [72.35295532136394, 34.12332900106183], [72.35299974359621, 34.12332274709923]]]]}, "properties": {"id": "Pakistan_123102310_528806", "height": 2.579396724700928, "hmax": 0.0, "ratio": 0.0, "vulnClass": "none"}}, {"type": "Feature", "geometry": {"type": "MultiPolygon", "coordinates": [[[[72.35236680731292, 34.12354132372891], [72.35243287749927, 34.123692490664936], [72.35252446373508, 34.12366507712436], [72.35245839340018, 34.12351391023038], [72.35236680731292, 34.12354132372891]]]]}, "properties": {"id": "Pakistan_123102310_457707", "height": 3.887071847915649, "hmax": 0.0, "ratio": 0.0, "vulnClass": "none"}}, {"type": "Feature", "geometry": {"type": "MultiPolygon", "coordinates": [[[[72.35285850313811, 34.123409491439745], [72.35279317069407, 34.12322074747274], [72.35270395105564, 34.12324181152844], [72.35270603485797, 34.12324798677756], [72.35261331779937, 34.123269966987344], [72.35266362431332, 34.1234156551188], [72.35262998697053, 34.1234236741853], [72.35264450459003, 34.12346563732747], [72.35268906178108, 34.12345505912203], [72.35270298566675, 34.12349520642125], [72.3525146036363, 34.12353982436545], [72.35255565896809, 34.12365889858694], [72.35267720815023, 34.12363005782708], [72.35265692170512, 34.123571472529825], [72.35267319455413, 34.12356758644765], [72.35268711844701, 34.12360773374851], [72.3529509616794, 34.12354527051303], [72.35292898801976, 34.12348169053366], [72.35303557519485, 34.12345640319371], [72.35300724167912, 34.123374295155244], [72.35285850313811, 34.123409491439745]]]]}, "properties": {"id": "Pakistan_123102310_808851", "height": 4.924605369567871, "hmax": 0.0, "ratio": 0.0, "vulnClass": "none"}}, {"type": "Feature", "geometry": {"type": "MultiPolygon", "coordinates": [[[[72.35221098898951, 34.123765233716604], [72.35215671228137, 34.12363911277088], [72.3520615286827, 34.123667169626], [72.3521156969339, 34.12379328827019], [72.35221098898951, 34.123765233716604]]]]}, "properties": {"id": "Pakistan_123102310_457706", "height": 2.718155384063721, "hmax": 0.0, "ratio": 0.0, "vulnClass": "none"}}, {"type": "Feature", "geometry": {"type": "MultiPolygon", "coordinates": [[[[72.35027480969788, 34.12319001843561], [72.35027229887487, 34.12331211934698], [72.3505339673889, 34.12331587565508], [72.35053487960265, 34.12326928708086], [72.35044224046352, 34.12326791810475], [72.3504437276403, 34.12319249350154], [72.35027480969788, 34.12319001843561]]]]}, "properties": {"id": "Pakistan_123102310_467283", "height": 3.868365287780762, "hmax": 0.0, "ratio": 0.0, "vulnClass": "none"}}, {"type": "Feature", "geometry": {"type": "MultiPolygon", "coordinates": [[[[72.35136383204812, 34.12369250139934], [72.35137796675562, 34.12379882451541], [72.35147711011439, 34.123789785455656], [72.35146297528259, 34.12368346234508], [72.35136383204812, 34.12369250139934]]]]}, "properties": {"id": "Pakistan_123102310_585797", "height": 2.523050785064697, "hmax": 0.0, "ratio": 0.0, "vulnClass": "none"}}, {"type": "Feature", "geometry": {"type": "MultiPolygon", "coordinates": [[[[72.35131262210976, 34.12335350867376], [72.35137052698254, 34.123682909540705], [72.35164374596405, 34.12365004086583], [72.35163581841563, 34.12360533498827], [72.351450949365, 34.12362766953627], [72.35143106179504, 34.123514641214], [72.3514940643802, 34.12350698577307], [72.35148623681349, 34.12346255249935], [72.35145207308908, 34.1234665932167], [72.35143503767425, 34.12336985370228], [72.35148226245073, 34.12336411153474], [72.35147692400848, 34.12333370544817], [72.35131262210976, 34.12335350867376]]]]}, "properties": {"id": "Pakistan_123102310_7456", "height": 3.212735652923584, "hmax": 0.0, "ratio": 0.0, "vulnClass": "none"}}, {"type": "Feature", "geometry": {"type": "MultiPolygon", "coordinates": [[[[72.34878782630801, 34.12124507214939], [72.34879156011301, 34.12111858029193], [72.34873533716765, 34.121117455860755], [72.34873443676258, 34.12114628484597], [72.34868081639077, 34.12114512646187], [72.34867787452167, 34.121242786984126], [72.34878782630801, 34.12124507214939]]]]}, "properties": {"id": "Pakistan_123102310_595119", "height": 4.075294971466064, "hmax": 0.0, "ratio": 0.0, "vulnClass": "none"}}]}