{"type": "FeatureCollection", "features": [{"type": "Feature", "geometry": {"type": "MultiPolygon", "coordinates": [[[[72.41897167, 34.18596983], [72.4189709, 34.18592228], [72.41887168, 34.18592337], [72.41887244, 34.18597093], [72.41897167, 34.18596983]]]]}, "properties": {"id": "Pakistan_123102310_85047", "height": 2.619327545166016, "hmax": 0.006, "ratio": 0.002, "vulnClass": "none"}}, {"type": "Feature", "geometry": {"type": "MultiPolygon", "coordinates": [[[[72.41907354, 34.1859676], [72.41907362, 34.18605096], [72.41893025, 34.18605106], [72.4189303, 34.18609543], [72.41907635, 34.18609533], [72.41907636, 34.18610421], [72.41918244, 34.18610413], [72.41918229, 34.18596752], [72.41907354, 34.1859676]]]]}, "properties": {"id": "Pakistan_123102310_908571", "height": 2.626030206680298, "hmax": 0.007, "ratio": 0.003, "vulnClass": "none"}}, {"type": "Feature", "geometry": {"type": "MultiPolygon", "coordinates": [[[[72.41683542, 34.1860804], [72.41683663, 34.18612811], [72.41690098, 34.18612698], [72.41689976, 34.18607927], [72.41683542, 34.1860804]]]]}, "properties": {"id": "Pakistan_123102310_633501", "height": 2.651250123977661, "hmax": 0.005, "ratio": 0.002, "vulnClass": "none"}}, {"type": "Feature", "geometry": {"type": "MultiPolygon", "coordinates": [[[[72.4147296, 34.18738235], [72.41455732, 34.18744336], [72.41460919, 34.1875436], [72.41478147, 34.18748259], [72.4147296, 34.18738235]]]]}, "properties": {"id": "Pakistan_123102310_666884", "height": 3.794223785400391, "hmax": 0.01, "ratio": 0.003, "vulnClass": "none"}}, {"type": "Feature", "geometry": {"type": "MultiPolygon", "coordinates": [[[[72.41325663, 34.18777439], [72.4132083, 34.18749614], [72.41298755, 34.18752238], [72.41303589, 34.18780063], [72.41325663, 34.18777439]]]]}, "properties": {"id": "Pakistan_123102310_790283", "height": 4.095034599304199, "hmax": 0.176, "ratio": 0.043, "vulnClass": "none"}}, {"type": "Feature", "geometry": {"type": "MultiPolygon", "coordinates": [[[[72.41265434, 34.18724919], [72.41278712, 34.18724471], [72.41279123, 34.18732798], [72.41298135, 34.18732155], [72.41297735, 34.18724051], [72.41312038, 34.18723568], [72.41311426, 34.18711164], [72.41302857, 34.18711453], [72.41302558, 34.18705381], [72.41286646, 34.18705919], [72.41287056, 34.18714205], [72.41300556, 34.18713749], [72.41300759, 34.18717867], [72.41270501, 34.1871889], [72.41270326, 34.18715346], [72.41264971, 34.18715527], [72.41265434, 34.18724919]]]]}, "properties": {"id": "Pakistan_123102310_847021", "height": 2.585113763809204, "hmax": 0.034, "ratio": 0.013, "vulnClass": "none"}}, {"type": "Feature", "geometry": {"type": "MultiPolygon", "coordinates": [[[[72.41296361, 34.18681117], [72.41285691, 34.18682913], [72.41287473, 34.18690157], [72.41291852, 34.1868942], [72.41292638, 34.18692616], [72.41294808, 34.1869225], [72.41298005, 34.18705247], [72.41302125, 34.18704553], [72.41296361, 34.18681117]]]]}, "properties": {"id": "Pakistan_123102310_576770", "height": 2.806583642959595, "hmax": 0.064, "ratio": 0.023, "vulnClass": "none"}}, {"type": "Feature", "geometry": {"type": "MultiPolygon", "coordinates": [[[[72.41265151, 34.1868989], [72.41268638, 34.18689854], [72.41268724, 34.18695622], [72.41283742, 34.18695467], [72.41283622, 34.18687481], [72.41280672, 34.18687511], [72.41280622, 34.18684183], [72.41265068, 34.18684344], [72.41265151, 34.1868989]]]]}, "properties": {"id": "Pakistan_123102310_8210", "height": 2.993614435195923, "hmax": 0.034, "ratio": 0.011, "vulnClass": "none"}}, {"type": "Feature", "geometry": {"type": "MultiPolygon", "coordinates": [[[[72.41417787, 34.18704165], [72.41396948, 34.18708416], [72.4139448, 34.18700142], [72.41413298, 34.18696304], [72.41411276, 34.18689518], [72.41385884, 34.18694699], [72.41388191, 34.18702437], [72.41389455, 34.18702179], [72.4139865, 34.18733016], [72.41407499, 34.18731211], [72.41407784, 34.18732165], [72.41425081, 34.18728636], [72.41417787, 34.18704165]]]]}, "properties": {"id": "Pakistan_123102310_642939", "height": 4.221776008605957, "hmax": 0.23, "ratio": 0.054, "vulnClass": "low"}}, {"type": "Feature", "geometry": {"type": "MultiPolygon", "coordinates": [[[[72.41365145, 34.18602177], [72.41361401, 34.18602344], [72.41361899, 34.18609961], [72.41365643, 34.18609794], [72.41365145, 34.18602177]]]]}, "properties": {"id": "Pakistan_123102310_354228", "height": 3.089540004730225, "hmax": 0.172, "ratio": 0.056, "vulnClass": "low"}}, {"type": "Feature", "geometry": {"type": "MultiPolygon", "coordinates": [[[[72.41369562, 34.1859512], [72.41369757, 34.18599774], [72.41387438, 34.18599267], [72.41387243, 34.18594613], [72.41369562, 34.1859512]]]]}, "properties": {"id": "Pakistan_123102310_932188", "height": 2.615267753601074, "hmax": 0.175, "ratio": 0.067, "vulnClass": "low"}}, {"type": "Feature", "geometry": {"type": "MultiPolygon", "coordinates": [[[[72.41365425, 34.18589064], [72.41360332, 34.18589176], [72.41360609, 34.18597823], [72.41365702, 34.18597711], [72.41365425, 34.18589064]]]]}, "properties": {"id": "Pakistan_123102310_571915", "height": 3.882536888122559, "hmax": 0.176, "ratio": 0.045, "vulnClass": "none"}}, {"type": "Feature", "geometry": {"type": "MultiPolygon", "coordinates": [[[[72.41377326, 34.18560502], [72.4136889, 34.18560145], [72.41368615, 34.18564571], [72.41377052, 34.18564928], [72.41377326, 34.18560502]]]]}, "properties": {"id": "Pakistan_123102310_922676", "height": 4.584354400634766, "hmax": 0.177, "ratio": 0.039, "vulnClass": "none"}}, {"type": "Feature", "geometry": {"type": "MultiPolygon", "coordinates": [[[[72.41284125, 34.18634147], [72.41282291, 34.18615634], [72.41246056, 34.18618088], [72.4124789, 34.18636602], [72.41284125, 34.18634147]]]]}, "properties": {"id": "Pakistan_123102310_321143", "height": 3.037147998809814, "hmax": 0.191, "ratio": 0.063, "vulnClass": "low"}}, {"type": "Feature", "geometry": {"type": "MultiPolygon", "coordinates": [[[[72.41280877, 34.18680204], [72.41278936, 34.18669214], [72.41265542, 34.18670832], [72.41263147, 34.18657276], [72.41260111, 34.18657643], [72.41259305, 34.18653081], [72.41266133, 34.18652255], [72.41263808, 34.18639091], [72.41251875, 34.18640533], [72.41259343, 34.18682808], [72.41280877, 34.18680204]]]]}, "properties": {"id": "Pakistan_123102310_344784", "height": 3.138401508331299, "hmax": 0.191, "ratio": 0.061, "vulnClass": "low"}}, {"type": "Feature", "geometry": {"type": "MultiPolygon", "coordinates": [[[[72.41166411, 34.18650012], [72.41169099, 34.18669141], [72.41180214, 34.18668072], [72.41176491, 34.18641583], [72.41149233, 34.18644204], [72.41149941, 34.18649239], [72.41157351, 34.18648527], [72.41157678, 34.18650853], [72.41166411, 34.18650012]]]]}, "properties": {"id": "Pakistan_123102310_567077", "height": 2.795841217041016, "hmax": 0.009, "ratio": 0.003, "vulnClass": "none"}}, {"type": "Feature", "geometry": {"type": "MultiPolygon", "coordinates": [[[[72.41116165, 34.1866476], [72.41129563, 34.18665101], [72.41129811, 34.18658452], [72.41120549, 34.18658216], [72.41120896, 34.18648906], [72.41116759, 34.186488], [72.41116165, 34.1866476]]]]}, "properties": {"id": "Pakistan_123102310_714492", "height": 2.609225749969482, "hmax": 0.009, "ratio": 0.003, "vulnClass": "none"}}, {"type": "Feature", "geometry": {"type": "MultiPolygon", "coordinates": [[[[72.41088918, 34.18642587], [72.41088835, 34.18650574], [72.41083203, 34.18650534], [72.41083134, 34.1865719], [72.41095203, 34.18657276], [72.41095138, 34.18663488], [72.41104257, 34.18663553], [72.41104483, 34.18641811], [72.41098314, 34.18641767], [72.41098509, 34.18623052], [72.41100387, 34.18623065], [72.411004, 34.18621734], [72.41093427, 34.18621684], [72.41093293, 34.18634631], [72.41082683, 34.18634555], [72.41082826, 34.18620942], [72.41046499, 34.18620682], [72.41046369, 34.18633187], [72.41035909, 34.18633113], [72.41035944, 34.18629785], [72.41028434, 34.18629732], [72.41028305, 34.18642156], [72.41088918, 34.18642587]]]]}, "properties": {"id": "Pakistan_123102310_373103", "height": 3.886730194091797, "hmax": 0.017, "ratio": 0.004, "vulnClass": "none"}}, {"type": "Feature", "geometry": {"type": "MultiPolygon", "coordinates": [[[[72.41144935, 34.18648857], [72.41144828, 34.18639761], [72.411223, 34.18639942], [72.41122247, 34.18635505], [72.41101596, 34.18635671], [72.41101669, 34.18641883], [72.41116688, 34.18641763], [72.41116735, 34.18645756], [72.41134436, 34.18645613], [72.41134475, 34.18648941], [72.41144935, 34.18648857]]]]}, "properties": {"id": "Pakistan_123102310_429714", "height": 2.525078296661377, "hmax": 0.009, "ratio": 0.004, "vulnClass": "none"}}, {"type": "Feature", "geometry": {"type": "MultiPolygon", "coordinates": [[[[72.41082495, 34.18657699], [72.41082429, 34.18652232], [72.41069824, 34.18652337], [72.4106989, 34.18657803], [72.41082495, 34.18657699]]]]}, "properties": {"id": "Pakistan_123102310_244640", "height": 2.784923315048218, "hmax": 0.019, "ratio": 0.007, "vulnClass": "none"}}, {"type": "Feature", "geometry": {"type": "MultiPolygon", "coordinates": [[[[72.41095181, 34.18673577], [72.4109492, 34.18667737], [72.41088644, 34.18667929], [72.41088558, 34.18666014], [72.41070612, 34.18666564], [72.41070212, 34.18657621], [72.41065658, 34.1865776], [72.41066035, 34.1866618], [72.4105291, 34.18666581], [72.41053281, 34.1867486], [72.41095181, 34.18673577]]]]}, "properties": {"id": "Pakistan_123102310_908526", "height": 3.407365798950195, "hmax": 0.019, "ratio": 0.006, "vulnClass": "none"}}, {"type": "Feature", "geometry": {"type": "MultiPolygon", "coordinates": [[[[72.41027343, 34.18667506], [72.41027575, 34.18676682], [72.41035082, 34.18676551], [72.4103485, 34.18667376], [72.41027343, 34.18667506]]]]}, "properties": {"id": "Pakistan_123102310_865897", "height": 3.414552927017212, "hmax": 0.019, "ratio": 0.006, "vulnClass": "none"}}, {"type": "Feature", "geometry": {"type": "MultiPolygon", "coordinates": [[[[72.41059311, 34.18696534], [72.41048317, 34.1869669], [72.41048779, 34.18718871], [72.41059772, 34.18718715], [72.41059311, 34.18696534]]]]}, "properties": {"id": "Pakistan_123102310_500744", "height": 2.567389726638794, "hmax": 0.022, "ratio": 0.009, "vulnClass": "none"}}, {"type": "Feature", "geometry": {"type": "MultiPolygon", "coordinates": [[[[72.4108001, 34.1869376], [72.41071442, 34.18694065], [72.41071692, 34.18698857], [72.41080259, 34.18698553], [72.4108001, 34.1869376]]]]}, "properties": {"id": "Pakistan_123102310_604966", "height": 3.916622400283813, "hmax": 0.022, "ratio": 0.006, "vulnClass": "none"}}, {"type": "Feature", "geometry": {"type": "MultiPolygon", "coordinates": [[[[72.41105976, 34.18683016], [72.41101312, 34.18682837], [72.41100978, 34.18688815], [72.41105642, 34.18688993], [72.41105976, 34.18683016]]]]}, "properties": {"id": "Pakistan_123102310_932168", "height": 3.258143424987793, "hmax": 0.004, "ratio": 0.001, "vulnClass": "none"}}, {"type": "Feature", "geometry": {"type": "MultiPolygon", "coordinates": [[[[72.41112206, 34.18679161], [72.41118219, 34.1867928], [72.41118384, 34.18673514], [72.41112371, 34.18673396], [72.41112206, 34.18679161]]]]}, "properties": {"id": "Pakistan_123102310_47393", "height": 2.972547769546509, "hmax": 0.009, "ratio": 0.003, "vulnClass": "none"}}, {"type": "Feature", "geometry": {"type": "MultiPolygon", "coordinates": [[[[72.41095489, 34.18665383], [72.41096229, 34.18673993], [72.41101184, 34.18673702], [72.41100444, 34.18665092], [72.41095489, 34.18665383]]]]}, "properties": {"id": "Pakistan_123102310_325859", "height": 2.938191413879395, "hmax": 0.009, "ratio": 0.003, "vulnClass": "none"}}, {"type": "Feature", "geometry": {"type": "MultiPolygon", "coordinates": [[[[72.41077403, 34.18676488], [72.41077712, 34.18682912], [72.41084024, 34.18682705], [72.41083715, 34.18676281], [72.41077403, 34.18676488]]]]}, "properties": {"id": "Pakistan_123102310_709644", "height": 3.529673337936401, "hmax": 0.02, "ratio": 0.006, "vulnClass": "none"}}, {"type": "Feature", "geometry": {"type": "MultiPolygon", "coordinates": [[[[72.41130264, 34.18667594], [72.41143137, 34.18667474], [72.4114305, 34.18661123], [72.41130177, 34.18661242], [72.41130264, 34.18667594]]]]}, "properties": {"id": "Pakistan_123102310_647632", "height": 3.073815822601318, "hmax": 0.009, "ratio": 0.003, "vulnClass": "none"}}, {"type": "Feature", "geometry": {"type": "MultiPolygon", "coordinates": [[[[72.41123491, 34.18673789], [72.41123063, 34.18668488], [72.41117989, 34.18668768], [72.41118417, 34.18674069], [72.41123491, 34.18673789]]]]}, "properties": {"id": "Pakistan_123102310_217287", "height": 2.448063373565674, "hmax": 0.009, "ratio": 0.004, "vulnClass": "none"}}, {"type": "Feature", "geometry": {"type": "MultiPolygon", "coordinates": [[[[72.41169549, 34.18697804], [72.41195653, 34.18698496], [72.41196626, 34.1867345], [72.41186328, 34.18673177], [72.41186002, 34.18681599], [72.41182519, 34.18681507], [72.41182235, 34.18688821], [72.4116991, 34.18688494], [72.41169549, 34.18697804]]]]}, "properties": {"id": "Pakistan_123102310_880102", "height": 3.977151870727539, "hmax": 0.005, "ratio": 0.001, "vulnClass": "none"}}, {"type": "Feature", "geometry": {"type": "MultiPolygon", "coordinates": [[[[72.41033377, 34.1875853], [72.41032973, 34.1874567], [72.41020911, 34.1874593], [72.41021315, 34.18758789], [72.41033377, 34.1875853]]]]}, "properties": {"id": "Pakistan_123102310_9163", "height": 3.283722400665283, "hmax": 0.022, "ratio": 0.007, "vulnClass": "none"}}, {"type": "Feature", "geometry": {"type": "MultiPolygon", "coordinates": [[[[72.4100826, 34.18678154], [72.41009116, 34.18693209], [72.41034274, 34.18692231], [72.41033405, 34.18676956], [72.4102897, 34.18677128], [72.41029259, 34.1868222], [72.41026201, 34.18682339], [72.41025924, 34.18677468], [72.4100826, 34.18678154]]]]}, "properties": {"id": "Pakistan_123102310_235234", "height": 5.219786643981934, "hmax": 0.021, "ratio": 0.004, "vulnClass": "none"}}, {"type": "Feature", "geometry": {"type": "MultiPolygon", "coordinates": [[[[72.41003867, 34.18668184], [72.40978659, 34.18668467], [72.40978724, 34.1867246], [72.40987306, 34.18672363], [72.40987371, 34.18676356], [72.4099691, 34.18676249], [72.40996896, 34.18675362], [72.41003983, 34.18675282], [72.41003867, 34.18668184]]]]}, "properties": {"id": "Pakistan_123102310_936858", "height": 2.761451721191406, "hmax": 0.02, "ratio": 0.007, "vulnClass": "none"}}, {"type": "Feature", "geometry": {"type": "MultiPolygon", "coordinates": [[[[72.40991068, 34.18696011], [72.40990931, 34.18693576], [72.41003242, 34.186931], [72.41002713, 34.18683718], [72.40986922, 34.18684327], [72.40987039, 34.18686404], [72.40963755, 34.18687303], [72.40964305, 34.18697045], [72.40991068, 34.18696011]]]]}, "properties": {"id": "Pakistan_123102310_206754", "height": 5.130162715911865, "hmax": 0.022, "ratio": 0.004, "vulnClass": "none"}}, {"type": "Feature", "geometry": {"type": "MultiPolygon", "coordinates": [[[[72.40807267, 34.18575797], [72.4080755, 34.18585554], [72.40795219, 34.18585798], [72.40795366, 34.18590899], [72.40814131, 34.18590527], [72.40813701, 34.1857567], [72.40807267, 34.18575797]]]]}, "properties": {"id": "Pakistan_123102310_652343", "height": 3.035490036010742, "hmax": 0.071, "ratio": 0.023, "vulnClass": "none"}}, {"type": "Feature", "geometry": {"type": "MultiPolygon", "coordinates": [[[[72.4103467, 34.18643601], [72.41026357, 34.18643721], [72.4102654, 34.18652372], [72.41005743, 34.18652673], [72.41005934, 34.18661767], [72.41035045, 34.18661346], [72.4103467, 34.18643601]]]]}, "properties": {"id": "Pakistan_123102310_724029", "height": 3.730954170227051, "hmax": 0.019, "ratio": 0.005, "vulnClass": "none"}}, {"type": "Feature", "geometry": {"type": "MultiPolygon", "coordinates": [[[[72.41307043, 34.18479255], [72.41296607, 34.18478828], [72.41296264, 34.18484583], [72.41306699, 34.1848501], [72.41307043, 34.18479255]]]]}, "properties": {"id": "Pakistan_123102310_486625", "height": 3.658634901046753, "hmax": 0.036, "ratio": 0.01, "vulnClass": "none"}}, {"type": "Feature", "geometry": {"type": "MultiPolygon", "coordinates": [[[[72.41296766, 34.18501382], [72.41297182, 34.18488966], [72.41286998, 34.18488733], [72.41286582, 34.18501148], [72.41296766, 34.18501382]]]]}, "properties": {"id": "Pakistan_123102310_254094", "height": 2.608305931091309, "hmax": 0.036, "ratio": 0.014, "vulnClass": "none"}}, {"type": "Feature", "geometry": {"type": "MultiPolygon", "coordinates": [[[[72.41293519, 34.18504174], [72.41289626, 34.18517366], [72.41294436, 34.18518337], [72.41298329, 34.18505145], [72.41293519, 34.18504174]]]]}, "properties": {"id": "Pakistan_123102310_609704", "height": 2.533334493637085, "hmax": 0.264, "ratio": 0.104, "vulnClass": "low"}}, {"type": "Feature", "geometry": {"type": "MultiPolygon", "coordinates": [[[[72.41272874, 34.18501144], [72.41274885, 34.1856487], [72.41283194, 34.1856469], [72.41282869, 34.18554401], [72.41278312, 34.18554499], [72.41277958, 34.18543281], [72.41283855, 34.18543154], [72.41283428, 34.18529629], [72.41287985, 34.1852953], [72.41287614, 34.18517779], [72.41280913, 34.18517923], [72.41280731, 34.18512158], [72.41284484, 34.18512077], [72.41284131, 34.18500901], [72.41272874, 34.18501144]]]]}, "properties": {"id": "Pakistan_123102310_236187", "height": 2.91894006729126, "hmax": 0.256, "ratio": 0.088, "vulnClass": "low"}}, {"type": "Feature", "geometry": {"type": "MultiPolygon", "coordinates": [[[[72.41368615, 34.18541388], [72.41380406, 34.18541674], [72.41380571, 34.18537019], [72.4136878, 34.18536733], [72.41368615, 34.18541388]]]]}, "properties": {"id": "Pakistan_123102310_217307", "height": 4.682270050048828, "hmax": 0.177, "ratio": 0.038, "vulnClass": "none"}}, {"type": "Feature", "geometry": {"type": "MultiPolygon", "coordinates": [[[[72.41404898, 34.18545238], [72.41401418, 34.18545114], [72.4140187, 34.18536477], [72.41393303, 34.1853617], [72.41392863, 34.18544586], [72.4139902, 34.18544806], [72.413988, 34.18549014], [72.4140469, 34.18549225], [72.41404898, 34.18545238]]]]}, "properties": {"id": "Pakistan_123102310_169266", "height": 3.62086033821106, "hmax": 0.177, "ratio": 0.049, "vulnClass": "none"}}, {"type": "Feature", "geometry": {"type": "MultiPolygon", "coordinates": [[[[72.41385525, 34.18529521], [72.41434686, 34.18530836], [72.41435059, 34.18521305], [72.41411212, 34.18520667], [72.41411221, 34.18520445], [72.41402787, 34.1852022], [72.4140296, 34.18515787], [72.4141073, 34.18515994], [72.41410839, 34.18513211], [72.41397978, 34.18512866], [72.41397973, 34.18512991], [72.4139181, 34.18512826], [72.41391507, 34.18520584], [72.4138588, 34.18520433], [72.41385525, 34.18529521]]]]}, "properties": {"id": "Pakistan_123102310_676429", "height": 2.570762157440186, "hmax": 0.145, "ratio": 0.056, "vulnClass": "low"}}, {"type": "Feature", "geometry": {"type": "MultiPolygon", "coordinates": [[[[72.41258004, 34.18454864], [72.41258798, 34.18477477], [72.41299934, 34.18476491], [72.41299561, 34.1846585], [72.41273297, 34.18466479], [72.41272878, 34.18454508], [72.41258004, 34.18454864]]]]}, "properties": {"id": "Pakistan_123102310_443831", "height": 2.650256633758545, "hmax": 0.036, "ratio": 0.014, "vulnClass": "none"}}, {"type": "Feature", "geometry": {"type": "MultiPolygon", "coordinates": [[[[72.41330907, 34.18412497], [72.41300218, 34.18411769], [72.4129983, 34.18422984], [72.41280802, 34.18422534], [72.41280484, 34.18431714], [72.4129174, 34.18431981], [72.41291705, 34.18432999], [72.41308321, 34.18433392], [72.41308482, 34.18428736], [72.41312234, 34.18428825], [72.41312142, 34.18431486], [72.4133787, 34.18432095], [72.41337985, 34.18428769], [72.41344149, 34.18428915], [72.41344276, 34.1842524], [72.4133436, 34.18425005], [72.41334402, 34.18423803], [72.41330518, 34.18423711], [72.41330907, 34.18412497]]]]}, "properties": {"id": "Pakistan_123102310_282516", "height": 2.838916301727295, "hmax": 0.127, "ratio": 0.045, "vulnClass": "none"}}, {"type": "Feature", "geometry": {"type": "MultiPolygon", "coordinates": [[[[72.41289799, 34.18413962], [72.41289984, 34.18417728], [72.41299761, 34.18417399], [72.41299577, 34.18413633], [72.41289799, 34.18413962]]]]}, "properties": {"id": "Pakistan_123102310_657242", "height": 2.822038650512695, "hmax": 0.033, "ratio": 0.012, "vulnClass": "none"}}, {"type": "Feature", "geometry": {"type": "MultiPolygon", "coordinates": [[[[72.41295327, 34.18410168], [72.41335258, 34.18409209], [72.41335313, 34.1841076], [72.41349517, 34.18410419], [72.41349703, 34.1841574], [72.41367123, 34.18415321], [72.41366749, 34.1840468], [72.41361925, 34.18404796], [72.41361809, 34.1840147], [72.41371992, 34.18401226], [72.41371557, 34.18388811], [72.41351993, 34.18389281], [72.41351907, 34.18386842], [72.41293484, 34.18388246], [72.41293477, 34.18388024], [72.41282221, 34.18388295], [72.41282431, 34.1839428], [72.41294759, 34.18393984], [72.41295327, 34.18410168]]]]}, "properties": {"id": "Pakistan_123102310_56667", "height": 3.29108452796936, "hmax": 0.077, "ratio": 0.023, "vulnClass": "none"}}, {"type": "Feature", "geometry": {"type": "MultiPolygon", "coordinates": [[[[72.4132777, 34.18373603], [72.41327813, 34.18368851], [72.41304084, 34.18368705], [72.41304041, 34.18373456], [72.4132777, 34.18373603]]]]}, "properties": {"id": "Pakistan_123102310_870648", "height": 3.754902362823486, "hmax": 0.052, "ratio": 0.014, "vulnClass": "none"}}, {"type": "Feature", "geometry": {"type": "MultiPolygon", "coordinates": [[[[72.41350647, 34.18370884], [72.41383231, 34.18378815], [72.41384798, 34.18374411], [72.41374184, 34.18371827], [72.41375377, 34.18368472], [72.41353524, 34.18363153], [72.41354728, 34.18359768], [72.41347207, 34.18357937], [72.41344955, 34.18364267], [72.4135236, 34.1836607], [72.41350647, 34.18370884]]]]}, "properties": {"id": "Pakistan_123102310_842201", "height": 3.174649238586426, "hmax": 0.102, "ratio": 0.032, "vulnClass": "none"}}, {"type": "Feature", "geometry": {"type": "MultiPolygon", "coordinates": [[[[72.41398113, 34.1833189], [72.4139807, 34.18333874], [72.4140678, 34.1835811], [72.41412692, 34.18345564], [72.41412718, 34.18344333], [72.41416763, 34.18343339], [72.41416949, 34.18334821], [72.41419675, 34.18329035], [72.41413091, 34.18326912], [72.4139871, 34.18326698], [72.41395588, 34.18318013], [72.41395751, 34.18310546], [72.4138684, 34.18307672], [72.41386912, 34.18304383], [72.41387921, 34.18302242], [72.41386713, 34.18298881], [72.4134413, 34.18298245], [72.41343818, 34.18312564], [72.41351808, 34.18315141], [72.4135174, 34.18318283], [72.41349376, 34.18318864], [72.41329268, 34.18318565], [72.41328448, 34.18316285], [72.41328622, 34.1830833], [72.41323295, 34.18306612], [72.41323092, 34.18315902], [72.41325368, 34.18322236], [72.4132521, 34.1832947], [72.41384467, 34.18330355], [72.41384948, 34.18331693], [72.41398113, 34.1833189]]]]}, "properties": {"id": "Pakistan_123102310_695398", "height": 3.598513603210449, "hmax": 0.057, "ratio": 0.016, "vulnClass": "none"}}, {"type": "Feature", "geometry": {"type": "MultiPolygon", "coordinates": [[[[72.41389479, 34.18252719], [72.41391465, 34.18276123], [72.41396418, 34.18275836], [72.41395164, 34.18261042], [72.41440487, 34.18258413], [72.41433568, 34.18261921], [72.41401831, 34.18263762], [72.4140258, 34.18272594], [72.41428955, 34.18271064], [72.41429665, 34.18269371], [72.41439409, 34.18268805], [72.41442866, 34.18260563], [72.41443655, 34.18269872], [72.41450478, 34.18271831], [72.41449479, 34.18274211], [72.41430289, 34.18275325], [72.41430972, 34.18283372], [72.414622, 34.18281561], [72.41461413, 34.18272287], [72.41467552, 34.18271931], [72.41467063, 34.18266163], [72.41462818, 34.18264944], [72.41462374, 34.18259705], [72.41448975, 34.18260483], [72.4144684, 34.18257601], [72.41441568, 34.18257906], [72.41441024, 34.18251484], [72.41443453, 34.18250253], [72.4143748, 34.182506], [72.41439122, 34.18252817], [72.41430491, 34.18250339], [72.41389479, 34.18252719]]]]}, "properties": {"id": "Pakistan_123102310_434464", "height": 3.330994129180908, "hmax": 0.075, "ratio": 0.022, "vulnClass": "none"}}, {"type": "Feature", "geometry": {"type": "MultiPolygon", "coordinates": [[[[72.41359233, 34.18220371], [72.41359146, 34.18224585], [72.41372016, 34.18224767], [72.41372103, 34.18220552], [72.41359233, 34.18220371]]]]}, "properties": {"id": "Pakistan_123102310_785602", "height": 3.408770561218262, "hmax": 0.012, "ratio": 0.003, "vulnClass": "none"}}, {"type": "Feature", "geometry": {"type": "MultiPolygon", "coordinates": [[[[72.41406223, 34.18218886], [72.41407366, 34.18226084], [72.41441531, 34.18222373], [72.41440389, 34.18215175], [72.41406223, 34.18218886]]]]}, "properties": {"id": "Pakistan_123102310_581455", "height": 3.048642158508301, "hmax": 0.029, "ratio": 0.009, "vulnClass": "none"}}, {"type": "Feature", "geometry": {"type": "MultiPolygon", "coordinates": [[[[72.41359426, 34.18210713], [72.4135938, 34.18215817], [72.41370913, 34.18215888], [72.41370897, 34.18217663], [72.41375725, 34.18217693], [72.41375676, 34.18223018], [72.41382113, 34.18223058], [72.41382224, 34.18210855], [72.41359426, 34.18210713]]]]}, "properties": {"id": "Pakistan_123102310_467742", "height": 2.832560062408447, "hmax": 0.012, "ratio": 0.004, "vulnClass": "none"}}, {"type": "Feature", "geometry": {"type": "MultiPolygon", "coordinates": [[[[72.41602682, 34.18081173], [72.41613932, 34.18080828], [72.41614007, 34.18082491], [72.41625895, 34.18082126], [72.416257, 34.18077804], [72.41629986, 34.18077672], [72.41629384, 34.18064267], [72.41589742, 34.18065486], [72.41590359, 34.18079224], [72.41596685, 34.1807903], [72.41596477, 34.18074376], [72.41602369, 34.18074195], [72.41602682, 34.18081173]]]]}, "properties": {"id": "Pakistan_123102310_113329", "height": 5.012256145477295, "hmax": 0.024, "ratio": 0.005, "vulnClass": "none"}}, {"type": "Feature", "geometry": {"type": "MultiPolygon", "coordinates": [[[[72.41651246, 34.18089354], [72.41647891, 34.18063468], [72.41629429, 34.18065106], [72.4162987, 34.18068506], [72.41630931, 34.18068412], [72.41631671, 34.18074116], [72.41640055, 34.18073372], [72.41640425, 34.18076223], [72.41627962, 34.1807733], [72.41628559, 34.18081936], [72.41608671, 34.18083702], [72.41609581, 34.18090721], [72.41601728, 34.18091418], [72.41600989, 34.18085715], [72.41592667, 34.18086453], [72.41594386, 34.18099723], [72.41596243, 34.18099558], [72.41598233, 34.18114914], [72.41622733, 34.18112741], [72.41621012, 34.1809947], [72.41610832, 34.18100373], [72.4160988, 34.18093023], [72.41651246, 34.18089354]]]]}, "properties": {"id": "Pakistan_123102310_292518", "height": 4.833207607269287, "hmax": 0.024, "ratio": 0.005, "vulnClass": "none"}}, {"type": "Feature", "geometry": {"type": "MultiPolygon", "coordinates": [[[[72.41573374, 34.17994735], [72.41573515, 34.17999665], [72.41574964, 34.18003434], [72.41575108, 34.1800843], [72.41582161, 34.18008292], [72.41587402, 34.18006912], [72.41587627, 34.18014741], [72.41587972, 34.18015638], [72.4158446, 34.18016562], [72.41584572, 34.18020448], [72.41608698, 34.18019975], [72.41608627, 34.18017483], [72.41605657, 34.18009761], [72.41596313, 34.18012219], [72.41595113, 34.18009098], [72.41598969, 34.18008083], [72.41598901, 34.18005695], [72.41598073, 34.18003542], [72.41592482, 34.18003651], [72.41588921, 34.17994389], [72.41588986, 34.1799665], [72.41587704, 34.17993316], [72.41578047, 34.17993506], [72.41573374, 34.17994735]]]]}, "properties": {"id": "Pakistan_123102310_340016", "height": 2.806775331497192, "hmax": 0.019, "ratio": 0.007, "vulnClass": "none"}}, {"type": "Feature", "geometry": {"type": "MultiPolygon", "coordinates": [[[[72.41601077, 34.17977279], [72.41600941, 34.17985931], [72.41621956, 34.17986158], [72.41622093, 34.17977506], [72.41601077, 34.17977279]]]]}, "properties": {"id": "Pakistan_123102310_472491", "height": 2.803300380706787, "hmax": 0.019, "ratio": 0.007, "vulnClass": "none"}}, {"type": "Feature", "geometry": {"type": "MultiPolygon", "coordinates": [[[[72.41640255, 34.1799611], [72.41631176, 34.17997027], [72.41631208, 34.17997246], [72.41612803, 34.17999106], [72.41613401, 34.18003152], [72.41606699, 34.18003829], [72.41607183, 34.18007109], [72.41611412, 34.18006681], [72.4161246, 34.18013785], [72.41609818, 34.18014052], [72.41610964, 34.18021815], [72.41631842, 34.18019704], [72.41630325, 34.18009429], [72.41639046, 34.18008547], [72.41639707, 34.18013029], [72.41632836, 34.18013723], [72.41633804, 34.18020282], [72.4164315, 34.18019338], [72.41643231, 34.18019884], [72.4165212, 34.18018986], [72.4164857, 34.17994937], [72.41640207, 34.17995782], [72.41640255, 34.1799611]]]]}, "properties": {"id": "Pakistan_123102310_160775", "height": 2.746041536331177, "hmax": 0.019, "ratio": 0.007, "vulnClass": "none"}}, {"type": "Feature", "geometry": {"type": "MultiPolygon", "coordinates": [[[[72.41680488, 34.17988179], [72.41681106, 34.17994796], [72.41673374, 34.1799529], [72.41673209, 34.17993526], [72.41661211, 34.17994293], [72.41662025, 34.18003004], [72.41653493, 34.1800355], [72.41654615, 34.18015572], [72.41658882, 34.18015299], [72.41659005, 34.18016623], [72.41682735, 34.18015106], [72.41682653, 34.18014224], [72.41732779, 34.1801102], [72.41733191, 34.18015431], [72.41738887, 34.18015067], [72.41738443, 34.18010319], [72.41745375, 34.18009875], [72.41744499, 34.18000507], [72.4172414, 34.18001809], [72.41723594, 34.17995958], [72.41746257, 34.17994508], [72.41745279, 34.17984037], [72.41680488, 34.17988179]]]]}, "properties": {"id": "Pakistan_123102310_533953", "height": 3.794230699539185, "hmax": 0.01, "ratio": 0.003, "vulnClass": "none"}}, {"type": "Feature", "geometry": {"type": "MultiPolygon", "coordinates": [[[[72.41776639, 34.17977961], [72.41778382, 34.17996934], [72.41783715, 34.17996599], [72.41783503, 34.17994291], [72.41800667, 34.17993212], [72.41800181, 34.17987918], [72.41829516, 34.17986075], [72.41828463, 34.17974602], [72.41820462, 34.17975105], [72.41821009, 34.17981062], [72.4178874, 34.17983089], [72.41788203, 34.17977234], [72.41776639, 34.17977961]]]]}, "properties": {"id": "Pakistan_123102310_306897", "height": 3.849338531494141, "hmax": 0.0, "ratio": 0.0, "vulnClass": "none"}}, {"type": "Feature", "geometry": {"type": "MultiPolygon", "coordinates": [[[[72.41823356, 34.17987566], [72.41821733, 34.17986714], [72.4180595, 34.17987111], [72.41806193, 34.17993747], [72.41800829, 34.17990932], [72.41797659, 34.17995066], [72.41797753, 34.17997648], [72.41796083, 34.17996771], [72.41793722, 34.1799985], [72.41789678, 34.17997727], [72.41782012, 34.1799792], [72.41778381, 34.17996014], [72.41778788, 34.18007098], [72.41808534, 34.18006351], [72.41808303, 34.18000079], [72.41809671, 34.18000797], [72.4180989, 34.1800676], [72.41820819, 34.18006486], [72.41823599, 34.18002862], [72.41823493, 34.17999984], [72.41817516, 34.18000134], [72.41812271, 34.17997381], [72.41818123, 34.17997234], [72.41818023, 34.17994518], [72.41823356, 34.17987566]]]]}, "properties": {"id": "Pakistan_123102310_363674", "height": 3.872135877609253, "hmax": 0.0, "ratio": 0.0, "vulnClass": "none"}}, {"type": "Feature", "geometry": {"type": "MultiPolygon", "coordinates": [[[[72.41797227, 34.18073482], [72.41796759, 34.18062401], [72.4175058, 34.18063738], [72.41750669, 34.1806585], [72.41740055, 34.18066157], [72.41740289, 34.18071697], [72.41750903, 34.18071391], [72.41751048, 34.18074819], [72.41797227, 34.18073482]]]]}, "properties": {"id": "Pakistan_123102310_406203", "height": 2.938785076141357, "hmax": 0.004, "ratio": 0.001, "vulnClass": "none"}}, {"type": "Feature", "geometry": {"type": "MultiPolygon", "coordinates": [[[[72.41688255, 34.18066308], [72.41689155, 34.18077352], [72.41679009, 34.18077918], [72.41680089, 34.18091171], [72.41695842, 34.18090293], [72.41693862, 34.18065995], [72.41688255, 34.18066308]]]]}, "properties": {"id": "Pakistan_123102310_254120", "height": 4.981384754180908, "hmax": 0.01, "ratio": 0.002, "vulnClass": "none"}}, {"type": "Feature", "geometry": {"type": "MultiPolygon", "coordinates": [[[[72.41663416, 34.18075004], [72.41670918, 34.18075209], [72.41670647, 34.18081971], [72.41676644, 34.18082135], [72.41677219, 34.18067728], [72.4167042, 34.18067542], [72.41670535, 34.18064661], [72.41663837, 34.18064477], [72.41663416, 34.18075004]]]]}, "properties": {"id": "Pakistan_123102310_818737", "height": 5.384144306182861, "hmax": 0.01, "ratio": 0.002, "vulnClass": "none"}}, {"type": "Feature", "geometry": {"type": "MultiPolygon", "coordinates": [[[[72.41610741, 34.18094501], [72.4161086, 34.18099603], [72.41622389, 34.18099419], [72.41622721, 34.18113614], [72.41632105, 34.18113464], [72.41631654, 34.18094167], [72.41610741, 34.18094501]]]]}, "properties": {"id": "Pakistan_123102310_505547", "height": 4.299422264099121, "hmax": 0.024, "ratio": 0.006, "vulnClass": "none"}}, {"type": "Feature", "geometry": {"type": "MultiPolygon", "coordinates": [[[[72.41681833, 34.18119639], [72.41680462, 34.18106199], [72.41670608, 34.18106887], [72.41669978, 34.18100718], [72.41673707, 34.18100458], [72.4167319, 34.1809539], [72.41653482, 34.18096767], [72.41654022, 34.18102054], [72.41658815, 34.1810172], [72.41659377, 34.18107228], [72.41655012, 34.18107532], [72.41656427, 34.18121413], [72.41681833, 34.18119639]]]]}, "properties": {"id": "Pakistan_123102310_206848", "height": 2.81960916519165, "hmax": 0.01, "ratio": 0.003, "vulnClass": "none"}}, {"type": "Feature", "geometry": {"type": "MultiPolygon", "coordinates": [[[[72.41701555, 34.18087793], [72.4172703, 34.18087459], [72.41726865, 34.18078913], [72.4170729, 34.18079171], [72.41707122, 34.18070413], [72.4169586, 34.18070561], [72.41696113, 34.18083757], [72.41701476, 34.18083686], [72.41701555, 34.18087793]]]]}, "properties": {"id": "Pakistan_123102310_74010", "height": 2.919799089431763, "hmax": 0.01, "ratio": 0.003, "vulnClass": "none"}}, {"type": "Feature", "geometry": {"type": "MultiPolygon", "coordinates": [[[[72.41740977, 34.18088138], [72.41731089, 34.18088633], [72.41731663, 34.18096487], [72.41741551, 34.18095992], [72.41740977, 34.18088138]]]]}, "properties": {"id": "Pakistan_123102310_747833", "height": 2.442992925643921, "hmax": 0.01, "ratio": 0.004, "vulnClass": "none"}}, {"type": "Feature", "geometry": {"type": "MultiPolygon", "coordinates": [[[[72.41782843, 34.1809457], [72.41782344, 34.1808638], [72.41768164, 34.18086972], [72.41768016, 34.18084538], [72.41757952, 34.18084958], [72.4175806, 34.18086728], [72.41751907, 34.18086985], [72.41751596, 34.18081895], [72.41743303, 34.18082241], [72.41743924, 34.18092422], [72.41756498, 34.18091897], [72.41756727, 34.1809566], [72.41782843, 34.1809457]]]]}, "properties": {"id": "Pakistan_123102310_236251", "height": 3.377507925033569, "hmax": 0.005, "ratio": 0.002, "vulnClass": "none"}}, {"type": "Feature", "geometry": {"type": "MultiPolygon", "coordinates": [[[[72.41826568, 34.18096212], [72.41826173, 34.18088115], [72.41814123, 34.18088518], [72.41813512, 34.18076011], [72.41793428, 34.18076681], [72.41793422, 34.18076561], [72.4178405, 34.18076875], [72.41784353, 34.18083077], [72.41786393, 34.18083009], [72.417871, 34.18097528], [72.41826568, 34.18096212]]]]}, "properties": {"id": "Pakistan_123102310_743166", "height": 2.842313051223755, "hmax": 0.0, "ratio": 0.0, "vulnClass": "none"}}, {"type": "Feature", "geometry": {"type": "MultiPolygon", "coordinates": [[[[72.41789378, 34.18141949], [72.41787059, 34.1811747], [72.41780232, 34.18117913], [72.41780274, 34.18118354], [72.41773505, 34.18118793], [72.41773129, 34.18114823], [72.417582, 34.18115791], [72.41759161, 34.18125936], [72.41769291, 34.18125279], [72.41769709, 34.1812969], [72.41759579, 34.18130347], [72.41760749, 34.18142697], [72.41772479, 34.18141936], [72.41772583, 34.18143039], [72.41789378, 34.18141949]]]]}, "properties": {"id": "Pakistan_123102310_358983", "height": 2.796601295471191, "hmax": 0.001, "ratio": 0.0, "vulnClass": "none"}}, {"type": "Feature", "geometry": {"type": "MultiPolygon", "coordinates": [[[[72.41813962, 34.18127383], [72.41814057, 34.1812105], [72.41791904, 34.18120823], [72.41791542, 34.18145005], [72.41808437, 34.18145178], [72.41808554, 34.18137413], [72.41802117, 34.18137347], [72.41802268, 34.18127262], [72.41813962, 34.18127383]]]]}, "properties": {"id": "Pakistan_123102310_884861", "height": 3.183443069458008, "hmax": 0.0, "ratio": 0.0, "vulnClass": "none"}}, {"type": "Feature", "geometry": {"type": "MultiPolygon", "coordinates": [[[[72.41687205, 34.18157476], [72.41685993, 34.18136445], [72.41668331, 34.18137141], [72.41668758, 34.18144556], [72.41660194, 34.18144894], [72.41660979, 34.1815851], [72.41687205, 34.18157476]]]]}, "properties": {"id": "Pakistan_123102310_828143", "height": 3.964046955108643, "hmax": 0.01, "ratio": 0.003, "vulnClass": "none"}}, {"type": "Feature", "geometry": {"type": "MultiPolygon", "coordinates": [[[[72.41592371, 34.18174114], [72.4163329, 34.18175943], [72.41634157, 34.18162668], [72.41629878, 34.18162477], [72.41631417, 34.18138915], [72.41596114, 34.18137339], [72.41595804, 34.18142094], [72.41609176, 34.18142691], [72.41608771, 34.18148886], [72.41612783, 34.18149065], [72.41612451, 34.18154154], [72.4160416, 34.18153783], [72.4160429, 34.18151792], [72.41597069, 34.18151469], [72.41596375, 34.18162089], [72.41593166, 34.18161946], [72.41592371, 34.18174114]]]]}, "properties": {"id": "Pakistan_123102310_590907", "height": 5.338496208190918, "hmax": 0.073, "ratio": 0.014, "vulnClass": "none"}}, {"type": "Feature", "geometry": {"type": "MultiPolygon", "coordinates": [[[[72.4159621, 34.18131304], [72.416312, 34.18133184], [72.41632414, 34.18117717], [72.41606239, 34.1811631], [72.41605979, 34.18119625], [72.41600904, 34.18119352], [72.41601285, 34.18114491], [72.41597546, 34.1811429], [72.4159621, 34.18131304]]]]}, "properties": {"id": "Pakistan_123102310_325881", "height": 2.624152898788452, "hmax": 0.024, "ratio": 0.009, "vulnClass": "none"}}, {"type": "Feature", "geometry": {"type": "MultiPolygon", "coordinates": [[[[72.414948, 34.18095418], [72.41479523, 34.18095066], [72.4147905, 34.18109155], [72.41494059, 34.181095], [72.41494383, 34.18099846], [72.41494651, 34.18099853], [72.414948, 34.18095418]]]]}, "properties": {"id": "Pakistan_123102310_387274", "height": 2.657979726791382, "hmax": 0.051, "ratio": 0.019, "vulnClass": "none"}}, {"type": "Feature", "geometry": {"type": "MultiPolygon", "coordinates": [[[[72.41498009, 34.1810923], [72.41504833, 34.18108773], [72.41504996, 34.18110434], [72.41496735, 34.18110988], [72.41497146, 34.18115176], [72.41502475, 34.18114819], [72.41503101, 34.18121211], [72.41505338, 34.18121061], [72.41505749, 34.1812525], [72.41515875, 34.1812457], [72.41515291, 34.18118618], [72.41508896, 34.18119047], [72.41508106, 34.18110994], [72.41517062, 34.18110393], [72.41516306, 34.18102678], [72.41504419, 34.18103475], [72.41503263, 34.18091689], [72.41496335, 34.18092154], [72.41498009, 34.1810923]]]]}, "properties": {"id": "Pakistan_123102310_719261", "height": 2.664112329483032, "hmax": 0.051, "ratio": 0.019, "vulnClass": "none"}}, {"type": "Feature", "geometry": {"type": "MultiPolygon", "coordinates": [[[[72.41482181, 34.1817162], [72.41499753, 34.18169845], [72.41514626, 34.18171966], [72.4151539, 34.18168303], [72.41507525, 34.18167181], [72.41517006, 34.18166223], [72.4151917, 34.18155838], [72.41519018, 34.18154807], [72.41509239, 34.18155795], [72.41508852, 34.18153172], [72.41501188, 34.18153946], [72.41499969, 34.1814569], [72.41496966, 34.18145262], [72.41498178, 34.18139444], [72.41486024, 34.1813771], [72.41485763, 34.18135948], [72.41486337, 34.18133197], [72.41492047, 34.18134012], [72.41498154, 34.18133395], [72.41496605, 34.18122901], [72.41493787, 34.18123185], [72.41492164, 34.18130976], [72.41491386, 34.18125708], [72.41483852, 34.18124633], [72.41475062, 34.18125521], [72.41474124, 34.18130022], [72.41476078, 34.18130301], [72.41482181, 34.1817162]]]]}, "properties": {"id": "Pakistan_123102310_462989", "height": 4.471889495849609, "hmax": 0.072, "ratio": 0.016, "vulnClass": "none"}}, {"type": "Feature", "geometry": {"type": "MultiPolygon", "coordinates": [[[[72.41444107, 34.18212284], [72.41444364, 34.18220266], [72.41448921, 34.18220166], [72.41448663, 34.18212183], [72.41444107, 34.18212284]]]]}, "properties": {"id": "Pakistan_123102310_662122", "height": 2.672489881515503, "hmax": 0.085, "ratio": 0.032, "vulnClass": "none"}}, {"type": "Feature", "geometry": {"type": "MultiPolygon", "coordinates": [[[[72.41478442, 34.18178615], [72.41481017, 34.18215324], [72.41504655, 34.1821419], [72.41504173, 34.18207334], [72.41496308, 34.18207712], [72.41495665, 34.18198543], [72.41508608, 34.18197921], [72.41508088, 34.18190505], [72.41498464, 34.18190967], [72.41497983, 34.18184111], [72.41503864, 34.18183829], [72.41504059, 34.18186601], [72.41514106, 34.18186118], [72.41513423, 34.18176388], [72.41500324, 34.18177018], [72.41500123, 34.18174143], [72.41484461, 34.18174895], [72.41484701, 34.18178314], [72.41478442, 34.18178615]]]]}, "properties": {"id": "Pakistan_123102310_226831", "height": 3.273275375366211, "hmax": 0.085, "ratio": 0.026, "vulnClass": "none"}}, {"type": "Feature", "geometry": {"type": "MultiPolygon", "coordinates": [[[[72.4158906, 34.18214105], [72.41633574, 34.18218729], [72.41634768, 34.18210865], [72.41594896, 34.18206724], [72.41595692, 34.18201481], [72.41634883, 34.18205552], [72.41636143, 34.18197251], [72.41632446, 34.18196867], [72.41632828, 34.18194355], [72.41626754, 34.18193723], [72.41626506, 34.18195362], [72.4162096, 34.18194786], [72.41621822, 34.18189107], [72.4161126, 34.1818801], [72.41612188, 34.18181893], [72.41598986, 34.18180522], [72.41599317, 34.18178338], [72.41594036, 34.18177789], [72.41591069, 34.18197337], [72.41591597, 34.18197392], [72.4158906, 34.18214105]]]]}, "properties": {"id": "Pakistan_123102310_306885", "height": 3.941540718078613, "hmax": 0.092, "ratio": 0.023, "vulnClass": "none"}}, {"type": "Feature", "geometry": {"type": "MultiPolygon", "coordinates": [[[[72.4160056, 34.18229862], [72.41618248, 34.18230277], [72.41618415, 34.182254], [72.41612251, 34.18225255], [72.41612343, 34.18222594], [72.41606179, 34.1822245], [72.41606369, 34.18216907], [72.41601009, 34.18216781], [72.4160056, 34.18229862]]]]}, "properties": {"id": "Pakistan_123102310_804461", "height": 3.330042123794556, "hmax": 0.092, "ratio": 0.028, "vulnClass": "none"}}, {"type": "Feature", "geometry": {"type": "MultiPolygon", "coordinates": [[[[72.41580248, 34.18246707], [72.41635762, 34.18249166], [72.41636814, 34.18232904], [72.4161729, 34.18232041], [72.41617018, 34.18236245], [72.41599366, 34.18235464], [72.4159991, 34.18227056], [72.41587607, 34.18226512], [72.41587178, 34.18233149], [72.41581141, 34.18232882], [72.41580248, 34.18246707]]]]}, "properties": {"id": "Pakistan_123102310_216250", "height": 4.054181098937988, "hmax": 0.062, "ratio": 0.015, "vulnClass": "none"}}, {"type": "Feature", "geometry": {"type": "MultiPolygon", "coordinates": [[[[72.41487449, 34.1825086], [72.41481889, 34.18248541], [72.41479948, 34.18251726], [72.41476313, 34.18250209], [72.41473725, 34.18254455], [72.41478002, 34.18256239], [72.41479296, 34.18254116], [72.41484215, 34.18256168], [72.41487449, 34.1825086]]]]}, "properties": {"id": "Pakistan_123102310_297371", "height": 3.871614933013916, "hmax": 0.113, "ratio": 0.029, "vulnClass": "none"}}, {"type": "Feature", "geometry": {"type": "MultiPolygon", "coordinates": [[[[72.4144425, 34.18232516], [72.41443954, 34.18226091], [72.41438483, 34.18226263], [72.41438778, 34.18232688], [72.4144425, 34.18232516]]]]}, "properties": {"id": "Pakistan_123102310_297361", "height": 3.635990142822266, "hmax": 0.085, "ratio": 0.023, "vulnClass": "none"}}, {"type": "Feature", "geometry": {"type": "MultiPolygon", "coordinates": [[[[72.41490233, 34.18246664], [72.41489985, 34.18237793], [72.41478994, 34.18238003], [72.41478904, 34.18234797], [72.41468717, 34.18234992], [72.41468497, 34.1822711], [72.41446783, 34.18227525], [72.41447167, 34.18241274], [72.41449043, 34.18241238], [72.41449217, 34.18247448], [72.41490233, 34.18246664]]]]}, "properties": {"id": "Pakistan_123102310_586238", "height": 3.585775375366211, "hmax": 0.101, "ratio": 0.028, "vulnClass": "none"}}, {"type": "Feature", "geometry": {"type": "MultiPolygon", "coordinates": [[[[72.41424878, 34.18225794], [72.41411953, 34.18227511], [72.41412583, 34.18230755], [72.41418448, 34.18229976], [72.41419245, 34.18234086], [72.41435868, 34.18231879], [72.41435196, 34.18228418], [72.41425634, 34.18229688], [72.41424878, 34.18225794]]]]}, "properties": {"id": "Pakistan_123102310_505534", "height": 3.428564548492432, "hmax": 0.019, "ratio": 0.006, "vulnClass": "none"}}, {"type": "Feature", "geometry": {"type": "MultiPolygon", "coordinates": [[[[72.41463016, 34.18258916], [72.41463126, 34.18265572], [72.41478948, 34.18265392], [72.41478789, 34.18255751], [72.41460285, 34.18255962], [72.41460187, 34.18250073], [72.41446627, 34.18250227], [72.4144669, 34.18253998], [72.41456076, 34.18253892], [72.41456161, 34.18258994], [72.41463016, 34.18258916]]]]}, "properties": {"id": "Pakistan_123102310_515161", "height": 3.871614933013916, "hmax": 0.113, "ratio": 0.029, "vulnClass": "none"}}, {"type": "Feature", "geometry": {"type": "MultiPolygon", "coordinates": [[[[72.41430484, 34.18287964], [72.41427529, 34.18295227], [72.41446321, 34.18300461], [72.41447979, 34.18296385], [72.41433041, 34.18292226], [72.41434339, 34.18289037], [72.41430484, 34.18287964]]]]}, "properties": {"id": "Pakistan_123102310_619234", "height": 2.75375771522522, "hmax": 0.101, "ratio": 0.037, "vulnClass": "none"}}, {"type": "Feature", "geometry": {"type": "MultiPolygon", "coordinates": [[[[72.41418028, 34.18301914], [72.41418219, 34.18296692], [72.41407915, 34.18296434], [72.41407724, 34.18301657], [72.41418028, 34.18301914]]]]}, "properties": {"id": "Pakistan_123102310_738282", "height": 2.655338764190674, "hmax": 0.038, "ratio": 0.014, "vulnClass": "none"}}, {"type": "Feature", "geometry": {"type": "MultiPolygon", "coordinates": [[[[72.41608962, 34.18331892], [72.41606483, 34.18313033], [72.41596675, 34.18313916], [72.41597713, 34.1832181], [72.41588965, 34.18322597], [72.41588129, 34.18316238], [72.41585213, 34.183165], [72.41586914, 34.18329438], [72.41593276, 34.18328866], [72.41593853, 34.18333252], [72.41608962, 34.18331892]]]]}, "properties": {"id": "Pakistan_123102310_719267", "height": 4.860562324523926, "hmax": 0.02, "ratio": 0.004, "vulnClass": "none"}}, {"type": "Feature", "geometry": {"type": "MultiPolygon", "coordinates": [[[[72.41603994, 34.18310444], [72.41596419, 34.18311092], [72.41596721, 34.18313507], [72.41604296, 34.18312859], [72.41603994, 34.18310444]]]]}, "properties": {"id": "Pakistan_123102310_396779", "height": 3.650387763977051, "hmax": 0.021, "ratio": 0.006, "vulnClass": "none"}}, {"type": "Feature", "geometry": {"type": "MultiPolygon", "coordinates": [[[[72.41606559, 34.18309886], [72.41603613, 34.18285276], [72.41596588, 34.18285851], [72.41596273, 34.18283214], [72.41589632, 34.18283758], [72.41590053, 34.18287273], [72.41582615, 34.18287882], [72.41580395, 34.18269318], [72.41591285, 34.18268426], [72.41590877, 34.18265017], [72.41576268, 34.18266213], [72.41578844, 34.18287747], [72.41581354, 34.18287542], [72.41582379, 34.18296111], [72.41594213, 34.18295143], [72.41596079, 34.18310744], [72.41606559, 34.18309886]]]]}, "properties": {"id": "Pakistan_123102310_443855", "height": 4.359344005584717, "hmax": 0.021, "ratio": 0.005, "vulnClass": "none"}}, {"type": "Feature", "geometry": {"type": "MultiPolygon", "coordinates": [[[[72.41580292, 34.18287835], [72.4157791, 34.18288065], [72.41575647, 34.18272087], [72.41560566, 34.18273549], [72.41562534, 34.18287443], [72.41555919, 34.18288084], [72.41557857, 34.18301769], [72.41581935, 34.18299435], [72.41580292, 34.18287835]]]]}, "properties": {"id": "Pakistan_123102310_571927", "height": 3.094558000564575, "hmax": 0.021, "ratio": 0.007, "vulnClass": "none"}}, {"type": "Feature", "geometry": {"type": "MultiPolygon", "coordinates": [[[[72.41601339, 34.1827444], [72.41596252, 34.18274622], [72.41596799, 34.18285139], [72.41601886, 34.18284958], [72.41601339, 34.1827444]]]]}, "properties": {"id": "Pakistan_123102310_55198", "height": 3.12017560005188, "hmax": 0.021, "ratio": 0.007, "vulnClass": "none"}}, {"type": "Feature", "geometry": {"type": "MultiPolygon", "coordinates": [[[[72.41618464, 34.18231349], [72.41635572, 34.18232173], [72.41636366, 34.18220895], [72.41631287, 34.18220651], [72.41630945, 34.18225516], [72.41622925, 34.1822513], [72.41623384, 34.18218605], [72.41615632, 34.18218231], [72.41615274, 34.18223317], [72.41619017, 34.18223498], [72.41618464, 34.18231349]]]]}, "properties": {"id": "Pakistan_123102310_349587", "height": 4.592453002929688, "hmax": 0.092, "ratio": 0.02, "vulnClass": "none"}}, {"type": "Feature", "geometry": {"type": "MultiPolygon", "coordinates": [[[[72.41653716, 34.18216562], [72.41654136, 34.18238302], [72.41659383, 34.18238232], [72.41659323, 34.18235127], [72.41676333, 34.18234902], [72.41676097, 34.18222701], [72.41670734, 34.18222772], [72.41670794, 34.18225878], [72.41658995, 34.18226034], [72.41658811, 34.18216495], [72.41653716, 34.18216562]]]]}, "properties": {"id": "Pakistan_123102310_519958", "height": 3.225058555603027, "hmax": 0.011, "ratio": 0.003, "vulnClass": "none"}}, {"type": "Feature", "geometry": {"type": "MultiPolygon", "coordinates": [[[[72.41673891, 34.18205944], [72.41693864, 34.18203924], [72.41692297, 34.18193318], [72.41666134, 34.18195965], [72.41669915, 34.18221544], [72.41693812, 34.18219125], [72.41693294, 34.18215627], [72.41675588, 34.18217419], [72.41673891, 34.18205944]]]]}, "properties": {"id": "Pakistan_123102310_638240", "height": 3.658079147338867, "hmax": 0.011, "ratio": 0.003, "vulnClass": "none"}}, {"type": "Feature", "geometry": {"type": "MultiPolygon", "coordinates": [[[[72.41628843, 34.18188275], [72.41628462, 34.18194027], [72.41635414, 34.18194342], [72.41635795, 34.1818859], [72.41628843, 34.18188275]]]]}, "properties": {"id": "Pakistan_123102310_112408", "height": 2.614999294281006, "hmax": 0.092, "ratio": 0.035, "vulnClass": "none"}}, {"type": "Feature", "geometry": {"type": "MultiPolygon", "coordinates": [[[[72.41764805, 34.18167198], [72.41765704, 34.18176458], [72.41790756, 34.18174794], [72.41790209, 34.18169163], [72.4178248, 34.18169677], [72.41782128, 34.18166048], [72.41764805, 34.18167198]]]]}, "properties": {"id": "Pakistan_123102310_922699", "height": 4.075372695922852, "hmax": 0.027, "ratio": 0.007, "vulnClass": "none"}}, {"type": "Feature", "geometry": {"type": "MultiPolygon", "coordinates": [[[[72.41946742, 34.18182058], [72.41945804, 34.18165675], [72.41939648, 34.18165916], [72.41940054, 34.18173], [72.41917574, 34.1817388], [72.41917326, 34.18169547], [72.4191117, 34.18169788], [72.41911951, 34.18183419], [72.41946742, 34.18182058]]]]}, "properties": {"id": "Pakistan_123102310_316384", "height": 3.103046178817749, "hmax": 0.0, "ratio": 0.0, "vulnClass": "none"}}, {"type": "Feature", "geometry": {"type": "MultiPolygon", "coordinates": [[[[72.41913556, 34.18188035], [72.41915469, 34.18215808], [72.4194824, 34.18214265], [72.41947662, 34.18205861], [72.41949914, 34.18205755], [72.41949128, 34.18194346], [72.41944583, 34.18194561], [72.41945308, 34.18205084], [72.41922048, 34.18206179], [72.41921476, 34.18197869], [72.41930298, 34.18197453], [72.41929598, 34.18187279], [72.41913556, 34.18188035]]]]}, "properties": {"id": "Pakistan_123102310_818748", "height": 2.607519149780273, "hmax": 0.0, "ratio": 0.0, "vulnClass": "none"}}, {"type": "Feature", "geometry": {"type": "MultiPolygon", "coordinates": [[[[72.42003219, 34.18209792], [72.41991969, 34.18210144], [72.41992353, 34.18218563], [72.42003603, 34.18218212], [72.42003219, 34.18209792]]]]}, "properties": {"id": "Pakistan_123102310_785640", "height": 4.09889554977417, "hmax": 0.0, "ratio": 0.0, "vulnClass": "none"}}, {"type": "Feature", "geometry": {"type": "MultiPolygon", "coordinates": [[[[72.41989303, 34.18212792], [72.41989143, 34.18210359], [72.41984977, 34.18210545], [72.41985137, 34.18212979], [72.41989303, 34.18212792]]]]}, "properties": {"id": "Pakistan_123102310_216290", "height": 2.800005197525024, "hmax": 0.0, "ratio": 0.0, "vulnClass": "none"}}, {"type": "Feature", "geometry": {"type": "MultiPolygon", "coordinates": [[[[72.41973542, 34.18211368], [72.41972907, 34.18204884], [72.419656, 34.18205374], [72.41966235, 34.18211858], [72.41973542, 34.18211368]]]]}, "properties": {"id": "Pakistan_123102310_392010", "height": 2.669066905975342, "hmax": 0.0, "ratio": 0.0, "vulnClass": "none"}}, {"type": "Feature", "geometry": {"type": "MultiPolygon", "coordinates": [[[[72.41917558, 34.18227982], [72.41919617, 34.18240396], [72.41974112, 34.18234209], [72.4197086, 34.18214608], [72.41952959, 34.18216641], [72.41954187, 34.18224045], [72.41939971, 34.1822566], [72.41939574, 34.18223264], [72.41934572, 34.18223832], [72.41934933, 34.1822601], [72.41917558, 34.18227982]]]]}, "properties": {"id": "Pakistan_123102310_188060", "height": 3.258662462234497, "hmax": 0.0, "ratio": 0.0, "vulnClass": "none"}}, {"type": "Feature", "geometry": {"type": "MultiPolygon", "coordinates": [[[[72.42021369, 34.18262744], [72.42019614, 34.18232104], [72.42012771, 34.18232372], [72.42012606, 34.18229494], [72.42000716, 34.1822996], [72.42002694, 34.18264497], [72.42013666, 34.18264067], [72.42013108, 34.18254325], [72.42015517, 34.18254231], [72.42016017, 34.18262954], [72.42021369, 34.18262744]]]]}, "properties": {"id": "Pakistan_123102310_813944", "height": 2.872421264648438, "hmax": 0.0, "ratio": 0.0, "vulnClass": "none"}}, {"type": "Feature", "geometry": {"type": "MultiPolygon", "coordinates": [[[[72.41856101, 34.18143434], [72.41856374, 34.18148528], [72.41861727, 34.18148332], [72.41861621, 34.18146339], [72.41870722, 34.18146005], [72.41870556, 34.18142905], [72.41856101, 34.18143434]]]]}, "properties": {"id": "Pakistan_123102310_287714", "height": 3.042125225067139, "hmax": 0.0, "ratio": 0.0, "vulnClass": "none"}}, {"type": "Feature", "geometry": {"type": "MultiPolygon", "coordinates": [[[[72.41854169, 34.1816264], [72.41856404, 34.18197725], [72.4188449, 34.18196502], [72.4188418, 34.18191634], [72.41868287, 34.18192326], [72.41866865, 34.18169977], [72.41884093, 34.18169227], [72.41882929, 34.18150958], [72.41881216, 34.18151032], [72.41880112, 34.18133676], [72.41875565, 34.18133874], [72.41876177, 34.18143486], [72.41874839, 34.18143544], [72.41875318, 34.18151068], [72.41878795, 34.18150916], [72.41879147, 34.18156448], [72.4184277, 34.18158034], [72.41841595, 34.18139569], [72.41831966, 34.18139988], [72.41833464, 34.18163543], [72.41854169, 34.1816264]]]]}, "properties": {"id": "Pakistan_123102310_396793", "height": 4.266762256622314, "hmax": 0.015, "ratio": 0.003, "vulnClass": "none"}}, {"type": "Feature", "geometry": {"type": "MultiPolygon", "coordinates": [[[[72.41856441, 34.18142771], [72.41874898, 34.18141973], [72.41874409, 34.18134228], [72.41874409, 34.18134228], [72.41873976, 34.18127369], [72.41872371, 34.18127438], [72.41872622, 34.18131421], [72.41871017, 34.1813149], [72.41871157, 34.18133703], [72.4185591, 34.18134362], [72.41856441, 34.18142771]]]]}, "properties": {"id": "Pakistan_123102310_463007", "height": 3.654680252075195, "hmax": 0.0, "ratio": 0.0, "vulnClass": "none"}}, {"type": "Feature", "geometry": {"type": "MultiPolygon", "coordinates": [[[[72.41889753, 34.18162741], [72.41912279, 34.18162464], [72.41912339, 34.18165791], [72.41945481, 34.18165382], [72.41945405, 34.18161168], [72.41940847, 34.18161224], [72.41940747, 34.18155678], [72.41913235, 34.18156017], [72.41913127, 34.18150027], [72.41909373, 34.18150074], [72.41909297, 34.18145859], [72.41919916, 34.18145728], [72.41919621, 34.18129312], [72.41940913, 34.18129049], [72.41940761, 34.18120619], [72.41914213, 34.18120946], [72.41914111, 34.18115306], [72.41893731, 34.18115556], [72.41893875, 34.18123542], [72.4189216, 34.18123563], [72.41892141, 34.1812255], [72.41885275, 34.18122635], [72.41885465, 34.18133186], [72.41885734, 34.18133183], [72.41885975, 34.1814659], [72.41889461, 34.18146547], [72.41889753, 34.18162741]]]]}, "properties": {"id": "Pakistan_123102310_467767", "height": 5.175777435302734, "hmax": 0.0, "ratio": 0.0, "vulnClass": "none"}}, {"type": "Feature", "geometry": {"type": "MultiPolygon", "coordinates": [[[[72.41872222, 34.18108958], [72.41872484, 34.18113385], [72.41877033, 34.181132], [72.4187677, 34.18108773], [72.41872222, 34.18108958]]]]}, "properties": {"id": "Pakistan_123102310_37975", "height": 2.998204708099365, "hmax": 0.0, "ratio": 0.0, "vulnClass": "none"}}, {"type": "Feature", "geometry": {"type": "MultiPolygon", "coordinates": [[[[72.41860233, 34.1812196], [72.41859922, 34.18114424], [72.41853224, 34.18114614], [72.41853536, 34.18122149], [72.41860233, 34.1812196]]]]}, "properties": {"id": "Pakistan_123102310_946342", "height": 3.278504848480225, "hmax": 0.0, "ratio": 0.0, "vulnClass": "none"}}, {"type": "Feature", "geometry": {"type": "MultiPolygon", "coordinates": [[[[72.41844642, 34.18136588], [72.41844384, 34.18128729], [72.41841436, 34.18128795], [72.41840953, 34.18114038], [72.41852641, 34.18113776], [72.41852522, 34.1811013], [72.41832152, 34.18110585], [72.41833009, 34.18136849], [72.41844642, 34.18136588]]]]}, "properties": {"id": "Pakistan_123102310_273947", "height": 3.771470069885254, "hmax": 0.0, "ratio": 0.0, "vulnClass": "none"}}, {"type": "Feature", "geometry": {"type": "MultiPolygon", "coordinates": [[[[72.41829207, 34.18102203], [72.41830116, 34.18102191], [72.4183025, 34.18108845], [72.41853042, 34.18108533], [72.41852924, 34.18102642], [72.4185051, 34.18102675], [72.41850316, 34.18093038], [72.4184056, 34.18093172], [72.41840535, 34.1809194], [72.41834471, 34.18092023], [72.41834431, 34.18090027], [72.41828964, 34.18090102], [72.41829207, 34.18102203]]]]}, "properties": {"id": "Pakistan_123102310_657265", "height": 2.510185241699219, "hmax": 0.0, "ratio": 0.0, "vulnClass": "none"}}, {"type": "Feature", "geometry": {"type": "MultiPolygon", "coordinates": [[[[72.41857522, 34.18065727], [72.41825071, 34.18066013], [72.41825012, 34.18061454], [72.41819112, 34.18061506], [72.41819172, 34.18066165], [72.41814077, 34.1806621], [72.41814164, 34.18072988], [72.41818455, 34.1807295], [72.41818485, 34.18075269], [72.41814731, 34.18075302], [72.41814876, 34.18086517], [72.41827213, 34.18086408], [72.4182723, 34.18087739], [72.4185244, 34.18087517], [72.41852487, 34.18091166], [72.41857851, 34.18091118], [72.41857522, 34.18065727]]]]}, "properties": {"id": "Pakistan_123102310_576796", "height": 3.054209232330322, "hmax": 0.0, "ratio": 0.0, "vulnClass": "none"}}, {"type": "Feature", "geometry": {"type": "MultiPolygon", "coordinates": [[[[72.41812828, 34.18075181], [72.41812168, 34.18065449], [72.41798365, 34.1806609], [72.41798554, 34.18068865], [72.41805506, 34.18068542], [72.41805978, 34.180755], [72.41812828, 34.18075181]]]]}, "properties": {"id": "Pakistan_123102310_771415", "height": 2.954224824905396, "hmax": 0.0, "ratio": 0.0, "vulnClass": "none"}}, {"type": "Feature", "geometry": {"type": "MultiPolygon", "coordinates": [[[[72.41855953, 34.17999933], [72.41856062, 34.17997051], [72.41850798, 34.17996916], [72.41850401, 34.18007458], [72.41866479, 34.18007873], [72.41866801, 34.17999325], [72.4186215, 34.17999205], [72.41862116, 34.18000092], [72.41855953, 34.17999933]]]]}, "properties": {"id": "Pakistan_123102310_804475", "height": 3.968963384628296, "hmax": 0.0, "ratio": 0.0, "vulnClass": "none"}}, {"type": "Feature", "geometry": {"type": "MultiPolygon", "coordinates": [[[[72.41837577, 34.17999929], [72.41837687, 34.17994827], [72.41828475, 34.17994691], [72.4182843, 34.17996787], [72.41823872, 34.1799672], [72.41823663, 34.1800638], [72.41847795, 34.18006737], [72.41847939, 34.18000082], [72.41837577, 34.17999929]]]]}, "properties": {"id": "Pakistan_123102310_122044", "height": 3.624895811080933, "hmax": 0.0, "ratio": 0.0, "vulnClass": "none"}}, {"type": "Feature", "geometry": {"type": "MultiPolygon", "coordinates": [[[[72.4185015, 34.17990258], [72.41839174, 34.17989865], [72.41838908, 34.17994959], [72.41849884, 34.17995352], [72.4185015, 34.17990258]]]]}, "properties": {"id": "Pakistan_123102310_27330", "height": 3.321555376052856, "hmax": 0.0, "ratio": 0.0, "vulnClass": "none"}}, {"type": "Feature", "geometry": {"type": "MultiPolygon", "coordinates": [[[[72.41867366, 34.17988665], [72.41867154, 34.17982679], [72.41855898, 34.17982951], [72.41855671, 34.17976522], [72.41860129, 34.17976414], [72.41859999, 34.17972743], [72.41847233, 34.17973053], [72.41847222, 34.17972732], [72.4183962, 34.17972916], [72.41839793, 34.17977793], [72.41849441, 34.1797756], [72.4184985, 34.17989089], [72.41867366, 34.17988665]]]]}, "properties": {"id": "Pakistan_123102310_349599", "height": 3.976186752319336, "hmax": 0.0, "ratio": 0.0, "vulnClass": "none"}}, {"type": "Feature", "geometry": {"type": "MultiPolygon", "coordinates": [[[[72.41869588, 34.17970791], [72.41868761, 34.17983624], [72.41883739, 34.17984284], [72.4188421, 34.17976982], [72.41875821, 34.17976613], [72.41876177, 34.17971081], [72.41869588, 34.17970791]]]]}, "properties": {"id": "Pakistan_123102310_884864", "height": 4.039608955383301, "hmax": 0.0, "ratio": 0.0, "vulnClass": "none"}}, {"type": "Feature", "geometry": {"type": "MultiPolygon", "coordinates": [[[[72.41867982, 34.17971936], [72.41861719, 34.17972059], [72.41861904, 34.17978491], [72.41868167, 34.17978367], [72.41867982, 34.17971936]]]]}, "properties": {"id": "Pakistan_123102310_208007", "height": 3.694854497909546, "hmax": 0.0, "ratio": 0.0, "vulnClass": "none"}}, {"type": "Feature", "geometry": {"type": "MultiPolygon", "coordinates": [[[[72.41867186, 34.17989983], [72.4185164, 34.17989638], [72.41851446, 34.17995625], [72.41866992, 34.1799597], [72.41867186, 34.17989983]]]]}, "properties": {"id": "Pakistan_123102310_392001", "height": 3.321555376052856, "hmax": 0.0, "ratio": 0.0, "vulnClass": "none"}}, {"type": "Feature", "geometry": {"type": "MultiPolygon", "coordinates": [[[[72.41887135, 34.17989205], [72.41894909, 34.17989353], [72.41895195, 34.17979152], [72.41904212, 34.17979324], [72.41904379, 34.17973336], [72.41887588, 34.17973015], [72.41887135, 34.17989205]]]]}, "properties": {"id": "Pakistan_123102310_657269", "height": 2.940782070159912, "hmax": 0.0, "ratio": 0.0, "vulnClass": "none"}}, {"type": "Feature", "geometry": {"type": "MultiPolygon", "coordinates": [[[[72.41884114, 34.17912821], [72.41882952, 34.17952517], [72.41901448, 34.17952888], [72.41902853, 34.17904891], [72.41895347, 34.1790474], [72.41895169, 34.17910824], [72.41899994, 34.17910921], [72.41899929, 34.17913138], [72.41884114, 34.17912821]]]]}, "properties": {"id": "Pakistan_123102310_946344", "height": 3.297212600708008, "hmax": 0.0, "ratio": 0.0, "vulnClass": "none"}}, {"type": "Feature", "geometry": {"type": "MultiPolygon", "coordinates": [[[[72.41410358, 34.17757802], [72.41413877, 34.17764099], [72.41419402, 34.17761987], [72.41415884, 34.17755689], [72.41410358, 34.17757802]]]]}, "properties": {"id": "Pakistan_123102310_453412", "height": 2.809792518615723, "hmax": 0.002, "ratio": 0.001, "vulnClass": "none"}}, {"type": "Feature", "geometry": {"type": "MultiPolygon", "coordinates": [[[[72.41438923, 34.17763539], [72.4141946, 34.17763678], [72.41419513, 34.17768683], [72.41426103, 34.17768636], [72.41426152, 34.17773295], [72.41440481, 34.17773192], [72.41440549, 34.17779626], [72.41449668, 34.1777956], [72.41449505, 34.17764028], [72.41468968, 34.17763888], [72.41468904, 34.17757897], [72.41438866, 34.17758114], [72.41438923, 34.17763539]]]]}, "properties": {"id": "Pakistan_123102310_159770", "height": 2.503767490386963, "hmax": 0.004, "ratio": 0.002, "vulnClass": "none"}}, {"type": "Feature", "geometry": {"type": "MultiPolygon", "coordinates": [[[[72.41513818, 34.17785761], [72.41510792, 34.17779704], [72.41493479, 34.17775747], [72.41483538, 34.17779146], [72.41479321, 34.17770704], [72.4147635, 34.1777172], [72.41474593, 34.17776982], [72.41468532, 34.17771888], [72.41465616, 34.17766051], [72.41458955, 34.17764529], [72.41461436, 34.17769496], [72.41451301, 34.1777296], [72.41450431, 34.17772229], [72.41448036, 34.17779402], [72.41442958, 34.17781138], [72.41446421, 34.1778807], [72.41451712, 34.17789279], [72.41450704, 34.17792298], [72.41471946, 34.17810153], [72.41472894, 34.17809381], [72.41474015, 34.17806025], [72.4148142, 34.17803493], [72.41475611, 34.17802165], [72.41469312, 34.17789557], [72.41472048, 34.17788622], [72.41470953, 34.17791901], [72.41479331, 34.17793816], [72.41481682, 34.17798522], [72.41500078, 34.17792233], [72.41500161, 34.17791983], [72.41503492, 34.17790844], [72.41504078, 34.17789091], [72.41513818, 34.17785761]]]]}, "properties": {"id": "Pakistan_123102310_609721", "height": 4.077037334442139, "hmax": 0.021, "ratio": 0.005, "vulnClass": "none"}}, {"type": "Feature", "geometry": {"type": "MultiPolygon", "coordinates": [[[[72.41532863, 34.1781617], [72.41531753, 34.17796791], [72.41525866, 34.17797022], [72.4152603, 34.177999], [72.41519607, 34.17800152], [72.41519633, 34.17800595], [72.41484307, 34.17801979], [72.41485227, 34.1781804], [72.41532863, 34.1781617]]]]}, "properties": {"id": "Pakistan_123102310_870659", "height": 3.624335289001465, "hmax": 0.047, "ratio": 0.013, "vulnClass": "none"}}, {"type": "Feature", "geometry": {"type": "MultiPolygon", "coordinates": [[[[72.41712941, 34.17915559], [72.41713052, 34.17925988], [72.41692937, 34.17926134], [72.41693031, 34.17935009], [72.41741307, 34.17934657], [72.41741229, 34.17927335], [72.4173248, 34.17927399], [72.41732424, 34.17922074], [72.41743318, 34.17921994], [72.41743247, 34.17915338], [72.41712941, 34.17915559]]]]}, "properties": {"id": "Pakistan_123102310_64474", "height": 4.985156059265137, "hmax": 0.01, "ratio": 0.002, "vulnClass": "none"}}, {"type": "Feature", "geometry": {"type": "MultiPolygon", "coordinates": [[[[72.41698156, 34.17916758], [72.41698298, 34.17922525], [72.41712776, 34.17922281], [72.41712634, 34.17916514], [72.41698156, 34.17916758]]]]}, "properties": {"id": "Pakistan_123102310_491356", "height": 4.985156059265137, "hmax": 0.01, "ratio": 0.002, "vulnClass": "none"}}, {"type": "Feature", "geometry": {"type": "MultiPolygon", "coordinates": [[[[72.41721017, 34.17936351], [72.41720659, 34.17944879], [72.41725749, 34.17945025], [72.41726107, 34.17936497], [72.41721017, 34.17936351]]]]}, "properties": {"id": "Pakistan_123102310_776136", "height": 2.76554274559021, "hmax": 0.01, "ratio": 0.004, "vulnClass": "none"}}, {"type": "Feature", "geometry": {"type": "MultiPolygon", "coordinates": [[[[72.41573652, 34.17940149], [72.41574834, 34.17959182], [72.41628069, 34.17956919], [72.41628743, 34.17967766], [72.41623495, 34.17965462], [72.41619884, 34.17971092], [72.41628585, 34.17986854], [72.41653664, 34.17977379], [72.41654848, 34.17979524], [72.4174762, 34.17975581], [72.41734889, 34.17969991], [72.4174374, 34.17966647], [72.41742421, 34.17945403], [72.41729848, 34.17945937], [72.41729426, 34.17939144], [72.41732372, 34.17934551], [72.41726332, 34.17936833], [72.4172685, 34.17945177], [72.41709729, 34.17945904], [72.41709166, 34.17936831], [72.41701675, 34.17937149], [72.41702307, 34.17947329], [72.41680498, 34.17948256], [72.416884, 34.17935938], [72.41670165, 34.17936713], [72.41671225, 34.17953754], [72.41661327, 34.17954175], [72.41660838, 34.17946317], [72.41600456, 34.17948886], [72.41617252, 34.17942541], [72.41616989, 34.17938307], [72.41573652, 34.17940149]]]]}, "properties": {"id": "Pakistan_123102310_439130", "height": 3.512428998947144, "hmax": 0.01, "ratio": 0.003, "vulnClass": "none"}}, {"type": "Feature", "geometry": {"type": "MultiPolygon", "coordinates": [[[[72.41579256, 34.17918253], [72.4157898, 34.17927675], [72.41592746, 34.17931279], [72.41579419, 34.17931011], [72.41579233, 34.17937335], [72.415955, 34.17937661], [72.41594582, 34.17937421], [72.41603311, 34.17937595], [72.41608311, 34.17938905], [72.41611628, 34.17930235], [72.41611761, 34.17925679], [72.41612095, 34.17924807], [72.41608101, 34.17923761], [72.41606751, 34.17927292], [72.41595949, 34.17924465], [72.41598116, 34.17924508], [72.4159824, 34.17920291], [72.41591381, 34.17918495], [72.41579256, 34.17918253]]]]}, "properties": {"id": "Pakistan_123102310_609723", "height": 2.481209516525269, "hmax": 0.006, "ratio": 0.002, "vulnClass": "none"}}, {"type": "Feature", "geometry": {"type": "MultiPolygon", "coordinates": [[[[72.41422715, 34.17940895], [72.41475743, 34.17936568], [72.41474565, 34.17926679], [72.41421538, 34.17931005], [72.41422715, 34.17940895]]]]}, "properties": {"id": "Pakistan_123102310_552871", "height": 4.382240295410156, "hmax": 0.06, "ratio": 0.014, "vulnClass": "none"}}, {"type": "Feature", "geometry": {"type": "MultiPolygon", "coordinates": [[[[72.41410081, 34.1788053], [72.41414617, 34.17895466], [72.4142698, 34.17892895], [72.4142181, 34.17875873], [72.41412979, 34.17877709], [72.41411141, 34.17871656], [72.41389444, 34.17876166], [72.41391916, 34.17884306], [72.41410081, 34.1788053]]]]}, "properties": {"id": "Pakistan_123102310_595563", "height": 4.292152404785156, "hmax": 0.016, "ratio": 0.004, "vulnClass": "none"}}, {"type": "Feature", "geometry": {"type": "MultiPolygon", "coordinates": [[[[72.41357628, 34.17815107], [72.41355751, 34.17812473], [72.41351372, 34.17814609], [72.4135325, 34.17817243], [72.41357628, 34.17815107]]]]}, "properties": {"id": "Pakistan_123102310_681213", "height": 5.044140815734863, "hmax": 0.066, "ratio": 0.013, "vulnClass": "none"}}, {"type": "Feature", "geometry": {"type": "MultiPolygon", "coordinates": [[[[72.41297955, 34.17789371], [72.41302091, 34.17797194], [72.41313028, 34.17793236], [72.41308892, 34.17785414], [72.41297955, 34.17789371]]]]}, "properties": {"id": "Pakistan_123102310_448732", "height": 4.720261096954346, "hmax": 0.029, "ratio": 0.006, "vulnClass": "none"}}, {"type": "Feature", "geometry": {"type": "MultiPolygon", "coordinates": [[[[72.41235088, 34.17832857], [72.41233879, 34.17848413], [72.41335383, 34.1785382], [72.41336043, 34.1784533], [72.41327228, 34.17844861], [72.413271, 34.178465], [72.41317751, 34.17846002], [72.41318429, 34.17837292], [72.41235088, 34.17832857]]]]}, "properties": {"id": "Pakistan_123102310_424985", "height": 2.621902465820312, "hmax": 0.029, "ratio": 0.011, "vulnClass": "none"}}, {"type": "Feature", "geometry": {"type": "MultiPolygon", "coordinates": [[[[72.40908194, 34.17916662], [72.40930185, 34.17916424], [72.40930065, 34.17908881], [72.40908075, 34.17909119], [72.40908194, 34.17916662]]]]}, "properties": {"id": "Pakistan_123102310_140750", "height": 3.102943420410156, "hmax": 0.008, "ratio": 0.003, "vulnClass": "none"}}, {"type": "Feature", "geometry": {"type": "MultiPolygon", "coordinates": [[[[72.41103595, 34.17610919], [72.41103806, 34.17615875], [72.41124561, 34.17615272], [72.41124351, 34.17610315], [72.41103595, 34.17610919]]]]}, "properties": {"id": "Pakistan_123102310_254066", "height": 2.73913049697876, "hmax": 0.006, "ratio": 0.002, "vulnClass": "none"}}, {"type": "Feature", "geometry": {"type": "MultiPolygon", "coordinates": [[[[72.41111779, 34.17598326], [72.41111484, 34.17604752], [72.41117644, 34.17604945], [72.41117939, 34.1759852], [72.41111779, 34.17598326]]]]}, "properties": {"id": "Pakistan_123102310_197516", "height": 3.013564586639404, "hmax": 0.007, "ratio": 0.002, "vulnClass": "none"}}, {"type": "Feature", "geometry": {"type": "MultiPolygon", "coordinates": [[[[72.41109886, 34.17578663], [72.41110078, 34.17583095], [72.41117042, 34.1758289], [72.41116851, 34.17578457], [72.41109886, 34.17578663]]]]}, "properties": {"id": "Pakistan_123102310_112350", "height": 2.863293886184692, "hmax": 0.007, "ratio": 0.002, "vulnClass": "none"}}, {"type": "Feature", "geometry": {"type": "MultiPolygon", "coordinates": [[[[72.41419102, 34.17743965], [72.41442344, 34.17742747], [72.41441752, 34.17735011], [72.41388856, 34.17737783], [72.41389634, 34.1774795], [72.41399519, 34.17747432], [72.41400196, 34.17756272], [72.41419965, 34.17755236], [72.41419102, 34.17743965]]]]}, "properties": {"id": "Pakistan_123102310_500761", "height": 3.198900699615479, "hmax": 0.002, "ratio": 0.001, "vulnClass": "none"}}, {"type": "Feature", "geometry": {"type": "MultiPolygon", "coordinates": [[[[72.41317297, 34.17702094], [72.4131319, 34.17702419], [72.41313969, 34.17709144], [72.41318075, 34.17708819], [72.41317297, 34.17702094]]]]}, "properties": {"id": "Pakistan_123102310_685893", "height": 2.991089820861816, "hmax": 0.064, "ratio": 0.021, "vulnClass": "none"}}, {"type": "Feature", "geometry": {"type": "MultiPolygon", "coordinates": [[[[72.413087, 34.17681209], [72.413139, 34.17688042], [72.41319278, 34.17685241], [72.41314078, 34.17678408], [72.413087, 34.17681209]]]]}, "properties": {"id": "Pakistan_123102310_8216", "height": 3.424402713775635, "hmax": 0.153, "ratio": 0.045, "vulnClass": "none"}}, {"type": "Feature", "geometry": {"type": "MultiPolygon", "coordinates": [[[[72.41315722, 34.1767685], [72.41319513, 34.17683604], [72.4132547, 34.17681316], [72.41321679, 34.17674562], [72.41315722, 34.1767685]]]]}, "properties": {"id": "Pakistan_123102310_467737", "height": 3.564164161682129, "hmax": 0.153, "ratio": 0.043, "vulnClass": "none"}}, {"type": "Feature", "geometry": {"type": "MultiPolygon", "coordinates": [[[[72.41300001, 34.1766969], [72.41301918, 34.17674491], [72.41307964, 34.17672839], [72.41306047, 34.17668037], [72.41300001, 34.1766969]]]]}, "properties": {"id": "Pakistan_123102310_131422", "height": 3.628190040588379, "hmax": 0.153, "ratio": 0.042, "vulnClass": "none"}}, {"type": "Feature", "geometry": {"type": "MultiPolygon", "coordinates": [[[[72.4128996, 34.1764629], [72.41289704, 34.17653829], [72.41299889, 34.17654065], [72.41300144, 34.17646526], [72.4128996, 34.1764629]]]]}, "properties": {"id": "Pakistan_123102310_889600", "height": 2.476393699645996, "hmax": 0.153, "ratio": 0.062, "vulnClass": "low"}}, {"type": "Feature", "geometry": {"type": "MultiPolygon", "coordinates": [[[[72.41277095, 34.1761729], [72.41275397, 34.17610711], [72.41272575, 34.17611209], [72.41271293, 34.17606242], [72.41261669, 34.17607942], [72.41265338, 34.17622162], [72.41270212, 34.17621301], [72.41268372, 34.1761417], [72.41271584, 34.17613603], [72.41272734, 34.1761806], [72.41277095, 34.1761729]]]]}, "properties": {"id": "Pakistan_123102310_633479", "height": 4.472207546234131, "hmax": 0.153, "ratio": 0.034, "vulnClass": "none"}}, {"type": "Feature", "geometry": {"type": "MultiPolygon", "coordinates": [[[[72.41275251, 34.17601592], [72.41268924, 34.17602282], [72.41269479, 34.17605772], [72.41275807, 34.17605082], [72.41275251, 34.17601592]]]]}, "properties": {"id": "Pakistan_123102310_453398", "height": 3.464703559875488, "hmax": 0.174, "ratio": 0.05, "vulnClass": "low"}}, {"type": "Feature", "geometry": {"type": "MultiPolygon", "coordinates": [[[[72.41319764, 34.17588887], [72.4131954, 34.17583568], [72.41313914, 34.1758373], [72.41314138, 34.17589049], [72.41319764, 34.17588887]]]]}, "properties": {"id": "Pakistan_123102310_170079", "height": 2.584730625152588, "hmax": 0.213, "ratio": 0.082, "vulnClass": "low"}}, {"type": "Feature", "geometry": {"type": "MultiPolygon", "coordinates": [[[[72.41314132, 34.175992], [72.4131372, 34.17593804], [72.41293683, 34.17594853], [72.4129261, 34.17580798], [72.41319058, 34.17579415], [72.41318696, 34.17574682], [72.41309346, 34.17575171], [72.41309049, 34.17571284], [72.41302637, 34.1757162], [72.41302901, 34.17575065], [72.41288076, 34.17575841], [72.41289959, 34.17600464], [72.41314132, 34.175992]]]]}, "properties": {"id": "Pakistan_123102310_335286", "height": 4.155788898468018, "hmax": 0.213, "ratio": 0.051, "vulnClass": "low"}}, {"type": "Feature", "geometry": {"type": "MultiPolygon", "coordinates": [[[[72.41313159, 34.17569635], [72.41312569, 34.17553007], [72.41307477, 34.1755313], [72.41307587, 34.17556234], [72.41300887, 34.17556397], [72.4130105, 34.17560962], [72.41296897, 34.17561063], [72.41296632, 34.17553616], [72.41289396, 34.17553792], [72.4128933, 34.17551928], [72.41285042, 34.17552032], [72.41285693, 34.17570303], [72.41313159, 34.17569635]]]]}, "properties": {"id": "Pakistan_123102310_875377", "height": 4.569161891937256, "hmax": 0.213, "ratio": 0.047, "vulnClass": "none"}}, {"type": "Feature", "geometry": {"type": "MultiPolygon", "coordinates": [[[[72.41305717, 34.17516606], [72.4130604, 34.17523475], [72.41312335, 34.17523272], [72.41312013, 34.17516403], [72.41305717, 34.17516606]]]]}, "properties": {"id": "Pakistan_123102310_273887", "height": 4.612193584442139, "hmax": 0.213, "ratio": 0.046, "vulnClass": "none"}}, {"type": "Feature", "geometry": {"type": "MultiPolygon", "coordinates": [[[[72.41296664, 34.17506542], [72.41284738, 34.17506218], [72.41284417, 34.1751433], [72.41296343, 34.17514652], [72.41296664, 34.17506542]]]]}, "properties": {"id": "Pakistan_123102310_946313", "height": 4.176801204681396, "hmax": 0.039, "ratio": 0.009, "vulnClass": "none"}}, {"type": "Feature", "geometry": {"type": "MultiPolygon", "coordinates": [[[[72.41283265, 34.17517394], [72.4128437, 34.17537455], [72.41286779, 34.17537364], [72.4128695, 34.17540464], [72.41288958, 34.17540389], [72.41289705, 34.17553987], [72.41312992, 34.17553111], [72.41312517, 34.17544474], [72.41302346, 34.17544857], [72.41302066, 34.17539764], [72.41298586, 34.17539895], [72.41298399, 34.17536482], [72.41313789, 34.17535902], [72.41313379, 34.17528465], [72.41302405, 34.17528878], [72.41301734, 34.17516698], [72.41283265, 34.17517394]]]]}, "properties": {"id": "Pakistan_123102310_619223", "height": 4.58897590637207, "hmax": 0.213, "ratio": 0.046, "vulnClass": "none"}}, {"type": "Feature", "geometry": {"type": "MultiPolygon", "coordinates": [[[[72.41285961, 34.17503088], [72.41298024, 34.17503341], [72.41298322, 34.17493583], [72.4128626, 34.1749333], [72.41285961, 34.17503088]]]]}, "properties": {"id": "Pakistan_123102310_600297", "height": 4.658440589904785, "hmax": 0.012, "ratio": 0.003, "vulnClass": "none"}}, {"type": "Feature", "geometry": {"type": "MultiPolygon", "coordinates": [[[[72.41332399, 34.17484011], [72.41325433, 34.17484199], [72.41325719, 34.17491422], [72.41332685, 34.17491233], [72.41332399, 34.17484011]]]]}, "properties": {"id": "Pakistan_123102310_486629", "height": 3.34820032119751, "hmax": 0.012, "ratio": 0.004, "vulnClass": "none"}}, {"type": "Feature", "geometry": {"type": "MultiPolygon", "coordinates": [[[[72.41443981, 34.17489413], [72.41443836, 34.17485645], [72.41445979, 34.17485588], [72.4144577, 34.17480168], [72.41426607, 34.17480675], [72.41426212, 34.17470478], [72.41418442, 34.17470684], [72.41418789, 34.17479649], [72.41411158, 34.17479851], [72.41411004, 34.1747586], [72.41405377, 34.17476009], [72.41405171, 34.17470688], [72.41402224, 34.17470766], [72.41402412, 34.17475643], [72.41396913, 34.17475788], [72.41397042, 34.17479114], [72.41389411, 34.17479315], [72.41389279, 34.17475894], [72.41380973, 34.17476113], [72.41381318, 34.17485077], [72.41384266, 34.17484999], [72.41384497, 34.17490984], [72.41443981, 34.17489413]]]]}, "properties": {"id": "Pakistan_123102310_799739", "height": 3.677992820739746, "hmax": 0.0, "ratio": 0.0, "vulnClass": "none"}}, {"type": "Feature", "geometry": {"type": "MultiPolygon", "coordinates": [[[[72.41331336, 34.17441569], [72.41321416, 34.17441745], [72.41321611, 34.17449286], [72.41331531, 34.1744911], [72.41331336, 34.17441569]]]]}, "properties": {"id": "Pakistan_123102310_538702", "height": 2.642505407333374, "hmax": 0.012, "ratio": 0.005, "vulnClass": "none"}}, {"type": "Feature", "geometry": {"type": "MultiPolygon", "coordinates": [[[[72.41313201, 34.17437447], [72.41321505, 34.17437198], [72.41321039, 34.1742656], [72.41312735, 34.17426809], [72.41313201, 34.17437447]]]]}, "properties": {"id": "Pakistan_123102310_903879", "height": 3.000281810760498, "hmax": 0.012, "ratio": 0.004, "vulnClass": "none"}}, {"type": "Feature", "geometry": {"type": "MultiPolygon", "coordinates": [[[[72.41297593, 34.1742283], [72.4129664, 34.17440102], [72.41294767, 34.17440032], [72.41294542, 34.17444109], [72.41302839, 34.17444422], [72.41303597, 34.17430693], [72.41310021, 34.17430936], [72.41310441, 34.17423315], [72.41297593, 34.1742283]]]]}, "properties": {"id": "Pakistan_123102310_908539", "height": 3.879039287567139, "hmax": 0.012, "ratio": 0.003, "vulnClass": "none"}}, {"type": "Feature", "geometry": {"type": "MultiPolygon", "coordinates": [[[[72.41283532, 34.17435313], [72.41283927, 34.17445288], [72.41293841, 34.17445019], [72.41293305, 34.17431498], [72.41288483, 34.17431628], [72.41288623, 34.17435175], [72.41283532, 34.17435313]]]]}, "properties": {"id": "Pakistan_123102310_83502", "height": 3.225221157073975, "hmax": 0.012, "ratio": 0.004, "vulnClass": "none"}}, {"type": "Feature", "geometry": {"type": "MultiPolygon", "coordinates": [[[[72.41302902, 34.17421129], [72.41302622, 34.17415369], [72.41288552, 34.17415838], [72.41288643, 34.17417701], [72.41283019, 34.17417888], [72.41283209, 34.17421786], [72.41302902, 34.17421129]]]]}, "properties": {"id": "Pakistan_123102310_809247", "height": 2.968778610229492, "hmax": 0.0, "ratio": 0.0, "vulnClass": "none"}}, {"type": "Feature", "geometry": {"type": "MultiPolygon", "coordinates": [[[[72.41282664, 34.17412193], [72.41282979, 34.17417506], [72.41287796, 34.1741731], [72.4128748, 34.17411997], [72.41282664, 34.17412193]]]]}, "properties": {"id": "Pakistan_123102310_757243", "height": 3.577392339706421, "hmax": 0.0, "ratio": 0.0, "vulnClass": "none"}}, {"type": "Feature", "geometry": {"type": "MultiPolygon", "coordinates": [[[[72.41296133, 34.17402609], [72.41297657, 34.17411302], [72.41305418, 34.17410371], [72.41304901, 34.17407418], [72.41300029, 34.17408003], [72.41299023, 34.17402262], [72.41296133, 34.17402609]]]]}, "properties": {"id": "Pakistan_123102310_899117", "height": 2.795682430267334, "hmax": 0.0, "ratio": 0.0, "vulnClass": "none"}}, {"type": "Feature", "geometry": {"type": "MultiPolygon", "coordinates": [[[[72.41296512, 34.17409376], [72.41294415, 34.17383974], [72.412816, 34.17384698], [72.41283697, 34.17410099], [72.41296512, 34.17409376]]]]}, "properties": {"id": "Pakistan_123102310_757245", "height": 3.922253131866455, "hmax": 0.0, "ratio": 0.0, "vulnClass": "none"}}, {"type": "Feature", "geometry": {"type": "MultiPolygon", "coordinates": [[[[72.4127924, 34.17404153], [72.41273347, 34.17404331], [72.41273597, 34.17410003], [72.4127949, 34.17409825], [72.4127924, 34.17404153]]]]}, "properties": {"id": "Pakistan_123102310_552861", "height": 4.334283351898193, "hmax": 0.0, "ratio": 0.0, "vulnClass": "none"}}, {"type": "Feature", "geometry": {"type": "MultiPolygon", "coordinates": [[[[72.41320753, 34.17442026], [72.41304154, 34.17441435], [72.41303751, 34.17449187], [72.4132035, 34.17449778], [72.41320753, 34.17442026]]]]}, "properties": {"id": "Pakistan_123102310_586230", "height": 3.30942702293396, "hmax": 0.012, "ratio": 0.004, "vulnClass": "none"}}, {"type": "Feature", "geometry": {"type": "MultiPolygon", "coordinates": [[[[72.41322782, 34.17455319], [72.41322601, 34.17450442], [72.41304915, 34.17450889], [72.41305096, 34.17455767], [72.41322782, 34.17455319]]]]}, "properties": {"id": "Pakistan_123102310_776117", "height": 3.250675916671753, "hmax": 0.012, "ratio": 0.004, "vulnClass": "none"}}, {"type": "Feature", "geometry": {"type": "MultiPolygon", "coordinates": [[[[72.41284584, 34.17471864], [72.41290405, 34.17471655], [72.41292795, 34.17472901], [72.41325614, 34.17471727], [72.41326031, 34.17479701], [72.41334331, 34.17479404], [72.41334956, 34.17491364], [72.41344862, 34.1749101], [72.41344616, 34.17486314], [72.41344867, 34.17485985], [72.41343774, 34.17465079], [72.41336329, 34.17461198], [72.41336187, 34.17458478], [72.41331636, 34.17458641], [72.41331497, 34.17455983], [72.41323509, 34.17456269], [72.41321771, 34.1745855], [72.4132122, 34.1745857], [72.41319363, 34.17461008], [72.41318689, 34.17460657], [72.41312763, 34.17460869], [72.41309449, 34.17465221], [72.41309159, 34.17459667], [72.41302356, 34.1745991], [72.41295982, 34.17456588], [72.4130469, 34.17456276], [72.41304474, 34.17452138], [72.41299169, 34.17449373], [72.41289056, 34.17449735], [72.41288464, 34.17450512], [72.41283477, 34.17450691], [72.41284584, 34.17471864]]]]}, "properties": {"id": "Pakistan_123102310_666873", "height": 5.175789833068848, "hmax": 0.012, "ratio": 0.002, "vulnClass": "none"}}, {"type": "Feature", "geometry": {"type": "MultiPolygon", "coordinates": [[[[72.41088528, 34.17552151], [72.41088122, 34.17546178], [72.41088122, 34.17546178], [72.41086692, 34.17525164], [72.4108148, 34.17525406], [72.41082247, 34.17536688], [72.41052568, 34.1753807], [72.41053635, 34.17553775], [72.41088528, 34.17552151]]]]}, "properties": {"id": "Pakistan_123102310_813883", "height": 3.512805938720703, "hmax": 0.007, "ratio": 0.002, "vulnClass": "none"}}, {"type": "Feature", "geometry": {"type": "MultiPolygon", "coordinates": [[[[72.41088633, 34.17508602], [72.41080873, 34.17508287], [72.41080571, 34.17513378], [72.41088331, 34.17513694], [72.41088633, 34.17508602]]]]}, "properties": {"id": "Pakistan_123102310_55134", "height": 2.827755928039551, "hmax": 0.009, "ratio": 0.003, "vulnClass": "none"}}, {"type": "Feature", "geometry": {"type": "MultiPolygon", "coordinates": [[[[72.41112226, 34.17548083], [72.41122006, 34.17548349], [72.41121777, 34.17554112], [72.41130618, 34.17554353], [72.41131553, 34.17530856], [72.41121371, 34.17530579], [72.41121483, 34.17527779], [72.41116124, 34.17527632], [72.41116339, 34.17522232], [72.41103478, 34.17521882], [72.4110329, 34.17526617], [72.41113071, 34.17526883], [72.41112226, 34.17548083]]]]}, "properties": {"id": "Pakistan_123102310_150364", "height": 4.699966907501221, "hmax": 0.019, "ratio": 0.004, "vulnClass": "none"}}, {"type": "Feature", "geometry": {"type": "MultiPolygon", "coordinates": [[[[72.41109343, 34.17498695], [72.41104786, 34.17498788], [72.41104977, 34.17505219], [72.41109534, 34.17505127], [72.41109343, 34.17498695]]]]}, "properties": {"id": "Pakistan_123102310_510444", "height": 4.688397407531738, "hmax": 0.022, "ratio": 0.005, "vulnClass": "none"}}, {"type": "Feature", "geometry": {"type": "MultiPolygon", "coordinates": [[[[72.41079541, 34.17496253], [72.41080045, 34.17504808], [72.410949, 34.1750421], [72.41094397, 34.17495655], [72.41079541, 34.17496253]]]]}, "properties": {"id": "Pakistan_123102310_671605", "height": 3.799991130828857, "hmax": 0.022, "ratio": 0.006, "vulnClass": "none"}}, {"type": "Feature", "geometry": {"type": "MultiPolygon", "coordinates": [[[[72.41187291, 34.17516562], [72.41186233, 34.17503305], [72.41161664, 34.17504647], [72.41162721, 34.17517903], [72.41187291, 34.17516562]]]]}, "properties": {"id": "Pakistan_123102310_709651", "height": 4.483051776885986, "hmax": 0.091, "ratio": 0.02, "vulnClass": "none"}}, {"type": "Feature", "geometry": {"type": "MultiPolygon", "coordinates": [[[[72.4114758, 34.17518046], [72.41147564, 34.17517603], [72.4116016, 34.17517297], [72.41159995, 34.17512641], [72.41147935, 34.17512934], [72.41147715, 34.17506726], [72.41123459, 34.17507314], [72.41123861, 34.17518622], [72.4114758, 34.17518046]]]]}, "properties": {"id": "Pakistan_123102310_932170", "height": 4.112338542938232, "hmax": 0.077, "ratio": 0.019, "vulnClass": "none"}}, {"type": "Feature", "geometry": {"type": "MultiPolygon", "coordinates": [[[[72.41149372, 34.17523304], [72.41125777, 34.17523682], [72.41125933, 34.17530337], [72.41149528, 34.17529958], [72.41149372, 34.17523304]]]]}, "properties": {"id": "Pakistan_123102310_151185", "height": 3.380569458007812, "hmax": 0.083, "ratio": 0.025, "vulnClass": "none"}}, {"type": "Feature", "geometry": {"type": "MultiPolygon", "coordinates": [[[[72.41200453, 34.17560019], [72.41200814, 34.17553375], [72.41195995, 34.17553196], [72.41195635, 34.1755984], [72.41200453, 34.17560019]]]]}, "properties": {"id": "Pakistan_123102310_169242", "height": 2.482002258300781, "hmax": 0.094, "ratio": 0.038, "vulnClass": "none"}}, {"type": "Feature", "geometry": {"type": "MultiPolygon", "coordinates": [[[[72.41192154, 34.17554062], [72.41168958, 34.17554344], [72.41169253, 34.17570983], [72.41176494, 34.17570895], [72.4117645, 34.17568455], [72.41192408, 34.17568261], [72.41192154, 34.17554062]]]]}, "properties": {"id": "Pakistan_123102310_757235", "height": 3.932431697845459, "hmax": 0.094, "ratio": 0.024, "vulnClass": "none"}}, {"type": "Feature", "geometry": {"type": "MultiPolygon", "coordinates": [[[[72.41176405, 34.17571391], [72.41171173, 34.17571422], [72.4117121, 34.17575638], [72.41176442, 34.17575606], [72.41176405, 34.17571391]]]]}, "properties": {"id": "Pakistan_123102310_662105", "height": 2.481862545013428, "hmax": 0.094, "ratio": 0.038, "vulnClass": "none"}}, {"type": "Feature", "geometry": {"type": "MultiPolygon", "coordinates": [[[[72.41177879, 34.17608914], [72.41184021, 34.17609723], [72.41183855, 34.17610589], [72.41195364, 34.17612106], [72.41196448, 34.17606479], [72.41196584, 34.17606497], [72.41198666, 34.17595676], [72.41196573, 34.175954], [72.4120028, 34.17576139], [72.41194915, 34.17575432], [72.41194056, 34.17579894], [72.4117653, 34.17577585], [72.41176572, 34.17577369], [72.41159045, 34.1757506], [72.41157655, 34.17582283], [72.41152423, 34.17581593], [72.41150215, 34.17593063], [72.41155843, 34.17593805], [72.41155275, 34.17596754], [72.41159461, 34.17597305], [72.41160986, 34.17589379], [72.41182301, 34.17592188], [72.41181801, 34.17594785], [72.41180628, 34.1759463], [72.41177879, 34.17608914]]]]}, "properties": {"id": "Pakistan_123102310_880104", "height": 3.197728395462036, "hmax": 0.085, "ratio": 0.027, "vulnClass": "none"}}, {"type": "Feature", "geometry": {"type": "MultiPolygon", "coordinates": [[[[72.41130638, 34.17588208], [72.41130514, 34.1757681], [72.41119786, 34.1757689], [72.4111991, 34.17588287], [72.41130638, 34.17588208]]]]}, "properties": {"id": "Pakistan_123102310_368353", "height": 3.059600830078125, "hmax": 0.035, "ratio": 0.011, "vulnClass": "none"}}, {"type": "Feature", "geometry": {"type": "MultiPolygon", "coordinates": [[[[72.41092679, 34.17576641], [72.41093255, 34.17568013], [72.41088174, 34.17567781], [72.41087599, 34.17576409], [72.41092679, 34.17576641]]]]}, "properties": {"id": "Pakistan_123102310_28259", "height": 2.998752117156982, "hmax": 0.007, "ratio": 0.002, "vulnClass": "none"}}, {"type": "Feature", "geometry": {"type": "MultiPolygon", "coordinates": [[[[72.41089993, 34.17567602], [72.41107148, 34.17566304], [72.41108039, 34.17574366], [72.41126659, 34.17572956], [72.41125135, 34.17559173], [72.4108936, 34.1756188], [72.41089993, 34.17567602]]]]}, "properties": {"id": "Pakistan_123102310_410816", "height": 3.50297212600708, "hmax": 0.007, "ratio": 0.002, "vulnClass": "none"}}, {"type": "Feature", "geometry": {"type": "MultiPolygon", "coordinates": [[[[72.40879275, 34.17314821], [72.40879619, 34.17297517], [72.40875597, 34.17297462], [72.40875703, 34.17292138], [72.40868731, 34.17292043], [72.40868746, 34.17291285], [72.40843004, 34.17290933], [72.40842724, 34.17305003], [72.40854254, 34.1730516], [72.40854135, 34.1731115], [72.40857353, 34.17311194], [72.40857287, 34.17314522], [72.40879275, 34.17314821]]]]}, "properties": {"id": "Pakistan_123102310_103949", "height": 5.141314506530762, "hmax": 0.02, "ratio": 0.004, "vulnClass": "none"}}, {"type": "Feature", "geometry": {"type": "MultiPolygon", "coordinates": [[[[72.40842574, 34.17305405], [72.40842477, 34.17332034], [72.40836729, 34.1733202], [72.40836709, 34.17337346], [72.40842726, 34.17337361], [72.40842722, 34.1733847], [72.40853987, 34.17338498], [72.40854051, 34.17320967], [72.4085271, 34.17320964], [72.40852729, 34.1731586], [72.40848705, 34.1731585], [72.40848719, 34.17312078], [72.40853547, 34.1731209], [72.40853571, 34.17305432], [72.40842574, 34.17305405]]]]}, "properties": {"id": "Pakistan_123102310_505498", "height": 3.86818265914917, "hmax": 0.02, "ratio": 0.005, "vulnClass": "none"}}, {"type": "Feature", "geometry": {"type": "MultiPolygon", "coordinates": [[[[72.40867458, 34.17322252], [72.4087163, 34.17322359], [72.40871328, 34.17330432], [72.40877339, 34.17330585], [72.40877822, 34.17317635], [72.40867639, 34.17317375], [72.40867458, 34.17322252]]]]}, "properties": {"id": "Pakistan_123102310_56615", "height": 4.496339797973633, "hmax": 0.02, "ratio": 0.004, "vulnClass": "none"}}, {"type": "Feature", "geometry": {"type": "MultiPolygon", "coordinates": [[[[72.40856189, 34.17323659], [72.40865713, 34.1732399], [72.40865921, 34.17319911], [72.40856397, 34.17319579], [72.40856189, 34.17323659]]]]}, "properties": {"id": "Pakistan_123102310_595525", "height": 3.865478992462158, "hmax": 0.02, "ratio": 0.005, "vulnClass": "none"}}, {"type": "Feature", "geometry": {"type": "MultiPolygon", "coordinates": [[[[72.40872273, 34.1732892], [72.40857529, 34.17328626], [72.40857281, 34.17337147], [72.40872025, 34.17337439], [72.40872273, 34.1732892]]]]}, "properties": {"id": "Pakistan_123102310_818697", "height": 4.120378971099854, "hmax": 0.019, "ratio": 0.005, "vulnClass": "none"}}, {"type": "Feature", "geometry": {"type": "MultiPolygon", "coordinates": [[[[72.40752831, 34.17295062], [72.40777061, 34.17294452], [72.40776738, 34.17285681], [72.40752508, 34.17286292], [72.40752831, 34.17295062]]]]}, "properties": {"id": "Pakistan_123102310_245531", "height": 5.207215309143066, "hmax": 0.015, "ratio": 0.003, "vulnClass": "none"}}, {"type": "Feature", "geometry": {"type": "MultiPolygon", "coordinates": [[[[72.40763859, 34.17314101], [72.40763785, 34.17309664], [72.40774244, 34.17309545], [72.40774087, 34.17300005], [72.40759337, 34.17300172], [72.40759268, 34.17295956], [72.40753636, 34.1729602], [72.40753936, 34.17314213], [72.40763859, 34.17314101]]]]}, "properties": {"id": "Pakistan_123102310_818693", "height": 4.785184383392334, "hmax": 0.015, "ratio": 0.003, "vulnClass": "none"}}, {"type": "Feature", "geometry": {"type": "MultiPolygon", "coordinates": [[[[72.40882287, 34.17284063], [72.40869164, 34.1728364], [72.40868826, 34.17290822], [72.40876325, 34.17291063], [72.40876048, 34.17296954], [72.40881672, 34.17297136], [72.40882287, 34.17284063]]]]}, "properties": {"id": "Pakistan_123102310_762009", "height": 4.199349880218506, "hmax": 0.02, "ratio": 0.005, "vulnClass": "none"}}, {"type": "Feature", "geometry": {"type": "MultiPolygon", "coordinates": [[[[72.41163819, 34.17292746], [72.4116363, 34.17274106], [72.41142978, 34.1727425], [72.4114305, 34.17281351], [72.41135004, 34.17281407], [72.41135122, 34.17292945], [72.41163819, 34.17292746]]]]}, "properties": {"id": "Pakistan_123102310_918033", "height": 3.522743463516235, "hmax": 0.103, "ratio": 0.029, "vulnClass": "none"}}, {"type": "Feature", "geometry": {"type": "MultiPolygon", "coordinates": [[[[72.41284136, 34.17356171], [72.41323139, 34.17356607], [72.41323239, 34.17350395], [72.41307954, 34.17350224], [72.41307998, 34.1734747], [72.41297003, 34.17347348], [72.41297075, 34.1734291], [72.41299221, 34.17342934], [72.41299181, 34.17345375], [72.41305885, 34.17345449], [72.41305938, 34.17342213], [72.41309156, 34.17342249], [72.41309358, 34.17329824], [72.41298631, 34.17329704], [72.41298563, 34.1733392], [72.4129159, 34.17333842], [72.4129168, 34.17328295], [72.41284592, 34.17328216], [72.41284136, 34.17356171]]]]}, "properties": {"id": "Pakistan_123102310_894324", "height": 4.049962043762207, "hmax": 0.0, "ratio": 0.0, "vulnClass": "none"}}, {"type": "Feature", "geometry": {"type": "MultiPolygon", "coordinates": [[[[72.41285492, 34.17379056], [72.41294594, 34.17378725], [72.41294822, 34.17383024], [72.4130794, 34.17382548], [72.41307511, 34.17374483], [72.41299748, 34.17374765], [72.41299383, 34.17367899], [72.41296052, 34.1736802], [72.41295782, 34.17362926], [72.41288286, 34.17363199], [72.41288074, 34.17359212], [72.41282571, 34.17359412], [72.41283082, 34.17369026], [72.41284955, 34.17368958], [72.41285492, 34.17379056]]]]}, "properties": {"id": "Pakistan_123102310_113291", "height": 3.922253131866455, "hmax": 0.0, "ratio": 0.0, "vulnClass": "none"}}, {"type": "Feature", "geometry": {"type": "MultiPolygon", "coordinates": [[[[72.41497787, 34.17470726], [72.41497507, 34.17487809], [72.41508363, 34.17487931], [72.41508642, 34.17470848], [72.41497787, 34.17470726]]]]}, "properties": {"id": "Pakistan_123102310_709675", "height": 3.963170766830444, "hmax": 0.0, "ratio": 0.0, "vulnClass": "none"}}, {"type": "Feature", "geometry": {"type": "MultiPolygon", "coordinates": [[[[72.41486434, 34.17487944], [72.41486666, 34.17479294], [72.4147902, 34.17479154], [72.41478788, 34.17487804], [72.41486434, 34.17487944]]]]}, "properties": {"id": "Pakistan_123102310_481984", "height": 2.609944343566895, "hmax": 0.0, "ratio": 0.0, "vulnClass": "none"}}, {"type": "Feature", "geometry": {"type": "MultiPolygon", "coordinates": [[[[72.41434304, 34.17472575], [72.41435257, 34.17480036], [72.4143844, 34.17479758], [72.41437487, 34.17472297], [72.41434304, 34.17472575]]]]}, "properties": {"id": "Pakistan_123102310_401538", "height": 2.589598655700684, "hmax": 0.0, "ratio": 0.0, "vulnClass": "none"}}, {"type": "Feature", "geometry": {"type": "MultiPolygon", "coordinates": [[[[72.41582661, 34.175658], [72.41588821, 34.17565607], [72.41588355, 34.17555414], [72.41582194, 34.17555607], [72.41582661, 34.175658]]]]}, "properties": {"id": "Pakistan_123102310_662132", "height": 2.902576923370361, "hmax": 0.028, "ratio": 0.01, "vulnClass": "none"}}, {"type": "Feature", "geometry": {"type": "MultiPolygon", "coordinates": [[[[72.40736884, 34.18751968], [72.40736191, 34.18773475], [72.40761654, 34.18774036], [72.40761579, 34.18776352], [72.40785166, 34.1877687], [72.40785494, 34.18766672], [72.40793696, 34.18766852], [72.40793967, 34.18758427], [72.4078925, 34.18758323], [72.40789304, 34.18756675], [72.40784103, 34.1875656], [72.40783825, 34.18765207], [72.40766242, 34.18764819], [72.407665, 34.18756837], [72.40771592, 34.1875695], [72.40771728, 34.18752737], [72.40736884, 34.18751968]]]]}, "properties": {"id": "Pakistan_123102310_283007", "height": 2.973064422607422, "hmax": 0.039, "ratio": 0.013, "vulnClass": "none"}}, {"type": "Feature", "geometry": {"type": "MultiPolygon", "coordinates": [[[[72.41473113, 34.18774561], [72.4149669, 34.18758115], [72.41491332, 34.18752859], [72.41485781, 34.1875673], [72.41482609, 34.18753617], [72.4147938, 34.18755869], [72.41476737, 34.18753276], [72.41461937, 34.18763598], [72.41467825, 34.18769374], [72.41467825, 34.18769374], [72.41473113, 34.18774561]]]]}, "properties": {"id": "Pakistan_123102310_818729", "height": 3.160697937011719, "hmax": 0.01, "ratio": 0.003, "vulnClass": "none"}}, {"type": "Feature", "geometry": {"type": "MultiPolygon", "coordinates": [[[[72.41721058, 34.18635847], [72.41720835, 34.18630528], [72.41696992, 34.18631214], [72.41697216, 34.18636533], [72.41721058, 34.18635847]]]]}, "properties": {"id": "Pakistan_123102310_198577", "height": 3.097698926925659, "hmax": 0.005, "ratio": 0.002, "vulnClass": "none"}}]}