{"type": "FeatureCollection", "features": [{"type": "Feature", "geometry": {"type": "MultiPolygon", "coordinates": [[[[72.00277, 34.37053456], [72.00273643, 34.37051837], [72.00271675, 34.37054643], [72.00275032, 34.37056261], [72.00277, 34.37053456]]]]}, "properties": {"id": "8J6J92C3+639Q", "height": 2.754105567932129, "hmax": 0.006, "ratio": 0.002, "vulnClass": "none"}}, {"type": "Feature", "geometry": {"type": "MultiPolygon", "coordinates": [[[[72.00334635, 34.37073721], [72.00331545, 34.37074188], [72.00333121, 34.37081349], [72.00338499, 34.37080535], [72.00337558, 34.37076262], [72.0033527, 34.37076608], [72.00334635, 34.37073721]]]]}, "properties": {"id": "8J6J92C3+8892", "height": 3.178455591201782, "hmax": 0.016, "ratio": 0.005, "vulnClass": "none"}}, {"type": "Feature", "geometry": {"type": "MultiPolygon", "coordinates": [[[[72.00321457, 34.370815], [72.00320386, 34.37076728], [72.00311679, 34.3707807], [72.0031275, 34.37082843], [72.00321457, 34.370815]]]]}, "properties": {"id": "8J6J92C3+877V", "height": 3.267848491668701, "hmax": 0.016, "ratio": 0.005, "vulnClass": "none"}}, {"type": "Feature", "geometry": {"type": "MultiPolygon", "coordinates": [[[[72.0038585, 34.37102441], [72.00382188, 34.37102778], [72.00382658, 34.3710612], [72.00386298, 34.37105784], [72.0038585, 34.37102441]]]]}, "properties": {"id": "8J6J92C3+CG8Q", "height": 2.491523742675781, "hmax": 0.016, "ratio": 0.006, "vulnClass": "none"}}, {"type": "Feature", "geometry": {"type": "MultiPolygon", "coordinates": [[[[72.0038501, 34.37097264], [72.00384649, 34.37093134], [72.00371656, 34.37093916], [72.00372017, 34.37098045], [72.0038501, 34.37097264]]]]}, "properties": {"id": "8J6J92C3+9GM6", "height": 3.280418872833252, "hmax": 0.016, "ratio": 0.005, "vulnClass": "none"}}, {"type": "Feature", "geometry": {"type": "MultiPolygon", "coordinates": [[[[72.00353948, 34.37056672], [72.00349739, 34.37057945], [72.00353891, 34.37067382], [72.00358099, 34.37066109], [72.00353948, 34.37056672]]]]}, "properties": {"id": "8J6J92C3+6CVV", "height": 3.629085779190063, "hmax": 0.016, "ratio": 0.004, "vulnClass": "none"}}, {"type": "Feature", "geometry": {"type": "MultiPolygon", "coordinates": [[[[72.00430078, 34.37094061], [72.00428887, 34.37089516], [72.00413813, 34.37092232], [72.00415003, 34.37096777], [72.00430078, 34.37094061]]]]}, "properties": {"id": "8J6J92C3+9MH6", "height": 3.886406183242798, "hmax": 0.006, "ratio": 0.002, "vulnClass": "none"}}, {"type": "Feature", "geometry": {"type": "MultiPolygon", "coordinates": [[[[72.00416048, 34.37100623], [72.00413684, 34.37091451], [72.00408204, 34.37092422], [72.00409375, 34.37096965], [72.00405465, 34.37097658], [72.00406658, 34.37102287], [72.00416048, 34.37100623]]]]}, "properties": {"id": "8J6J92C3+9JQW", "height": 3.03978443145752, "hmax": 0.013, "ratio": 0.004, "vulnClass": "none"}}, {"type": "Feature", "geometry": {"type": "MultiPolygon", "coordinates": [[[[72.00399071, 34.3709164], [72.0039109, 34.37092595], [72.00391675, 34.37095954], [72.00399655, 34.37094999], [72.00399071, 34.3709164]]]]}, "properties": {"id": "8J6J92C3+9HGG", "height": 3.617642402648926, "hmax": 0.016, "ratio": 0.004, "vulnClass": "none"}}, {"type": "Feature", "geometry": {"type": "MultiPolygon", "coordinates": [[[[72.00408184, 34.37108204], [72.00405465, 34.37097658], [72.00400418, 34.37098552], [72.00401611, 34.37103182], [72.00393641, 34.37104594], [72.00395167, 34.37110511], [72.00408184, 34.37108204]]]]}, "properties": {"id": "8J6J92C3+CJC3", "height": 3.224507331848145, "hmax": 0.016, "ratio": 0.005, "vulnClass": "none"}}, {"type": "Feature", "geometry": {"type": "MultiPolygon", "coordinates": [[[[72.00798924, 34.36913149], [72.00793996, 34.36914417], [72.00798642, 34.3692683], [72.0080357, 34.36925562], [72.00798924, 34.36913149]]]]}, "properties": {"id": "8J6J9295+M5HW", "height": 2.739501953125, "hmax": 0.01, "ratio": 0.004, "vulnClass": "none"}}, {"type": "Feature", "geometry": {"type": "MultiPolygon", "coordinates": [[[[72.01159068, 34.36869956], [72.01135456, 34.36869213], [72.01135095, 34.36877078], [72.01158708, 34.36877821], [72.01159068, 34.36869956]]]]}, "properties": {"id": "8J6J9296+FHXC", "height": 3.090592861175537, "hmax": 0.007, "ratio": 0.002, "vulnClass": "none"}}, {"type": "Feature", "geometry": {"type": "MultiPolygon", "coordinates": [[[[72.01171813, 34.36877894], [72.01172185, 34.36866259], [72.01168692, 34.36866182], [72.01168591, 34.3686932], [72.01161384, 34.36869162], [72.01161112, 34.36877659], [72.01171813, 34.36877894]]]]}, "properties": {"id": "8J6J9296+FMV3", "height": 2.505719184875488, "hmax": 0.007, "ratio": 0.003, "vulnClass": "none"}}, {"type": "Feature", "geometry": {"type": "MultiPolygon", "coordinates": [[[[72.01120159, 34.36860204], [72.01115742, 34.36860481], [72.0111708, 34.36875151], [72.0112845, 34.36874437], [72.01128061, 34.36870168], [72.01121108, 34.36870604], [72.01120159, 34.36860204]]]]}, "properties": {"id": "8J6J9296+FFGP", "height": 2.850130796432495, "hmax": 0.007, "ratio": 0.003, "vulnClass": "none"}}, {"type": "Feature", "geometry": {"type": "MultiPolygon", "coordinates": [[[[72.01090181, 34.36967955], [72.01079963, 34.36969487], [72.0108172, 34.36977543], [72.01096477, 34.3697533], [72.01095688, 34.36971713], [72.01091149, 34.36972394], [72.01090181, 34.36967955]]]]}, "properties": {"id": "8J6J9296+V8X5", "height": 2.877364635467529, "hmax": 0.003, "ratio": 0.001, "vulnClass": "none"}}, {"type": "Feature", "geometry": {"type": "MultiPolygon", "coordinates": [[[[72.01096477, 34.3697533], [72.01109626, 34.36973359], [72.01107869, 34.36965302], [72.01090181, 34.36967955], [72.01091149, 34.36972394], [72.01095688, 34.36971713], [72.01096477, 34.3697533]]]]}, "properties": {"id": "8J6J9296+VCJ2", "height": 2.877364635467529, "hmax": 0.003, "ratio": 0.001, "vulnClass": "none"}}, {"type": "Feature", "geometry": {"type": "MultiPolygon", "coordinates": [[[[72.0108167, 34.36963563], [72.01080286, 34.36957185], [72.01065933, 34.36959327], [72.01067318, 34.36965705], [72.0108167, 34.36963563]]]]}, "properties": {"id": "8J6J9296+R7XG", "height": 2.626868724822998, "hmax": 0.004, "ratio": 0.002, "vulnClass": "none"}}, {"type": "Feature", "geometry": {"type": "MultiPolygon", "coordinates": [[[[72.01083572, 34.37000679], [72.01081704, 34.36997238], [72.01072546, 34.37000657], [72.01074414, 34.37004098], [72.01083572, 34.37000679]]]]}, "properties": {"id": "8J6J92C6+2829", "height": 2.514540195465088, "hmax": 0.002, "ratio": 0.001, "vulnClass": "none"}}, {"type": "Feature", "geometry": {"type": "MultiPolygon", "coordinates": [[[[72.00842053, 34.37019674], [72.00841915, 34.37023784], [72.00864356, 34.37024302], [72.00864494, 34.37020193], [72.00842053, 34.37019674]]]]}, "properties": {"id": "8J6J92C5+3CMJ", "height": 2.632541656494141, "hmax": 0.004, "ratio": 0.002, "vulnClass": "none"}}, {"type": "Feature", "geometry": {"type": "MultiPolygon", "coordinates": [[[[72.00809259, 34.3731131], [72.00802649, 34.37298513], [72.00797915, 34.37300194], [72.00804525, 34.37312991], [72.00809259, 34.3731131]]]]}, "properties": {"id": "8J6J92F5+66F6", "height": 2.689854621887207, "hmax": 0.005, "ratio": 0.002, "vulnClass": "none"}}, {"type": "Feature", "geometry": {"type": "MultiPolygon", "coordinates": [[[[72.00934828, 34.37306537], [72.00924131, 34.37301132], [72.00919327, 34.37307669], [72.00930024, 34.37313074], [72.00934828, 34.37306537]]]]}, "properties": {"id": "8J6J92F5+6PCW", "height": 3.41046667098999, "hmax": 0.015, "ratio": 0.004, "vulnClass": "none"}}, {"type": "Feature", "geometry": {"type": "MultiPolygon", "coordinates": [[[[72.00919066, 34.37306693], [72.00928582, 34.37294407], [72.00920882, 34.37290306], [72.00911366, 34.37302592], [72.00919066, 34.37306693]]]]}, "properties": {"id": "8J6J92F5+5MW7", "height": 2.498759269714355, "hmax": 0.015, "ratio": 0.006, "vulnClass": "none"}}, {"type": "Feature", "geometry": {"type": "MultiPolygon", "coordinates": [[[[72.00947771, 34.37291795], [72.00938063, 34.37285731], [72.009351, 34.37288993], [72.00944808, 34.37295057], [72.00947771, 34.37291795]]]]}, "properties": {"id": "8J6J92F5+5Q73", "height": 3.042954206466675, "hmax": 0.015, "ratio": 0.005, "vulnClass": "none"}}, {"type": "Feature", "geometry": {"type": "MultiPolygon", "coordinates": [[[[72.00959615, 34.37297482], [72.00947983, 34.37291431], [72.00942973, 34.37298052], [72.00954605, 34.37304104], [72.00959615, 34.37297482]]]]}, "properties": {"id": "8J6J92F5+5RR3", "height": 2.995712280273438, "hmax": 0.009, "ratio": 0.003, "vulnClass": "none"}}, {"type": "Feature", "geometry": {"type": "MultiPolygon", "coordinates": [[[[72.0094722, 34.37306888], [72.00944514, 34.37303983], [72.00940202, 34.37306744], [72.00942908, 34.3730965], [72.0094722, 34.37306888]]]]}, "properties": {"id": "8J6J92F5+6QFQ", "height": 2.917591571807861, "hmax": 0.015, "ratio": 0.005, "vulnClass": "none"}}, {"type": "Feature", "geometry": {"type": "MultiPolygon", "coordinates": [[[[72.00988267, 34.37235958], [72.00982632, 34.37233435], [72.00974294, 34.37246237], [72.00993696, 34.37254926], [72.00998296, 34.37247863], [72.00984528, 34.37241697], [72.00988267, 34.37235958]]]]}, "properties": {"id": "8J6J92C5+XWQ3", "height": 2.555661678314209, "hmax": 0.008, "ratio": 0.003, "vulnClass": "none"}}, {"type": "Feature", "geometry": {"type": "MultiPolygon", "coordinates": [[[[72.00985125, 34.37225635], [72.00972929, 34.37219429], [72.00969744, 34.37223731], [72.0098194, 34.37229937], [72.00985125, 34.37225635]]]]}, "properties": {"id": "8J6J92C5+VWRX", "height": 3.309825420379639, "hmax": 0.018, "ratio": 0.005, "vulnClass": "none"}}, {"type": "Feature", "geometry": {"type": "MultiPolygon", "coordinates": [[[[72.00985738, 34.37210993], [72.00980204, 34.37209334], [72.00978518, 34.37213203], [72.00984052, 34.37214862], [72.00985738, 34.37210993]]]]}, "properties": {"id": "8J6J92C5+RWWV", "height": 2.912726163864136, "hmax": 0.018, "ratio": 0.006, "vulnClass": "none"}}, {"type": "Feature", "geometry": {"type": "MultiPolygon", "coordinates": [[[[72.00987482, 34.3721172], [72.00984854, 34.37214506], [72.00988879, 34.37217116], [72.00991507, 34.3721433], [72.00987482, 34.3721172]]]]}, "properties": {"id": "8J6J92C5+VX2J", "height": 2.912726163864136, "hmax": 0.018, "ratio": 0.006, "vulnClass": "none"}}, {"type": "Feature", "geometry": {"type": "MultiPolygon", "coordinates": [[[[72.01000395, 34.37217572], [72.00996243, 34.37216308], [72.00994994, 34.3721913], [72.00999147, 34.37220393], [72.01000395, 34.37217572]]]]}, "properties": {"id": "8J6J92C5+VXH7", "height": 2.716742038726807, "hmax": 0.018, "ratio": 0.007, "vulnClass": "none"}}, {"type": "Feature", "geometry": {"type": "MultiPolygon", "coordinates": [[[[72.00992239, 34.37220731], [72.00988389, 34.37219042], [72.00985072, 34.37224239], [72.00988922, 34.37225929], [72.00992239, 34.37220731]]]]}, "properties": {"id": "8J6J92C5+VXJV", "height": 2.520044565200806, "hmax": 0.018, "ratio": 0.007, "vulnClass": "none"}}, {"type": "Feature", "geometry": {"type": "MultiPolygon", "coordinates": [[[[72.00988702, 34.37224691], [72.00985054, 34.37224122], [72.00984602, 34.37226113], [72.0098825, 34.37226682], [72.00988702, 34.37224691]]]]}, "properties": {"id": "8J6J92C5+WW54", "height": 3.309825420379639, "hmax": 0.018, "ratio": 0.005, "vulnClass": "none"}}, {"type": "Feature", "geometry": {"type": "MultiPolygon", "coordinates": [[[[72.01012448, 34.3723625], [72.00999277, 34.37230418], [72.00995259, 34.37236657], [72.0100843, 34.37242489], [72.01012448, 34.3723625]]]]}, "properties": {"id": "8J6J92C6+W2VC", "height": 3.569175243377686, "hmax": 0.016, "ratio": 0.005, "vulnClass": "none"}}, {"type": "Feature", "geometry": {"type": "MultiPolygon", "coordinates": [[[[72.01022502, 34.37229578], [72.01018818, 34.37228633], [72.0101778, 34.37231419], [72.01021464, 34.37232363], [72.01022502, 34.37229578]]]]}, "properties": {"id": "8J6J92C6+W3G3", "height": 3.109136581420898, "hmax": 0.018, "ratio": 0.006, "vulnClass": "none"}}, {"type": "Feature", "geometry": {"type": "MultiPolygon", "coordinates": [[[[72.0103671, 34.3721942], [72.0102904, 34.3721528], [72.0102068, 34.3722593], [72.0102835, 34.3723007], [72.0103671, 34.3721942]]]]}, "properties": {"id": "8J6J92C6+V4V2", "height": 2.779812574386597, "hmax": 0.018, "ratio": 0.007, "vulnClass": "none"}}, {"type": "Feature", "geometry": {"type": "MultiPolygon", "coordinates": [[[[72.01009297, 34.37217282], [72.01004467, 34.3721616], [72.01002913, 34.3722076], [72.01007743, 34.37221882], [72.01009297, 34.37217282]]]]}, "properties": {"id": "8J6J92C6+V2FQ", "height": 2.623928070068359, "hmax": 0.018, "ratio": 0.007, "vulnClass": "none"}}, {"type": "Feature", "geometry": {"type": "MultiPolygon", "coordinates": [[[[72.01020003, 34.37216657], [72.01012879, 34.37214583], [72.01010175, 34.37220969], [72.01017299, 34.37223043], [72.01020003, 34.37216657]]]]}, "properties": {"id": "8J6J92C6+V3CH", "height": 2.489469289779663, "hmax": 0.018, "ratio": 0.007, "vulnClass": "none"}}, {"type": "Feature", "geometry": {"type": "MultiPolygon", "coordinates": [[[[72.01022848, 34.37241121], [72.01012253, 34.37236114], [72.01007968, 34.37242349], [72.01018563, 34.37247356], [72.01022848, 34.37241121]]]]}, "properties": {"id": "8J6J92C6+X36Q", "height": 3.239272832870483, "hmax": 0.008, "ratio": 0.003, "vulnClass": "none"}}, {"type": "Feature", "geometry": {"type": "MultiPolygon", "coordinates": [[[[72.01008056, 34.37246158], [72.01004959, 34.37242388], [72.01000672, 34.37244809], [72.0100377, 34.37248579], [72.01008056, 34.37246158]]]]}, "properties": {"id": "8J6J92C6+X2M3", "height": 2.443886280059814, "hmax": 0.006, "ratio": 0.003, "vulnClass": "none"}}, {"type": "Feature", "geometry": {"type": "MultiPolygon", "coordinates": [[[[72.01001942, 34.37242739], [72.00996551, 34.37240859], [72.00994698, 34.3724451], [72.01000089, 34.3724639], [72.01001942, 34.37242739]]]]}, "properties": {"id": "8J6J92C5+XXHF", "height": 2.443886280059814, "hmax": 0.006, "ratio": 0.003, "vulnClass": "none"}}, {"type": "Feature", "geometry": {"type": "MultiPolygon", "coordinates": [[[[72.01013653, 34.37254315], [72.00999134, 34.37247255], [72.00993004, 34.37255923], [72.01007523, 34.37262983], [72.01013653, 34.37254315]]]]}, "properties": {"id": "8J6J92F6+22F2", "height": 2.555661678314209, "hmax": 0.006, "ratio": 0.002, "vulnClass": "none"}}, {"type": "Feature", "geometry": {"type": "MultiPolygon", "coordinates": [[[[72.01043043, 34.37199883], [72.01034287, 34.37196653], [72.01029865, 34.37204896], [72.01038621, 34.37208126], [72.01043043, 34.37199883]]]]}, "properties": {"id": "8J6J92C6+R45W", "height": 2.716438293457031, "hmax": 0.018, "ratio": 0.007, "vulnClass": "none"}}, {"type": "Feature", "geometry": {"type": "MultiPolygon", "coordinates": [[[[72.01037347, 34.3718565], [72.01023903, 34.37179898], [72.01019499, 34.37186976], [72.01028126, 34.37190667], [72.01029676, 34.37188175], [72.01034493, 34.37190236], [72.01037347, 34.3718565]]]]}, "properties": {"id": "8J6J92C6+P4R9", "height": 3.656047344207764, "hmax": 0.018, "ratio": 0.005, "vulnClass": "none"}}, {"type": "Feature", "geometry": {"type": "MultiPolygon", "coordinates": [[[[72.01033777, 34.37176621], [72.01029325, 34.37174896], [72.01027079, 34.37178881], [72.01031531, 34.37180606], [72.01033777, 34.37176621]]]]}, "properties": {"id": "8J6J92C6+P474", "height": 3.133606195449829, "hmax": 0.018, "ratio": 0.006, "vulnClass": "none"}}, {"type": "Feature", "geometry": {"type": "MultiPolygon", "coordinates": [[[[72.01193035, 34.37198348], [72.01180204, 34.37194534], [72.01176966, 34.37202025], [72.01185862, 34.37204669], [72.01182398, 34.37212682], [72.01186333, 34.37213851], [72.01193035, 34.37198348]]]]}, "properties": {"id": "8J6J92C6+RP5V", "height": 3.375799179077148, "hmax": 0.05, "ratio": 0.015, "vulnClass": "none"}}, {"type": "Feature", "geometry": {"type": "MultiPolygon", "coordinates": [[[[72.00961317, 34.37323482], [72.00948632, 34.37319605], [72.00945451, 34.3732676], [72.00958137, 34.37330637], [72.00961317, 34.37323482]]]]}, "properties": {"id": "8J6J92F5+8R32", "height": 2.705368041992188, "hmax": 0.007, "ratio": 0.003, "vulnClass": "none"}}, {"type": "Feature", "geometry": {"type": "MultiPolygon", "coordinates": [[[[72.00916385, 34.37315701], [72.00909551, 34.37312062], [72.00908265, 34.37313722], [72.00904357, 34.37311641], [72.00898865, 34.37318732], [72.00909607, 34.37324452], [72.00916385, 34.37315701]]]]}, "properties": {"id": "8J6J92F5+7JG3", "height": 3.033940076828003, "hmax": 0.015, "ratio": 0.005, "vulnClass": "none"}}, {"type": "Feature", "geometry": {"type": "MultiPolygon", "coordinates": [[[[72.008542, 34.3742717], [72.00848424, 34.37427658], [72.00849467, 34.37436138], [72.00855243, 34.37435649], [72.008542, 34.3742717]]]]}, "properties": {"id": "8J6J92F5+PCCP", "height": 3.017132997512817, "hmax": 0.003, "ratio": 0.001, "vulnClass": "none"}}, {"type": "Feature", "geometry": {"type": "MultiPolygon", "coordinates": [[[[72.00875455, 34.37427391], [72.00867188, 34.37426947], [72.00866919, 34.37430381], [72.00870655, 34.37430581], [72.00870163, 34.37436879], [72.00861723, 34.37436425], [72.00861418, 34.37440323], [72.0087439, 34.3744102], [72.00875455, 34.37427391]]]]}, "properties": {"id": "8J6J92F5+PFPV", "height": 3.436858654022217, "hmax": 0.003, "ratio": 0.001, "vulnClass": "none"}}, {"type": "Feature", "geometry": {"type": "MultiPolygon", "coordinates": [[[[72.00862711, 34.37426326], [72.00858767, 34.37426194], [72.00858529, 34.374311], [72.00862472, 34.37431232], [72.00862711, 34.37426326]]]]}, "properties": {"id": "8J6J92F5+PC9F", "height": 2.567656517028809, "hmax": 0.003, "ratio": 0.001, "vulnClass": "none"}}, {"type": "Feature", "geometry": {"type": "MultiPolygon", "coordinates": [[[[72.00865857, 34.3741252], [72.00858105, 34.37412363], [72.00857732, 34.37424979], [72.00865485, 34.37425136], [72.00865857, 34.3741252]]]]}, "properties": {"id": "8J6J92F5+MCHH", "height": 2.9427649974823, "hmax": 0.003, "ratio": 0.001, "vulnClass": "none"}}, {"type": "Feature", "geometry": {"type": "MultiPolygon", "coordinates": [[[[72.0084108, 34.37493789], [72.00838066, 34.37493637], [72.00837857, 34.37496502], [72.00840871, 34.37496653], [72.0084108, 34.37493789]]]]}, "properties": {"id": "8J6J92F5+X9J4", "height": 3.682393312454224, "hmax": 0.003, "ratio": 0.001, "vulnClass": "none"}}, {"type": "Feature", "geometry": {"type": "MultiPolygon", "coordinates": [[[[72.00816905, 34.37486388], [72.00809098, 34.37475891], [72.00802748, 34.37479138], [72.00810554, 34.37489635], [72.00816905, 34.37486388]]]]}, "properties": {"id": "8J6J92F5+W6Q2", "height": 2.452069520950317, "hmax": 0.007, "ratio": 0.003, "vulnClass": "none"}}, {"type": "Feature", "geometry": {"type": "MultiPolygon", "coordinates": [[[[72.00832444, 34.37480763], [72.00830294, 34.37477691], [72.0082262, 34.37481383], [72.00824769, 34.37484455], [72.00832444, 34.37480763]]]]}, "properties": {"id": "8J6J92F5+W8CH", "height": 3.452101707458496, "hmax": 0.007, "ratio": 0.002, "vulnClass": "none"}}, {"type": "Feature", "geometry": {"type": "MultiPolygon", "coordinates": [[[[72.00825993, 34.37500528], [72.00816488, 34.37486117], [72.00808994, 34.37489514], [72.00818499, 34.37503926], [72.00825993, 34.37500528]]]]}, "properties": {"id": "8J6J92F5+X7M4", "height": 5.095181465148926, "hmax": 0.007, "ratio": 0.001, "vulnClass": "none"}}, {"type": "Feature", "geometry": {"type": "MultiPolygon", "coordinates": [[[[72.0073991, 34.3747953], [72.0074024, 34.3748737], [72.007617, 34.3748675], [72.0076137, 34.3747891], [72.0073991, 34.3747953]]]]}, "properties": {"id": "8J6J92F5+W2J7", "height": 2.477660417556763, "hmax": 0.007, "ratio": 0.003, "vulnClass": "none"}}, {"type": "Feature", "geometry": {"type": "MultiPolygon", "coordinates": [[[[72.00764679, 34.37464854], [72.00762253, 34.37457129], [72.00758312, 34.3745798], [72.0075928, 34.37461064], [72.0075639, 34.37461688], [72.00755421, 34.37458604], [72.00740602, 34.37461803], [72.00743028, 34.37469528], [72.00764679, 34.37464854]]]]}, "properties": {"id": "8J6J92F5+V22H", "height": 2.980592727661133, "hmax": 0.007, "ratio": 0.002, "vulnClass": "none"}}, {"type": "Feature", "geometry": {"type": "MultiPolygon", "coordinates": [[[[72.00764447, 34.37453618], [72.00757897, 34.37453668], [72.00757944, 34.3745785], [72.00764494, 34.37457799], [72.00764447, 34.37453618]]]]}, "properties": {"id": "8J6J92F5+R2H8", "height": 2.558259963989258, "hmax": 0.007, "ratio": 0.003, "vulnClass": "none"}}, {"type": "Feature", "geometry": {"type": "MultiPolygon", "coordinates": [[[[72.0078569, 34.37431857], [72.007804, 34.37433546], [72.0078436, 34.37442076], [72.0078965, 34.37440388], [72.0078569, 34.37431857]]]]}, "properties": {"id": "8J6J92F5+P4XJ", "height": 2.668093204498291, "hmax": 0.007, "ratio": 0.003, "vulnClass": "none"}}, {"type": "Feature", "geometry": {"type": "MultiPolygon", "coordinates": [[[[72.00768979, 34.37422446], [72.00758809, 34.37414153], [72.00754693, 34.37417623], [72.00764863, 34.37425916], [72.00768979, 34.37422446]]]]}, "properties": {"id": "8J6J92F5+M2Q5", "height": 3.124049186706543, "hmax": 0.007, "ratio": 0.002, "vulnClass": "none"}}, {"type": "Feature", "geometry": {"type": "MultiPolygon", "coordinates": [[[[72.00756208, 34.37394393], [72.00757665, 34.3739257], [72.00753845, 34.3739047], [72.00742369, 34.37404821], [72.00750771, 34.37409441], [72.0076079, 34.37396912], [72.00756208, 34.37394393]]]]}, "properties": {"id": "8J6J92F5+J224", "height": 3.064203262329102, "hmax": 0.011, "ratio": 0.004, "vulnClass": "none"}}, {"type": "Feature", "geometry": {"type": "MultiPolygon", "coordinates": [[[[72.00762552, 34.37323499], [72.00756978, 34.37316326], [72.00754114, 34.37317856], [72.00759687, 34.3732503], [72.00762552, 34.37323499]]]]}, "properties": {"id": "8J6J92F5+72P8", "height": 2.697910308837891, "hmax": 0.006, "ratio": 0.002, "vulnClass": "none"}}, {"type": "Feature", "geometry": {"type": "MultiPolygon", "coordinates": [[[[72.00794933, 34.37313253], [72.00789741, 34.37303407], [72.0077087, 34.37310248], [72.00776062, 34.37320094], [72.00783379, 34.37317442], [72.00784514, 34.37319595], [72.00789454, 34.37317804], [72.00788319, 34.37315651], [72.00794933, 34.37313253]]]]}, "properties": {"id": "8J6J92F5+64WW", "height": 2.669791698455811, "hmax": 0.005, "ratio": 0.002, "vulnClass": "none"}}, {"type": "Feature", "geometry": {"type": "MultiPolygon", "coordinates": [[[[72.00696304, 34.37292243], [72.00691952, 34.37292019], [72.00691591, 34.37296842], [72.00695943, 34.37297066], [72.00696304, 34.37292243]]]]}, "properties": {"id": "8J6J92F4+5QGR", "height": 2.475354433059692, "hmax": 0.004, "ratio": 0.002, "vulnClass": "none"}}, {"type": "Feature", "geometry": {"type": "MultiPolygon", "coordinates": [[[[72.00705629, 34.37281058], [72.00701689, 34.37280856], [72.00701401, 34.37284713], [72.0070534, 34.37284915], [72.00705629, 34.37281058]]]]}, "properties": {"id": "8J6J92F4+4RM2", "height": 2.714197874069214, "hmax": 0.004, "ratio": 0.002, "vulnClass": "none"}}, {"type": "Feature", "geometry": {"type": "MultiPolygon", "coordinates": [[[[72.00711328, 34.37301947], [72.00710133, 34.3729513], [72.00692441, 34.37297264], [72.00693636, 34.37304081], [72.00711328, 34.37301947]]]]}, "properties": {"id": "8J6J92F4+5RRW", "height": 2.720312833786011, "hmax": 0.004, "ratio": 0.002, "vulnClass": "none"}}, {"type": "Feature", "geometry": {"type": "MultiPolygon", "coordinates": [[[[72.00689731, 34.37304196], [72.00684999, 34.37302273], [72.0068316, 34.37305384], [72.00687892, 34.37307307], [72.00689731, 34.37304196]]]]}, "properties": {"id": "8J6J92F4+6P9W", "height": 2.461706399917603, "hmax": 0.004, "ratio": 0.002, "vulnClass": "none"}}, {"type": "Feature", "geometry": {"type": "MultiPolygon", "coordinates": [[[[72.00683345, 34.37300148], [72.00672395, 34.37296858], [72.00670679, 34.37300783], [72.00681629, 34.37304074], [72.00683345, 34.37300148]]]]}, "properties": {"id": "8J6J92F4+6P24", "height": 3.792415618896484, "hmax": 0.004, "ratio": 0.001, "vulnClass": "none"}}, {"type": "Feature", "geometry": {"type": "MultiPolygon", "coordinates": [[[[72.0067181, 34.37296861], [72.00665882, 34.3729657], [72.00665631, 34.37300085], [72.00671559, 34.37300376], [72.0067181, 34.37296861]]]]}, "properties": {"id": "8J6J92F4+5MV9", "height": 3.792415618896484, "hmax": 0.004, "ratio": 0.001, "vulnClass": "none"}}, {"type": "Feature", "geometry": {"type": "MultiPolygon", "coordinates": [[[[72.00689319, 34.37290882], [72.00688754, 34.37286962], [72.00675783, 34.37288248], [72.00676348, 34.37292167], [72.00689319, 34.37290882]]]]}, "properties": {"id": "8J6J92F4+5P4V", "height": 3.184818029403687, "hmax": 0.004, "ratio": 0.001, "vulnClass": "none"}}, {"type": "Feature", "geometry": {"type": "MultiPolygon", "coordinates": [[[[72.00668763, 34.37292007], [72.00665926, 34.37291524], [72.00664809, 34.37296038], [72.00667645, 34.37296521], [72.00668763, 34.37292007]]]]}, "properties": {"id": "8J6J92F4+5MFM", "height": 3.016613960266113, "hmax": 0.004, "ratio": 0.001, "vulnClass": "none"}}, {"type": "Feature", "geometry": {"type": "MultiPolygon", "coordinates": [[[[72.00637399, 34.37264587], [72.00629708, 34.37263956], [72.00628951, 34.37270295], [72.00633699, 34.37270684], [72.00633105, 34.37275659], [72.00636049, 34.372759], [72.00637399, 34.37264587]]]]}, "properties": {"id": "8J6J92F4+3GGG", "height": 2.634446620941162, "hmax": 0.004, "ratio": 0.002, "vulnClass": "none"}}, {"type": "Feature", "geometry": {"type": "MultiPolygon", "coordinates": [[[[72.00667284, 34.37267419], [72.00642429, 34.37264488], [72.00640405, 34.37276288], [72.00645514, 34.37276891], [72.00646389, 34.37271789], [72.00666135, 34.37274117], [72.00667284, 34.37267419]]]]}, "properties": {"id": "8J6J92F4+3JCX", "height": 2.452877998352051, "hmax": 0.004, "ratio": 0.002, "vulnClass": "none"}}, {"type": "Feature", "geometry": {"type": "MultiPolygon", "coordinates": [[[[72.00645026, 34.37276921], [72.0064045, 34.37276811], [72.0064006, 34.37287979], [72.00644636, 34.37288089], [72.00645026, 34.37276921]]]]}, "properties": {"id": "8J6J92F4+4HFW", "height": 2.452877998352051, "hmax": 0.004, "ratio": 0.002, "vulnClass": "none"}}, {"type": "Feature", "geometry": {"type": "MultiPolygon", "coordinates": [[[[72.00667195, 34.3727819], [72.00647101, 34.37277203], [72.00646763, 34.37281938], [72.00666857, 34.37282925], [72.00667195, 34.3727819]]]]}, "properties": {"id": "8J6J92F4+4JG2", "height": 2.574197053909302, "hmax": 0.004, "ratio": 0.002, "vulnClass": "none"}}, {"type": "Feature", "geometry": {"type": "MultiPolygon", "coordinates": [[[[72.00671257, 34.3727446], [72.00666917, 34.37275184], [72.0066915, 34.37284376], [72.00673619, 34.37283634], [72.00671257, 34.3727446]]]]}, "properties": {"id": "8J6J92F4+4M8M", "height": 2.574197053909302, "hmax": 0.004, "ratio": 0.002, "vulnClass": "none"}}, {"type": "Feature", "geometry": {"type": "MultiPolygon", "coordinates": [[[[72.0064879, 34.3725356], [72.00643184, 34.37253285], [72.00642395, 34.37264335], [72.00654927, 34.3726495], [72.00655205, 34.37261053], [72.00648279, 34.37260713], [72.0064879, 34.3725356]]]]}, "properties": {"id": "8J6J92F4+2HX2", "height": 2.446111440658569, "hmax": 0.004, "ratio": 0.002, "vulnClass": "none"}}, {"type": "Feature", "geometry": {"type": "MultiPolygon", "coordinates": [[[[72.00633109, 34.37252218], [72.006364, 34.37241831], [72.00631136, 34.37240684], [72.00627845, 34.37251071], [72.00633109, 34.37252218]]]]}, "properties": {"id": "8J6J92C4+XGPF", "height": 2.517647266387939, "hmax": 0.004, "ratio": 0.002, "vulnClass": "none"}}, {"type": "Feature", "geometry": {"type": "MultiPolygon", "coordinates": [[[[72.0068269, 34.37235783], [72.00680486, 34.37227377], [72.00658917, 34.37231265], [72.00663878, 34.37250187], [72.00674076, 34.37248348], [72.00671284, 34.37237839], [72.0068269, 34.37235783]]]]}, "properties": {"id": "8J6J92C4+WMWV", "height": 3.367719888687134, "hmax": 0.004, "ratio": 0.001, "vulnClass": "none"}}, {"type": "Feature", "geometry": {"type": "MultiPolygon", "coordinates": [[[[72.00800146, 34.37191123], [72.00797599, 34.37187414], [72.00780349, 34.37195556], [72.00782897, 34.37199266], [72.00800146, 34.37191123]]]]}, "properties": {"id": "8J6J92C5+Q5C9", "height": 3.182043552398682, "hmax": 0.004, "ratio": 0.001, "vulnClass": "none"}}, {"type": "Feature", "geometry": {"type": "MultiPolygon", "coordinates": [[[[72.00295678, 34.37230751], [72.00283466, 34.37221934], [72.00274419, 34.37230549], [72.00286631, 34.37239366], [72.00295678, 34.37230751]]]]}, "properties": {"id": "8J6J92C3+W4H6", "height": 3.739264011383057, "hmax": 0.03, "ratio": 0.008, "vulnClass": "none"}}, {"type": "Feature", "geometry": {"type": "MultiPolygon", "coordinates": [[[[72.00278901, 34.37223907], [72.002741, 34.3722245], [72.00271927, 34.37227377], [72.00274816, 34.37228253], [72.00275873, 34.37225857], [72.00277785, 34.37226437], [72.00278901, 34.37223907]]]]}, "properties": {"id": "8J6J92C3+W422", "height": 3.055683135986328, "hmax": 0.03, "ratio": 0.01, "vulnClass": "none"}}, {"type": "Feature", "geometry": {"type": "MultiPolygon", "coordinates": [[[[72.00295601, 34.37228208], [72.00304664, 34.37218321], [72.00300233, 34.37215529], [72.0029117, 34.37225416], [72.00295601, 34.37228208]]]]}, "properties": {"id": "8J6J92C3+V5QM", "height": 2.966093063354492, "hmax": 0.017, "ratio": 0.006, "vulnClass": "none"}}, {"type": "Feature", "geometry": {"type": "MultiPolygon", "coordinates": [[[[72.00380294, 34.37201553], [72.00369232, 34.3720142], [72.00369095, 34.37209309], [72.00380157, 34.37209442], [72.00380294, 34.37201553]]]]}, "properties": {"id": "8J6J92C3+RFH5", "height": 2.561721801757812, "hmax": 0.004, "ratio": 0.002, "vulnClass": "none"}}, {"type": "Feature", "geometry": {"type": "MultiPolygon", "coordinates": [[[[72.0036487, 34.37201368], [72.00362794, 34.37201343], [72.00362748, 34.37203985], [72.00364824, 34.3720401], [72.0036487, 34.37201368]]]]}, "properties": {"id": "8J6J92C3+RF63", "height": 2.477981090545654, "hmax": 0.004, "ratio": 0.002, "vulnClass": "none"}}, {"type": "Feature", "geometry": {"type": "MultiPolygon", "coordinates": [[[[72.0026388, 34.37147553], [72.00261372, 34.3714743], [72.00261214, 34.37149653], [72.00264549, 34.371528], [72.00266547, 34.37152898], [72.00266714, 34.3715055], [72.0026388, 34.37147553]]]]}, "properties": {"id": "8J6J92C3+J323", "height": 2.895614147186279, "hmax": 0.01, "ratio": 0.003, "vulnClass": "none"}}, {"type": "Feature", "geometry": {"type": "MultiPolygon", "coordinates": [[[[72.00272484, 34.37171573], [72.00268941, 34.37168128], [72.00260373, 34.37174187], [72.00263916, 34.37177632], [72.00272484, 34.37171573]]]]}, "properties": {"id": "8J6J92C3+M3V3", "height": 2.526700258255005, "hmax": 0.01, "ratio": 0.004, "vulnClass": "none"}}, {"type": "Feature", "geometry": {"type": "MultiPolygon", "coordinates": [[[[72.00278625, 34.37178686], [72.00275303, 34.37175807], [72.0026277, 34.37185747], [72.00266092, 34.37188627], [72.00278625, 34.37178686]]]]}, "properties": {"id": "8J6J92C3+P3GW", "height": 3.176494836807251, "hmax": 0.01, "ratio": 0.003, "vulnClass": "none"}}, {"type": "Feature", "geometry": {"type": "MultiPolygon", "coordinates": [[[[72.00274203, 34.37185076], [72.00270368, 34.37184302], [72.00269268, 34.37188047], [72.00273104, 34.37188821], [72.00274203, 34.37185076]]]]}, "properties": {"id": "8J6J92C3+P3WQ", "height": 3.135241985321045, "hmax": 0.01, "ratio": 0.003, "vulnClass": "none"}}, {"type": "Feature", "geometry": {"type": "MultiPolygon", "coordinates": [[[[72.00733044, 34.37695041], [72.00730781, 34.37694635], [72.00730218, 34.37696794], [72.00732481, 34.37697199], [72.00733044, 34.37695041]]]]}, "properties": {"id": "8J6J92G4+QWP6", "height": 3.297791004180908, "hmax": 0.008, "ratio": 0.002, "vulnClass": "none"}}, {"type": "Feature", "geometry": {"type": "MultiPolygon", "coordinates": [[[[72.00731901, 34.37690579], [72.00729076, 34.37690317], [72.00728675, 34.37693287], [72.007315, 34.37693549], [72.00731901, 34.37690579]]]]}, "properties": {"id": "8J6J92G4+QW7P", "height": 3.233323574066162, "hmax": 0.008, "ratio": 0.003, "vulnClass": "none"}}, {"type": "Feature", "geometry": {"type": "MultiPolygon", "coordinates": [[[[72.00729153, 34.376915], [72.00726491, 34.3768429], [72.00718121, 34.37686415], [72.00720783, 34.37693625], [72.00729153, 34.376915]]]]}, "properties": {"id": "8J6J92G4+QV5G", "height": 3.567129135131836, "hmax": 0.008, "ratio": 0.002, "vulnClass": "none"}}, {"type": "Feature", "geometry": {"type": "MultiPolygon", "coordinates": [[[[72.00719509, 34.37690401], [72.00717603, 34.37687121], [72.00702115, 34.37693309], [72.00704022, 34.37696589], [72.00719509, 34.37690401]]]]}, "properties": {"id": "8J6J92G4+QR9M", "height": 3.484426498413086, "hmax": 0.009, "ratio": 0.003, "vulnClass": "none"}}, {"type": "Feature", "geometry": {"type": "MultiPolygon", "coordinates": [[[[72.00581564, 34.37799419], [72.00578527, 34.37790789], [72.00561661, 34.37794869], [72.00564698, 34.37803499], [72.00581564, 34.37799419]]]]}, "properties": {"id": "8J6J92H4+57PX", "height": 3.090933084487915, "hmax": 0.023, "ratio": 0.007, "vulnClass": "none"}}, {"type": "Feature", "geometry": {"type": "MultiPolygon", "coordinates": [[[[72.00576087, 34.37765773], [72.00570994, 34.37766539], [72.00573081, 34.37776072], [72.00578173, 34.37775305], [72.00576087, 34.37765773]]]]}, "properties": {"id": "8J6J92H4+37Q9", "height": 2.920852661132812, "hmax": 0.022, "ratio": 0.007, "vulnClass": "none"}}, {"type": "Feature", "geometry": {"type": "MultiPolygon", "coordinates": [[[[72.00742793, 34.37723301], [72.00733505, 34.37703725], [72.00725069, 34.37706477], [72.00734358, 34.37726053], [72.00742793, 34.37723301]]]]}, "properties": {"id": "8J6J92G4+VW4X", "height": 3.595003128051758, "hmax": 0.008, "ratio": 0.002, "vulnClass": "none"}}, {"type": "Feature", "geometry": {"type": "MultiPolygon", "coordinates": [[[[72.00728818, 34.37786795], [72.00726679, 34.37783193], [72.00716726, 34.37787256], [72.00718865, 34.37790858], [72.00728818, 34.37786795]]]]}, "properties": {"id": "8J6J92H4+4VXV", "height": 3.020256757736206, "hmax": 0.007, "ratio": 0.002, "vulnClass": "none"}}, {"type": "Feature", "geometry": {"type": "MultiPolygon", "coordinates": [[[[72.00737175, 34.37788879], [72.00735689, 34.37784015], [72.007311, 34.37784978], [72.00732585, 34.37789843], [72.00737175, 34.37788879]]]]}, "properties": {"id": "8J6J92H4+4WWQ", "height": 3.00416088104248, "hmax": 0.007, "ratio": 0.002, "vulnClass": "none"}}, {"type": "Feature", "geometry": {"type": "MultiPolygon", "coordinates": [[[[72.00716457, 34.37795951], [72.00712702, 34.37789176], [72.00701637, 34.37793392], [72.00705392, 34.37800167], [72.00716457, 34.37795951]]]]}, "properties": {"id": "8J6J92H4+5RGX", "height": 3.180377960205078, "hmax": 0.01, "ratio": 0.003, "vulnClass": "none"}}, {"type": "Feature", "geometry": {"type": "MultiPolygon", "coordinates": [[[[72.00703181, 34.37796899], [72.00701572, 34.37792615], [72.00685392, 34.37796791], [72.00687001, 34.37801075], [72.00703181, 34.37796899]]]]}, "properties": {"id": "8J6J92H4+5QPJ", "height": 3.046480178833008, "hmax": 0.011, "ratio": 0.004, "vulnClass": "none"}}, {"type": "Feature", "geometry": {"type": "MultiPolygon", "coordinates": [[[[72.00618832, 34.3782775], [72.00617484, 34.37823381], [72.00594251, 34.37828307], [72.00597578, 34.37839093], [72.00612204, 34.37835992], [72.00610224, 34.37829575], [72.00618832, 34.3782775]]]]}, "properties": {"id": "8J6J92H4+8CFG", "height": 2.496995449066162, "hmax": 0.016, "ratio": 0.006, "vulnClass": "none"}}, {"type": "Feature", "geometry": {"type": "MultiPolygon", "coordinates": [[[[72.0067884, 34.37833079], [72.00676054, 34.37826317], [72.00661514, 34.37830435], [72.00669658, 34.378502], [72.00684198, 34.37846082], [72.00681306, 34.37839063], [72.00671088, 34.37841957], [72.00668623, 34.37835973], [72.0067884, 34.37833079]]]]}, "properties": {"id": "8J6J92H4+9M56", "height": 3.403342485427856, "hmax": 0.011, "ratio": 0.003, "vulnClass": "none"}}, {"type": "Feature", "geometry": {"type": "MultiPolygon", "coordinates": [[[[72.0068048, 34.37821863], [72.00676764, 34.37822977], [72.00681225, 34.37833212], [72.00694028, 34.37829376], [72.00691039, 34.3782252], [72.00681953, 34.37825242], [72.0068048, 34.37821863]]]]}, "properties": {"id": "8J6J92H4+8P5V", "height": 3.135444641113281, "hmax": 0.011, "ratio": 0.003, "vulnClass": "none"}}, {"type": "Feature", "geometry": {"type": "MultiPolygon", "coordinates": [[[[72.00703549, 34.37797553], [72.00700968, 34.37797446], [72.00700781, 34.37800528], [72.00703362, 34.37800636], [72.00703549, 34.37797553]]]]}, "properties": {"id": "8J6J92H4+5RRP", "height": 2.763989686965942, "hmax": 0.011, "ratio": 0.004, "vulnClass": "none"}}, {"type": "Feature", "geometry": {"type": "MultiPolygon", "coordinates": [[[[72.00715112, 34.37837676], [72.00711032, 34.37828236], [72.00706537, 34.37829571], [72.00707362, 34.37831482], [72.0069638, 34.37834745], [72.00699635, 34.37842275], [72.00715112, 34.37837676]]]]}, "properties": {"id": "8J6J92H4+8RV9", "height": 3.977437973022461, "hmax": 0.01, "ratio": 0.003, "vulnClass": "none"}}, {"type": "Feature", "geometry": {"type": "MultiPolygon", "coordinates": [[[[72.00779618, 34.3786479], [72.00777908, 34.37861592], [72.00773356, 34.37863264], [72.00775066, 34.37866463], [72.00779618, 34.3786479]]]]}, "properties": {"id": "8J6J92H5+F42M", "height": 2.505900859832764, "hmax": 0.007, "ratio": 0.003, "vulnClass": "none"}}, {"type": "Feature", "geometry": {"type": "MultiPolygon", "coordinates": [[[[72.00728342, 34.3788714], [72.00722787, 34.37875611], [72.00710153, 34.37879796], [72.00715708, 34.37891325], [72.00728342, 34.3788714]]]]}, "properties": {"id": "8J6J92H4+GVP6", "height": 2.93035101890564, "hmax": 0.009, "ratio": 0.003, "vulnClass": "none"}}, {"type": "Feature", "geometry": {"type": "MultiPolygon", "coordinates": [[[[72.00694555, 34.37878355], [72.00688607, 34.37873138], [72.00685359, 34.37875684], [72.00691307, 34.378809], [72.00694555, 34.37878355]]]]}, "properties": {"id": "8J6J92H4+GQ2X", "height": 3.559746742248535, "hmax": 0.008, "ratio": 0.002, "vulnClass": "none"}}, {"type": "Feature", "geometry": {"type": "MultiPolygon", "coordinates": [[[[72.00684392, 34.37886668], [72.0067704, 34.3788197], [72.00663477, 34.3789656], [72.00670829, 34.37901259], [72.00684392, 34.37886668]]]]}, "properties": {"id": "8J6J92H4+HM9P", "height": 2.469820022583008, "hmax": 0.008, "ratio": 0.003, "vulnClass": "none"}}, {"type": "Feature", "geometry": {"type": "MultiPolygon", "coordinates": [[[[72.00692156, 34.37870711], [72.00678639, 34.37855293], [72.0067079, 34.37860024], [72.00684307, 34.37875441], [72.00692156, 34.37870711]]]]}, "properties": {"id": "8J6J92H4+FP82", "height": 3.834668874740601, "hmax": 0.009, "ratio": 0.002, "vulnClass": "none"}}, {"type": "Feature", "geometry": {"type": "MultiPolygon", "coordinates": [[[[72.00648724, 34.37850423], [72.00645676, 34.37848572], [72.00640692, 34.37854212], [72.0064374, 34.37856063], [72.00648724, 34.37850423]]]]}, "properties": {"id": "8J6J92H4+CH4V", "height": 2.807955980300903, "hmax": 0.011, "ratio": 0.004, "vulnClass": "none"}}, {"type": "Feature", "geometry": {"type": "MultiPolygon", "coordinates": [[[[72.00646822, 34.37847445], [72.00639462, 34.37843188], [72.00634462, 34.37849131], [72.00641821, 34.37853388], [72.00646822, 34.37847445]]]]}, "properties": {"id": "8J6J92H4+9HV6", "height": 2.957400798797607, "hmax": 0.011, "ratio": 0.004, "vulnClass": "none"}}, {"type": "Feature", "geometry": {"type": "MultiPolygon", "coordinates": [[[[72.00617309, 34.3787753], [72.006152, 34.37869385], [72.00606361, 34.37870958], [72.0060847, 34.37879103], [72.00617309, 34.3787753]]]]}, "properties": {"id": "8J6J92H4+FCXQ", "height": 2.587098598480225, "hmax": 0.008, "ratio": 0.003, "vulnClass": "none"}}, {"type": "Feature", "geometry": {"type": "MultiPolygon", "coordinates": [[[[72.00610767, 34.37888517], [72.0060588, 34.37889765], [72.00607669, 34.37894583], [72.00612556, 34.37893335], [72.00610767, 34.37888517]]]]}, "properties": {"id": "8J6J92H4+HC8Q", "height": 3.817788600921631, "hmax": 0.008, "ratio": 0.002, "vulnClass": "none"}}, {"type": "Feature", "geometry": {"type": "MultiPolygon", "coordinates": [[[[72.00596075, 34.3788977], [72.00593848, 34.37882071], [72.0057494, 34.37885832], [72.00577167, 34.3789353], [72.00596075, 34.3788977]]]]}, "properties": {"id": "8J6J92H4+H853", "height": 4.195609092712402, "hmax": 0.011, "ratio": 0.003, "vulnClass": "none"}}, {"type": "Feature", "geometry": {"type": "MultiPolygon", "coordinates": [[[[72.00587771, 34.37883374], [72.0058553, 34.37875307], [72.00580304, 34.37876305], [72.00582546, 34.37884372], [72.00587771, 34.37883374]]]]}, "properties": {"id": "8J6J92H4+G88X", "height": 6.670754432678223, "hmax": 0.011, "ratio": 0.002, "vulnClass": "none"}}, {"type": "Feature", "geometry": {"type": "MultiPolygon", "coordinates": [[[[72.00600934, 34.37854686], [72.00596242, 34.37839678], [72.00584755, 34.37842146], [72.00589446, 34.37857155], [72.00600934, 34.37854686]]]]}, "properties": {"id": "8J6J92H4+99V8", "height": 3.195010662078857, "hmax": 0.023, "ratio": 0.007, "vulnClass": "none"}}, {"type": "Feature", "geometry": {"type": "MultiPolygon", "coordinates": [[[[72.0054878, 34.37845913], [72.00547592, 34.37841416], [72.00537711, 34.37843211], [72.00538899, 34.37847708], [72.0054878, 34.37845913]]]]}, "properties": {"id": "8J6J92H4+95FX", "height": 2.630335569381714, "hmax": 0.023, "ratio": 0.009, "vulnClass": "none"}}, {"type": "Feature", "geometry": {"type": "MultiPolygon", "coordinates": [[[[72.00597578, 34.37839093], [72.0059499, 34.37830702], [72.00559118, 34.37838308], [72.00561706, 34.37846699], [72.00597578, 34.37839093]]]]}, "properties": {"id": "8J6J92H4+983C", "height": 3.95014762878418, "hmax": 0.023, "ratio": 0.006, "vulnClass": "none"}}, {"type": "Feature", "geometry": {"type": "MultiPolygon", "coordinates": [[[[72.00563906, 34.37829413], [72.00556837, 34.37830912], [72.00559118, 34.37838308], [72.0057589, 34.37834752], [72.00575151, 34.37832357], [72.00565449, 34.37834414], [72.00563906, 34.37829413]]]]}, "properties": {"id": "8J6J92H4+87JP", "height": 3.95014762878418, "hmax": 0.023, "ratio": 0.006, "vulnClass": "none"}}, {"type": "Feature", "geometry": {"type": "MultiPolygon", "coordinates": [[[[72.00583729, 34.37805959], [72.00579756, 34.37806855], [72.00582265, 34.378145], [72.00586238, 34.37813603], [72.00583729, 34.37805959]]]]}, "properties": {"id": "8J6J92H4+68W4", "height": 2.485883712768555, "hmax": 0.023, "ratio": 0.009, "vulnClass": "none"}}, {"type": "Feature", "geometry": {"type": "MultiPolygon", "coordinates": [[[[72.00561637, 34.37805727], [72.00559537, 34.37796779], [72.00552093, 34.3779798], [72.00555882, 34.37814126], [72.00566474, 34.37812417], [72.00564784, 34.37805219], [72.00561637, 34.37805727]]]]}, "properties": {"id": "8J6J92H4+66GH", "height": 3.041526794433594, "hmax": 0.023, "ratio": 0.008, "vulnClass": "none"}}, {"type": "Feature", "geometry": {"type": "MultiPolygon", "coordinates": [[[[72.00590436, 34.378237], [72.00587682, 34.37815687], [72.00556595, 34.3782303], [72.00559349, 34.37831043], [72.00590436, 34.378237]]]]}, "properties": {"id": "8J6J92H4+77X8", "height": 3.298596382141113, "hmax": 0.023, "ratio": 0.007, "vulnClass": "none"}}, {"type": "Feature", "geometry": {"type": "MultiPolygon", "coordinates": [[[[72.00360843, 34.3807897], [72.00356991, 34.38072986], [72.00350065, 34.3807605], [72.00353917, 34.38082034], [72.00360843, 34.3807897]]]]}, "properties": {"id": "8J6J92J3+8C74", "height": 2.760373830795288, "hmax": 0.01, "ratio": 0.004, "vulnClass": "none"}}, {"type": "Feature", "geometry": {"type": "MultiPolygon", "coordinates": [[[[72.00348278, 34.3807611], [72.00344833, 34.38077824], [72.00355322, 34.38092314], [72.0036879, 34.38085612], [72.00363352, 34.38078099], [72.00353328, 34.38083087], [72.00348278, 34.3807611]]]]}, "properties": {"id": "8J6J92J3+8CPM", "height": 3.076618671417236, "hmax": 0.01, "ratio": 0.003, "vulnClass": "none"}}, {"type": "Feature", "geometry": {"type": "MultiPolygon", "coordinates": [[[[72.00345938, 34.38071683], [72.00342446, 34.38068332], [72.00339185, 34.38070668], [72.00342676, 34.38074019], [72.00345938, 34.38071683]]]]}, "properties": {"id": "8J6J92J3+79MG", "height": 3.249457597732544, "hmax": 0.01, "ratio": 0.003, "vulnClass": "none"}}, {"type": "Feature", "geometry": {"type": "MultiPolygon", "coordinates": [[[[72.00473522, 34.38189924], [72.00477499, 34.38177098], [72.00468964, 34.38175279], [72.00464987, 34.38188105], [72.00473522, 34.38189924]]]]}, "properties": {"id": "8J6J92J3+PVP5", "height": 4.48599910736084, "hmax": 0.015, "ratio": 0.003, "vulnClass": "none"}}, {"type": "Feature", "geometry": {"type": "MultiPolygon", "coordinates": [[[[72.00465305, 34.38177845], [72.00458012, 34.38178069], [72.00458167, 34.38181537], [72.0046546, 34.38181313], [72.00465305, 34.38177845]]]]}, "properties": {"id": "8J6J92J3+PR9X", "height": 2.623966693878174, "hmax": 0.015, "ratio": 0.006, "vulnClass": "none"}}, {"type": "Feature", "geometry": {"type": "MultiPolygon", "coordinates": [[[[72.0046251, 34.3818303], [72.0045816, 34.3818282], [72.0045767, 34.3818983], [72.0046202, 34.3819004], [72.0046251, 34.3818303]]]]}, "properties": {"id": "8J6J92J3+PRXC", "height": 2.464949607849121, "hmax": 0.015, "ratio": 0.006, "vulnClass": "none"}}, {"type": "Feature", "geometry": {"type": "MultiPolygon", "coordinates": [[[[72.00513515, 34.38254765], [72.00505018, 34.3825128], [72.00498534, 34.38262146], [72.00515699, 34.38269186], [72.00517959, 34.38265398], [72.00509291, 34.38261843], [72.00513515, 34.38254765]]]]}, "properties": {"id": "8J6J92M4+22W3", "height": 3.09148097038269, "hmax": 0.015, "ratio": 0.005, "vulnClass": "none"}}, {"type": "Feature", "geometry": {"type": "MultiPolygon", "coordinates": [[[[72.00551342, 34.3826635], [72.0055069, 34.38259159], [72.00536249, 34.38260061], [72.00536902, 34.38267251], [72.00551342, 34.3826635]]]]}, "properties": {"id": "8J6J92M4+3546", "height": 3.561003446578979, "hmax": 0.015, "ratio": 0.004, "vulnClass": "none"}}, {"type": "Feature", "geometry": {"type": "MultiPolygon", "coordinates": [[[[72.00556129, 34.38259903], [72.00550568, 34.3825987], [72.00550503, 34.38267511], [72.00556064, 34.38267544], [72.00556129, 34.38259903]]]]}, "properties": {"id": "8J6J92M4+363C", "height": 3.625983715057373, "hmax": 0.015, "ratio": 0.004, "vulnClass": "none"}}, {"type": "Feature", "geometry": {"type": "MultiPolygon", "coordinates": [[[[72.00562834, 34.38258402], [72.00557035, 34.38258763], [72.0055818, 34.38271373], [72.00563979, 34.38271012], [72.00562834, 34.38258402]]]]}, "properties": {"id": "8J6J92M4+365V", "height": 3.777557849884033, "hmax": 0.015, "ratio": 0.004, "vulnClass": "none"}}, {"type": "Feature", "geometry": {"type": "MultiPolygon", "coordinates": [[[[72.00575279, 34.38261402], [72.00563748, 34.38261127], [72.00563639, 34.38264264], [72.0057517, 34.3826454], [72.00575279, 34.38261402]]]]}, "properties": {"id": "8J6J92M4+3742", "height": 2.856302499771118, "hmax": 0.015, "ratio": 0.005, "vulnClass": "none"}}, {"type": "Feature", "geometry": {"type": "MultiPolygon", "coordinates": [[[[72.00556048, 34.38257823], [72.00556125, 34.38245617], [72.00546419, 34.38245575], [72.00546402, 34.38248353], [72.00537187, 34.38248314], [72.00537128, 34.38257741], [72.00556048, 34.38257823]]]]}, "properties": {"id": "8J6J92M4+255R", "height": 3.936006546020508, "hmax": 0.015, "ratio": 0.004, "vulnClass": "none"}}, {"type": "Feature", "geometry": {"type": "MultiPolygon", "coordinates": [[[[72.00556291, 34.38238185], [72.00542164, 34.38238056], [72.00542065, 34.38245489], [72.00556192, 34.38245618], [72.00556291, 34.38238185]]]]}, "properties": {"id": "8J6J92J4+X59P", "height": 2.614921569824219, "hmax": 0.015, "ratio": 0.006, "vulnClass": "none"}}, {"type": "Feature", "geometry": {"type": "MultiPolygon", "coordinates": [[[[72.0061468, 34.3824193], [72.0061189, 34.382339], [72.0057961, 34.3824162], [72.0058241, 34.3824967], [72.0061468, 34.3824193]]]]}, "properties": {"id": "8J6J92J4+X99J", "height": 2.937418937683105, "hmax": 0.007, "ratio": 0.002, "vulnClass": "none"}}, {"type": "Feature", "geometry": {"type": "MultiPolygon", "coordinates": [[[[72.00555249, 34.38224965], [72.00549273, 34.38224975], [72.00549282, 34.38228704], [72.00555257, 34.38228695], [72.00555249, 34.38224965]]]]}, "properties": {"id": "8J6J92J4+W62P", "height": 2.809762716293335, "hmax": 0.015, "ratio": 0.005, "vulnClass": "none"}}, {"type": "Feature", "geometry": {"type": "MultiPolygon", "coordinates": [[[[72.00558515, 34.38228361], [72.00554822, 34.38228189], [72.00554443, 34.38233756], [72.00558136, 34.38233929], [72.00558515, 34.38228361]]]]}, "properties": {"id": "8J6J92J4+W6GC", "height": 2.877834320068359, "hmax": 0.015, "ratio": 0.005, "vulnClass": "none"}}, {"type": "Feature", "geometry": {"type": "MultiPolygon", "coordinates": [[[[72.00558501, 34.38214703], [72.00555918, 34.38214577], [72.00555758, 34.38216836], [72.00575468, 34.38217798], [72.00575725, 34.38214188], [72.00571485, 34.38213981], [72.00572121, 34.38205983], [72.0055917, 34.38205276], [72.00558501, 34.38214703]]]]}, "properties": {"id": "8J6J92J4+R7VJ", "height": 3.271389961242676, "hmax": 0.011, "ratio": 0.003, "vulnClass": "none"}}, {"type": "Feature", "geometry": {"type": "MultiPolygon", "coordinates": [[[[72.0057491, 34.38196465], [72.00568018, 34.38195731], [72.00566781, 34.38203706], [72.00573673, 34.38204441], [72.0057491, 34.38196465]]]]}, "properties": {"id": "8J6J92J4+R744", "height": 2.609087705612183, "hmax": 0.011, "ratio": 0.004, "vulnClass": "none"}}, {"type": "Feature", "geometry": {"type": "MultiPolygon", "coordinates": [[[[72.0057799, 34.38190176], [72.00573354, 34.38190607], [72.00575628, 34.38207409], [72.00580265, 34.38206977], [72.0057799, 34.38190176]]]]}, "properties": {"id": "8J6J92J4+Q8RG", "height": 2.669936895370483, "hmax": 0.011, "ratio": 0.004, "vulnClass": "none"}}, {"type": "Feature", "geometry": {"type": "MultiPolygon", "coordinates": [[[[72.00669105, 34.38199057], [72.00668295, 34.38195042], [72.00655516, 34.38196814], [72.00656325, 34.38200829], [72.00669105, 34.38199057]]]]}, "properties": {"id": "8J6J92J4+QJX5", "height": 2.482883930206299, "hmax": 0.009, "ratio": 0.004, "vulnClass": "none"}}, {"type": "Feature", "geometry": {"type": "MultiPolygon", "coordinates": [[[[72.00658896, 34.38190069], [72.00654284, 34.38190708], [72.00655516, 34.38196814], [72.00660127, 34.38196174], [72.00658896, 34.38190069]]]]}, "properties": {"id": "8J6J92J4+QJG7", "height": 3.020955562591553, "hmax": 0.009, "ratio": 0.003, "vulnClass": "none"}}, {"type": "Feature", "geometry": {"type": "MultiPolygon", "coordinates": [[[[72.00678504, 34.38189534], [72.00667492, 34.38191061], [72.00669105, 34.38199057], [72.00680117, 34.3819753], [72.00678504, 34.38189534]]]]}, "properties": {"id": "8J6J92J4+QMHP", "height": 2.995138883590698, "hmax": 0.009, "ratio": 0.003, "vulnClass": "none"}}, {"type": "Feature", "geometry": {"type": "MultiPolygon", "coordinates": [[[[72.00614502, 34.38225666], [72.00609789, 34.38226825], [72.00615186, 34.38241912], [72.00628585, 34.38238617], [72.00625872, 34.38231032], [72.00617185, 34.38233168], [72.00614502, 34.38225666]]]]}, "properties": {"id": "8J6J92J4+WFMX", "height": 2.937418937683105, "hmax": 0.004, "ratio": 0.001, "vulnClass": "none"}}, {"type": "Feature", "geometry": {"type": "MultiPolygon", "coordinates": [[[[72.00690349, 34.38186226], [72.00687568, 34.38186462], [72.00687972, 34.38189733], [72.00690753, 34.38189497], [72.00690349, 34.38186226]]]]}, "properties": {"id": "8J6J92J4+QQ24", "height": 2.553646564483643, "hmax": 0.009, "ratio": 0.003, "vulnClass": "none"}}, {"type": "Feature", "geometry": {"type": "MultiPolygon", "coordinates": [[[[72.0068913, 34.38184864], [72.0068853, 34.38181316], [72.00682454, 34.38182022], [72.00683054, 34.38185571], [72.0068913, 34.38184864]]]]}, "properties": {"id": "8J6J92J4+PPQ7", "height": 2.963371753692627, "hmax": 0.009, "ratio": 0.003, "vulnClass": "none"}}, {"type": "Feature", "geometry": {"type": "MultiPolygon", "coordinates": [[[[72.00651791, 34.38063391], [72.00631538, 34.38061845], [72.00628896, 34.38085638], [72.00645657, 34.38086917], [72.00647113, 34.38073806], [72.00640495, 34.38073301], [72.00640768, 34.38070851], [72.00650878, 34.38071622], [72.00651791, 34.38063391]]]]}, "properties": {"id": "8J6J92J4+7HRG", "height": 3.298190593719482, "hmax": 0.009, "ratio": 0.003, "vulnClass": "none"}}, {"type": "Feature", "geometry": {"type": "MultiPolygon", "coordinates": [[[[72.0046812, 34.3805679], [72.0050778, 34.380477], [72.0050604, 34.3804249], [72.0050018, 34.3804383], [72.0049909, 34.3804055], [72.0049661, 34.3804111], [72.0049503, 34.3803638], [72.0048836, 34.3803791], [72.0048773, 34.3803601], [72.0048221, 34.3803727], [72.0048442, 34.3804391], [72.0046529, 34.3804829], [72.0046812, 34.3805679]]]]}, "properties": {"id": "8J6J92J3+5WQP", "height": 3.340040683746338, "hmax": 0.013, "ratio": 0.004, "vulnClass": "none"}}, {"type": "Feature", "geometry": {"type": "MultiPolygon", "coordinates": [[[[72.00436994, 34.38021476], [72.00431296, 34.3802217], [72.00431965, 34.38025949], [72.00437663, 34.38025255], [72.00436994, 34.38021476]]]]}, "properties": {"id": "8J6J92J3+3PXC", "height": 3.694456100463867, "hmax": 0.01, "ratio": 0.003, "vulnClass": "none"}}, {"type": "Feature", "geometry": {"type": "MultiPolygon", "coordinates": [[[[72.00542327, 34.37991757], [72.00536303, 34.37992612], [72.00538582, 34.38003647], [72.00544606, 34.38002791], [72.00542327, 34.37991757]]]]}, "properties": {"id": "8J6J92H4+X5R5", "height": 4.106015205383301, "hmax": 0.012, "ratio": 0.003, "vulnClass": "none"}}, {"type": "Feature", "geometry": {"type": "MultiPolygon", "coordinates": [[[[72.00549743, 34.38012962], [72.00540731, 34.38014158], [72.00543162, 34.38026751], [72.00549898, 34.38025857], [72.00550322, 34.38028054], [72.00552598, 34.38027752], [72.00549743, 34.38012962]]]]}, "properties": {"id": "8J6J92J4+35P5", "height": 2.7886643409729, "hmax": 0.012, "ratio": 0.004, "vulnClass": "none"}}, {"type": "Feature", "geometry": {"type": "MultiPolygon", "coordinates": [[[[72.00587428, 34.38002274], [72.00568528, 34.38002165], [72.00568467, 34.38009404], [72.00584352, 34.38009495], [72.00584322, 34.38013111], [72.00587337, 34.38013128], [72.00587428, 34.38002274]]]]}, "properties": {"id": "8J6J92J4+28FC", "height": 3.325680255889893, "hmax": 0.012, "ratio": 0.004, "vulnClass": "none"}}, {"type": "Feature", "geometry": {"type": "MultiPolygon", "coordinates": [[[[72.00551146, 34.38001863], [72.005399, 34.3800346], [72.00541801, 34.38012665], [72.00553047, 34.38011069], [72.00551146, 34.38001863]]]]}, "properties": {"id": "8J6J92J4+25GX", "height": 2.619454145431519, "hmax": 0.012, "ratio": 0.005, "vulnClass": "none"}}, {"type": "Feature", "geometry": {"type": "MultiPolygon", "coordinates": [[[[72.00548867, 34.37990828], [72.00544474, 34.37991452], [72.00546243, 34.38000018], [72.00550636, 34.37999394], [72.00548867, 34.37990828]]]]}, "properties": {"id": "8J6J92H4+X5Q2", "height": 2.619454145431519, "hmax": 0.012, "ratio": 0.005, "vulnClass": "none"}}, {"type": "Feature", "geometry": {"type": "MultiPolygon", "coordinates": [[[[72.00542181, 34.3796205], [72.00541437, 34.379587], [72.0052639, 34.37960999], [72.00533482, 34.37992919], [72.00541533, 34.37991689], [72.00535184, 34.37963119], [72.00542181, 34.3796205]]]]}, "properties": {"id": "8J6J92H4+W445", "height": 4.173745155334473, "hmax": 0.012, "ratio": 0.003, "vulnClass": "none"}}, {"type": "Feature", "geometry": {"type": "MultiPolygon", "coordinates": [[[[72.00573744, 34.37922166], [72.00570107, 34.37912983], [72.00559764, 34.379158], [72.00563402, 34.37924982], [72.00573744, 34.37922166]]]]}, "properties": {"id": "8J6J92H4+M7FF", "height": 2.955277681350708, "hmax": 0.011, "ratio": 0.004, "vulnClass": "none"}}, {"type": "Feature", "geometry": {"type": "MultiPolygon", "coordinates": [[[[72.00575536, 34.37912438], [72.00571323, 34.37901656], [72.00553902, 34.37906335], [72.00558115, 34.37917118], [72.00575536, 34.37912438]]]]}, "properties": {"id": "8J6J92H4+J7JP", "height": 2.955277681350708, "hmax": 0.011, "ratio": 0.004, "vulnClass": "none"}}, {"type": "Feature", "geometry": {"type": "MultiPolygon", "coordinates": [[[[72.00699346, 34.3790499], [72.00693386, 34.37894017], [72.0068598, 34.37896782], [72.00689937, 34.37904068], [72.00680537, 34.37907578], [72.00682541, 34.37911265], [72.00699346, 34.3790499]]]]}, "properties": {"id": "8J6J92H4+JQ72", "height": 3.163359642028809, "hmax": 0.008, "ratio": 0.003, "vulnClass": "none"}}, {"type": "Feature", "geometry": {"type": "MultiPolygon", "coordinates": [[[[72.00606816, 34.37949252], [72.00597002, 34.37948793], [72.00595939, 34.37964399], [72.00605753, 34.37964859], [72.0060635, 34.37956094], [72.00610627, 34.37956294], [72.00610809, 34.37953617], [72.00606533, 34.37953417], [72.00606816, 34.37949252]]]]}, "properties": {"id": "8J6J92H4+RCCP", "height": 5.019680023193359, "hmax": 0.007, "ratio": 0.001, "vulnClass": "none"}}, {"type": "Feature", "geometry": {"type": "MultiPolygon", "coordinates": [[[[72.00613099, 34.37948165], [72.00610227, 34.37948087], [72.00610075, 34.37951931], [72.00612947, 34.37952009], [72.00613099, 34.37948165]]]]}, "properties": {"id": "8J6J92H4+RC54", "height": 4.915751457214355, "hmax": 0.007, "ratio": 0.001, "vulnClass": "none"}}, {"type": "Feature", "geometry": {"type": "MultiPolygon", "coordinates": [[[[72.00598672, 34.37964335], [72.00597987, 34.37969711], [72.00614583, 34.37971165], [72.00615269, 34.3796579], [72.00598672, 34.37964335]]]]}, "properties": {"id": "8J6J92H4+VCG2", "height": 3.273229598999023, "hmax": 0.005, "ratio": 0.002, "vulnClass": "none"}}, {"type": "Feature", "geometry": {"type": "MultiPolygon", "coordinates": [[[[72.00606241, 34.37972164], [72.00597769, 34.37971422], [72.00596175, 34.37983925], [72.00612771, 34.3798538], [72.00613959, 34.37976064], [72.00605835, 34.37975352], [72.00606241, 34.37972164]]]]}, "properties": {"id": "8J6J92H4+WC7M", "height": 4.368449687957764, "hmax": 0.006, "ratio": 0.001, "vulnClass": "none"}}, {"type": "Feature", "geometry": {"type": "MultiPolygon", "coordinates": [[[[72.00833698, 34.37901444], [72.00832223, 34.37893107], [72.00827582, 34.37893672], [72.00829057, 34.37902009], [72.00833698, 34.37901444]]]]}, "properties": {"id": "8J6J92H5+H8V5", "height": 3.362254619598389, "hmax": 0.01, "ratio": 0.003, "vulnClass": "none"}}, {"type": "Feature", "geometry": {"type": "MultiPolygon", "coordinates": [[[[72.01004085, 34.37900694], [72.00995227, 34.37900263], [72.00994201, 34.37914758], [72.01006835, 34.37915373], [72.01007043, 34.37912433], [72.01003267, 34.3791225], [72.01004085, 34.37900694]]]]}, "properties": {"id": "8J6J92H5+JXQ9", "height": 2.556059598922729, "hmax": 0.007, "ratio": 0.003, "vulnClass": "none"}}, {"type": "Feature", "geometry": {"type": "MultiPolygon", "coordinates": [[[[72.01054106, 34.37902879], [72.01046678, 34.37902813], [72.01046641, 34.37905721], [72.01054068, 34.37905787], [72.01054106, 34.37902879]]]]}, "properties": {"id": "8J6J92H6+J66J", "height": 3.735616207122803, "hmax": 0.008, "ratio": 0.002, "vulnClass": "none"}}, {"type": "Feature", "geometry": {"type": "MultiPolygon", "coordinates": [[[[72.0112968, 34.379486], [72.0113084, 34.3794495], [72.0112111, 34.3794284], [72.0111482, 34.3796276], [72.0111387, 34.3796576], [72.0112057, 34.3796721], [72.0112152, 34.3796422], [72.0112454, 34.3796488], [72.0112554, 34.3796172], [72.0112251, 34.3796107], [72.0112666, 34.3794795], [72.0112968, 34.379486]]]]}, "properties": {"id": "8J6J92H6+RF8X", "height": 2.654490947723389, "hmax": 0.009, "ratio": 0.003, "vulnClass": "none"}}, {"type": "Feature", "geometry": {"type": "MultiPolygon", "coordinates": [[[[72.01166756, 34.37974111], [72.01162643, 34.3797293], [72.01157497, 34.3798525], [72.01161611, 34.37986431], [72.01166756, 34.37974111]]]]}, "properties": {"id": "8J6J92H6+WJ9X", "height": 2.9901282787323, "hmax": 0.005, "ratio": 0.002, "vulnClass": "none"}}, {"type": "Feature", "geometry": {"type": "MultiPolygon", "coordinates": [[[[72.01174313, 34.37982346], [72.01164494, 34.37979526], [72.01161611, 34.37986431], [72.01171429, 34.3798925], [72.01174313, 34.37982346]]]]}, "properties": {"id": "8J6J92H6+WMMP", "height": 3.1936936378479, "hmax": 0.005, "ratio": 0.002, "vulnClass": "none"}}, {"type": "Feature", "geometry": {"type": "MultiPolygon", "coordinates": [[[[72.01267524, 34.38240685], [72.01263711, 34.38241032], [72.01264546, 34.38247336], [72.01268359, 34.38246989], [72.01267524, 34.38240685]]]]}, "properties": {"id": "8J6J92J7+X3FJ", "height": 2.505429983139038, "hmax": 0.016, "ratio": 0.006, "vulnClass": "none"}}, {"type": "Feature", "geometry": {"type": "MultiPolygon", "coordinates": [[[[72.01317684, 34.38243324], [72.01316557, 34.38235672], [72.01296088, 34.38237745], [72.01297215, 34.38245397], [72.01317684, 34.38243324]]]]}, "properties": {"id": "8J6J92J7+X686", "height": 2.712462425231934, "hmax": 0.022, "ratio": 0.008, "vulnClass": "none"}}, {"type": "Feature", "geometry": {"type": "MultiPolygon", "coordinates": [[[[72.01456704, 34.38155242], [72.01460667, 34.38135504], [72.01455492, 34.3813479], [72.0145153, 34.38154528], [72.01456704, 34.38155242]]]]}, "properties": {"id": "8J6J92J7+HRM5", "height": 2.807622671127319, "hmax": 0.005, "ratio": 0.002, "vulnClass": "none"}}, {"type": "Feature", "geometry": {"type": "MultiPolygon", "coordinates": [[[[72.01180323, 34.37985779], [72.01176582, 34.37984115], [72.01173296, 34.37989195], [72.01177037, 34.37990858], [72.01180323, 34.37985779]]]]}, "properties": {"id": "8J6J92H6+WPRW", "height": 2.683163642883301, "hmax": 0.005, "ratio": 0.002, "vulnClass": "none"}}, {"type": "Feature", "geometry": {"type": "MultiPolygon", "coordinates": [[[[72.01214274, 34.37893534], [72.01206713, 34.37892816], [72.01206093, 34.37897303], [72.01213654, 34.37898021], [72.01214274, 34.37893534]]]]}, "properties": {"id": "8J6J92H6+HRQ3", "height": 2.960863590240479, "hmax": 0.006, "ratio": 0.002, "vulnClass": "none"}}, {"type": "Feature", "geometry": {"type": "MultiPolygon", "coordinates": [[[[72.01540813, 34.37711476], [72.01535008, 34.3771089], [72.01534322, 34.37715566], [72.01540127, 34.37716152], [72.01540813, 34.37711476]]]]}, "properties": {"id": "8J6J92G8+V52C", "height": 3.21211051940918, "hmax": 0.014, "ratio": 0.004, "vulnClass": "none"}}, {"type": "Feature", "geometry": {"type": "MultiPolygon", "coordinates": [[[[72.01348378, 34.37780851], [72.01349434, 34.37771137], [72.01344012, 34.37770732], [72.0134379, 34.37772765], [72.01330487, 34.3777177], [72.01329651, 34.37779451], [72.01348378, 34.37780851]]]]}, "properties": {"id": "8J6J92H7+492H", "height": 3.72405743598938, "hmax": 0.018, "ratio": 0.005, "vulnClass": "none"}}, {"type": "Feature", "geometry": {"type": "MultiPolygon", "coordinates": [[[[72.01363258, 34.37757707], [72.01353489, 34.37756751], [72.01350994, 34.37774273], [72.01369423, 34.37776076], [72.01369736, 34.37773879], [72.01366854, 34.37773597], [72.0136762, 34.37768213], [72.01361843, 34.37767647], [72.01363258, 34.37757707]]]]}, "properties": {"id": "8J6J92H7+3C8X", "height": 4.016958236694336, "hmax": 0.018, "ratio": 0.005, "vulnClass": "none"}}, {"type": "Feature", "geometry": {"type": "MultiPolygon", "coordinates": [[[[72.01350946, 34.37755809], [72.01344612, 34.37755558], [72.01344462, 34.3775815], [72.01346315, 34.37758223], [72.01346001, 34.37763671], [72.01350482, 34.37763848], [72.01350946, 34.37755809]]]]}, "properties": {"id": "8J6J92H7+29QM", "height": 2.93184494972229, "hmax": 0.018, "ratio": 0.006, "vulnClass": "none"}}, {"type": "Feature", "geometry": {"type": "MultiPolygon", "coordinates": [[[[72.01364228, 34.37718264], [72.01359235, 34.37718014], [72.01358649, 34.37726046], [72.01363642, 34.37726296], [72.01364228, 34.37718264]]]]}, "properties": {"id": "8J6J92G7+VCQW", "height": 2.866032123565674, "hmax": 0.018, "ratio": 0.006, "vulnClass": "none"}}, {"type": "Feature", "geometry": {"type": "MultiPolygon", "coordinates": [[[[72.01380977, 34.37711564], [72.01359784, 34.37710501], [72.01359235, 34.37718014], [72.01374719, 34.37718791], [72.01374133, 34.37726823], [72.01379842, 34.37727109], [72.01380977, 34.37711564]]]]}, "properties": {"id": "8J6J92G7+VF8Q", "height": 3.815980195999146, "hmax": 0.014, "ratio": 0.004, "vulnClass": "none"}}, {"type": "Feature", "geometry": {"type": "MultiPolygon", "coordinates": [[[[72.01359561, 34.37712961], [72.01356128, 34.377128], [72.01355948, 34.37715432], [72.01359382, 34.37715593], [72.01359561, 34.37712961]]]]}, "properties": {"id": "8J6J92G7+VC4M", "height": 3.697519302368164, "hmax": 0.018, "ratio": 0.005, "vulnClass": "none"}}, {"type": "Feature", "geometry": {"type": "MultiPolygon", "coordinates": [[[[72.0135341, 34.3771316], [72.0134191, 34.377127], [72.0134078, 34.3773232], [72.0135498, 34.3773288], [72.0135591, 34.3771677], [72.013532, 34.3771666], [72.0135341, 34.3771316]]]]}, "properties": {"id": "8J6J92G7+V9X7", "height": 4.24436616897583, "hmax": 0.018, "ratio": 0.004, "vulnClass": "none"}}, {"type": "Feature", "geometry": {"type": "MultiPolygon", "coordinates": [[[[72.01300525, 34.37712814], [72.01292961, 34.37712527], [72.01292459, 34.37721627], [72.01300023, 34.37721914], [72.01300525, 34.37712814]]]]}, "properties": {"id": "8J6J92G7+V58X", "height": 2.477361440658569, "hmax": 0.018, "ratio": 0.007, "vulnClass": "none"}}, {"type": "Feature", "geometry": {"type": "MultiPolygon", "coordinates": [[[[72.01244304, 34.37744571], [72.01239962, 34.3774507], [72.01242092, 34.37757804], [72.01246434, 34.37757305], [72.01244304, 34.37744571]]]]}, "properties": {"id": "8J6J92H6+2X3H", "height": 2.719956398010254, "hmax": 0.016, "ratio": 0.006, "vulnClass": "none"}}, {"type": "Feature", "geometry": {"type": "MultiPolygon", "coordinates": [[[[72.01253309, 34.37745515], [72.012453, 34.37745211], [72.0124514, 34.37748105], [72.01253149, 34.37748409], [72.01253309, 34.37745515]]]]}, "properties": {"id": "8J6J92G6+XXQQ", "height": 2.719956398010254, "hmax": 0.016, "ratio": 0.006, "vulnClass": "none"}}, {"type": "Feature", "geometry": {"type": "MultiPolygon", "coordinates": [[[[72.01249922, 34.37758919], [72.01244915, 34.37758762], [72.01244652, 34.37764539], [72.01249658, 34.37764696], [72.01249922, 34.37758919]]]]}, "properties": {"id": "8J6J92H6+2XXJ", "height": 2.766979694366455, "hmax": 0.016, "ratio": 0.006, "vulnClass": "none"}}, {"type": "Feature", "geometry": {"type": "MultiPolygon", "coordinates": [[[[72.01250733, 34.37773225], [72.0123443, 34.3776849], [72.01229927, 34.37779149], [72.01246231, 34.37783884], [72.01250733, 34.37773225]]]]}, "properties": {"id": "8J6J92H6+4X2H", "height": 3.815723657608032, "hmax": 0.016, "ratio": 0.004, "vulnClass": "none"}}, {"type": "Feature", "geometry": {"type": "MultiPolygon", "coordinates": [[[[72.01195304, 34.37826321], [72.01190082, 34.37825749], [72.011864, 34.37848848], [72.01207052, 34.37851111], [72.0120882, 34.3784002], [72.0119339, 34.3783833], [72.01195304, 34.37826321]]]]}, "properties": {"id": "8J6J92H6+9Q8Q", "height": 2.777173280715942, "hmax": 0.007, "ratio": 0.003, "vulnClass": "none"}}, {"type": "Feature", "geometry": {"type": "MultiPolygon", "coordinates": [[[[72.0118721, 34.3782744], [72.0117487, 34.3782599], [72.0117216, 34.3784191], [72.011845, 34.3784336], [72.0118721, 34.3782744]]]]}, "properties": {"id": "8J6J92H6+8PMV", "height": 3.44825553894043, "hmax": 0.007, "ratio": 0.002, "vulnClass": "none"}}, {"type": "Feature", "geometry": {"type": "MultiPolygon", "coordinates": [[[[72.01203253, 34.37818518], [72.01198084, 34.37818107], [72.01197614, 34.37822161], [72.01202784, 34.37822573], [72.01203253, 34.37818518]]]]}, "properties": {"id": "8J6J92H6+7RJ2", "height": 3.086643695831299, "hmax": 0.007, "ratio": 0.002, "vulnClass": "none"}}, {"type": "Feature", "geometry": {"type": "MultiPolygon", "coordinates": [[[[72.01303264, 34.37804907], [72.01283456, 34.37803057], [72.01281732, 34.37815743], [72.01301541, 34.37817593], [72.01303264, 34.37804907]]]]}, "properties": {"id": "8J6J92H7+65V4", "height": 3.446933507919312, "hmax": 0.006, "ratio": 0.002, "vulnClass": "none"}}, {"type": "Feature", "geometry": {"type": "MultiPolygon", "coordinates": [[[[72.01224552, 34.37865164], [72.01220353, 34.37864935], [72.01220119, 34.37867887], [72.01224318, 34.37868116], [72.01224552, 34.37865164]]]]}, "properties": {"id": "8J6J92H6+FV9J", "height": 2.439845085144043, "hmax": 0.007, "ratio": 0.003, "vulnClass": "none"}}, {"type": "Feature", "geometry": {"type": "MultiPolygon", "coordinates": [[[[72.01215148, 34.37861479], [72.01210344, 34.37861034], [72.01209655, 34.37866148], [72.01214459, 34.37866593], [72.01215148, 34.37861479]]]]}, "properties": {"id": "8J6J92H6+FR5H", "height": 3.109759092330933, "hmax": 0.007, "ratio": 0.002, "vulnClass": "none"}}, {"type": "Feature", "geometry": {"type": "MultiPolygon", "coordinates": [[[[72.01210747, 34.37881296], [72.01205915, 34.3788119], [72.01205735, 34.37886839], [72.01210567, 34.37886945], [72.01210747, 34.37881296]]]]}, "properties": {"id": "8J6J92H6+GRPP", "height": 2.880651473999023, "hmax": 0.006, "ratio": 0.002, "vulnClass": "none"}}, {"type": "Feature", "geometry": {"type": "MultiPolygon", "coordinates": [[[[72.01176532, 34.37875902], [72.01170141, 34.37875384], [72.01169436, 34.3788136], [72.01175827, 34.37881878], [72.01176532, 34.37875902]]]]}, "properties": {"id": "8J6J92H6+GM9F", "height": 2.467204093933105, "hmax": 0.006, "ratio": 0.002, "vulnClass": "none"}}, {"type": "Feature", "geometry": {"type": "MultiPolygon", "coordinates": [[[[72.01102642, 34.37893477], [72.01100861, 34.37889913], [72.0109205, 34.3789294], [72.01093831, 34.37896504], [72.01102642, 34.37893477]]]]}, "properties": {"id": "8J6J92H6+H9H6", "height": 3.360430479049683, "hmax": 0.008, "ratio": 0.002, "vulnClass": "none"}}, {"type": "Feature", "geometry": {"type": "MultiPolygon", "coordinates": [[[[72.01162606, 34.37810824], [72.01150921, 34.37808336], [72.01148608, 34.37815804], [72.01160293, 34.37818292], [72.01162606, 34.37810824]]]]}, "properties": {"id": "8J6J92H6+7J39", "height": 2.773352146148682, "hmax": 0.007, "ratio": 0.003, "vulnClass": "none"}}, {"type": "Feature", "geometry": {"type": "MultiPolygon", "coordinates": [[[[72.01173363, 34.37813114], [72.01162606, 34.37810824], [72.01160293, 34.37818292], [72.0116852, 34.37820043], [72.01169326, 34.37817439], [72.0116606, 34.37816743], [72.01166504, 34.37815309], [72.01172301, 34.37816543], [72.01173363, 34.37813114]]]]}, "properties": {"id": "8J6J92H6+7M72", "height": 2.935282230377197, "hmax": 0.007, "ratio": 0.002, "vulnClass": "none"}}, {"type": "Feature", "geometry": {"type": "MultiPolygon", "coordinates": [[[[72.01173747, 34.37805748], [72.01152245, 34.37801111], [72.01150677, 34.37806112], [72.01172179, 34.37810748], [72.01173747, 34.37805748]]]]}, "properties": {"id": "8J6J92H6+6JH9", "height": 2.778164386749268, "hmax": 0.007, "ratio": 0.003, "vulnClass": "none"}}, {"type": "Feature", "geometry": {"type": "MultiPolygon", "coordinates": [[[[72.01089373, 34.37826509], [72.01083858, 34.37827216], [72.01084513, 34.37830725], [72.01090028, 34.37830017], [72.01089373, 34.37826509]]]]}, "properties": {"id": "8J6J92H6+889H", "height": 3.839570999145508, "hmax": 0.008, "ratio": 0.002, "vulnClass": "none"}}, {"type": "Feature", "geometry": {"type": "MultiPolygon", "coordinates": [[[[72.01097879, 34.37838545], [72.01097232, 34.37829222], [72.01091752, 34.37829483], [72.01092399, 34.37838807], [72.01097879, 34.37838545]]]]}, "properties": {"id": "8J6J92H6+89PM", "height": 2.994786500930786, "hmax": 0.008, "ratio": 0.003, "vulnClass": "none"}}, {"type": "Feature", "geometry": {"type": "MultiPolygon", "coordinates": [[[[72.01010825, 34.37854363], [72.01006921, 34.37854426], [72.01007084, 34.37861345], [72.01020623, 34.37861126], [72.01020531, 34.37857227], [72.01010896, 34.37857383], [72.01010825, 34.37854363]]]]}, "properties": {"id": "8J6J92H6+C3JC", "height": 2.569289684295654, "hmax": 0.005, "ratio": 0.002, "vulnClass": "none"}}, {"type": "Feature", "geometry": {"type": "MultiPolygon", "coordinates": [[[[72.01066079, 34.37876434], [72.01060148, 34.37844646], [72.01051124, 34.37845803], [72.01054169, 34.37862125], [72.01051904, 34.37862416], [72.01052856, 34.37867516], [72.01047355, 34.37868221], [72.01048457, 34.37874124], [72.01053957, 34.37873419], [72.0105479, 34.37877882], [72.01066079, 34.37876434]]]]}, "properties": {"id": "8J6J92H6+F643", "height": 2.596677541732788, "hmax": 0.008, "ratio": 0.003, "vulnClass": "none"}}, {"type": "Feature", "geometry": {"type": "MultiPolygon", "coordinates": [[[[72.0085704, 34.37851883], [72.00853547, 34.37852247], [72.0085473, 34.37860059], [72.00858223, 34.37859696], [72.0085704, 34.37851883]]]]}, "properties": {"id": "8J6J92H5+CCF9", "height": 3.221534967422485, "hmax": 0.006, "ratio": 0.002, "vulnClass": "none"}}, {"type": "Feature", "geometry": {"type": "MultiPolygon", "coordinates": [[[[72.00877779, 34.37820358], [72.00873288, 34.37821595], [72.00876605, 34.37829872], [72.00881095, 34.37828635], [72.00877779, 34.37820358]]]]}, "properties": {"id": "8J6J92H5+8G24", "height": 2.992202758789062, "hmax": 0.006, "ratio": 0.002, "vulnClass": "none"}}, {"type": "Feature", "geometry": {"type": "MultiPolygon", "coordinates": [[[[72.00868443, 34.37826232], [72.00867576, 34.37823599], [72.00861895, 34.37824885], [72.00862761, 34.37827518], [72.00868443, 34.37826232]]]]}, "properties": {"id": "8J6J92H5+8F29", "height": 2.740001916885376, "hmax": 0.006, "ratio": 0.002, "vulnClass": "none"}}, {"type": "Feature", "geometry": {"type": "MultiPolygon", "coordinates": [[[[72.00871752, 34.37833624], [72.0086782, 34.37825928], [72.00861576, 34.37828121], [72.00865508, 34.37835817], [72.00871752, 34.37833624]]]]}, "properties": {"id": "8J6J92H5+8FF7", "height": 2.740001916885376, "hmax": 0.006, "ratio": 0.002, "vulnClass": "none"}}, {"type": "Feature", "geometry": {"type": "MultiPolygon", "coordinates": [[[[72.00855453, 34.37836586], [72.00851727, 34.37828498], [72.00844109, 34.37830911], [72.00847835, 34.37838998], [72.00855453, 34.37836586]]]]}, "properties": {"id": "8J6J92H5+89QH", "height": 2.616970539093018, "hmax": 0.006, "ratio": 0.002, "vulnClass": "none"}}, {"type": "Feature", "geometry": {"type": "MultiPolygon", "coordinates": [[[[72.00866598, 34.37835637], [72.0085992, 34.37824472], [72.00851418, 34.37827968], [72.00858096, 34.37839133], [72.00866598, 34.37835637]]]]}, "properties": {"id": "8J6J92H5+8CGQ", "height": 2.740001916885376, "hmax": 0.006, "ratio": 0.002, "vulnClass": "none"}}, {"type": "Feature", "geometry": {"type": "MultiPolygon", "coordinates": [[[[72.00832631, 34.37847325], [72.00826959, 34.37837971], [72.00820234, 34.37840774], [72.00825906, 34.37850128], [72.00832631, 34.37847325]]]]}, "properties": {"id": "8J6J92H5+98CM", "height": 2.865108966827393, "hmax": 0.006, "ratio": 0.002, "vulnClass": "none"}}, {"type": "Feature", "geometry": {"type": "MultiPolygon", "coordinates": [[[[72.00820621, 34.37843514], [72.00818954, 34.37839897], [72.00810491, 34.37842578], [72.00812158, 34.37846196], [72.00820621, 34.37843514]]]]}, "properties": {"id": "8J6J92H5+97C9", "height": 2.865108966827393, "hmax": 0.007, "ratio": 0.002, "vulnClass": "none"}}, {"type": "Feature", "geometry": {"type": "MultiPolygon", "coordinates": [[[[72.00826974, 34.37818052], [72.00823744, 34.37818453], [72.00825089, 34.37825883], [72.00828318, 34.37825481], [72.00826974, 34.37818052]]]]}, "properties": {"id": "8J6J92H5+78JM", "height": 3.028785943984985, "hmax": 0.006, "ratio": 0.002, "vulnClass": "none"}}, {"type": "Feature", "geometry": {"type": "MultiPolygon", "coordinates": [[[[72.00840353, 34.37807469], [72.00836322, 34.37798994], [72.00805143, 34.3780919], [72.00811491, 34.37822534], [72.00819189, 34.37820016], [72.00816873, 34.37815148], [72.00826606, 34.37811965], [72.00828922, 34.37816834], [72.00832886, 34.37815537], [72.0083057, 34.37810668], [72.00840353, 34.37807469]]]]}, "properties": {"id": "8J6J92H5+67QR", "height": 4.722955703735352, "hmax": 0.007, "ratio": 0.002, "vulnClass": "none"}}, {"type": "Feature", "geometry": {"type": "MultiPolygon", "coordinates": [[[[72.00850347, 34.37799835], [72.00848113, 34.37795138], [72.00836322, 34.37798994], [72.00838556, 34.37803691], [72.00850347, 34.37799835]]]]}, "properties": {"id": "8J6J92H5+59VQ", "height": 3.838098049163818, "hmax": 0.006, "ratio": 0.002, "vulnClass": "none"}}, {"type": "Feature", "geometry": {"type": "MultiPolygon", "coordinates": [[[[72.00868905, 34.37803123], [72.0086676, 34.37798862], [72.00852064, 34.37803947], [72.00858014, 34.37815768], [72.00861212, 34.37814662], [72.00862368, 34.37816959], [72.00868791, 34.37814737], [72.00863829, 34.37804879], [72.00868905, 34.37803123]]]]}, "properties": {"id": "8J6J92H5+6CQ4", "height": 2.615813970565796, "hmax": 0.006, "ratio": 0.002, "vulnClass": "none"}}, {"type": "Feature", "geometry": {"type": "MultiPolygon", "coordinates": [[[[72.00854302, 34.37807991], [72.00850363, 34.37799763], [72.00847048, 34.37800854], [72.00850987, 34.37809082], [72.00854302, 34.37807991]]]]}, "properties": {"id": "8J6J92H5+6C6J", "height": 2.658085346221924, "hmax": 0.006, "ratio": 0.002, "vulnClass": "none"}}, {"type": "Feature", "geometry": {"type": "MultiPolygon", "coordinates": [[[[72.00892408, 34.37776516], [72.00899226, 34.37763809], [72.00894075, 34.37761909], [72.00887257, 34.37774616], [72.00892408, 34.37776516]]]]}, "properties": {"id": "8J6J92H5+3HFQ", "height": 3.136314153671265, "hmax": 0.007, "ratio": 0.002, "vulnClass": "none"}}, {"type": "Feature", "geometry": {"type": "MultiPolygon", "coordinates": [[[[72.00874056, 34.37791123], [72.00868744, 34.37789768], [72.00866805, 34.37794992], [72.00872117, 34.37796348], [72.00874056, 34.37791123]]]]}, "properties": {"id": "8J6J92H5+5FG8", "height": 2.878422260284424, "hmax": 0.006, "ratio": 0.002, "vulnClass": "none"}}, {"type": "Feature", "geometry": {"type": "MultiPolygon", "coordinates": [[[[72.00888545, 34.37777613], [72.00870031, 34.37771707], [72.00868251, 34.37775543], [72.00886766, 34.37781449], [72.00888545, 34.37777613]]]]}, "properties": {"id": "8J6J92H5+4G3J", "height": 4.210281848907471, "hmax": 0.007, "ratio": 0.002, "vulnClass": "none"}}, {"type": "Feature", "geometry": {"type": "MultiPolygon", "coordinates": [[[[72.00879828, 34.377635], [72.0087561, 34.37762383], [72.00874184, 34.37766085], [72.00878403, 34.37767201], [72.00879828, 34.377635]]]]}, "properties": {"id": "8J6J92H5+3G2W", "height": 3.230639696121216, "hmax": 0.007, "ratio": 0.002, "vulnClass": "none"}}, {"type": "Feature", "geometry": {"type": "MultiPolygon", "coordinates": [[[[72.00912249, 34.37705705], [72.00909271, 34.37700601], [72.0090312, 34.37703069], [72.00906098, 34.37708172], [72.00912249, 34.37705705]]]]}, "properties": {"id": "8J6J92G5+RJ8M", "height": 2.455096006393433, "hmax": 0.007, "ratio": 0.003, "vulnClass": "none"}}, {"type": "Feature", "geometry": {"type": "MultiPolygon", "coordinates": [[[[72.00899429, 34.37746296], [72.00886745, 34.3774289], [72.00881989, 34.37755068], [72.00894673, 34.37758474], [72.00899429, 34.37746296]]]]}, "properties": {"id": "8J6J92H5+2H36", "height": 4.003748893737793, "hmax": 0.007, "ratio": 0.002, "vulnClass": "none"}}, {"type": "Feature", "geometry": {"type": "MultiPolygon", "coordinates": [[[[72.00932372, 34.37739864], [72.009187, 34.37735569], [72.00917087, 34.37739098], [72.00930759, 34.37743392], [72.00932372, 34.37739864]]]]}, "properties": {"id": "8J6J92G5+XM5Q", "height": 2.64452862739563, "hmax": 0.007, "ratio": 0.003, "vulnClass": "none"}}, {"type": "Feature", "geometry": {"type": "MultiPolygon", "coordinates": [[[[72.00968278, 34.37705991], [72.00962361, 34.37708292], [72.0097236, 34.37725967], [72.00992958, 34.37717956], [72.00990901, 34.37714321], [72.00976221, 34.3772003], [72.00968278, 34.37705991]]]]}, "properties": {"id": "8J6J92G5+VW6J", "height": 2.963898181915283, "hmax": 0.01, "ratio": 0.003, "vulnClass": "none"}}, {"type": "Feature", "geometry": {"type": "MultiPolygon", "coordinates": [[[[72.00997128, 34.37697774], [72.00988081, 34.37699663], [72.00994354, 34.37720322], [72.01003402, 34.37718433], [72.00997128, 34.37697774]]]]}, "properties": {"id": "8J6J92G5+RXPP", "height": 2.998870849609375, "hmax": 0.01, "ratio": 0.003, "vulnClass": "none"}}, {"type": "Feature", "geometry": {"type": "MultiPolygon", "coordinates": [[[[72.01160212, 34.37747932], [72.01160304, 34.37735725], [72.0115378, 34.37735691], [72.01153688, 34.37747898], [72.01160212, 34.37747932]]]]}, "properties": {"id": "8J6J92G6+XJ8J", "height": 2.714148044586182, "hmax": 0.016, "ratio": 0.006, "vulnClass": "none"}}, {"type": "Feature", "geometry": {"type": "MultiPolygon", "coordinates": [[[[72.01103919, 34.37696181], [72.0109942, 34.37696437], [72.01100298, 34.37707052], [72.01104798, 34.37706796], [72.01103919, 34.37696181]]]]}, "properties": {"id": "8J6J92G6+RC2P", "height": 2.494559764862061, "hmax": 0.01, "ratio": 0.004, "vulnClass": "none"}}, {"type": "Feature", "geometry": {"type": "MultiPolygon", "coordinates": [[[[72.0107877, 34.3769431], [72.010581, 34.3769393], [72.0105777, 34.3770636], [72.010619, 34.3770644], [72.0106202, 34.3770199], [72.0107025, 34.3770214], [72.0107007, 34.3770885], [72.0107837, 34.3770901], [72.0107877, 34.3769431]]]]}, "properties": {"id": "8J6J92G6+R742", "height": 2.456079959869385, "hmax": 0.01, "ratio": 0.004, "vulnClass": "none"}}, {"type": "Feature", "geometry": {"type": "MultiPolygon", "coordinates": [[[[72.01000211, 34.37688856], [72.00984815, 34.37689765], [72.00985515, 34.37697921], [72.01000911, 34.37697012], [72.01000211, 34.37688856]]]]}, "properties": {"id": "8J6J92G5+QXF8", "height": 3.23504900932312, "hmax": 0.01, "ratio": 0.003, "vulnClass": "none"}}, {"type": "Feature", "geometry": {"type": "MultiPolygon", "coordinates": [[[[72.00976713, 34.37666162], [72.00967683, 34.37665863], [72.00967105, 34.37677838], [72.00976135, 34.37678137], [72.00976713, 34.37666162]]]]}, "properties": {"id": "8J6J92G5+MVQJ", "height": 2.550485610961914, "hmax": 0.011, "ratio": 0.004, "vulnClass": "none"}}, {"type": "Feature", "geometry": {"type": "MultiPolygon", "coordinates": [[[[72.00922533, 34.37685801], [72.00917154, 34.37674785], [72.00902625, 34.37679662], [72.00908003, 34.37690678], [72.00922533, 34.37685801]]]]}, "properties": {"id": "8J6J92G5+PMJ2", "height": 3.222421407699585, "hmax": 0.01, "ratio": 0.003, "vulnClass": "none"}}, {"type": "Feature", "geometry": {"type": "MultiPolygon", "coordinates": [[[[72.00923763, 34.37692644], [72.00920727, 34.37686138], [72.00909491, 34.37689742], [72.00912527, 34.37696248], [72.00923763, 34.37692644]]]]}, "properties": {"id": "8J6J92G5+QM7F", "height": 2.844716310501099, "hmax": 0.007, "ratio": 0.003, "vulnClass": "none"}}, {"type": "Feature", "geometry": {"type": "MultiPolygon", "coordinates": [[[[72.00931044, 34.37694747], [72.0091488, 34.37698496], [72.00921359, 34.377177], [72.00926769, 34.37716445], [72.00923993, 34.37708219], [72.00934748, 34.37705724], [72.00931044, 34.37694747]]]]}, "properties": {"id": "8J6J92G5+RM9Q", "height": 2.812432050704956, "hmax": 0.007, "ratio": 0.003, "vulnClass": "none"}}, {"type": "Feature", "geometry": {"type": "MultiPolygon", "coordinates": [[[[72.00837704, 34.37667707], [72.00834279, 34.3766027], [72.0082282, 34.37663899], [72.00827969, 34.37675075], [72.00831405, 34.37673987], [72.00829682, 34.37670248], [72.00837704, 34.37667707]]]]}, "properties": {"id": "8J6J92G5+M87P", "height": 2.85056734085083, "hmax": 0.01, "ratio": 0.003, "vulnClass": "none"}}, {"type": "Feature", "geometry": {"type": "MultiPolygon", "coordinates": [[[[72.00829549, 34.376489], [72.00825945, 34.37641533], [72.00814807, 34.37645279], [72.00818411, 34.37652646], [72.00829549, 34.376489]]]]}, "properties": {"id": "8J6J92G5+H7QR", "height": 2.783529281616211, "hmax": 0.012, "ratio": 0.004, "vulnClass": "none"}}, {"type": "Feature", "geometry": {"type": "MultiPolygon", "coordinates": [[[[72.0090252, 34.37620018], [72.00897245, 34.37612818], [72.00875833, 34.37623605], [72.00881108, 34.37630804], [72.0090252, 34.37620018]]]]}, "properties": {"id": "8J6J92G5+FHJP", "height": 4.345077514648438, "hmax": 0.01, "ratio": 0.002, "vulnClass": "none"}}, {"type": "Feature", "geometry": {"type": "MultiPolygon", "coordinates": [[[[72.00860409, 34.37541676], [72.00858971, 34.37538318], [72.00854917, 34.37539511], [72.00856355, 34.3754287], [72.00860409, 34.37541676]]]]}, "properties": {"id": "8J6J92G5+5C87", "height": 2.566611051559448, "hmax": 0.003, "ratio": 0.001, "vulnClass": "none"}}, {"type": "Feature", "geometry": {"type": "MultiPolygon", "coordinates": [[[[72.00882508, 34.37535768], [72.00879371, 34.3753152], [72.00869539, 34.37536511], [72.00872677, 34.37540759], [72.00882508, 34.37535768]]]]}, "properties": {"id": "8J6J92G5+4GRF", "height": 2.595695734024048, "hmax": 0.003, "ratio": 0.001, "vulnClass": "none"}}, {"type": "Feature", "geometry": {"type": "MultiPolygon", "coordinates": [[[[72.00880067, 34.37526326], [72.00875749, 34.37527833], [72.00877657, 34.37531592], [72.00881975, 34.37530085], [72.00880067, 34.37526326]]]]}, "properties": {"id": "8J6J92G5+4G7C", "height": 3.322576761245728, "hmax": 0.003, "ratio": 0.001, "vulnClass": "none"}}, {"type": "Feature", "geometry": {"type": "MultiPolygon", "coordinates": [[[[72.00873291, 34.37534607], [72.00868065, 34.37527531], [72.00860395, 34.37531425], [72.0086562, 34.37538501], [72.00873291, 34.37534607]]]]}, "properties": {"id": "8J6J92G5+4FM7", "height": 2.630479335784912, "hmax": 0.003, "ratio": 0.001, "vulnClass": "none"}}, {"type": "Feature", "geometry": {"type": "MultiPolygon", "coordinates": [[[[72.00863371, 34.37535456], [72.0086099, 34.37532231], [72.00851151, 34.37537226], [72.00853533, 34.37540451], [72.00863371, 34.37535456]]]]}, "properties": {"id": "8J6J92G5+4CWF", "height": 2.989018440246582, "hmax": 0.003, "ratio": 0.001, "vulnClass": "none"}}, {"type": "Feature", "geometry": {"type": "MultiPolygon", "coordinates": [[[[72.0085606, 34.37544842], [72.00851192, 34.37537777], [72.0083452, 34.37545675], [72.00842601, 34.37557402], [72.00851388, 34.37553239], [72.00848175, 34.37548577], [72.0085606, 34.37544842]]]]}, "properties": {"id": "8J6J92G5+59PW", "height": 4.302121162414551, "hmax": 0.003, "ratio": 0.001, "vulnClass": "none"}}, {"type": "Feature", "geometry": {"type": "MultiPolygon", "coordinates": [[[[72.00829471, 34.37517325], [72.00822908, 34.37505215], [72.00814918, 34.37508192], [72.00821481, 34.37520302], [72.00829471, 34.37517325]]]]}, "properties": {"id": "8J6J92G5+3752", "height": 3.607637166976929, "hmax": 0.011, "ratio": 0.003, "vulnClass": "none"}}, {"type": "Feature", "geometry": {"type": "MultiPolygon", "coordinates": [[[[72.01252352, 34.37563126], [72.01248121, 34.37562242], [72.01247205, 34.37565255], [72.01251436, 34.37566139], [72.01252352, 34.37563126]]]]}, "properties": {"id": "8J6J92G6+7X5Q", "height": 2.648401737213135, "hmax": 0.007, "ratio": 0.003, "vulnClass": "none"}}, {"type": "Feature", "geometry": {"type": "MultiPolygon", "coordinates": [[[[72.01264439, 34.37566834], [72.01254097, 34.37563439], [72.01252101, 34.3756762], [72.01262443, 34.37571014], [72.01264439, 34.37566834]]]]}, "properties": {"id": "8J6J92G7+728W", "height": 2.648401737213135, "hmax": 0.007, "ratio": 0.003, "vulnClass": "none"}}, {"type": "Feature", "geometry": {"type": "MultiPolygon", "coordinates": [[[[72.01261984, 34.37571977], [72.01251641, 34.37568582], [72.01244567, 34.37583399], [72.0125491, 34.37586794], [72.01261984, 34.37571977]]]]}, "properties": {"id": "8J6J92G7+8272", "height": 2.442723512649536, "hmax": 0.007, "ratio": 0.003, "vulnClass": "none"}}, {"type": "Feature", "geometry": {"type": "MultiPolygon", "coordinates": [[[[72.01206483, 34.37593924], [72.01209536, 34.37585831], [72.01204249, 34.37584459], [72.01201195, 34.37592552], [72.01206483, 34.37593924]]]]}, "properties": {"id": "8J6J92G6+9R3P", "height": 2.632278442382812, "hmax": 0.007, "ratio": 0.003, "vulnClass": "none"}}, {"type": "Feature", "geometry": {"type": "MultiPolygon", "coordinates": [[[[72.01333181, 34.37687346], [72.01323422, 34.37680973], [72.01312301, 34.37692679], [72.0132206, 34.37699052], [72.01333181, 34.37687346]]]]}, "properties": {"id": "8J6J92G7+Q793", "height": 4.963306427001953, "hmax": 0.008, "ratio": 0.002, "vulnClass": "none"}}, {"type": "Feature", "geometry": {"type": "MultiPolygon", "coordinates": [[[[72.01401089, 34.37669983], [72.0139167, 34.37668485], [72.01385199, 34.37696463], [72.01398244, 34.37698537], [72.01401989, 34.37682348], [72.01406943, 34.37683135], [72.01408896, 34.3767469], [72.01400316, 34.37673326], [72.01401089, 34.37669983]]]]}, "properties": {"id": "8J6J92G7+PHP8", "height": 2.721603870391846, "hmax": 0.004, "ratio": 0.002, "vulnClass": "none"}}, {"type": "Feature", "geometry": {"type": "MultiPolygon", "coordinates": [[[[72.01432732, 34.37559205], [72.01425605, 34.37549893], [72.01403468, 34.37561541], [72.01410596, 34.37570853], [72.01432732, 34.37559205]]]]}, "properties": {"id": "8J6J92G7+6MV5", "height": 2.597299814224243, "hmax": 0.01, "ratio": 0.004, "vulnClass": "none"}}, {"type": "Feature", "geometry": {"type": "MultiPolygon", "coordinates": [[[[72.01766044, 34.3768938], [72.01756242, 34.37689171], [72.0175613, 34.37692792], [72.01765931, 34.37693001], [72.01766044, 34.3768938]]]]}, "properties": {"id": "8J6J92G9+Q29G", "height": 2.921246767044067, "hmax": 0.008, "ratio": 0.003, "vulnClass": "none"}}, {"type": "Feature", "geometry": {"type": "MultiPolygon", "coordinates": [[[[72.01742237, 34.37713649], [72.01741522, 34.37705449], [72.01719239, 34.37706785], [72.01719954, 34.37714986], [72.01742237, 34.37713649]]]]}, "properties": {"id": "8J6J92G8+RWV5", "height": 3.32367992401123, "hmax": 0.004, "ratio": 0.001, "vulnClass": "none"}}, {"type": "Feature", "geometry": {"type": "MultiPolygon", "coordinates": [[[[72.01764847, 34.37704735], [72.01741238, 34.37704101], [72.01741066, 34.37708501], [72.01764675, 34.37709134], [72.01764847, 34.37704735]]]]}, "properties": {"id": "8J6J92G9+R2CQ", "height": 3.001834630966187, "hmax": 0.007, "ratio": 0.002, "vulnClass": "none"}}, {"type": "Feature", "geometry": {"type": "MultiPolygon", "coordinates": [[[[72.01733699, 34.3775287], [72.01727503, 34.37752496], [72.01727168, 34.37756304], [72.01733365, 34.37756678], [72.01733699, 34.3775287]]]]}, "properties": {"id": "8J6J92H8+2W7W", "height": 3.008283138275146, "hmax": 0.002, "ratio": 0.001, "vulnClass": "none"}}, {"type": "Feature", "geometry": {"type": "MultiPolygon", "coordinates": [[[[72.01586901, 34.37780349], [72.01583898, 34.37780294], [72.01583822, 34.37783114], [72.01586825, 34.3778317], [72.01586901, 34.37780349]]]]}, "properties": {"id": "8J6J92H8+48HM", "height": 3.925206184387207, "hmax": 0.007, "ratio": 0.002, "vulnClass": "none"}}, {"type": "Feature", "geometry": {"type": "MultiPolygon", "coordinates": [[[[72.01751604, 34.38129764], [72.01740214, 34.38129213], [72.01739753, 34.38135762], [72.01751143, 34.38136312], [72.01751604, 34.38129764]]]]}, "properties": {"id": "8J6J92J8+GXP4", "height": 3.577247619628906, "hmax": 0.002, "ratio": 0.001, "vulnClass": "none"}}, {"type": "Feature", "geometry": {"type": "MultiPolygon", "coordinates": [[[[72.01755941, 34.38111886], [72.01746575, 34.38110465], [72.01744751, 34.38118732], [72.01754117, 34.38120153], [72.01755941, 34.38111886]]]]}, "properties": {"id": "8J6J92J9+F262", "height": 3.992740631103516, "hmax": 0.002, "ratio": 0.001, "vulnClass": "none"}}, {"type": "Feature", "geometry": {"type": "MultiPolygon", "coordinates": [[[[72.01759011, 34.38093559], [72.01755012, 34.38093182], [72.01754072, 34.38100027], [72.01758072, 34.38100404], [72.01759011, 34.38093559]]]]}, "properties": {"id": "8J6J92J9+92PJ", "height": 3.945772171020508, "hmax": 0.002, "ratio": 0.001, "vulnClass": "none"}}, {"type": "Feature", "geometry": {"type": "MultiPolygon", "coordinates": [[[[72.01750792, 34.38097013], [72.01745479, 34.38096629], [72.01744512, 34.38105815], [72.0175324, 34.38106446], [72.01753737, 34.38101726], [72.01750322, 34.38101479], [72.01750792, 34.38097013]]]]}, "properties": {"id": "8J6J92J8+CX5W", "height": 3.060498952865601, "hmax": 0.002, "ratio": 0.001, "vulnClass": "none"}}]}