{"type": "FeatureCollection", "features": [{"type": "Feature", "geometry": {"type": "MultiPolygon", "coordinates": [[[[72.12030436, 34.41316919], [72.12012351, 34.41313508], [72.12009411, 34.41324215], [72.12027496, 34.41327626], [72.12030436, 34.41316919]]]]}, "properties": {"id": "8J6JC47C+73P7", "height": 4.040115833282471, "hmax": 0.01, "ratio": 0.003, "vulnClass": "none"}}, {"type": "Feature", "geometry": {"type": "MultiPolygon", "coordinates": [[[[72.11077566, 34.41275285], [72.1106471, 34.41266581], [72.11061407, 34.41269932], [72.11074262, 34.41278636], [72.11077566, 34.41275285]]]]}, "properties": {"id": "8J6JC476+37W2", "height": 2.64769458770752, "hmax": 0.014, "ratio": 0.005, "vulnClass": "none"}}, {"type": "Feature", "geometry": {"type": "MultiPolygon", "coordinates": [[[[72.11096738, 34.41288162], [72.11088107, 34.41282443], [72.11074878, 34.41296156], [72.11095074, 34.41309537], [72.11093011, 34.41311677], [72.11108679, 34.41322058], [72.11123971, 34.41306205], [72.11111665, 34.41298052], [72.11108713, 34.41301112], [72.11105351, 34.41298884], [72.1110189, 34.41302472], [72.11090325, 34.4129481], [72.11096738, 34.41288162]]]]}, "properties": {"id": "8J6JC476+6999", "height": 4.101174354553223, "hmax": 0.014, "ratio": 0.003, "vulnClass": "none"}}, {"type": "Feature", "geometry": {"type": "MultiPolygon", "coordinates": [[[[72.1105549, 34.41291246], [72.11048314, 34.41286481], [72.11045099, 34.41289807], [72.11052275, 34.41294571], [72.1105549, 34.41291246]]]]}, "properties": {"id": "8J6JC476+5666", "height": 2.514334201812744, "hmax": 0.014, "ratio": 0.006, "vulnClass": "none"}}, {"type": "Feature", "geometry": {"type": "MultiPolygon", "coordinates": [[[[72.11192434, 34.41262494], [72.11175449, 34.41252437], [72.11169484, 34.41259355], [72.11177488, 34.41264095], [72.11167478, 34.41275706], [72.11176459, 34.41281024], [72.11192434, 34.41262494]]]]}, "properties": {"id": "8J6JC476+3P7F", "height": 3.356361627578735, "hmax": 0.034, "ratio": 0.01, "vulnClass": "none"}}, {"type": "Feature", "geometry": {"type": "MultiPolygon", "coordinates": [[[[72.11167747, 34.41291114], [72.11148958, 34.41279988], [72.11139318, 34.4129117], [72.11144072, 34.41293985], [72.11147364, 34.41290167], [72.11152427, 34.41293165], [72.11137651, 34.41310305], [72.11146622, 34.41315618], [72.11167747, 34.41291114]]]]}, "properties": {"id": "8J6JC476+5JJP", "height": 2.611166477203369, "hmax": 0.006, "ratio": 0.002, "vulnClass": "none"}}, {"type": "Feature", "geometry": {"type": "MultiPolygon", "coordinates": [[[[72.11270785, 34.41422439], [72.11246501, 34.41403635], [72.11239875, 34.41409512], [72.11264159, 34.41428316], [72.11270785, 34.41422439]]]]}, "properties": {"id": "8J6JC477+M278", "height": 2.574772834777832, "hmax": 0.006, "ratio": 0.002, "vulnClass": "none"}}, {"type": "Feature", "geometry": {"type": "MultiPolygon", "coordinates": [[[[72.11234415, 34.41391516], [72.11221665, 34.41382613], [72.11212961, 34.41391175], [72.11234356, 34.41406115], [72.11237816, 34.41402712], [72.11229171, 34.41396675], [72.11234415, 34.41391516]]]]}, "properties": {"id": "8J6JC476+HWC6", "height": 2.984230518341064, "hmax": 0.004, "ratio": 0.001, "vulnClass": "none"}}, {"type": "Feature", "geometry": {"type": "MultiPolygon", "coordinates": [[[[72.11138209, 34.41367798], [72.11143697, 34.41363415], [72.11139973, 34.41360213], [72.11134486, 34.41364595], [72.11138209, 34.41367798]]]]}, "properties": {"id": "8J6JC476+FH2P", "height": 3.559479951858521, "hmax": 0.004, "ratio": 0.001, "vulnClass": "none"}}, {"type": "Feature", "geometry": {"type": "MultiPolygon", "coordinates": [[[[72.1109312, 34.4140397], [72.1110213, 34.4139644], [72.1109919, 34.4139402], [72.1109017, 34.4140155], [72.1109312, 34.4140397]]]]}, "properties": {"id": "8J6JC476+H9WH", "height": 2.698745489120483, "hmax": 0.004, "ratio": 0.002, "vulnClass": "none"}}, {"type": "Feature", "geometry": {"type": "MultiPolygon", "coordinates": [[[[72.11076865, 34.41390785], [72.11069454, 34.41385059], [72.11043429, 34.41408196], [72.11062245, 34.41422733], [72.11069163, 34.41416583], [72.11057757, 34.41407772], [72.11076865, 34.41390785]]]]}, "properties": {"id": "8J6JC476+J69J", "height": 3.410893678665161, "hmax": 0.004, "ratio": 0.001, "vulnClass": "none"}}, {"type": "Feature", "geometry": {"type": "MultiPolygon", "coordinates": [[[[72.11076865, 34.41390785], [72.11089227, 34.41379794], [72.11082044, 34.41374246], [72.11069683, 34.41385236], [72.11076865, 34.41390785]]]]}, "properties": {"id": "8J6JC476+G8M3", "height": 2.751931428909302, "hmax": 0.004, "ratio": 0.002, "vulnClass": "none"}}, {"type": "Feature", "geometry": {"type": "MultiPolygon", "coordinates": [[[[72.11097665, 34.41385679], [72.11107673, 34.41377477], [72.11101352, 34.41372179], [72.11091343, 34.41380381], [72.11097665, 34.41385679]]]]}, "properties": {"id": "8J6JC476+G99H", "height": 3.288853168487549, "hmax": 0.004, "ratio": 0.001, "vulnClass": "none"}}, {"type": "Feature", "geometry": {"type": "MultiPolygon", "coordinates": [[[[72.11139973, 34.41360213], [72.11131476, 34.41352905], [72.11125989, 34.41357287], [72.11134486, 34.41364595], [72.11139973, 34.41360213]]]]}, "properties": {"id": "8J6JC476+CGPG", "height": 3.470725536346436, "hmax": 0.009, "ratio": 0.003, "vulnClass": "none"}}, {"type": "Feature", "geometry": {"type": "MultiPolygon", "coordinates": [[[[72.1113874, 34.41368175], [72.11126457, 34.41356985], [72.11120206, 34.41361698], [72.11132488, 34.41372888], [72.1113874, 34.41368175]]]]}, "properties": {"id": "8J6JC476+FG3V", "height": 3.559479951858521, "hmax": 0.004, "ratio": 0.001, "vulnClass": "none"}}, {"type": "Feature", "geometry": {"type": "MultiPolygon", "coordinates": [[[[72.11142395, 34.41338487], [72.11153326, 34.41326725], [72.11141781, 34.41319356], [72.1113085, 34.41331119], [72.1113375, 34.4133297], [72.11131354, 34.41335548], [72.11135904, 34.41338452], [72.11138299, 34.41335873], [72.11142395, 34.41338487]]]]}, "properties": {"id": "8J6JC476+8H7M", "height": 2.708820343017578, "hmax": 0.008, "ratio": 0.003, "vulnClass": "none"}}, {"type": "Feature", "geometry": {"type": "MultiPolygon", "coordinates": [[[[72.11046252, 34.41435272], [72.11038385, 34.41428889], [72.11034276, 34.41432368], [72.11042143, 34.4143875], [72.11046252, 34.41435272]]]]}, "properties": {"id": "8J6JC476+P5JH", "height": 4.261656284332275, "hmax": 0.004, "ratio": 0.001, "vulnClass": "none"}}, {"type": "Feature", "geometry": {"type": "MultiPolygon", "coordinates": [[[[72.11007453, 34.41473401], [72.11029806, 34.41454468], [72.11010112, 34.41438499], [72.10987759, 34.41457432], [72.11007453, 34.41473401]]]]}, "properties": {"id": "8J6JC476+R2G9", "height": 2.965010643005371, "hmax": 0.006, "ratio": 0.002, "vulnClass": "none"}}, {"type": "Feature", "geometry": {"type": "MultiPolygon", "coordinates": [[[[72.11103565, 34.41474159], [72.11090678, 34.41464533], [72.11082856, 34.41471725], [72.11095743, 34.41481351], [72.11103565, 34.41474159]]]]}, "properties": {"id": "8J6JC476+V9V5", "height": 2.928732872009277, "hmax": 0.01, "ratio": 0.003, "vulnClass": "none"}}, {"type": "Feature", "geometry": {"type": "MultiPolygon", "coordinates": [[[[72.11081773, 34.41507375], [72.11074316, 34.4150197], [72.11062268, 34.41513384], [72.1108927, 34.41532958], [72.11096504, 34.41526103], [72.11076959, 34.41511936], [72.11081773, 34.41507375]]]]}, "properties": {"id": "8J6JC486+38F2", "height": 2.792478322982788, "hmax": 0.01, "ratio": 0.004, "vulnClass": "none"}}, {"type": "Feature", "geometry": {"type": "MultiPolygon", "coordinates": [[[[72.11102719, 34.41486867], [72.11095592, 34.41481544], [72.11083386, 34.41492767], [72.11097006, 34.41502941], [72.1110289, 34.41497531], [72.11096396, 34.41492681], [72.11102719, 34.41486867]]]]}, "properties": {"id": "8J6JC476+X98R", "height": 3.340315818786621, "hmax": 0.01, "ratio": 0.003, "vulnClass": "none"}}, {"type": "Feature", "geometry": {"type": "MultiPolygon", "coordinates": [[[[72.11128508, 34.41501435], [72.11133773, 34.41495233], [72.11130198, 34.41493149], [72.11124933, 34.41499351], [72.11128508, 34.41501435]]]]}, "properties": {"id": "8J6JC476+XGMV", "height": 2.87436580657959, "hmax": 0.009, "ratio": 0.003, "vulnClass": "none"}}, {"type": "Feature", "geometry": {"type": "MultiPolygon", "coordinates": [[[[72.11129622, 34.41472449], [72.11123343, 34.41468469], [72.11120618, 34.41471423], [72.11126896, 34.41475403], [72.11129622, 34.41472449]]]]}, "properties": {"id": "8J6JC476+VGJJ", "height": 2.533636331558228, "hmax": 0.01, "ratio": 0.004, "vulnClass": "none"}}, {"type": "Feature", "geometry": {"type": "MultiPolygon", "coordinates": [[[[72.11095852, 34.41468398], [72.11101267, 34.41463418], [72.11096093, 34.41459553], [72.11090678, 34.41464533], [72.11095852, 34.41468398]]]]}, "properties": {"id": "8J6JC476+V94G", "height": 2.459089279174805, "hmax": 0.01, "ratio": 0.004, "vulnClass": "none"}}, {"type": "Feature", "geometry": {"type": "MultiPolygon", "coordinates": [[[[72.11148074, 34.41471059], [72.11132879, 34.41459464], [72.11129586, 34.41462428], [72.11144781, 34.41474023], [72.11148074, 34.41471059]]]]}, "properties": {"id": "8J6JC476+VH6M", "height": 3.617932319641113, "hmax": 0.007, "ratio": 0.002, "vulnClass": "none"}}, {"type": "Feature", "geometry": {"type": "MultiPolygon", "coordinates": [[[[72.11148649, 34.41461524], [72.11131892, 34.41449007], [72.11096281, 34.41481752], [72.11108191, 34.41490649], [72.11111783, 34.41487346], [72.11106495, 34.41483395], [72.11132567, 34.41459421], [72.11142703, 34.41466992], [72.11148649, 34.41461524]]]]}, "properties": {"id": "8J6JC476+VFG5", "height": 4.12861156463623, "hmax": 0.009, "ratio": 0.002, "vulnClass": "none"}}, {"type": "Feature", "geometry": {"type": "MultiPolygon", "coordinates": [[[[72.11126059, 34.41424962], [72.11119974, 34.41418754], [72.11116724, 34.41420941], [72.1112281, 34.4142715], [72.11126059, 34.41424962]]]]}, "properties": {"id": "8J6JC476+MFW5", "height": 3.188169479370117, "hmax": 0.004, "ratio": 0.001, "vulnClass": "none"}}, {"type": "Feature", "geometry": {"type": "MultiPolygon", "coordinates": [[[[72.11189569, 34.41426094], [72.11181434, 34.41417345], [72.1116907, 34.4142524], [72.11179078, 34.41436005], [72.11189561, 34.41429311], [72.11187688, 34.41427296], [72.11189569, 34.41426094]]]]}, "properties": {"id": "8J6JC476+PP3P", "height": 2.609211683273315, "hmax": 0.004, "ratio": 0.002, "vulnClass": "none"}}, {"type": "Feature", "geometry": {"type": "MultiPolygon", "coordinates": [[[[72.11201265, 34.41436193], [72.11191553, 34.41427297], [72.11180587, 34.4143552], [72.1118608, 34.41440552], [72.11183548, 34.4144245], [72.11187768, 34.41446314], [72.11201265, 34.41436193]]]]}, "properties": {"id": "8J6JC476+PQRQ", "height": 2.677015781402588, "hmax": 0.004, "ratio": 0.002, "vulnClass": "none"}}, {"type": "Feature", "geometry": {"type": "MultiPolygon", "coordinates": [[[[72.11160072, 34.41438374], [72.1115746, 34.41435844], [72.11149718, 34.41441333], [72.11154493, 34.41445959], [72.11159189, 34.41442629], [72.11157038, 34.41440525], [72.11160072, 34.41438374]]]]}, "properties": {"id": "8J6JC476+QJ78", "height": 2.457411766052246, "hmax": 0.004, "ratio": 0.002, "vulnClass": "none"}}, {"type": "Feature", "geometry": {"type": "MultiPolygon", "coordinates": [[[[72.11167251, 34.41446113], [72.11161924, 34.414411], [72.11154594, 34.4144645], [72.11159898, 34.41451441], [72.11167251, 34.41446113]]]]}, "properties": {"id": "8J6JC476+QJQF", "height": 2.523149013519287, "hmax": 0.005, "ratio": 0.002, "vulnClass": "none"}}, {"type": "Feature", "geometry": {"type": "MultiPolygon", "coordinates": [[[[72.11153132, 34.41457605], [72.11159773, 34.41451627], [72.11156086, 34.41448813], [72.11149444, 34.41454791], [72.11153132, 34.41457605]]]]}, "properties": {"id": "8J6JC476+RJ77", "height": 2.516424179077148, "hmax": 0.007, "ratio": 0.003, "vulnClass": "none"}}, {"type": "Feature", "geometry": {"type": "MultiPolygon", "coordinates": [[[[72.11212851, 34.41438278], [72.11208402, 34.41435453], [72.11204488, 34.41439686], [72.11208937, 34.41442511], [72.11212851, 34.41438278]]]]}, "properties": {"id": "8J6JC476+QR4H", "height": 3.165795564651489, "hmax": 0.004, "ratio": 0.001, "vulnClass": "none"}}, {"type": "Feature", "geometry": {"type": "MultiPolygon", "coordinates": [[[[72.1122778, 34.4145722], [72.11204567, 34.41438675], [72.11197819, 34.41444476], [72.11221032, 34.41463021], [72.1122778, 34.4145722]]]]}, "properties": {"id": "8J6JC476+RV26", "height": 4.049206733703613, "hmax": 0.006, "ratio": 0.002, "vulnClass": "none"}}, {"type": "Feature", "geometry": {"type": "MultiPolygon", "coordinates": [[[[72.1122778, 34.4145722], [72.11235062, 34.41450959], [72.11231455, 34.41448077], [72.11224172, 34.41454338], [72.1122778, 34.4145722]]]]}, "properties": {"id": "8J6JC476+RW73", "height": 3.0994553565979, "hmax": 0.006, "ratio": 0.002, "vulnClass": "none"}}, {"type": "Feature", "geometry": {"type": "MultiPolygon", "coordinates": [[[[72.11224292, 34.41428807], [72.11219863, 34.41425331], [72.11208943, 34.41434887], [72.11213371, 34.41438363], [72.11224292, 34.41428807]]]]}, "properties": {"id": "8J6JC476+PVFM", "height": 3.381496429443359, "hmax": 0.004, "ratio": 0.001, "vulnClass": "none"}}, {"type": "Feature", "geometry": {"type": "MultiPolygon", "coordinates": [[[[72.11233199, 34.41421013], [72.11228771, 34.41417537], [72.11219863, 34.41425331], [72.11224292, 34.41428807], [72.11233199, 34.41421013]]]]}, "properties": {"id": "8J6JC476+MWR7", "height": 2.802596092224121, "hmax": 0.004, "ratio": 0.001, "vulnClass": "none"}}, {"type": "Feature", "geometry": {"type": "MultiPolygon", "coordinates": [[[[72.11264196, 34.41428239], [72.11251865, 34.41418747], [72.11248421, 34.4142182], [72.1125263, 34.4142506], [72.11246481, 34.41430546], [72.11254603, 34.41436799], [72.11264196, 34.41428239]]]]}, "properties": {"id": "8J6JC477+P278", "height": 2.574772834777832, "hmax": 0.006, "ratio": 0.002, "vulnClass": "none"}}, {"type": "Feature", "geometry": {"type": "MultiPolygon", "coordinates": [[[[72.1120939, 34.4147303], [72.11221032, 34.41463021], [72.11213645, 34.4145712], [72.11202004, 34.41467128], [72.1120939, 34.4147303]]]]}, "properties": {"id": "8J6JC476+VR94", "height": 3.159124374389648, "hmax": 0.007, "ratio": 0.002, "vulnClass": "none"}}, {"type": "Feature", "geometry": {"type": "MultiPolygon", "coordinates": [[[[72.11152319, 34.41466842], [72.11147901, 34.41463555], [72.11145626, 34.41465654], [72.11150044, 34.41468942], [72.11152319, 34.41466842]]]]}, "properties": {"id": "8J6JC476+VH9G", "height": 3.258162021636963, "hmax": 0.007, "ratio": 0.002, "vulnClass": "none"}}, {"type": "Feature", "geometry": {"type": "MultiPolygon", "coordinates": [[[[72.11152731, 34.41457959], [72.11149653, 34.41455185], [72.11145034, 34.41458705], [72.11148112, 34.41461479], [72.11152731, 34.41457959]]]]}, "properties": {"id": "8J6JC476+RHQ8", "height": 3.112375259399414, "hmax": 0.007, "ratio": 0.002, "vulnClass": "none"}}, {"type": "Feature", "geometry": {"type": "MultiPolygon", "coordinates": [[[[72.11150134, 34.41469204], [72.11144782, 34.41465121], [72.11142722, 34.41466975], [72.11148074, 34.41471059], [72.11150134, 34.41469204]]]]}, "properties": {"id": "8J6JC476+VHG9", "height": 3.295868396759033, "hmax": 0.007, "ratio": 0.002, "vulnClass": "none"}}, {"type": "Feature", "geometry": {"type": "MultiPolygon", "coordinates": [[[[72.11152464, 34.4147336], [72.11154029, 34.414698], [72.11150644, 34.41468778], [72.11149079, 34.41472338], [72.11152464, 34.4147336]]]]}, "properties": {"id": "8J6JC476+VJJF", "height": 2.504541873931885, "hmax": 0.007, "ratio": 0.003, "vulnClass": "none"}}, {"type": "Feature", "geometry": {"type": "MultiPolygon", "coordinates": [[[[72.11242783, 34.41582854], [72.11237035, 34.41576409], [72.11224042, 34.41584369], [72.1122979, 34.41590814], [72.11242783, 34.41582854]]]]}, "properties": {"id": "8J6JC486+8WPG", "height": 2.60051417350769, "hmax": 0.004, "ratio": 0.002, "vulnClass": "none"}}, {"type": "Feature", "geometry": {"type": "MultiPolygon", "coordinates": [[[[72.1112498, 34.4155158], [72.1111228, 34.415439], [72.1110381, 34.4155351], [72.1111838, 34.4156232], [72.1112685, 34.4155271], [72.1112498, 34.4155158]]]]}, "properties": {"id": "8J6JC486+6F69", "height": 3.325697422027588, "hmax": 0.006, "ratio": 0.002, "vulnClass": "none"}}, {"type": "Feature", "geometry": {"type": "MultiPolygon", "coordinates": [[[[72.11121167, 34.41542367], [72.11111805, 34.41536509], [72.11108263, 34.41540397], [72.11117625, 34.41546255], [72.11121167, 34.41542367]]]]}, "properties": {"id": "8J6JC486+5F6G", "height": 3.43953800201416, "hmax": 0.006, "ratio": 0.002, "vulnClass": "none"}}, {"type": "Feature", "geometry": {"type": "MultiPolygon", "coordinates": [[[[72.11107046, 34.41548785], [72.11090486, 34.41538422], [72.11087107, 34.41542131], [72.11103666, 34.41552494], [72.11107046, 34.41548785]]]]}, "properties": {"id": "8J6JC486+59Q2", "height": 3.171227216720581, "hmax": 0.006, "ratio": 0.002, "vulnClass": "none"}}, {"type": "Feature", "geometry": {"type": "MultiPolygon", "coordinates": [[[[72.11111805, 34.41536509], [72.11104683, 34.41532052], [72.11101141, 34.4153594], [72.11108263, 34.41540397], [72.11111805, 34.41536509]]]]}, "properties": {"id": "8J6JC486+4CWC", "height": 3.723813056945801, "hmax": 0.009, "ratio": 0.002, "vulnClass": "none"}}, {"type": "Feature", "geometry": {"type": "MultiPolygon", "coordinates": [[[[72.11109111, 34.41511739], [72.11105662, 34.4151098], [72.11104706, 34.41513964], [72.11108154, 34.41514723], [72.11109111, 34.41511739]]]]}, "properties": {"id": "8J6JC486+3C42", "height": 3.363492250442505, "hmax": 0.01, "ratio": 0.003, "vulnClass": "none"}}, {"type": "Feature", "geometry": {"type": "MultiPolygon", "coordinates": [[[[72.11107629, 34.41528905], [72.11103685, 34.41525876], [72.11096573, 34.41532236], [72.11100517, 34.41535265], [72.11107629, 34.41528905]]]]}, "properties": {"id": "8J6JC486+4CC8", "height": 2.464039325714111, "hmax": 0.01, "ratio": 0.004, "vulnClass": "none"}}, {"type": "Feature", "geometry": {"type": "MultiPolygon", "coordinates": [[[[72.11078282, 34.41524992], [72.11062752, 34.41513735], [72.11047989, 34.41527722], [72.11056405, 34.41533822], [72.11065176, 34.41525511], [72.11072291, 34.41530669], [72.11078282, 34.41524992]]]]}, "properties": {"id": "8J6JC486+37RJ", "height": 2.470992803573608, "hmax": 0.01, "ratio": 0.004, "vulnClass": "none"}}, {"type": "Feature", "geometry": {"type": "MultiPolygon", "coordinates": [[[[72.11062511, 34.41561274], [72.11070771, 34.41553195], [72.11066818, 34.41550419], [72.11058558, 34.41558498], [72.11062511, 34.41561274]]]]}, "properties": {"id": "8J6JC486+67C8", "height": 2.592395782470703, "hmax": 0.006, "ratio": 0.002, "vulnClass": "none"}}, {"type": "Feature", "geometry": {"type": "MultiPolygon", "coordinates": [[[[72.1156943, 34.41759413], [72.1154115, 34.41739934], [72.11534671, 34.41746394], [72.11562951, 34.41765873], [72.1156943, 34.41759413]]]]}, "properties": {"id": "8J6JC498+2664", "height": 3.758716344833374, "hmax": 0.007, "ratio": 0.002, "vulnClass": "none"}}, {"type": "Feature", "geometry": {"type": "MultiPolygon", "coordinates": [[[[72.11534671, 34.41746394], [72.11540461, 34.41740621], [72.11537126, 34.41738323], [72.11531335, 34.41744097], [72.11534671, 34.41746394]]]]}, "properties": {"id": "8J6JC488+X49V", "height": 2.793468236923218, "hmax": 0.005, "ratio": 0.002, "vulnClass": "none"}}, {"type": "Feature", "geometry": {"type": "MultiPolygon", "coordinates": [[[[72.11544423, 34.41753111], [72.11534671, 34.41746394], [72.11527331, 34.41753714], [72.11537082, 34.4176043], [72.11544423, 34.41753111]]]]}, "properties": {"id": "8J6JC498+2497", "height": 3.933306932449341, "hmax": 0.005, "ratio": 0.001, "vulnClass": "none"}}, {"type": "Feature", "geometry": {"type": "MultiPolygon", "coordinates": [[[[72.11727511, 34.41516135], [72.11714308, 34.41511319], [72.11710605, 34.41518292], [72.11723808, 34.41523108], [72.11727511, 34.41516135]]]]}, "properties": {"id": "8J6JC488+3V8R", "height": 3.49722146987915, "hmax": 0.016, "ratio": 0.005, "vulnClass": "none"}}, {"type": "Feature", "geometry": {"type": "MultiPolygon", "coordinates": [[[[72.11714308, 34.41511319], [72.11707363, 34.41508786], [72.1170366, 34.41515759], [72.11710605, 34.41518292], [72.11714308, 34.41511319]]]]}, "properties": {"id": "8J6JC488+3R4H", "height": 3.195940256118774, "hmax": 0.016, "ratio": 0.005, "vulnClass": "none"}}, {"type": "Feature", "geometry": {"type": "MultiPolygon", "coordinates": [[[[72.11714308, 34.41511319], [72.1171846, 34.41503502], [72.1171432, 34.41501992], [72.11710169, 34.41509809], [72.11714308, 34.41511319]]]]}, "properties": {"id": "8J6JC488+2VCP", "height": 3.195940256118774, "hmax": 0.016, "ratio": 0.005, "vulnClass": "none"}}, {"type": "Feature", "geometry": {"type": "MultiPolygon", "coordinates": [[[[72.11741849, 34.41521076], [72.11728547, 34.4151588], [72.1172432, 34.41523314], [72.11737622, 34.41528509], [72.11741849, 34.41521076]]]]}, "properties": {"id": "8J6JC488+3WPW", "height": 3.431390047073364, "hmax": 0.016, "ratio": 0.005, "vulnClass": "none"}}, {"type": "Feature", "geometry": {"type": "MultiPolygon", "coordinates": [[[[72.11565093, 34.42158861], [72.11554925, 34.42145087], [72.11544151, 34.42150549], [72.11548853, 34.42156919], [72.11531135, 34.421659], [72.11536601, 34.42173304], [72.11565093, 34.42158861]]]]}, "properties": {"id": "8J6JC4C8+J5QW", "height": 3.326838970184326, "hmax": 0.056, "ratio": 0.017, "vulnClass": "none"}}, {"type": "Feature", "geometry": {"type": "MultiPolygon", "coordinates": [[[[72.11526922, 34.42151692], [72.11523428, 34.42145961], [72.11519925, 34.42147428], [72.11523418, 34.42153159], [72.11526922, 34.42151692]]]]}, "properties": {"id": "8J6JC4C8+H3XV", "height": 2.825703144073486, "hmax": 0.073, "ratio": 0.026, "vulnClass": "none"}}, {"type": "Feature", "geometry": {"type": "MultiPolygon", "coordinates": [[[[72.11502458, 34.42111205], [72.11500063, 34.42109124], [72.11492606, 34.42115019], [72.11497755, 34.42119492], [72.11500445, 34.42117365], [72.11497691, 34.42114973], [72.11502458, 34.42111205]]]]}, "properties": {"id": "8J6JC4C7+FX5J", "height": 2.639815807342529, "hmax": 0.073, "ratio": 0.028, "vulnClass": "none"}}, {"type": "Feature", "geometry": {"type": "MultiPolygon", "coordinates": [[[[72.1167808, 34.42003215], [72.11674467, 34.42001524], [72.11672731, 34.42004071], [72.11676344, 34.42005762], [72.1167808, 34.42003215]]]]}, "properties": {"id": "8J6JC4C8+2P6C", "height": 2.53318977355957, "hmax": 0.008, "ratio": 0.003, "vulnClass": "none"}}, {"type": "Feature", "geometry": {"type": "MultiPolygon", "coordinates": [[[[72.11682949, 34.41997448], [72.11690654, 34.41991243], [72.11687399, 34.41988468], [72.11679694, 34.41994673], [72.11682949, 34.41997448]]]]}, "properties": {"id": "8J6JC498+XPH3", "height": 2.559161424636841, "hmax": 0.006, "ratio": 0.002, "vulnClass": "none"}}, {"type": "Feature", "geometry": {"type": "MultiPolygon", "coordinates": [[[[72.11683188, 34.41971633], [72.11678667, 34.41968598], [72.1166429, 34.41983305], [72.11668811, 34.4198634], [72.11683188, 34.41971633]]]]}, "properties": {"id": "8J6JC498+WM5W", "height": 2.591772556304932, "hmax": 0.006, "ratio": 0.002, "vulnClass": "none"}}, {"type": "Feature", "geometry": {"type": "MultiPolygon", "coordinates": [[[[72.11660169, 34.41991684], [72.11664366, 34.41986064], [72.11661311, 34.41984497], [72.11657114, 34.41990117], [72.11660169, 34.41991684]]]]}, "properties": {"id": "8J6JC498+XJ57", "height": 2.460029602050781, "hmax": 0.006, "ratio": 0.002, "vulnClass": "none"}}, {"type": "Feature", "geometry": {"type": "MultiPolygon", "coordinates": [[[[72.1166022, 34.41984955], [72.11655177, 34.41981464], [72.11651698, 34.41984916], [72.11649613, 34.41983473], [72.11638266, 34.41994731], [72.11645393, 34.41999665], [72.1166022, 34.41984955]]]]}, "properties": {"id": "8J6JC498+XH94", "height": 2.973917961120605, "hmax": 0.004, "ratio": 0.001, "vulnClass": "none"}}, {"type": "Feature", "geometry": {"type": "MultiPolygon", "coordinates": [[[[72.11695181, 34.41846061], [72.11679255, 34.41837781], [72.11675005, 34.41843395], [72.11690931, 34.41851675], [72.11695181, 34.41846061]]]]}, "properties": {"id": "8J6JC498+9PHR", "height": 2.835627555847168, "hmax": 0.017, "ratio": 0.006, "vulnClass": "none"}}, {"type": "Feature", "geometry": {"type": "MultiPolygon", "coordinates": [[[[72.11676489, 34.41836566], [72.1167191, 34.41834159], [72.11666383, 34.41841379], [72.11670962, 34.41843786], [72.11676489, 34.41836566]]]]}, "properties": {"id": "8J6JC498+9M4H", "height": 2.54171085357666, "hmax": 0.017, "ratio": 0.007, "vulnClass": "none"}}, {"type": "Feature", "geometry": {"type": "MultiPolygon", "coordinates": [[[[72.115039, 34.41815148], [72.11488018, 34.41807276], [72.11485394, 34.41810911], [72.11501276, 34.41818784], [72.115039, 34.41815148]]]]}, "properties": {"id": "8J6JC497+7X47", "height": 2.788244724273682, "hmax": 0.005, "ratio": 0.002, "vulnClass": "none"}}, {"type": "Feature", "geometry": {"type": "MultiPolygon", "coordinates": [[[[72.11398906, 34.41950079], [72.11395789, 34.41949722], [72.11395325, 34.41952504], [72.11398443, 34.41952861], [72.11398906, 34.41950079]]]]}, "properties": {"id": "8J6JC497+RH5C", "height": 2.73787522315979, "hmax": 0.009, "ratio": 0.003, "vulnClass": "none"}}, {"type": "Feature", "geometry": {"type": "MultiPolygon", "coordinates": [[[[72.11414699, 34.41953033], [72.11400916, 34.41949011], [72.11399344, 34.41952712], [72.11413127, 34.41956733], [72.11414699, 34.41953033]]]]}, "properties": {"id": "8J6JC497+RJ82", "height": 3.16027307510376, "hmax": 0.009, "ratio": 0.003, "vulnClass": "none"}}, {"type": "Feature", "geometry": {"type": "MultiPolygon", "coordinates": [[[[72.11398462, 34.41947433], [72.11395084, 34.41947658], [72.11395307, 34.41949964], [72.11401392, 34.41949558], [72.11398462, 34.41947433]]]]}, "properties": {"id": "8J6JC497+QHXC", "height": 2.73787522315979, "hmax": 0.009, "ratio": 0.003, "vulnClass": "none"}}, {"type": "Feature", "geometry": {"type": "MultiPolygon", "coordinates": [[[[72.11047068, 34.42162769], [72.11042818, 34.42161006], [72.11036842, 34.42170896], [72.11041091, 34.42172659], [72.11047068, 34.42162769]]]]}, "properties": {"id": "8J6JC4C6+M57M", "height": 3.795945167541504, "hmax": 0.003, "ratio": 0.001, "vulnClass": "none"}}, {"type": "Feature", "geometry": {"type": "MultiPolygon", "coordinates": [[[[72.10865394, 34.41462329], [72.10863475, 34.41459888], [72.10858472, 34.41462589], [72.10860391, 34.4146503], [72.10865394, 34.41462329]]]]}, "properties": {"id": "8J6JC475+RCXX", "height": 2.541896820068359, "hmax": 0.01, "ratio": 0.004, "vulnClass": "none"}}, {"type": "Feature", "geometry": {"type": "MultiPolygon", "coordinates": [[[[72.10871327, 34.41458023], [72.1086773, 34.41460353], [72.10875499, 34.41468592], [72.10879096, 34.41466263], [72.10871327, 34.41458023]]]]}, "properties": {"id": "8J6JC475+VF57", "height": 2.459724426269531, "hmax": 0.01, "ratio": 0.004, "vulnClass": "none"}}, {"type": "Feature", "geometry": {"type": "MultiPolygon", "coordinates": [[[[72.10882234, 34.41469591], [72.10879096, 34.41466263], [72.10867987, 34.41473458], [72.10871125, 34.41476786], [72.10882234, 34.41469591]]]]}, "properties": {"id": "8J6JC475+VGJJ", "height": 2.511250019073486, "hmax": 0.01, "ratio": 0.004, "vulnClass": "none"}}, {"type": "Feature", "geometry": {"type": "MultiPolygon", "coordinates": [[[[72.1083458, 34.41496037], [72.10831581, 34.4149275], [72.10818401, 34.41501009], [72.10821389, 34.41504285], [72.1083458, 34.41496037]]]]}, "properties": {"id": "8J6JC475+X8RF", "height": 2.569068908691406, "hmax": 0.01, "ratio": 0.004, "vulnClass": "none"}}, {"type": "Feature", "geometry": {"type": "MultiPolygon", "coordinates": [[[[72.10837682, 34.41499437], [72.1083458, 34.41496037], [72.10808188, 34.4151254], [72.10811286, 34.41515942], [72.10837682, 34.41499437]]]]}, "properties": {"id": "8J6JC485+27H7", "height": 3.37385368347168, "hmax": 0.01, "ratio": 0.003, "vulnClass": "none"}}, {"type": "Feature", "geometry": {"type": "MultiPolygon", "coordinates": [[[[72.10799334, 34.4149632], [72.10797057, 34.41492343], [72.10793378, 34.4149379], [72.10806968, 34.41517526], [72.10810647, 34.41516079], [72.10808003, 34.41511463], [72.10813839, 34.41509168], [72.1080517, 34.41494025], [72.10799334, 34.4149632]]]]}, "properties": {"id": "8J6JC485+267F", "height": 3.319260835647583, "hmax": 0.021, "ratio": 0.006, "vulnClass": "none"}}, {"type": "Feature", "geometry": {"type": "MultiPolygon", "coordinates": [[[[72.11310294, 34.42304117], [72.11304578, 34.42310235], [72.11323847, 34.42322597], [72.11329563, 34.42316479], [72.11310294, 34.42304117]]]]}, "properties": {"id": "8J6JC4F7+7737", "height": 3.003894567489624, "hmax": 0.005, "ratio": 0.002, "vulnClass": "none"}}, {"type": "Feature", "geometry": {"type": "MultiPolygon", "coordinates": [[[[72.11337718, 34.42347127], [72.11318518, 34.42335767], [72.11312785, 34.4234242], [72.11331986, 34.4235378], [72.11337718, 34.42347127]]]]}, "properties": {"id": "8J6JC4F7+98CR", "height": 2.630444765090942, "hmax": 0.004, "ratio": 0.002, "vulnClass": "none"}}, {"type": "Feature", "geometry": {"type": "MultiPolygon", "coordinates": [[[[72.11061529, 34.42373856], [72.11050855, 34.42368407], [72.11047087, 34.42373476], [72.1105776, 34.42378925], [72.11061529, 34.42373856]]]]}, "properties": {"id": "8J6JC4F6+F6VF", "height": 2.518961429595947, "hmax": 0.006, "ratio": 0.002, "vulnClass": "none"}}, {"type": "Feature", "geometry": {"type": "MultiPolygon", "coordinates": [[[[72.11050855, 34.42368407], [72.11046595, 34.42366232], [72.11042826, 34.42371301], [72.11047087, 34.42373476], [72.11050855, 34.42368407]]]]}, "properties": {"id": "8J6JC4F6+F5GX", "height": 2.590328216552734, "hmax": 0.006, "ratio": 0.002, "vulnClass": "none"}}, {"type": "Feature", "geometry": {"type": "MultiPolygon", "coordinates": [[[[72.11086734, 34.42368416], [72.11081152, 34.42365189], [72.11078128, 34.4236878], [72.11083709, 34.42372007], [72.11086734, 34.42368416]]]]}, "properties": {"id": "8J6JC4F6+F8GF", "height": 2.541398525238037, "hmax": 0.006, "ratio": 0.002, "vulnClass": "none"}}, {"type": "Feature", "geometry": {"type": "MultiPolygon", "coordinates": [[[[72.11082627, 34.42337118], [72.11076297, 34.42334476], [72.11074086, 34.42338114], [72.11080416, 34.42340756], [72.11082627, 34.42337118]]]]}, "properties": {"id": "8J6JC4F6+9832", "height": 2.756062984466553, "hmax": 0.005, "ratio": 0.002, "vulnClass": "none"}}, {"type": "Feature", "geometry": {"type": "MultiPolygon", "coordinates": [[[[72.11083738, 34.4231935], [72.1107467, 34.42315954], [72.11069704, 34.42325058], [72.11078772, 34.42328454], [72.11083738, 34.4231935]]]]}, "properties": {"id": "8J6JC4F6+78JW", "height": 2.834184169769287, "hmax": 0.005, "ratio": 0.002, "vulnClass": "none"}}, {"type": "Feature", "geometry": {"type": "MultiPolygon", "coordinates": [[[[72.11078772, 34.42328454], [72.11069704, 34.42325058], [72.11064373, 34.42334833], [72.1107344, 34.42338229], [72.11078772, 34.42328454]]]]}, "properties": {"id": "8J6JC4F6+87GQ", "height": 3.133706092834473, "hmax": 0.005, "ratio": 0.002, "vulnClass": "none"}}, {"type": "Feature", "geometry": {"type": "MultiPolygon", "coordinates": [[[[72.11050245, 34.42401591], [72.11039092, 34.42396244], [72.11030913, 34.42407958], [72.11042065, 34.42413305], [72.11050245, 34.42401591]]]]}, "properties": {"id": "8J6JC4F6+J56X", "height": 3.402062892913818, "hmax": 0.006, "ratio": 0.002, "vulnClass": "none"}}, {"type": "Feature", "geometry": {"type": "MultiPolygon", "coordinates": [[[[72.11031986, 34.4239353], [72.11035851, 34.42388416], [72.11031903, 34.42386367], [72.11028038, 34.42391481], [72.11031986, 34.4239353]]]]}, "properties": {"id": "8J6JC4F6+H44R", "height": 2.670989274978638, "hmax": 0.006, "ratio": 0.002, "vulnClass": "none"}}, {"type": "Feature", "geometry": {"type": "MultiPolygon", "coordinates": [[[[72.11055675, 34.42390476], [72.11048019, 34.42386567], [72.11040138, 34.42397168], [72.11047794, 34.42401077], [72.11055675, 34.42390476]]]]}, "properties": {"id": "8J6JC4F6+H5HF", "height": 2.52337121963501, "hmax": 0.006, "ratio": 0.002, "vulnClass": "none"}}, {"type": "Feature", "geometry": {"type": "MultiPolygon", "coordinates": [[[[72.11401042, 34.42370065], [72.11397875, 34.42367241], [72.11392874, 34.42371091], [72.11396041, 34.42373915], [72.11401042, 34.42370065]]]]}, "properties": {"id": "8J6JC4F7+FHQ6", "height": 3.400597095489502, "hmax": 0.004, "ratio": 0.001, "vulnClass": "none"}}, {"type": "Feature", "geometry": {"type": "MultiPolygon", "coordinates": [[[[72.1141625, 34.42361342], [72.11412103, 34.42359006], [72.11400736, 34.42372864], [72.11404883, 34.423752], [72.1141625, 34.42361342]]]]}, "properties": {"id": "8J6JC4F7+FJ8W", "height": 2.493034362792969, "hmax": 0.004, "ratio": 0.002, "vulnClass": "none"}}, {"type": "Feature", "geometry": {"type": "MultiPolygon", "coordinates": [[[[72.11415941, 34.42355711], [72.11408172, 34.42351279], [72.11405377, 34.42354644], [72.11413146, 34.42359076], [72.11415941, 34.42355711]]]]}, "properties": {"id": "8J6JC4F7+CJH3", "height": 3.200994968414307, "hmax": 0.004, "ratio": 0.001, "vulnClass": "none"}}, {"type": "Feature", "geometry": {"type": "MultiPolygon", "coordinates": [[[[72.11412103, 34.42359006], [72.11405277, 34.42355162], [72.11403051, 34.42357876], [72.11409877, 34.4236172], [72.11412103, 34.42359006]]]]}, "properties": {"id": "8J6JC4F7+CJP7", "height": 3.200994968414307, "hmax": 0.004, "ratio": 0.001, "vulnClass": "none"}}]}