{"type": "FeatureCollection", "features": [{"type": "Feature", "geometry": {"type": "MultiPolygon", "coordinates": [[[[71.96932012, 34.44308291], [71.96901923, 34.44302894], [71.96901138, 34.44305899], [71.96931223, 34.44311295], [71.96932012, 34.44308291]]]]}, "properties": {"id": "8J6HCXV9+6MFV", "height": 4.925826072692871, "hmax": 0.017, "ratio": 0.003, "vulnClass": "none"}}, {"type": "Feature", "geometry": {"type": "MultiPolygon", "coordinates": [[[[71.9692299, 34.44288], [71.9690861, 34.4428542], [71.9690444, 34.4430137], [71.9692628, 34.4430529], [71.969291, 34.4429452], [71.9692163, 34.4429318], [71.9692299, 34.44288]]]]}, "properties": {"id": "8J6HCXV9+5MM6", "height": 5.157684326171875, "hmax": 0.017, "ratio": 0.003, "vulnClass": "none"}}, {"type": "Feature", "geometry": {"type": "MultiPolygon", "coordinates": [[[[71.95943413, 34.4528494], [71.95940154, 34.45272238], [71.9594991, 34.45270536], [71.95948443, 34.4526482], [71.95931756, 34.45267732], [71.95931864, 34.45268155], [71.95926216, 34.45269141], [71.95928301, 34.45277267], [71.95921883, 34.45278387], [71.95923621, 34.45285161], [71.95926702, 34.45284624], [71.95927496, 34.45287717], [71.95943413, 34.4528494]]]]}, "properties": {"id": "Pakistan_123102132_530718", "height": 2.947588443756104, "hmax": 0.006, "ratio": 0.002, "vulnClass": "none"}}, {"type": "Feature", "geometry": {"type": "MultiPolygon", "coordinates": [[[[71.95919708, 34.45294393], [71.95925857, 34.45292537], [71.95924246, 34.45288907], [71.95924571, 34.45288808], [71.959205, 34.45279643], [71.95900398, 34.45285714], [71.95904209, 34.45294294], [71.95917837, 34.45290179], [71.95919708, 34.45294393]]]]}, "properties": {"id": "Pakistan_123102132_364433", "height": 4.06624174118042, "hmax": 0.006, "ratio": 0.002, "vulnClass": "none"}}, {"type": "Feature", "geometry": {"type": "MultiPolygon", "coordinates": [[[[71.95941691, 34.45285196], [71.95933426, 34.45287708], [71.95934678, 34.45290509], [71.95941998, 34.45288284], [71.95943913, 34.45292567], [71.959484, 34.45291203], [71.95946277, 34.45286456], [71.95942735, 34.45287532], [71.95941691, 34.45285196]]]]}, "properties": {"id": "Pakistan_123102132_71754", "height": 2.551346778869629, "hmax": 0.006, "ratio": 0.002, "vulnClass": "none"}}, {"type": "Feature", "geometry": {"type": "MultiPolygon", "coordinates": [[[[71.95970389, 34.45312135], [71.95962863, 34.45314272], [71.95966714, 34.4532349], [71.9597424, 34.45321353], [71.95970389, 34.45312135]]]]}, "properties": {"id": "Pakistan_123102132_503112", "height": 4.408668518066406, "hmax": 0.007, "ratio": 0.002, "vulnClass": "none"}}, {"type": "Feature", "geometry": {"type": "MultiPolygon", "coordinates": [[[[71.95970329, 34.45311233], [71.95965708, 34.45300822], [71.95957429, 34.45303321], [71.9596205, 34.45313732], [71.95970329, 34.45311233]]]]}, "properties": {"id": "Pakistan_123102132_542880", "height": 4.408668518066406, "hmax": 0.006, "ratio": 0.001, "vulnClass": "none"}}, {"type": "Feature", "geometry": {"type": "MultiPolygon", "coordinates": [[[[71.95902979, 34.45309631], [71.95898145, 34.45300164], [71.95893133, 34.45301904], [71.95897967, 34.45311371], [71.95902979, 34.45309631]]]]}, "properties": {"id": "Pakistan_123102132_527645", "height": 2.811395645141602, "hmax": 0.006, "ratio": 0.002, "vulnClass": "none"}}, {"type": "Feature", "geometry": {"type": "MultiPolygon", "coordinates": [[[[71.95898375, 34.45292613], [71.95891627, 34.45281047], [71.95878123, 34.45286405], [71.95882838, 34.45294487], [71.95888501, 34.4529224], [71.95890534, 34.45295724], [71.95898375, 34.45292613]]]]}, "properties": {"id": "Pakistan_123102132_139578", "height": 4.112558364868164, "hmax": 0.006, "ratio": 0.002, "vulnClass": "none"}}, {"type": "Feature", "geometry": {"type": "MultiPolygon", "coordinates": [[[[71.95893763, 34.45280425], [71.95891655, 34.45275765], [71.95887181, 34.45277141], [71.95889289, 34.45281801], [71.95893763, 34.45280425]]]]}, "properties": {"id": "Pakistan_123102132_530713", "height": 4.112558364868164, "hmax": 0.006, "ratio": 0.002, "vulnClass": "none"}}, {"type": "Feature", "geometry": {"type": "MultiPolygon", "coordinates": [[[[71.95824829, 34.45301095], [71.95823096, 34.45301634], [71.95821273, 34.45297648], [71.95806568, 34.45302219], [71.95809224, 34.45308029], [71.95818853, 34.45305035], [71.95820535, 34.45308715], [71.95827345, 34.45306597], [71.95824829, 34.45301095]]]]}, "properties": {"id": "Pakistan_123102132_259804", "height": 3.916829586029053, "hmax": 0.01, "ratio": 0.003, "vulnClass": "none"}}, {"type": "Feature", "geometry": {"type": "MultiPolygon", "coordinates": [[[[71.95857511, 34.45304721], [71.95854923, 34.45300198], [71.95838248, 34.45306682], [71.95831046, 34.45294092], [71.95825122, 34.45296396], [71.95830503, 34.45305804], [71.95814182, 34.45312152], [71.95818589, 34.45319856], [71.95857511, 34.45304721]]]]}, "properties": {"id": "Pakistan_123102132_548918", "height": 3.706683158874512, "hmax": 0.012, "ratio": 0.003, "vulnClass": "none"}}, {"type": "Feature", "geometry": {"type": "MultiPolygon", "coordinates": [[[[71.95814572, 34.4530647], [71.95817093, 34.45310893], [71.95820963, 34.45309393], [71.95818442, 34.4530497], [71.95814572, 34.4530647]]]]}, "properties": {"id": "Pakistan_123102132_71747", "height": 3.916829586029053, "hmax": 0.01, "ratio": 0.003, "vulnClass": "none"}}, {"type": "Feature", "geometry": {"type": "MultiPolygon", "coordinates": [[[[71.95796001, 34.45307424], [71.9579078, 34.45315402], [71.95811967, 34.45324832], [71.95817189, 34.45316853], [71.95796001, 34.45307424]]]]}, "properties": {"id": "Pakistan_123102132_413833", "height": 3.769308567047119, "hmax": 0.023, "ratio": 0.006, "vulnClass": "none"}}, {"type": "Feature", "geometry": {"type": "MultiPolygon", "coordinates": [[[[71.95758259, 34.45247077], [71.95752788, 34.45254514], [71.95781217, 34.45268735], [71.95786807, 34.45261137], [71.95767005, 34.45251231], [71.95766886, 34.45251392], [71.95758259, 34.45247077]]]]}, "properties": {"id": "Pakistan_123102132_62579", "height": 3.786945343017578, "hmax": 0.015, "ratio": 0.004, "vulnClass": "none"}}, {"type": "Feature", "geometry": {"type": "MultiPolygon", "coordinates": [[[[71.95779668, 34.45246786], [71.95789164, 34.45234542], [71.95779646, 34.45229523], [71.95764185, 34.45249459], [71.95807328, 34.45272209], [71.95819503, 34.45256512], [71.95806056, 34.45249421], [71.95799848, 34.45257427], [71.95779668, 34.45246786]]]]}, "properties": {"id": "Pakistan_123102132_34797", "height": 3.786945343017578, "hmax": 0.01, "ratio": 0.003, "vulnClass": "none"}}, {"type": "Feature", "geometry": {"type": "MultiPolygon", "coordinates": [[[[71.95795543, 34.45234802], [71.95792308, 34.45238571], [71.95802249, 34.45244374], [71.95805485, 34.45240605], [71.95795543, 34.45234802]]]]}, "properties": {"id": "Pakistan_123102132_219825", "height": 2.512502193450928, "hmax": 0.01, "ratio": 0.004, "vulnClass": "none"}}, {"type": "Feature", "geometry": {"type": "MultiPolygon", "coordinates": [[[[71.95812217, 34.45232256], [71.95804745, 34.45226934], [71.957983, 34.45233088], [71.95805771, 34.4523841], [71.95812217, 34.45232256]]]]}, "properties": {"id": "Pakistan_123102132_349066", "height": 2.96245265007019, "hmax": 0.01, "ratio": 0.003, "vulnClass": "none"}}, {"type": "Feature", "geometry": {"type": "MultiPolygon", "coordinates": [[[[71.95836953, 34.45238863], [71.95854056, 34.4525061], [71.95860387, 34.45244341], [71.95835365, 34.45227157], [71.95817163, 34.45245178], [71.95825082, 34.45250616], [71.95836953, 34.45238863]]]]}, "properties": {"id": "Pakistan_123102132_610301", "height": 2.644068002700806, "hmax": 0.01, "ratio": 0.004, "vulnClass": "none"}}, {"type": "Feature", "geometry": {"type": "MultiPolygon", "coordinates": [[[[71.95812509, 34.45238002], [71.95810279, 34.45235249], [71.95806638, 34.45237256], [71.95808868, 34.45240008], [71.95812509, 34.45238002]]]]}, "properties": {"id": "Pakistan_123102132_74839", "height": 3.422559261322021, "hmax": 0.01, "ratio": 0.003, "vulnClass": "none"}}, {"type": "Feature", "geometry": {"type": "MultiPolygon", "coordinates": [[[[71.95802316, 34.45245121], [71.95808217, 34.45248561], [71.95811631, 34.45244581], [71.9580573, 34.4524114], [71.95802316, 34.45245121]]]]}, "properties": {"id": "Pakistan_123102132_570216", "height": 3.424231290817261, "hmax": 0.01, "ratio": 0.003, "vulnClass": "none"}}, {"type": "Feature", "geometry": {"type": "MultiPolygon", "coordinates": [[[[71.95833835, 34.45256955], [71.95843707, 34.45284641], [71.95853336, 34.45282307], [71.95843464, 34.45254621], [71.95833835, 34.45256955]]]]}, "properties": {"id": "Pakistan_123102132_293681", "height": 2.748775482177734, "hmax": 0.01, "ratio": 0.004, "vulnClass": "none"}}, {"type": "Feature", "geometry": {"type": "MultiPolygon", "coordinates": [[[[71.95871842, 34.45245981], [71.95860905, 34.45250031], [71.95865015, 34.45257577], [71.95875952, 34.45253527], [71.95871842, 34.45245981]]]]}, "properties": {"id": "Pakistan_123102132_564100", "height": 2.579475879669189, "hmax": 0.01, "ratio": 0.004, "vulnClass": "none"}}, {"type": "Feature", "geometry": {"type": "MultiPolygon", "coordinates": [[[[71.95851892, 34.45252186], [71.95863244, 34.452767], [71.9587129, 34.45274166], [71.95859936, 34.45249653], [71.95851892, 34.45252186]]]]}, "properties": {"id": "Pakistan_123102132_37841", "height": 2.529812574386597, "hmax": 0.01, "ratio": 0.004, "vulnClass": "none"}}, {"type": "Feature", "geometry": {"type": "MultiPolygon", "coordinates": [[[[71.95923995, 34.45243765], [71.95906826, 34.45249358], [71.95904351, 34.45244192], [71.95900639, 34.45245401], [71.95904213, 34.45252863], [71.95892612, 34.45256642], [71.95896003, 34.4526372], [71.95907372, 34.45260017], [71.95907555, 34.452604], [71.95919388, 34.45256546], [71.95920763, 34.45259415], [71.95926795, 34.45257451], [71.9592511, 34.45253933], [71.95928359, 34.45252875], [71.95923995, 34.45243765]]]]}, "properties": {"id": "Pakistan_123102132_309161", "height": 3.371994256973267, "hmax": 0.006, "ratio": 0.002, "vulnClass": "none"}}, {"type": "Feature", "geometry": {"type": "MultiPolygon", "coordinates": [[[[71.95815499, 34.45208934], [71.95832796, 34.4522175], [71.95855999, 34.4522191], [71.95854068, 34.4522048], [71.9584774, 34.45220436], [71.95844641, 34.4521814], [71.95844695, 34.45212872], [71.95831754, 34.45203284], [71.95826554, 34.45208056], [71.9582314, 34.45205527], [71.95822033, 34.45206543], [71.95815524, 34.45206498], [71.95815499, 34.45208934]]]]}, "properties": {"id": "Pakistan_123102132_432337", "height": 3.218153238296509, "hmax": 0.005, "ratio": 0.002, "vulnClass": "none"}}, {"type": "Feature", "geometry": {"type": "MultiPolygon", "coordinates": [[[[71.95781893, 34.45196656], [71.95765804, 34.45185244], [71.95757848, 34.45192871], [71.95751892, 34.45188647], [71.95754279, 34.45186359], [71.95752737, 34.45185265], [71.95744118, 34.45193528], [71.95751055, 34.45198449], [71.95753044, 34.45196542], [71.95757053, 34.45199385], [71.95762887, 34.45193791], [71.95768129, 34.45197509], [71.9576614, 34.45199416], [71.95773539, 34.45204664], [71.95781893, 34.45196656]]]]}, "properties": {"id": "Pakistan_123102132_539783", "height": 3.051405906677246, "hmax": 0.007, "ratio": 0.002, "vulnClass": "none"}}, {"type": "Feature", "geometry": {"type": "MultiPolygon", "coordinates": [[[[71.95816481, 34.45176333], [71.95792475, 34.45163017], [71.95796823, 34.45157687], [71.95783412, 34.45150249], [71.95785452, 34.45147748], [71.95798009, 34.45154713], [71.95800866, 34.45151211], [71.95779631, 34.45139431], [71.9578169, 34.45136907], [71.95773494, 34.45132361], [71.95759209, 34.45149873], [71.95770104, 34.45155916], [71.95771648, 34.45154024], [71.9578125, 34.4515935], [71.95775483, 34.4516642], [71.95795311, 34.45177418], [71.95796429, 34.45176047], [71.95810395, 34.45183794], [71.95816481, 34.45176333]]]]}, "properties": {"id": "Pakistan_123102132_429214", "height": 4.237710952758789, "hmax": 0.006, "ratio": 0.001, "vulnClass": "none"}}, {"type": "Feature", "geometry": {"type": "MultiPolygon", "coordinates": [[[[71.95855519, 34.45158214], [71.95879967, 34.45182868], [71.95887522, 34.45177774], [71.95863074, 34.4515312], [71.95855519, 34.45158214]]]]}, "properties": {"id": "Pakistan_123102132_432341", "height": 3.313587427139282, "hmax": 0.005, "ratio": 0.002, "vulnClass": "none"}}, {"type": "Feature", "geometry": {"type": "MultiPolygon", "coordinates": [[[[71.95873689, 34.4513736], [71.95868496, 34.45128619], [71.95865252, 34.4512993], [71.95870444, 34.4513867], [71.95873689, 34.4513736]]]]}, "properties": {"id": "Pakistan_123102132_266014", "height": 2.521911382675171, "hmax": 0.005, "ratio": 0.002, "vulnClass": "none"}}, {"type": "Feature", "geometry": {"type": "MultiPolygon", "coordinates": [[[[71.9581575, 34.45088215], [71.95819412, 34.4509043], [71.95822482, 34.4508698], [71.95818821, 34.45084764], [71.9581575, 34.45088215]]]]}, "properties": {"id": "Pakistan_123102132_164180", "height": 2.487061262130737, "hmax": 0.005, "ratio": 0.002, "vulnClass": "none"}}, {"type": "Feature", "geometry": {"type": "MultiPolygon", "coordinates": [[[[71.95869114, 34.45106864], [71.95883672, 34.45121705], [71.95878159, 34.45125382], [71.95885766, 34.45133137], [71.95891765, 34.45129135], [71.95888617, 34.45125926], [71.95895427, 34.45121384], [71.95876411, 34.45101997], [71.95869114, 34.45106864]]]]}, "properties": {"id": "Pakistan_123102132_133393", "height": 3.282700300216675, "hmax": 0.004, "ratio": 0.001, "vulnClass": "none"}}, {"type": "Feature", "geometry": {"type": "MultiPolygon", "coordinates": [[[[71.95865835, 34.45125536], [71.95867964, 34.45128792], [71.95873655, 34.45126261], [71.9586776, 34.45117249], [71.95870588, 34.45115991], [71.95868235, 34.45112393], [71.95844006, 34.4512317], [71.95850124, 34.45132523], [71.95865835, 34.45125536]]]]}, "properties": {"id": "Pakistan_123102132_386029", "height": 3.41040825843811, "hmax": 0.005, "ratio": 0.002, "vulnClass": "none"}}, {"type": "Feature", "geometry": {"type": "MultiPolygon", "coordinates": [[[[71.95784588, 34.45115255], [71.95782534, 34.45116914], [71.957824, 34.45116801], [71.95777744, 34.4512056], [71.9578895, 34.45129997], [71.9579566, 34.4512458], [71.95784588, 34.45115255]]]]}, "properties": {"id": "Pakistan_123102132_235116", "height": 4.981600761413574, "hmax": 0.005, "ratio": 0.001, "vulnClass": "none"}}, {"type": "Feature", "geometry": {"type": "MultiPolygon", "coordinates": [[[[71.95799017, 34.45111965], [71.95808065, 34.45118549], [71.95818655, 34.45108653], [71.95807737, 34.45100709], [71.95796749, 34.45110979], [71.95794244, 34.45109156], [71.95789531, 34.45113561], [71.95793904, 34.45116743], [71.95799017, 34.45111965]]]]}, "properties": {"id": "Pakistan_123102132_582583", "height": 3.640790700912476, "hmax": 0.005, "ratio": 0.001, "vulnClass": "none"}}, {"type": "Feature", "geometry": {"type": "MultiPolygon", "coordinates": [[[[71.959175, 34.45761922], [71.95920775, 34.45772894], [71.95939103, 34.45769176], [71.95939749, 34.45771341], [71.95943543, 34.45770571], [71.95939623, 34.45757434], [71.959175, 34.45761922]]]]}, "properties": {"id": "Pakistan_123102132_262907", "height": 2.505969285964966, "hmax": 0.016, "ratio": 0.006, "vulnClass": "none"}}, {"type": "Feature", "geometry": {"type": "MultiPolygon", "coordinates": [[[[71.9584743, 34.45328785], [71.95851264, 34.45338255], [71.9585585, 34.45336993], [71.9585875, 34.45344157], [71.95863818, 34.45342762], [71.95857083, 34.45326127], [71.9584743, 34.45328785]]]]}, "properties": {"id": "Pakistan_123102132_432339", "height": 3.569487333297729, "hmax": 0.028, "ratio": 0.008, "vulnClass": "none"}}, {"type": "Feature", "geometry": {"type": "MultiPolygon", "coordinates": [[[[71.95872939, 34.45312898], [71.95861206, 34.45314073], [71.9586188, 34.4531865], [71.95873613, 34.45317475], [71.95872939, 34.45312898]]]]}, "properties": {"id": "Pakistan_123102132_395344", "height": 3.542695045471191, "hmax": 0.021, "ratio": 0.006, "vulnClass": "none"}}, {"type": "Feature", "geometry": {"type": "MultiPolygon", "coordinates": [[[[71.9590646, 34.45339376], [71.95910406, 34.45348527], [71.95919693, 34.45345805], [71.95914867, 34.45334613], [71.95904296, 34.45337711], [71.95900233, 34.45328286], [71.95888565, 34.45331706], [71.95889868, 34.4533473], [71.95868293, 34.45341055], [71.95871933, 34.45349498], [71.9590646, 34.45339376]]]]}, "properties": {"id": "Pakistan_123102132_379730", "height": 3.381549596786499, "hmax": 0.009, "ratio": 0.003, "vulnClass": "none"}}, {"type": "Feature", "geometry": {"type": "MultiPolygon", "coordinates": [[[[71.95882077, 34.45348602], [71.95876822, 34.45348709], [71.95877059, 34.45356666], [71.95882314, 34.4535656], [71.95882077, 34.45348602]]]]}, "properties": {"id": "Pakistan_123102132_490888", "height": 3.210836172103882, "hmax": 0.007, "ratio": 0.002, "vulnClass": "none"}}, {"type": "Feature", "geometry": {"type": "MultiPolygon", "coordinates": [[[[71.95834539, 34.45406569], [71.95829704, 34.45422705], [71.95836358, 34.45424061], [71.95847774, 34.45423592], [71.95847458, 34.45418359], [71.95862577, 34.45421438], [71.95863472, 34.45423367], [71.95863776, 34.45428396], [71.95859675, 34.4542969], [71.95860089, 34.45436553], [71.95861208, 34.45438965], [71.95875005, 34.45438399], [71.95875698, 34.45436087], [71.95873742, 34.45431871], [71.95875503, 34.45425993], [71.95883207, 34.45425677], [71.95883628, 34.45426585], [71.95884333, 34.45438264], [71.95884962, 34.45439622], [71.95892011, 34.45441058], [71.95891449, 34.45431742], [71.95895794, 34.45432627], [71.95895533, 34.45428298], [71.95903335, 34.45445112], [71.9591246, 34.45442233], [71.95903166, 34.45422204], [71.95898317, 34.45422403], [71.95896862, 34.45419265], [71.95834539, 34.45406569]]]]}, "properties": {"id": "Pakistan_123102132_518460", "height": 2.445089340209961, "hmax": 0.015, "ratio": 0.006, "vulnClass": "none"}}, {"type": "Feature", "geometry": {"type": "MultiPolygon", "coordinates": [[[[71.95955425, 34.45431516], [71.95949837, 34.45416326], [71.95945171, 34.45417493], [71.95950758, 34.45432683], [71.95955425, 34.45431516]]]]}, "properties": {"id": "Pakistan_123102132_290634", "height": 2.59650444984436, "hmax": 0.016, "ratio": 0.006, "vulnClass": "none"}}, {"type": "Feature", "geometry": {"type": "MultiPolygon", "coordinates": [[[[71.95953736, 34.45446044], [71.95953849, 34.4545113], [71.95972886, 34.45450842], [71.95973127, 34.45461675], [71.95982512, 34.45461533], [71.95982158, 34.45445615], [71.95953736, 34.45446044]]]]}, "properties": {"id": "Pakistan_123102132_59542", "height": 3.313475370407104, "hmax": 0.015, "ratio": 0.005, "vulnClass": "none"}}, {"type": "Feature", "geometry": {"type": "MultiPolygon", "coordinates": [[[[71.96057674, 34.45413785], [71.96060869, 34.45429179], [71.9608808, 34.45425338], [71.96086652, 34.45418462], [71.96079617, 34.45419455], [71.96079126, 34.45417092], [71.9608475, 34.45416298], [71.96083769, 34.4541157], [71.96075169, 34.45412784], [71.96075437, 34.45414074], [71.96066577, 34.45415324], [71.96066013, 34.45412609], [71.96057674, 34.45413785]]]]}, "properties": {"id": "Pakistan_123102132_315372", "height": 3.638609886169434, "hmax": 0.008, "ratio": 0.002, "vulnClass": "none"}}, {"type": "Feature", "geometry": {"type": "MultiPolygon", "coordinates": [[[[71.96058952, 34.45405712], [71.96059595, 34.45412527], [71.96084123, 34.45410953], [71.96083272, 34.4540194], [71.96075541, 34.45402436], [71.96075748, 34.45404634], [71.96058952, 34.45405712]]]]}, "properties": {"id": "Pakistan_123102132_487792", "height": 3.278499126434326, "hmax": 0.006, "ratio": 0.002, "vulnClass": "none"}}, {"type": "Feature", "geometry": {"type": "MultiPolygon", "coordinates": [[[[71.96093982, 34.45369116], [71.96087342, 34.45371218], [71.96092726, 34.45382784], [71.96099367, 34.45380682], [71.96093982, 34.45369116]]]]}, "properties": {"id": "Pakistan_123102132_410793", "height": 2.906111717224121, "hmax": 0.004, "ratio": 0.001, "vulnClass": "none"}}, {"type": "Feature", "geometry": {"type": "MultiPolygon", "coordinates": [[[[71.95970788, 34.45387428], [71.9597052, 34.45392727], [71.95997139, 34.4539364], [71.95997406, 34.45388341], [71.95970788, 34.45387428]]]]}, "properties": {"id": "Pakistan_123102132_170516", "height": 3.248424768447876, "hmax": 0.006, "ratio": 0.002, "vulnClass": "none"}}, {"type": "Feature", "geometry": {"type": "MultiPolygon", "coordinates": [[[[71.95948816, 34.45408173], [71.95943728, 34.45408001], [71.95943503, 34.45412554], [71.95953411, 34.45412888], [71.95953869, 34.45403614], [71.95949049, 34.45403451], [71.95948816, 34.45408173]]]]}, "properties": {"id": "Pakistan_123102132_102297", "height": 3.022120952606201, "hmax": 0.014, "ratio": 0.005, "vulnClass": "none"}}, {"type": "Feature", "geometry": {"type": "MultiPolygon", "coordinates": [[[[71.95938507, 34.45392127], [71.95933117, 34.45390619], [71.95929851, 34.45398552], [71.95935242, 34.4540006], [71.95938507, 34.45392127]]]]}, "properties": {"id": "Pakistan_123102132_545919", "height": 4.228023529052734, "hmax": 0.007, "ratio": 0.002, "vulnClass": "none"}}, {"type": "Feature", "geometry": {"type": "MultiPolygon", "coordinates": [[[[71.95950214, 34.45393817], [71.95946306, 34.45393265], [71.95945397, 34.45397645], [71.95949306, 34.45398196], [71.95950214, 34.45393817]]]]}, "properties": {"id": "Pakistan_123102132_74844", "height": 3.67190957069397, "hmax": 0.007, "ratio": 0.002, "vulnClass": "none"}}, {"type": "Feature", "geometry": {"type": "MultiPolygon", "coordinates": [[[[71.95913866, 34.45371874], [71.95912263, 34.45366589], [71.9590469, 34.45368151], [71.95906294, 34.45373437], [71.95913866, 34.45371874]]]]}, "properties": {"id": "Pakistan_123102132_142617", "height": 4.103347778320312, "hmax": 0.007, "ratio": 0.002, "vulnClass": "none"}}, {"type": "Feature", "geometry": {"type": "MultiPolygon", "coordinates": [[[[71.95962797, 34.45379388], [71.95989099, 34.4537151], [71.95986603, 34.45365844], [71.95960301, 34.45373722], [71.95962797, 34.45379388]]]]}, "properties": {"id": "Pakistan_123102132_410785", "height": 2.930968999862671, "hmax": 0.007, "ratio": 0.002, "vulnClass": "none"}}, {"type": "Feature", "geometry": {"type": "MultiPolygon", "coordinates": [[[[71.95981437, 34.45363442], [71.9597698, 34.45355957], [71.95972874, 34.45357619], [71.9597733, 34.45365104], [71.95981437, 34.45363442]]]]}, "properties": {"id": "Pakistan_123102132_410786", "height": 2.839765548706055, "hmax": 0.007, "ratio": 0.003, "vulnClass": "none"}}, {"type": "Feature", "geometry": {"type": "MultiPolygon", "coordinates": [[[[71.9598779, 34.45361295], [71.95983764, 34.45355435], [71.95978688, 34.45357806], [71.95982714, 34.45363666], [71.9598779, 34.45361295]]]]}, "properties": {"id": "Pakistan_123102132_518466", "height": 2.725709199905396, "hmax": 0.006, "ratio": 0.002, "vulnClass": "none"}}, {"type": "Feature", "geometry": {"type": "MultiPolygon", "coordinates": [[[[71.95943759, 34.45354257], [71.95951333, 34.45373799], [71.95960726, 34.45371324], [71.95956994, 34.45361691], [71.95976317, 34.45356599], [71.9597134, 34.45343756], [71.95966863, 34.45344936], [71.95964142, 34.45337912], [71.95952556, 34.45340965], [71.95952059, 34.45339684], [71.95949626, 34.45340325], [71.95953981, 34.45351564], [71.95943759, 34.45354257]]]]}, "properties": {"id": "Pakistan_123102132_25661", "height": 5.797502040863037, "hmax": 0.007, "ratio": 0.001, "vulnClass": "none"}}, {"type": "Feature", "geometry": {"type": "MultiPolygon", "coordinates": [[[[71.9594365, 34.45339887], [71.95942214, 34.45334714], [71.9594094, 34.45334954], [71.95939832, 34.45330961], [71.95934989, 34.45331875], [71.95932342, 34.45322337], [71.95920363, 34.45324598], [71.95922871, 34.45333635], [71.9591599, 34.45334933], [71.95917215, 34.45339347], [71.95927155, 34.45337471], [71.95928613, 34.45342725], [71.9594365, 34.45339887]]]]}, "properties": {"id": "Pakistan_123102132_398493", "height": 5.040757179260254, "hmax": 0.007, "ratio": 0.001, "vulnClass": "none"}}, {"type": "Feature", "geometry": {"type": "MultiPolygon", "coordinates": [[[[71.95939717, 34.45330599], [71.95937189, 34.45319719], [71.95932532, 34.45320455], [71.9593506, 34.45331335], [71.95939717, 34.45330599]]]]}, "properties": {"id": "Pakistan_123102132_484701", "height": 3.568339347839355, "hmax": 0.007, "ratio": 0.002, "vulnClass": "none"}}, {"type": "Feature", "geometry": {"type": "MultiPolygon", "coordinates": [[[[71.9595982, 34.45337444], [71.95958463, 34.45326723], [71.95955117, 34.45327012], [71.95954507, 34.45322198], [71.95940445, 34.4532341], [71.95942413, 34.45338944], [71.9595982, 34.45337444]]]]}, "properties": {"id": "Pakistan_123102132_31767", "height": 5.81727409362793, "hmax": 0.007, "ratio": 0.001, "vulnClass": "none"}}]}