{"type": "FeatureCollection", "features": [{"type": "Feature", "geometry": {"type": "MultiPolygon", "coordinates": [[[[72.34557428, 34.18850687], [72.34556655, 34.18828297], [72.34551461, 34.18828419], [72.34551959, 34.18842829], [72.34540536, 34.18843099], [72.34540812, 34.1885108], [72.34557428, 34.18850687]]]]}, "properties": {"id": "Pakistan_123102310_187070", "height": 3.56402063369751, "hmax": 0.012, "ratio": 0.003, "vulnClass": "none"}}, {"type": "Feature", "geometry": {"type": "MultiPolygon", "coordinates": [[[[72.34529681, 34.18844772], [72.34537442, 34.18845074], [72.34538022, 34.18834891], [72.34530261, 34.18834589], [72.34529681, 34.18844772]]]]}, "properties": {"id": "Pakistan_123102310_215248", "height": 2.722700834274292, "hmax": 0.012, "ratio": 0.004, "vulnClass": "none"}}, {"type": "Feature", "geometry": {"type": "MultiPolygon", "coordinates": [[[[72.34485107, 34.18837455], [72.34484812, 34.18851428], [72.34495806, 34.18851587], [72.344961, 34.18837613], [72.34485107, 34.18837455]]]]}, "properties": {"id": "Pakistan_123102310_282391", "height": 2.908742904663086, "hmax": 0.012, "ratio": 0.004, "vulnClass": "none"}}, {"type": "Feature", "geometry": {"type": "MultiPolygon", "coordinates": [[[[72.34529447, 34.18837368], [72.34529546, 34.18832932], [72.34539097, 34.18833078], [72.34539239, 34.18826646], [72.34520037, 34.18826353], [72.34519795, 34.18837221], [72.34529447, 34.18837368]]]]}, "properties": {"id": "Pakistan_123102310_382070", "height": 2.811373233795166, "hmax": 0.012, "ratio": 0.004, "vulnClass": "none"}}, {"type": "Feature", "geometry": {"type": "MultiPolygon", "coordinates": [[[[72.34482933, 34.18821118], [72.34482876, 34.18835984], [72.34509698, 34.18836053], [72.34509761, 34.18819635], [72.34496886, 34.18819602], [72.3449688, 34.18821155], [72.34482933, 34.18821118]]]]}, "properties": {"id": "Pakistan_123102310_656729", "height": 2.819391012191772, "hmax": 0.012, "ratio": 0.004, "vulnClass": "none"}}, {"type": "Feature", "geometry": {"type": "MultiPolygon", "coordinates": [[[[72.34555515, 34.18822847], [72.34549348, 34.18822928], [72.34549412, 34.18826255], [72.34540665, 34.1882637], [72.34540746, 34.18830585], [72.34550936, 34.18830451], [72.34550889, 34.18828011], [72.34555613, 34.18827949], [72.34555515, 34.18822847]]]]}, "properties": {"id": "Pakistan_123102310_666359", "height": 3.229217052459717, "hmax": 0.012, "ratio": 0.004, "vulnClass": "none"}}, {"type": "Feature", "geometry": {"type": "MultiPolygon", "coordinates": [[[[72.34504425, 34.18848323], [72.34497197, 34.18848062], [72.34497029, 34.18851241], [72.34504257, 34.18851502], [72.34504425, 34.18848323]]]]}, "properties": {"id": "Pakistan_123102310_457629", "height": 2.452633619308472, "hmax": 0.012, "ratio": 0.005, "vulnClass": "none"}}, {"type": "Feature", "geometry": {"type": "MultiPolygon", "coordinates": [[[[72.34486002, 34.18855167], [72.34486086, 34.18868781], [72.34506639, 34.18868693], [72.34506599, 34.1886218], [72.34495334, 34.18862228], [72.34495289, 34.18855128], [72.34486002, 34.18855167]]]]}, "properties": {"id": "Pakistan_123102310_898591", "height": 3.608505249023438, "hmax": 0.012, "ratio": 0.003, "vulnClass": "none"}}, {"type": "Feature", "geometry": {"type": "MultiPolygon", "coordinates": [[[[72.34558407, 34.18865581], [72.34558104, 34.1885974], [72.34523567, 34.1886097], [72.3452387, 34.18866808], [72.34558407, 34.18865581]]]]}, "properties": {"id": "Pakistan_123102310_196470", "height": 3.925523281097412, "hmax": 0.012, "ratio": 0.003, "vulnClass": "none"}}, {"type": "Feature", "geometry": {"type": "MultiPolygon", "coordinates": [[[[72.34557002, 34.18871608], [72.34556653, 34.18866299], [72.34534456, 34.18867299], [72.34534806, 34.18872608], [72.34557002, 34.18871608]]]]}, "properties": {"id": "Pakistan_123102310_837078", "height": 3.361704111099243, "hmax": 0.012, "ratio": 0.004, "vulnClass": "none"}}, {"type": "Feature", "geometry": {"type": "MultiPolygon", "coordinates": [[[[72.34545054, 34.18885673], [72.34544894, 34.18881018], [72.34532298, 34.18881315], [72.34532321, 34.1888198], [72.34511684, 34.18882466], [72.34511822, 34.18886456], [72.34545054, 34.18885673]]]]}, "properties": {"id": "Pakistan_123102310_291994", "height": 2.878169298171997, "hmax": 0.012, "ratio": 0.004, "vulnClass": "none"}}, {"type": "Feature", "geometry": {"type": "MultiPolygon", "coordinates": [[[[72.34510725, 34.18886448], [72.34510495, 34.18872917], [72.34505301, 34.18872978], [72.34505411, 34.18879411], [72.34489419, 34.18879598], [72.34489539, 34.18886696], [72.34510725, 34.18886448]]]]}, "properties": {"id": "Pakistan_123102310_495638", "height": 3.212952375411987, "hmax": 0.012, "ratio": 0.004, "vulnClass": "none"}}, {"type": "Feature", "geometry": {"type": "MultiPolygon", "coordinates": [[[[72.34536896, 34.18918303], [72.34537056, 34.18914091], [72.34532501, 34.18913973], [72.34532341, 34.18918184], [72.34536896, 34.18918303]]]]}, "properties": {"id": "Pakistan_123102310_884410", "height": 3.400855302810669, "hmax": 0.011, "ratio": 0.003, "vulnClass": "none"}}, {"type": "Feature", "geometry": {"type": "MultiPolygon", "coordinates": [[[[72.345425, 34.19003237], [72.34542463, 34.18997469], [72.34526205, 34.18997541], [72.34526239, 34.19002644], [72.34523989, 34.19002654], [72.34524046, 34.19011529], [72.34531393, 34.19011496], [72.34531339, 34.19003287], [72.345425, 34.19003237]]]]}, "properties": {"id": "Pakistan_123102310_524150", "height": 3.117818355560303, "hmax": 0.017, "ratio": 0.006, "vulnClass": "none"}}, {"type": "Feature", "geometry": {"type": "MultiPolygon", "coordinates": [[[[72.34558583, 34.18994779], [72.34543028, 34.18994928], [72.34543149, 34.1900358], [72.34558704, 34.19003431], [72.34558583, 34.18994779]]]]}, "properties": {"id": "Pakistan_123102310_169195", "height": 2.712970495223999, "hmax": 0.017, "ratio": 0.006, "vulnClass": "none"}}, {"type": "Feature", "geometry": {"type": "MultiPolygon", "coordinates": [[[[72.34558836, 34.18963148], [72.34558699, 34.18954858], [72.3454539, 34.1895501], [72.34545338, 34.18951904], [72.34537025, 34.18951999], [72.34537076, 34.18955105], [72.34529568, 34.1895519], [72.3452942, 34.18946317], [72.3452352, 34.18946385], [72.34523806, 34.18963546], [72.34558836, 34.18963148]]]]}, "properties": {"id": "Pakistan_123102310_557048", "height": 3.581777095794678, "hmax": 0.011, "ratio": 0.003, "vulnClass": "none"}}, {"type": "Feature", "geometry": {"type": "MultiPolygon", "coordinates": [[[[72.34561523, 34.1898284], [72.34561276, 34.18968643], [72.34558963, 34.18968671], [72.34559138, 34.18978653], [72.34538924, 34.18978895], [72.34538662, 34.18963893], [72.34525891, 34.18964045], [72.34526227, 34.18983263], [72.34561523, 34.1898284]]]]}, "properties": {"id": "Pakistan_123102310_561859", "height": 3.046061038970947, "hmax": 0.011, "ratio": 0.004, "vulnClass": "none"}}, {"type": "Feature", "geometry": {"type": "MultiPolygon", "coordinates": [[[[72.34396915, 34.1954885], [72.34395549, 34.19562587], [72.34399245, 34.19577062], [72.34387838, 34.19579055], [72.34399418, 34.19579843], [72.34402201, 34.19590745], [72.34396552, 34.19591731], [72.34399805, 34.19604474], [72.34377209, 34.1960842], [72.34379215, 34.19616279], [72.34412596, 34.19610449], [72.34411701, 34.19606942], [72.34408425, 34.19606719], [72.34406424, 34.19598881], [72.34426305, 34.19595409], [72.34421752, 34.19577568], [72.34411627, 34.19579337], [72.34408103, 34.19565532], [72.34416319, 34.19564097], [72.344135, 34.19553053], [72.34427041, 34.19550688], [72.34427963, 34.19541414], [72.34425799, 34.19532935], [72.34420663, 34.19533832], [72.34422995, 34.19542964], [72.34405784, 34.1954597], [72.34405609, 34.19547737], [72.34403941, 34.19547623], [72.34396915, 34.1954885]]]]}, "properties": {"id": "Pakistan_123102310_178467", "height": 3.407023191452026, "hmax": 0.011, "ratio": 0.003, "vulnClass": "none"}}, {"type": "Feature", "geometry": {"type": "MultiPolygon", "coordinates": [[[[72.34475688, 34.19628557], [72.3447919, 34.19643295], [72.34478415, 34.19643421], [72.3448068, 34.19652956], [72.34489977, 34.19651445], [72.3448421, 34.19627171], [72.34475688, 34.19628557]]]]}, "properties": {"id": "Pakistan_123102310_595090", "height": 3.957520246505737, "hmax": 0.014, "ratio": 0.003, "vulnClass": "none"}}, {"type": "Feature", "geometry": {"type": "MultiPolygon", "coordinates": [[[[72.34706212, 34.19836897], [72.34706454, 34.19845544], [72.34712083, 34.19845437], [72.34711842, 34.19836789], [72.34706212, 34.19836897]]]]}, "properties": {"id": "Pakistan_123102310_196506", "height": 2.536969423294067, "hmax": 0.008, "ratio": 0.003, "vulnClass": "none"}}, {"type": "Feature", "geometry": {"type": "MultiPolygon", "coordinates": [[[[72.34710837, 34.19833891], [72.3471079, 34.19829102], [72.34704621, 34.19829144], [72.34704668, 34.19833933], [72.34710837, 34.19833891]]]]}, "properties": {"id": "Pakistan_123102310_680700", "height": 3.157732725143433, "hmax": 0.008, "ratio": 0.003, "vulnClass": "none"}}, {"type": "Feature", "geometry": {"type": "MultiPolygon", "coordinates": [[[[72.3470009, 34.19819801], [72.34700236, 34.19824012], [72.34705156, 34.19823895], [72.34705319, 34.1982855], [72.34709607, 34.19828448], [72.34709298, 34.19819581], [72.3470009, 34.19819801]]]]}, "properties": {"id": "Pakistan_123102310_334835", "height": 3.489221811294556, "hmax": 0.008, "ratio": 0.002, "vulnClass": "none"}}, {"type": "Feature", "geometry": {"type": "MultiPolygon", "coordinates": [[[[72.34680981, 34.19828319], [72.34691429, 34.19828011], [72.34691142, 34.19821364], [72.34680694, 34.19821672], [72.34680981, 34.19828319]]]]}, "properties": {"id": "Pakistan_123102310_262676", "height": 2.505131244659424, "hmax": 0.008, "ratio": 0.003, "vulnClass": "none"}}, {"type": "Feature", "geometry": {"type": "MultiPolygon", "coordinates": [[[[72.34655573, 34.20106292], [72.34655892, 34.20110801], [72.34666851, 34.20110272], [72.34666533, 34.20105762], [72.34655573, 34.20106292]]]]}, "properties": {"id": "Pakistan_123102310_216391", "height": 2.469460725784302, "hmax": 0.008, "ratio": 0.003, "vulnClass": "none"}}, {"type": "Feature", "geometry": {"type": "MultiPolygon", "coordinates": [[[[72.3463254, 34.20108678], [72.34633604, 34.20113853], [72.34644552, 34.20112313], [72.34642956, 34.20104551], [72.34638003, 34.20105248], [72.34638535, 34.20107835], [72.3463254, 34.20108678]]]]}, "properties": {"id": "Pakistan_123102310_429231", "height": 2.571882009506226, "hmax": 0.009, "ratio": 0.003, "vulnClass": "none"}}, {"type": "Feature", "geometry": {"type": "MultiPolygon", "coordinates": [[[[72.34649275, 34.20096276], [72.34634806, 34.20097549], [72.34635297, 34.20101364], [72.34643665, 34.20100629], [72.34646006, 34.20118835], [72.34659532, 34.20117646], [72.34658714, 34.20111285], [72.34655532, 34.20111564], [72.34655024, 34.20107616], [72.34650781, 34.20107989], [72.34649275, 34.20096276]]]]}, "properties": {"id": "Pakistan_123102310_344274", "height": 2.864788055419922, "hmax": 0.009, "ratio": 0.003, "vulnClass": "none"}}, {"type": "Feature", "geometry": {"type": "MultiPolygon", "coordinates": [[[[72.34634197, 34.20114541], [72.34634516, 34.20121273], [72.34645885, 34.20120904], [72.34645565, 34.20114172], [72.34634197, 34.20114541]]]]}, "properties": {"id": "Pakistan_123102310_101730", "height": 2.864788055419922, "hmax": 0.009, "ratio": 0.003, "vulnClass": "none"}}, {"type": "Feature", "geometry": {"type": "MultiPolygon", "coordinates": [[[[72.34419943, 34.19997129], [72.34422526, 34.20008168], [72.34441248, 34.2000517], [72.34440115, 34.20000332], [72.34435872, 34.20001011], [72.3443442, 34.19994811], [72.34419943, 34.19997129]]]]}, "properties": {"id": "Pakistan_123102310_827585", "height": 2.718653202056885, "hmax": 0.007, "ratio": 0.003, "vulnClass": "none"}}, {"type": "Feature", "geometry": {"type": "MultiPolygon", "coordinates": [[[[72.34634575, 34.2012254], [72.34639266, 34.20141952], [72.34654741, 34.20139393], [72.3465005, 34.20119982], [72.34634575, 34.2012254]]]]}, "properties": {"id": "Pakistan_123102310_36919", "height": 2.470221757888794, "hmax": 0.009, "ratio": 0.004, "vulnClass": "none"}}, {"type": "Feature", "geometry": {"type": "MultiPolygon", "coordinates": [[[[72.34697463, 34.20210402], [72.34698282, 34.20216089], [72.34710712, 34.20214864], [72.34711153, 34.20217926], [72.34713533, 34.20217692], [72.34712273, 34.20208943], [72.34697463, 34.20210402]]]]}, "properties": {"id": "Pakistan_123102310_737820", "height": 4.06694507598877, "hmax": 0.013, "ratio": 0.003, "vulnClass": "none"}}, {"type": "Feature", "geometry": {"type": "MultiPolygon", "coordinates": [[[[72.34696442, 34.20222558], [72.34695243, 34.20212675], [72.34691132, 34.20213015], [72.34692782, 34.20226632], [72.34661978, 34.20229186], [72.34662431, 34.20232919], [72.34716604, 34.20228429], [72.34715699, 34.20220962], [72.34696442, 34.20222558]]]]}, "properties": {"id": "Pakistan_123102310_580963", "height": 4.21004581451416, "hmax": 0.013, "ratio": 0.003, "vulnClass": "none"}}, {"type": "Feature", "geometry": {"type": "MultiPolygon", "coordinates": [[[[72.34584402, 34.20202943], [72.34585036, 34.20207231], [72.34603799, 34.20205331], [72.34603164, 34.20201044], [72.34584402, 34.20202943]]]]}, "properties": {"id": "Pakistan_123102310_874894", "height": 2.882181644439697, "hmax": 0.016, "ratio": 0.006, "vulnClass": "none"}}, {"type": "Feature", "geometry": {"type": "MultiPolygon", "coordinates": [[[[72.34585557, 34.20219679], [72.34582892, 34.20205378], [72.34580273, 34.20205712], [72.34584431, 34.20228031], [72.34608011, 34.20225025], [72.34606517, 34.20217008], [72.34585557, 34.20219679]]]]}, "properties": {"id": "Pakistan_123102310_936425", "height": 3.27095103263855, "hmax": 0.016, "ratio": 0.005, "vulnClass": "none"}}, {"type": "Feature", "geometry": {"type": "MultiPolygon", "coordinates": [[[[72.3475687, 34.20221537], [72.34742453, 34.2022235], [72.34743272, 34.20232287], [72.3474447, 34.20232219], [72.34745217, 34.20241272], [72.34758435, 34.20240526], [72.3475687, 34.20221537]]]]}, "properties": {"id": "Pakistan_123102310_65097", "height": 2.529265880584717, "hmax": 0.012, "ratio": 0.005, "vulnClass": "none"}}, {"type": "Feature", "geometry": {"type": "MultiPolygon", "coordinates": [[[[72.34703113, 34.20248253], [72.34694177, 34.20249643], [72.34695054, 34.20253499], [72.3470399, 34.2025211], [72.34703113, 34.20248253]]]]}, "properties": {"id": "Pakistan_123102310_552373", "height": 2.704649686813354, "hmax": 0.013, "ratio": 0.005, "vulnClass": "none"}}, {"type": "Feature", "geometry": {"type": "MultiPolygon", "coordinates": [[[[72.34539461, 34.20243974], [72.34540856, 34.20251563], [72.34554226, 34.20249882], [72.34552831, 34.20242293], [72.34539461, 34.20243974]]]]}, "properties": {"id": "Pakistan_123102310_604477", "height": 2.680830240249634, "hmax": 0.016, "ratio": 0.006, "vulnClass": "none"}}, {"type": "Feature", "geometry": {"type": "MultiPolygon", "coordinates": [[[[72.34232861, 34.20230573], [72.34230788, 34.20222839], [72.34189884, 34.2023034], [72.34187219, 34.20220403], [72.34198724, 34.20218293], [72.34197477, 34.20213641], [72.34175878, 34.20217602], [72.3418186, 34.20239922], [72.34232861, 34.20230573]]]]}, "properties": {"id": "Pakistan_123102310_595077", "height": 5.586095809936523, "hmax": 0.064, "ratio": 0.011, "vulnClass": "none"}}, {"type": "Feature", "geometry": {"type": "MultiPolygon", "coordinates": [[[[72.34194738, 34.20062393], [72.34186287, 34.20062687], [72.34186506, 34.20066992], [72.34194957, 34.20066697], [72.34194738, 34.20062393]]]]}, "properties": {"id": "Pakistan_123102310_941136", "height": 2.447947025299072, "hmax": 0.012, "ratio": 0.005, "vulnClass": "none"}}, {"type": "Feature", "geometry": {"type": "MultiPolygon", "coordinates": [[[[72.34217186, 34.20001346], [72.34216402, 34.19994755], [72.34210026, 34.19995274], [72.34210811, 34.20001865], [72.34217186, 34.20001346]]]]}, "properties": {"id": "Pakistan_123102310_471974", "height": 2.804684162139893, "hmax": 0.009, "ratio": 0.003, "vulnClass": "none"}}, {"type": "Feature", "geometry": {"type": "MultiPolygon", "coordinates": [[[[72.34205632, 34.20003585], [72.34207604, 34.20009574], [72.34224335, 34.20005806], [72.34222363, 34.19999817], [72.34205632, 34.20003585]]]]}, "properties": {"id": "Pakistan_123102310_941137", "height": 3.213680982589722, "hmax": 0.009, "ratio": 0.003, "vulnClass": "none"}}, {"type": "Feature", "geometry": {"type": "MultiPolygon", "coordinates": [[[[72.34207432, 34.2000929], [72.34208853, 34.20016058], [72.34222392, 34.20014113], [72.34223684, 34.20020266], [72.34229412, 34.20019443], [72.34226699, 34.20006523], [72.34207432, 34.2000929]]]]}, "properties": {"id": "Pakistan_123102310_225813", "height": 3.213680982589722, "hmax": 0.009, "ratio": 0.003, "vulnClass": "none"}}, {"type": "Feature", "geometry": {"type": "MultiPolygon", "coordinates": [[[[72.3410831, 34.20019796], [72.34112687, 34.2004], [72.34131918, 34.20037151], [72.34129869, 34.20027693], [72.34122073, 34.20028849], [72.34120489, 34.20021541], [72.34116851, 34.2002208], [72.34116106, 34.20018641], [72.3410831, 34.20019796]]]]}, "properties": {"id": "Pakistan_123102310_419769", "height": 3.167573690414429, "hmax": 0.009, "ratio": 0.003, "vulnClass": "none"}}, {"type": "Feature", "geometry": {"type": "MultiPolygon", "coordinates": [[[[72.34159198, 34.20008787], [72.34155627, 34.19992818], [72.34151477, 34.19993453], [72.34150971, 34.19991189], [72.34144853, 34.19992126], [72.34141952, 34.1997916], [72.34115653, 34.19983183], [72.3412093, 34.20006778], [72.34107184, 34.20008881], [72.34105457, 34.20001159], [72.34101308, 34.20001794], [72.34104736, 34.20017122], [72.34159198, 34.20008787]]]]}, "properties": {"id": "Pakistan_123102310_785102", "height": 3.295778036117554, "hmax": 0.009, "ratio": 0.003, "vulnClass": "none"}}, {"type": "Feature", "geometry": {"type": "MultiPolygon", "coordinates": [[[[72.34047201, 34.20003631], [72.34043943, 34.19991823], [72.34030941, 34.19994277], [72.34034199, 34.20006085], [72.34047201, 34.20003631]]]]}, "properties": {"id": "Pakistan_123102310_879588", "height": 2.448770523071289, "hmax": 0.011, "ratio": 0.005, "vulnClass": "none"}}, {"type": "Feature", "geometry": {"type": "MultiPolygon", "coordinates": [[[[72.34085219, 34.19992651], [72.34095298, 34.19991283], [72.34092983, 34.19979618], [72.34082013, 34.19981107], [72.34082956, 34.19985859], [72.34074076, 34.19987065], [72.34075405, 34.19993761], [72.34072009, 34.19994222], [72.34071624, 34.19992278], [72.34063788, 34.19993342], [72.34064517, 34.19997014], [72.34069479, 34.1999634], [72.34071151, 34.20004765], [72.34062532, 34.20005935], [72.34064461, 34.20015656], [72.34081438, 34.20013352], [72.34081224, 34.20012272], [72.34088907, 34.20011229], [72.34085219, 34.19992651]]]]}, "properties": {"id": "Pakistan_123102310_903357", "height": 2.79951810836792, "hmax": 0.011, "ratio": 0.004, "vulnClass": "none"}}, {"type": "Feature", "geometry": {"type": "MultiPolygon", "coordinates": [[[[72.34068309, 34.20029005], [72.34069823, 34.20037698], [72.34078757, 34.20036634], [72.34078341, 34.20034243], [72.34086224, 34.20033304], [72.34083612, 34.20018308], [72.34079671, 34.20018778], [72.34081184, 34.20027471], [72.34068309, 34.20029005]]]]}, "properties": {"id": "Pakistan_123102310_168276", "height": 3.485979080200195, "hmax": 0.011, "ratio": 0.003, "vulnClass": "none"}}, {"type": "Feature", "geometry": {"type": "MultiPolygon", "coordinates": [[[[72.34011475, 34.2001396], [72.34013628, 34.20030854], [72.34039737, 34.20028577], [72.34038772, 34.20021013], [72.34025243, 34.20022192], [72.34024361, 34.20015276], [72.34022658, 34.20015425], [72.34022155, 34.20011476], [72.34017115, 34.20011915], [72.34017311, 34.20013451], [72.34011475, 34.2001396]]]]}, "properties": {"id": "Pakistan_123102310_102951", "height": 2.757601499557495, "hmax": 0.011, "ratio": 0.004, "vulnClass": "none"}}, {"type": "Feature", "geometry": {"type": "MultiPolygon", "coordinates": [[[[72.34104892, 34.2002123], [72.340857, 34.20024164], [72.34087617, 34.20032744], [72.3410681, 34.2002981], [72.34104892, 34.2002123]]]]}, "properties": {"id": "Pakistan_123102310_945789", "height": 3.456360340118408, "hmax": 0.011, "ratio": 0.003, "vulnClass": "none"}}, {"type": "Feature", "geometry": {"type": "MultiPolygon", "coordinates": [[[[72.34193625, 34.20061666], [72.34191345, 34.20049991], [72.34173047, 34.20052435], [72.34175326, 34.2006411], [72.34193625, 34.20061666]]]]}, "properties": {"id": "Pakistan_123102310_158666", "height": 2.447947025299072, "hmax": 0.009, "ratio": 0.004, "vulnClass": "none"}}, {"type": "Feature", "geometry": {"type": "MultiPolygon", "coordinates": [[[[72.33958892, 34.20106988], [72.33963888, 34.20123004], [72.33970175, 34.20121663], [72.33965179, 34.20105647], [72.33958892, 34.20106988]]]]}, "properties": {"id": "Pakistan_123102310_82476", "height": 3.363428831100464, "hmax": 0.087, "ratio": 0.026, "vulnClass": "none"}}, {"type": "Feature", "geometry": {"type": "MultiPolygon", "coordinates": [[[[72.33960326, 34.20089949], [72.33955693, 34.20090441], [72.33957286, 34.20100698], [72.33961918, 34.20100207], [72.33960326, 34.20089949]]]]}, "properties": {"id": "Pakistan_123102310_728195", "height": 4.056387901306152, "hmax": 0.087, "ratio": 0.021, "vulnClass": "none"}}, {"type": "Feature", "geometry": {"type": "MultiPolygon", "coordinates": [[[[72.33868044, 34.20116222], [72.33863192, 34.20097563], [72.33844876, 34.20100821], [72.33847632, 34.20111423], [72.33858771, 34.20109442], [72.33860866, 34.20117499], [72.33868044, 34.20116222]]]]}, "properties": {"id": "Pakistan_123102310_178407", "height": 3.793417930603027, "hmax": 0.113, "ratio": 0.03, "vulnClass": "none"}}, {"type": "Feature", "geometry": {"type": "MultiPolygon", "coordinates": [[[[72.33878001, 34.20065381], [72.3387558, 34.20056516], [72.3385735, 34.20059921], [72.33855218, 34.20052112], [72.33849093, 34.20053256], [72.33853646, 34.2006993], [72.33878001, 34.20065381]]]]}, "properties": {"id": "Pakistan_123102310_382018", "height": 3.31198787689209, "hmax": 0.099, "ratio": 0.03, "vulnClass": "none"}}, {"type": "Feature", "geometry": {"type": "MultiPolygon", "coordinates": [[[[72.33854761, 34.20072504], [72.33846519, 34.20074359], [72.33843902, 34.20066401], [72.33833912, 34.20068649], [72.33838872, 34.20083727], [72.33857103, 34.20079625], [72.33854761, 34.20072504]]]]}, "properties": {"id": "Pakistan_123102310_926851", "height": 2.608249187469482, "hmax": 0.113, "ratio": 0.043, "vulnClass": "none"}}, {"type": "Feature", "geometry": {"type": "MultiPolygon", "coordinates": [[[[72.33916576, 34.20027944], [72.3391544, 34.20024303], [72.33906744, 34.20026157], [72.3390788, 34.20029799], [72.33916576, 34.20027944]]]]}, "properties": {"id": "Pakistan_123102310_585705", "height": 3.972837448120117, "hmax": 0.026, "ratio": 0.007, "vulnClass": "none"}}, {"type": "Feature", "geometry": {"type": "MultiPolygon", "coordinates": [[[[72.33912573, 34.20041056], [72.33913579, 34.20049402], [72.33931639, 34.20047913], [72.33930632, 34.20039566], [72.33912573, 34.20041056]]]]}, "properties": {"id": "Pakistan_123102310_467170", "height": 3.512656211853027, "hmax": 0.026, "ratio": 0.007, "vulnClass": "none"}}, {"type": "Feature", "geometry": {"type": "MultiPolygon", "coordinates": [[[[72.33927111, 34.20022136], [72.3392575, 34.20017647], [72.33921712, 34.20018484], [72.33925508, 34.20031007], [72.33944581, 34.20027054], [72.33942146, 34.20019018], [72.33927111, 34.20022136]]]]}, "properties": {"id": "Pakistan_123102310_756715", "height": 2.53817892074585, "hmax": 0.026, "ratio": 0.01, "vulnClass": "none"}}, {"type": "Feature", "geometry": {"type": "MultiPolygon", "coordinates": [[[[72.33903422, 34.19968884], [72.33918944, 34.19965291], [72.33911601, 34.19943584], [72.33903392, 34.19945484], [72.33901721, 34.19940546], [72.3389202, 34.19942791], [72.33898808, 34.19962853], [72.33890848, 34.19964695], [72.33902263, 34.19998435], [72.33912607, 34.19996041], [72.33903422, 34.19968884]]]]}, "properties": {"id": "Pakistan_123102310_301480", "height": 3.781351566314697, "hmax": 0.018, "ratio": 0.005, "vulnClass": "none"}}, {"type": "Feature", "geometry": {"type": "MultiPolygon", "coordinates": [[[[72.33873381, 34.19982658], [72.33868471, 34.19961935], [72.33844554, 34.19965812], [72.33849465, 34.19986534], [72.33873381, 34.19982658]]]]}, "properties": {"id": "Pakistan_123102310_291944", "height": 3.449622392654419, "hmax": 0.044, "ratio": 0.013, "vulnClass": "none"}}, {"type": "Feature", "geometry": {"type": "MultiPolygon", "coordinates": [[[[72.33812653, 34.2002219], [72.33804581, 34.19997014], [72.33792051, 34.19999762], [72.33797996, 34.20018304], [72.33784965, 34.20021162], [72.33787955, 34.20030489], [72.33799232, 34.20028016], [72.33798369, 34.20025322], [72.33812653, 34.2002219]]]]}, "properties": {"id": "Pakistan_123102310_55651", "height": 2.569325685501099, "hmax": 0.048, "ratio": 0.019, "vulnClass": "none"}}, {"type": "Feature", "geometry": {"type": "MultiPolygon", "coordinates": [[[[72.33705442, 34.1997905], [72.33711207, 34.19991408], [72.33722318, 34.19987863], [72.33721597, 34.19986318], [72.33729164, 34.19983903], [72.33724119, 34.1997309], [72.33705442, 34.1997905]]]]}, "properties": {"id": "Pakistan_123102310_396221", "height": 2.668599367141724, "hmax": 0.056, "ratio": 0.021, "vulnClass": "none"}}, {"type": "Feature", "geometry": {"type": "MultiPolygon", "coordinates": [[[[72.33795727, 34.19954795], [72.33784422, 34.19958279], [72.33771695, 34.19930035], [72.33763217, 34.19932649], [72.33778274, 34.19966063], [72.33798056, 34.19959964], [72.33795727, 34.19954795]]]]}, "properties": {"id": "Pakistan_123102310_235139", "height": 3.071679592132568, "hmax": 0.046, "ratio": 0.015, "vulnClass": "none"}}, {"type": "Feature", "geometry": {"type": "MultiPolygon", "coordinates": [[[[72.33721828, 34.19973118], [72.33714027, 34.19957195], [72.33710248, 34.19958461], [72.33711742, 34.1996151], [72.33699992, 34.19965448], [72.33706299, 34.19978323], [72.33721828, 34.19973118]]]]}, "properties": {"id": "Pakistan_123102310_613981", "height": 3.636359691619873, "hmax": 0.054, "ratio": 0.015, "vulnClass": "none"}}, {"type": "Feature", "geometry": {"type": "MultiPolygon", "coordinates": [[[[72.3371351, 34.19953427], [72.33716877, 34.19960806], [72.33732608, 34.19955896], [72.33738721, 34.19969295], [72.33745061, 34.19967316], [72.3373558, 34.19946538], [72.3371351, 34.19953427]]]]}, "properties": {"id": "Pakistan_123102310_252960", "height": 3.795925617218018, "hmax": 0.049, "ratio": 0.013, "vulnClass": "none"}}, {"type": "Feature", "geometry": {"type": "MultiPolygon", "coordinates": [[[[72.3367964, 34.19930649], [72.33673575, 34.1993228], [72.33676256, 34.19939101], [72.33682321, 34.19937471], [72.3367964, 34.19930649]]]]}, "properties": {"id": "Pakistan_123102310_55617", "height": 2.452674865722656, "hmax": 0.047, "ratio": 0.019, "vulnClass": "none"}}, {"type": "Feature", "geometry": {"type": "MultiPolygon", "coordinates": [[[[72.33659676, 34.19930865], [72.33662085, 34.19944907], [72.33677072, 34.19943148], [72.33676379, 34.1993911], [72.33671909, 34.19939634], [72.3367152, 34.19937366], [72.33665999, 34.19938015], [72.33664671, 34.19930279], [72.33659676, 34.19930865]]]]}, "properties": {"id": "Pakistan_123102310_556995", "height": 2.872591257095337, "hmax": 0.046, "ratio": 0.016, "vulnClass": "none"}}, {"type": "Feature", "geometry": {"type": "MultiPolygon", "coordinates": [[[[72.33713937, 34.20035968], [72.33705597, 34.20019034], [72.33716736, 34.20015281], [72.33722827, 34.20027648], [72.33726641, 34.20026363], [72.33710565, 34.19993721], [72.33693771, 34.19999379], [72.33699956, 34.20011936], [72.33701662, 34.20011362], [72.33704099, 34.20016308], [72.33682608, 34.20023549], [72.33685472, 34.20029365], [72.33699045, 34.20024792], [72.33701428, 34.20029631], [72.33686245, 34.20034746], [72.33684558, 34.20031322], [72.33675684, 34.20034311], [72.33671373, 34.20025559], [72.33666905, 34.20027064], [72.3367736, 34.20048293], [72.33713937, 34.20035968]]]]}, "properties": {"id": "Pakistan_123102310_301467", "height": 4.303349494934082, "hmax": 0.057, "ratio": 0.013, "vulnClass": "none"}}, {"type": "Feature", "geometry": {"type": "MultiPolygon", "coordinates": [[[[72.33680053, 34.20006952], [72.33673501, 34.20009636], [72.33682097, 34.20023988], [72.33700494, 34.20016451], [72.33695953, 34.20008868], [72.33684107, 34.20013721], [72.33680053, 34.20006952]]]]}, "properties": {"id": "Pakistan_123102310_419745", "height": 3.309112071990967, "hmax": 0.056, "ratio": 0.017, "vulnClass": "none"}}, {"type": "Feature", "geometry": {"type": "MultiPolygon", "coordinates": [[[[72.33802697, 34.20079811], [72.33793277, 34.20036292], [72.3378548, 34.20037447], [72.33788411, 34.20050989], [72.33774377, 34.20053067], [72.33784753, 34.20101], [72.33806844, 34.20097729], [72.33804936, 34.20088916], [72.33790902, 34.20090994], [72.33788923, 34.2008185], [72.33802697, 34.20079811]]]]}, "properties": {"id": "Pakistan_123102310_647094", "height": 3.502145051956177, "hmax": 0.1, "ratio": 0.029, "vulnClass": "none"}}, {"type": "Feature", "geometry": {"type": "MultiPolygon", "coordinates": [[[[72.33657348, 34.20209629], [72.33647009, 34.20211288], [72.3365147, 34.20230315], [72.3366181, 34.20228657], [72.33657348, 34.20209629]]]]}, "properties": {"id": "Pakistan_123102310_917524", "height": 2.477714061737061, "hmax": 0.04, "ratio": 0.016, "vulnClass": "none"}}, {"type": "Feature", "geometry": {"type": "MultiPolygon", "coordinates": [[[[72.33966212, 34.20124869], [72.33957385, 34.20125252], [72.33958079, 34.20136202], [72.33964231, 34.20135935], [72.33963867, 34.20130183], [72.33966542, 34.20130067], [72.33966212, 34.20124869]]]]}, "properties": {"id": "Pakistan_123102310_907998", "height": 2.651846408843994, "hmax": 0.087, "ratio": 0.033, "vulnClass": "none"}}, {"type": "Feature", "geometry": {"type": "MultiPolygon", "coordinates": [[[[72.33964594, 34.2013036], [72.33964955, 34.20134664], [72.33973497, 34.20134173], [72.33973136, 34.2012987], [72.33964594, 34.2013036]]]]}, "properties": {"id": "Pakistan_123102310_860579", "height": 2.605376482009888, "hmax": 0.087, "ratio": 0.033, "vulnClass": "none"}}, {"type": "Feature", "geometry": {"type": "MultiPolygon", "coordinates": [[[[72.33887641, 34.20239942], [72.33891443, 34.20261217], [72.33910867, 34.20258843], [72.33909276, 34.20249942], [72.33895102, 34.20251675], [72.33893433, 34.2024234], [72.33904854, 34.20240944], [72.33904311, 34.20237904], [72.33887641, 34.20239942]]]]}, "properties": {"id": "Pakistan_123102310_187755", "height": 2.67387318611145, "hmax": 0.054, "ratio": 0.02, "vulnClass": "none"}}, {"type": "Feature", "geometry": {"type": "MultiPolygon", "coordinates": [[[[72.33626376, 34.20241592], [72.33627559, 34.20260045], [72.33642805, 34.20259377], [72.33642529, 34.20255081], [72.33652158, 34.20254658], [72.33651151, 34.20238952], [72.33636173, 34.2023961], [72.33635605, 34.20230761], [72.33604311, 34.20232134], [72.33604567, 34.20236116], [72.33599354, 34.20236345], [72.33599765, 34.2024276], [72.33626376, 34.20241592]]]]}, "properties": {"id": "Pakistan_123102310_813349", "height": 3.659573793411255, "hmax": 0.045, "ratio": 0.012, "vulnClass": "none"}}, {"type": "Feature", "geometry": {"type": "MultiPolygon", "coordinates": [[[[72.33475854, 34.20232888], [72.33512143, 34.20237906], [72.33514293, 34.20227268], [72.33512156, 34.20226458], [72.33502651, 34.20225143], [72.33501325, 34.20227537], [72.33496342, 34.20226848], [72.33494428, 34.20230303], [72.33488187, 34.20227938], [72.33485071, 34.20227508], [72.33479541, 34.20225412], [72.33469403, 34.2022401], [72.33463873, 34.20221914], [72.33455725, 34.20218826], [72.33454259, 34.20221472], [72.33443596, 34.20219997], [72.33455577, 34.20224538], [72.33452812, 34.20224156], [72.33475854, 34.20232888]]]]}, "properties": {"id": "Pakistan_123102310_215104", "height": 2.74727201461792, "hmax": 0.064, "ratio": 0.023, "vulnClass": "none"}}, {"type": "Feature", "geometry": {"type": "MultiPolygon", "coordinates": [[[[72.33479907, 34.20191472], [72.33478506, 34.20187122], [72.33492531, 34.20184032], [72.33490196, 34.20176783], [72.33462647, 34.20182852], [72.33466383, 34.20194452], [72.33479907, 34.20191472]]]]}, "properties": {"id": "Pakistan_123102310_177574", "height": 2.957888841629028, "hmax": 0.058, "ratio": 0.02, "vulnClass": "none"}}, {"type": "Feature", "geometry": {"type": "MultiPolygon", "coordinates": [[[[72.33448162, 34.20187752], [72.33448876, 34.20192926], [72.33463299, 34.20191566], [72.33462586, 34.20186392], [72.33448162, 34.20187752]]]]}, "properties": {"id": "Pakistan_123102310_613960", "height": 2.957888841629028, "hmax": 0.081, "ratio": 0.027, "vulnClass": "none"}}, {"type": "Feature", "geometry": {"type": "MultiPolygon", "coordinates": [[[[72.33465845, 34.2019266], [72.33448144, 34.2019281], [72.3344818, 34.20195694], [72.33461858, 34.20195578], [72.33461987, 34.2020592], [72.33445628, 34.2020606], [72.33445756, 34.20216263], [72.33453404, 34.20216198], [72.33453296, 34.20207547], [72.33481317, 34.20207307], [72.33481273, 34.20203842], [72.33465986, 34.20203972], [72.33465845, 34.2019266]]]]}, "properties": {"id": "Pakistan_123102310_244467", "height": 2.445444107055664, "hmax": 0.084, "ratio": 0.034, "vulnClass": "none"}}, {"type": "Feature", "geometry": {"type": "MultiPolygon", "coordinates": [[[[72.33325622, 34.20181582], [72.33326851, 34.20185772], [72.33340396, 34.20183055], [72.33339167, 34.20178865], [72.33325622, 34.20181582]]]]}, "properties": {"id": "Pakistan_123102310_262478", "height": 2.767395973205566, "hmax": 0.222, "ratio": 0.08, "vulnClass": "low"}}, {"type": "Feature", "geometry": {"type": "MultiPolygon", "coordinates": [[[[72.33430634, 34.20041741], [72.33425083, 34.20026729], [72.33419687, 34.20028094], [72.33428764, 34.2005264], [72.33480762, 34.20039486], [72.33477237, 34.20029952], [72.33430634, 34.20041741]]]]}, "properties": {"id": "Pakistan_123102310_907954", "height": 4.516202449798584, "hmax": 0.04, "ratio": 0.009, "vulnClass": "none"}}, {"type": "Feature", "geometry": {"type": "MultiPolygon", "coordinates": [[[[72.33442544, 34.20031631], [72.33441575, 34.2002772], [72.33437199, 34.20028461], [72.33438167, 34.20032372], [72.33442544, 34.20031631]]]]}, "properties": {"id": "Pakistan_123102310_320590", "height": 3.180832386016846, "hmax": 0.026, "ratio": 0.008, "vulnClass": "none"}}, {"type": "Feature", "geometry": {"type": "MultiPolygon", "coordinates": [[[[72.3358035, 34.20063512], [72.33590547, 34.20084795], [72.33620683, 34.20074917], [72.33615447, 34.20063989], [72.33611738, 34.20065204], [72.33613299, 34.20068464], [72.33594421, 34.20074651], [72.3359207, 34.20069744], [72.33588926, 34.20070775], [72.33584754, 34.20062069], [72.3358035, 34.20063512]]]]}, "properties": {"id": "Pakistan_123102310_618713", "height": 3.177000999450684, "hmax": 0.082, "ratio": 0.026, "vulnClass": "none"}}, {"type": "Feature", "geometry": {"type": "MultiPolygon", "coordinates": [[[[72.33586034, 34.20093549], [72.33574017, 34.20066962], [72.33566119, 34.20069404], [72.33572682, 34.20083924], [72.335634, 34.20086794], [72.33564192, 34.20088546], [72.33542542, 34.20095241], [72.33538319, 34.20085898], [72.33523598, 34.2009045], [72.33531111, 34.2010707], [72.33514767, 34.20112123], [72.33510984, 34.20103754], [72.33507925, 34.20104699], [72.33513081, 34.20116108], [72.33586034, 34.20093549]]]]}, "properties": {"id": "Pakistan_123102310_102903", "height": 3.473405122756958, "hmax": 0.077, "ratio": 0.022, "vulnClass": "none"}}, {"type": "Feature", "geometry": {"type": "MultiPolygon", "coordinates": [[[[72.33560819, 34.20046307], [72.33538228, 34.20054502], [72.33537597, 34.20053313], [72.33516551, 34.20060949], [72.33528885, 34.20084203], [72.33552953, 34.20075471], [72.33552361, 34.20074355], [72.3357193, 34.20067254], [72.33560819, 34.20046307]]]]}, "properties": {"id": "Pakistan_123102310_827516", "height": 3.532614707946777, "hmax": 0.074, "ratio": 0.021, "vulnClass": "none"}}, {"type": "Feature", "geometry": {"type": "MultiPolygon", "coordinates": [[[[72.33421443, 34.20003064], [72.33417044, 34.19988677], [72.33409733, 34.19990207], [72.33416811, 34.2001335], [72.3346244, 34.20003805], [72.33459762, 34.19995048], [72.33421443, 34.20003064]]]]}, "properties": {"id": "Pakistan_123102310_330035", "height": 3.728537559509277, "hmax": 0.028, "ratio": 0.007, "vulnClass": "none"}}, {"type": "Feature", "geometry": {"type": "MultiPolygon", "coordinates": [[[[72.33537222, 34.19815186], [72.33535762, 34.19806028], [72.33534538, 34.19806161], [72.33533961, 34.1980254], [72.33528952, 34.19803086], [72.33530537, 34.19813031], [72.3352517, 34.19813617], [72.33525623, 34.19816452], [72.33537222, 34.19815186]]]]}, "properties": {"id": "Pakistan_123102310_613968", "height": 2.849295616149902, "hmax": 0.014, "ratio": 0.005, "vulnClass": "none"}}, {"type": "Feature", "geometry": {"type": "MultiPolygon", "coordinates": [[[[72.33522896, 34.19788455], [72.3351714, 34.19789434], [72.33523071, 34.19813272], [72.33528824, 34.19812292], [72.33522896, 34.19788455]]]]}, "properties": {"id": "Pakistan_123102310_358374", "height": 2.78566837310791, "hmax": 0.014, "ratio": 0.005, "vulnClass": "none"}}, {"type": "Feature", "geometry": {"type": "MultiPolygon", "coordinates": [[[[72.33578115, 34.19593624], [72.33571976, 34.19584328], [72.33565483, 34.19587261], [72.33571622, 34.19596557], [72.33578115, 34.19593624]]]]}, "properties": {"id": "Pakistan_123102310_320602", "height": 2.444742679595947, "hmax": 0.114, "ratio": 0.047, "vulnClass": "none"}}, {"type": "Feature", "geometry": {"type": "MultiPolygon", "coordinates": [[[[72.3366542, 34.19911009], [72.3366973, 34.19921059], [72.33675209, 34.19919451], [72.336709, 34.19909402], [72.3366542, 34.19911009]]]]}, "properties": {"id": "Pakistan_123102310_718733", "height": 2.652420520782471, "hmax": 0.046, "ratio": 0.017, "vulnClass": "none"}}, {"type": "Feature", "geometry": {"type": "MultiPolygon", "coordinates": [[[[72.33916768, 34.19745153], [72.33914292, 34.1973631], [72.33889598, 34.19741039], [72.33892075, 34.19749882], [72.33916768, 34.19745153]]]]}, "properties": {"id": "Pakistan_123102310_841691", "height": 2.481531381607056, "hmax": 0.029, "ratio": 0.012, "vulnClass": "none"}}, {"type": "Feature", "geometry": {"type": "MultiPolygon", "coordinates": [[[[72.34050186, 34.19792816], [72.34054183, 34.19801683], [72.34055039, 34.19801419], [72.34058376, 34.1980882], [72.34086399, 34.19800179], [72.34079063, 34.19783909], [72.34050186, 34.19792816]]]]}, "properties": {"id": "Pakistan_123102310_296804", "height": 2.627411365509033, "hmax": 0.014, "ratio": 0.005, "vulnClass": "none"}}, {"type": "Feature", "geometry": {"type": "MultiPolygon", "coordinates": [[[[72.34057177, 34.19690405], [72.3404253, 34.19696405], [72.34048341, 34.19706109], [72.34040287, 34.19709409], [72.34048878, 34.19723754], [72.34072439, 34.19714103], [72.34067852, 34.19706442], [72.34060744, 34.19709354], [72.34055837, 34.19701159], [72.34062083, 34.196986], [72.34057177, 34.19690405]]]]}, "properties": {"id": "Pakistan_123102310_349008", "height": 2.889770030975342, "hmax": 0.015, "ratio": 0.005, "vulnClass": "none"}}, {"type": "Feature", "geometry": {"type": "MultiPolygon", "coordinates": [[[[72.34040001, 34.19699653], [72.34034973, 34.19701635], [72.34036952, 34.1970507], [72.3404198, 34.19703089], [72.34040001, 34.19699653]]]]}, "properties": {"id": "Pakistan_123102310_694873", "height": 3.107293128967285, "hmax": 0.015, "ratio": 0.005, "vulnClass": "none"}}, {"type": "Feature", "geometry": {"type": "MultiPolygon", "coordinates": [[[[72.34040793, 34.19665087], [72.34029493, 34.19669375], [72.34029185, 34.1966882], [72.34019859, 34.19660266], [72.34020136, 34.19660059], [72.34012739, 34.19662866], [72.34007351, 34.19653153], [72.34001368, 34.19655424], [72.34011942, 34.19674483], [72.34014685, 34.19673442], [72.34016502, 34.19672087], [72.34021386, 34.19670233], [72.34024493, 34.19675834], [72.34024568, 34.19675903], [72.34038418, 34.19670647], [72.34045864, 34.19677477], [72.34044673, 34.19678365], [72.34048384, 34.19685056], [72.34033539, 34.1969069], [72.34031968, 34.19687858], [72.34025716, 34.19682123], [72.34021384, 34.19683767], [72.3402799, 34.19695676], [72.34032612, 34.19699916], [72.34057769, 34.19690368], [72.34060267, 34.19694872], [72.34062998, 34.19697377], [72.34052436, 34.19678339], [72.34043698, 34.19670323], [72.34040793, 34.19665087]]]]}, "properties": {"id": "Pakistan_123102310_36815", "height": 2.556016683578491, "hmax": 0.016, "ratio": 0.006, "vulnClass": "none"}}, {"type": "Feature", "geometry": {"type": "MultiPolygon", "coordinates": [[[[72.34267205, 34.19541108], [72.34283835, 34.19541108], [72.34283835, 34.19545323], [72.34288663, 34.19545323], [72.34288663, 34.19531125], [72.34267205, 34.19531125], [72.34267205, 34.19541108]]]]}, "properties": {"id": "Pakistan_123102310_618755", "height": 3.167276620864868, "hmax": 0.011, "ratio": 0.003, "vulnClass": "none"}}, {"type": "Feature", "geometry": {"type": "MultiPolygon", "coordinates": [[[[72.34133583, 34.19221507], [72.34133156, 34.1921576], [72.34124872, 34.19216182], [72.34125299, 34.19221928], [72.34133583, 34.19221507]]]]}, "properties": {"id": "Pakistan_123102310_747299", "height": 2.618835210800171, "hmax": 0.097, "ratio": 0.037, "vulnClass": "none"}}, {"type": "Feature", "geometry": {"type": "MultiPolygon", "coordinates": [[[[72.34124574, 34.1922229], [72.34124302, 34.19215419], [72.34118554, 34.19215575], [72.34118825, 34.19222445], [72.34124574, 34.1922229]]]]}, "properties": {"id": "Pakistan_123102310_363121", "height": 2.904069185256958, "hmax": 0.097, "ratio": 0.033, "vulnClass": "none"}}, {"type": "Feature", "geometry": {"type": "MultiPolygon", "coordinates": [[[[72.33832969, 34.18974797], [72.33862731, 34.1897434], [72.33862545, 34.18966018], [72.33832782, 34.18966473], [72.33832969, 34.18974797]]]]}, "properties": {"id": "Pakistan_123102310_893769", "height": 3.506339073181152, "hmax": 0.006, "ratio": 0.002, "vulnClass": "none"}}, {"type": "Feature", "geometry": {"type": "MultiPolygon", "coordinates": [[[[72.33566505, 34.19072618], [72.33566422, 34.19064409], [72.33526728, 34.19064683], [72.33526661, 34.19058027], [72.33521297, 34.19058064], [72.33521333, 34.19061614], [72.33518006, 34.19061637], [72.33518119, 34.19072951], [72.33566505, 34.19072618]]]]}, "properties": {"id": "Pakistan_123102310_723485", "height": 3.140253067016602, "hmax": 0.003, "ratio": 0.001, "vulnClass": "none"}}, {"type": "Feature", "geometry": {"type": "MultiPolygon", "coordinates": [[[[72.33535434, 34.19090252], [72.33542134, 34.19090098], [72.3354156, 34.19073027], [72.33534859, 34.19073182], [72.33535434, 34.19090252]]]]}, "properties": {"id": "Pakistan_123102310_64869", "height": 2.815608978271484, "hmax": 0.003, "ratio": 0.001, "vulnClass": "none"}}, {"type": "Feature", "geometry": {"type": "MultiPolygon", "coordinates": [[[[72.33315624, 34.19156122], [72.33272461, 34.19136811], [72.33267859, 34.19143849], [72.33334471, 34.1917365], [72.33340195, 34.19164896], [72.33324515, 34.19157881], [72.33328106, 34.19152388], [72.33325111, 34.19151048], [72.33330162, 34.19143324], [72.33323314, 34.1914026], [72.33321406, 34.19143178], [72.33323481, 34.19144106], [72.33315624, 34.19156122]]]]}, "properties": {"id": "Pakistan_123102310_490792", "height": 2.493350028991699, "hmax": 0.002, "ratio": 0.001, "vulnClass": "none"}}, {"type": "Feature", "geometry": {"type": "MultiPolygon", "coordinates": [[[[72.33358119, 34.19047684], [72.33380269, 34.19047963], [72.3338054, 34.19033323], [72.33376356, 34.19033271], [72.33376513, 34.19024761], [72.33364714, 34.19024612], [72.33364651, 34.1902802], [72.33358483, 34.19027942], [72.33358119, 34.19047684]]]]}, "properties": {"id": "Pakistan_123102310_320583", "height": 2.886714458465576, "hmax": 0.004, "ratio": 0.001, "vulnClass": "none"}}, {"type": "Feature", "geometry": {"type": "MultiPolygon", "coordinates": [[[[72.33568413, 34.19030119], [72.33568596, 34.19018273], [72.3354017, 34.19017972], [72.33539986, 34.19029816], [72.33568413, 34.19030119]]]]}, "properties": {"id": "Pakistan_123102310_685344", "height": 4.291441440582275, "hmax": 0.004, "ratio": 0.001, "vulnClass": "none"}}, {"type": "Feature", "geometry": {"type": "MultiPolygon", "coordinates": [[[[72.33541667, 34.1903061], [72.33541667, 34.19033716], [72.33549446, 34.19033716], [72.33549446, 34.1903061], [72.33541667, 34.1903061]]]]}, "properties": {"id": "Pakistan_123102310_55601", "height": 3.974423408508301, "hmax": 0.004, "ratio": 0.001, "vulnClass": "none"}}, {"type": "Feature", "geometry": {"type": "MultiPolygon", "coordinates": [[[[72.33616945, 34.18922408], [72.33613538, 34.18911368], [72.33606326, 34.18912891], [72.33607162, 34.18915599], [72.33570558, 34.18923327], [72.33573129, 34.18931659], [72.33616945, 34.18922408]]]]}, "properties": {"id": "Pakistan_123102310_855912", "height": 2.534092903137207, "hmax": 0.002, "ratio": 0.001, "vulnClass": "none"}}, {"type": "Feature", "geometry": {"type": "MultiPolygon", "coordinates": [[[[72.33516892, 34.18925758], [72.33509096, 34.18927421], [72.33510134, 34.1893075], [72.3351793, 34.18929086], [72.33516892, 34.18925758]]]]}, "properties": {"id": "Pakistan_123102310_699546", "height": 2.636337041854858, "hmax": 0.001, "ratio": 0.0, "vulnClass": "none"}}, {"type": "Feature", "geometry": {"type": "MultiPolygon", "coordinates": [[[[72.33575015, 34.18974632], [72.33574608, 34.18960129], [72.33552089, 34.18960562], [72.33551068, 34.18924195], [72.33540613, 34.18924396], [72.33542042, 34.18975264], [72.33575015, 34.18974632]]]]}, "properties": {"id": "Pakistan_123102310_780320", "height": 4.051931381225586, "hmax": 0.002, "ratio": 0.001, "vulnClass": "none"}}, {"type": "Feature", "geometry": {"type": "MultiPolygon", "coordinates": [[[[72.33529377, 34.18782078], [72.33529532, 34.18784956], [72.33536921, 34.18784685], [72.3353669, 34.1878039], [72.33531872, 34.18780568], [72.3353171, 34.18777554], [72.33524856, 34.18777806], [72.33524713, 34.18775149], [72.3350196, 34.18775986], [72.3350234, 34.18783072], [72.33529377, 34.18782078]]]]}, "properties": {"id": "Pakistan_123102310_391412", "height": 2.670486927032471, "hmax": 0.004, "ratio": 0.002, "vulnClass": "none"}}, {"type": "Feature", "geometry": {"type": "MultiPolygon", "coordinates": [[[[72.335101, 34.18794195], [72.33509612, 34.18783475], [72.3350238, 34.18783701], [72.33502869, 34.18794421], [72.335101, 34.18794195]]]]}, "properties": {"id": "Pakistan_123102310_751937", "height": 2.774899959564209, "hmax": 0.004, "ratio": 0.001, "vulnClass": "none"}}, {"type": "Feature", "geometry": {"type": "MultiPolygon", "coordinates": [[[[72.33548665, 34.18795596], [72.335471, 34.18782275], [72.335547, 34.18781664], [72.33554364, 34.18778807], [72.33536933, 34.18780208], [72.33538834, 34.18796387], [72.33548665, 34.18795596]]]]}, "properties": {"id": "Pakistan_123102310_150109", "height": 3.331925392150879, "hmax": 0.004, "ratio": 0.001, "vulnClass": "none"}}, {"type": "Feature", "geometry": {"type": "MultiPolygon", "coordinates": [[[[72.33549256, 34.1879646], [72.33540409, 34.18796286], [72.33540001, 34.18810478], [72.33548847, 34.18810652], [72.33549256, 34.1879646]]]]}, "properties": {"id": "Pakistan_123102310_348970", "height": 2.994548559188843, "hmax": 0.005, "ratio": 0.002, "vulnClass": "none"}}, {"type": "Feature", "geometry": {"type": "MultiPolygon", "coordinates": [[[[72.33482325, 34.18783164], [72.33472958, 34.18783531], [72.3347306, 34.18785302], [72.33464228, 34.18785648], [72.33464816, 34.18795914], [72.33483014, 34.18795202], [72.33482325, 34.18783164]]]]}, "properties": {"id": "Pakistan_123102310_851100", "height": 2.997843980789185, "hmax": 0.006, "ratio": 0.002, "vulnClass": "none"}}, {"type": "Feature", "geometry": {"type": "MultiPolygon", "coordinates": [[[[72.33499202, 34.18845435], [72.33499124, 34.1882533], [72.33493223, 34.18825346], [72.33493266, 34.18836439], [72.33487097, 34.18836455], [72.3348705, 34.18824252], [72.33480612, 34.18824269], [72.33480646, 34.18832838], [72.33471897, 34.18832861], [72.33471913, 34.18837077], [72.33468056, 34.18837087], [72.33468031, 34.18830653], [72.3345955, 34.18830676], [72.33459542, 34.18828679], [72.33453271, 34.18828696], [72.33453337, 34.18845558], [72.33499202, 34.18845435]]]]}, "properties": {"id": "Pakistan_123102310_35496", "height": 2.881513595581055, "hmax": 0.005, "ratio": 0.002, "vulnClass": "none"}}, {"type": "Feature", "geometry": {"type": "MultiPolygon", "coordinates": [[[[72.33291105, 34.19238237], [72.33325303, 34.19238732], [72.33325591, 34.19225202], [72.33313915, 34.19225034], [72.33314042, 34.19219045], [72.33307338, 34.19218948], [72.33307115, 34.1922951], [72.33291295, 34.1922928], [72.33291105, 34.19238237]]]]}, "properties": {"id": "Pakistan_123102310_177550", "height": 2.599068641662598, "hmax": 0.002, "ratio": 0.001, "vulnClass": "none"}}, {"type": "Feature", "geometry": {"type": "MultiPolygon", "coordinates": [[[[72.33328946, 34.19205078], [72.33328584, 34.19197992], [72.33321207, 34.1919825], [72.33321128, 34.19196699], [72.33316992, 34.19196844], [72.33317411, 34.19205038], [72.33308575, 34.19205347], [72.3330879, 34.19209555], [72.33331816, 34.1920875], [72.33331624, 34.19204985], [72.33328946, 34.19205078]]]]}, "properties": {"id": "Pakistan_123102310_941076", "height": 2.653598785400391, "hmax": 0.002, "ratio": 0.001, "vulnClass": "none"}}, {"type": "Feature", "geometry": {"type": "MultiPolygon", "coordinates": [[[[72.33342884, 34.1920949], [72.33343103, 34.19201589], [72.3335341, 34.19201784], [72.33353498, 34.19198598], [72.33363833, 34.19198795], [72.33364018, 34.19192142], [72.33353682, 34.19191946], [72.333536, 34.1919491], [72.33333226, 34.19194525], [72.33332818, 34.19209299], [72.33342884, 34.1920949]]]]}, "properties": {"id": "Pakistan_123102310_865332", "height": 2.653598785400391, "hmax": 0.002, "ratio": 0.001, "vulnClass": "none"}}, {"type": "Feature", "geometry": {"type": "MultiPolygon", "coordinates": [[[[72.33373301, 34.19203438], [72.33365195, 34.19202737], [72.33364678, 34.19206826], [72.33372783, 34.19207528], [72.33373301, 34.19203438]]]]}, "properties": {"id": "Pakistan_123102310_509850", "height": 2.735444784164429, "hmax": 0.002, "ratio": 0.001, "vulnClass": "none"}}, {"type": "Feature", "geometry": {"type": "MultiPolygon", "coordinates": [[[[72.33366597, 34.1916822], [72.33356999, 34.19182418], [72.33364242, 34.19185767], [72.33373838, 34.19171569], [72.33366597, 34.1916822]]]]}, "properties": {"id": "Pakistan_123102310_694835", "height": 3.484805107116699, "hmax": 0.002, "ratio": 0.001, "vulnClass": "none"}}, {"type": "Feature", "geometry": {"type": "MultiPolygon", "coordinates": [[[[72.33348205, 34.19154507], [72.33344879, 34.19158257], [72.33365205, 34.19170591], [72.33368532, 34.19166841], [72.33348205, 34.19154507]]]]}, "properties": {"id": "Pakistan_123102310_808706", "height": 3.355447769165039, "hmax": 0.002, "ratio": 0.001, "vulnClass": "none"}}]}