{"type": "FeatureCollection", "features": [{"type": "Feature", "geometry": {"type": "MultiPolygon", "coordinates": [[[[71.92403679, 34.2187226], [71.92394877, 34.21870955], [71.92394227, 34.21873981], [71.9240303, 34.21875286], [71.92403679, 34.2187226]]]]}, "properties": {"id": "8J6H6W9F+FHX8", "height": 2.479146957397461, "hmax": 0.007, "ratio": 0.003, "vulnClass": "none"}}, {"type": "Feature", "geometry": {"type": "MultiPolygon", "coordinates": [[[[71.9242195, 34.21848637], [71.92402869, 34.21844973], [71.9240165, 34.21849352], [71.92415835, 34.21852076], [71.92415133, 34.21854597], [71.9242003, 34.21855537], [71.9242195, 34.21848637]]]]}, "properties": {"id": "8J6H6W9F+9MRR", "height": 3.750043392181396, "hmax": 0.007, "ratio": 0.002, "vulnClass": "none"}}, {"type": "Feature", "geometry": {"type": "MultiPolygon", "coordinates": [[[[71.92424151, 34.21840731], [71.92398498, 34.21835805], [71.92396297, 34.21843711], [71.9242195, 34.21848637], [71.92424151, 34.21840731]]]]}, "properties": {"id": "8J6H6W9F+9J9V", "height": 5.835532665252686, "hmax": 0.007, "ratio": 0.001, "vulnClass": "none"}}, {"type": "Feature", "geometry": {"type": "MultiPolygon", "coordinates": [[[[71.92424567, 34.21820874], [71.92392027, 34.21813471], [71.9238948, 34.21821195], [71.9242202, 34.21828598], [71.92424567, 34.21820874]]]]}, "properties": {"id": "8J6H6W9F+7JPC", "height": 3.255313634872437, "hmax": 0.007, "ratio": 0.002, "vulnClass": "none"}}, {"type": "Feature", "geometry": {"type": "MultiPolygon", "coordinates": [[[[71.92393275, 34.21788723], [71.92388534, 34.21787394], [71.92387035, 34.21791085], [71.92391775, 34.21792413], [71.92393275, 34.21788723]]]]}, "properties": {"id": "8J6H6W9F+5H2X", "height": 2.770326852798462, "hmax": 0.009, "ratio": 0.003, "vulnClass": "none"}}, {"type": "Feature", "geometry": {"type": "MultiPolygon", "coordinates": [[[[71.92410278, 34.21768733], [71.92407731, 34.21768544], [71.92407448, 34.21771179], [71.92409995, 34.21771368], [71.92410278, 34.21768733]]]]}, "properties": {"id": "8J6H6W9F+3JGX", "height": 2.865785121917725, "hmax": 0.009, "ratio": 0.003, "vulnClass": "none"}}, {"type": "Feature", "geometry": {"type": "MultiPolygon", "coordinates": [[[[71.92424366, 34.2177078], [71.92412239, 34.21767824], [71.92409294, 34.21776163], [71.92421421, 34.21779119], [71.92424366, 34.2177078]]]]}, "properties": {"id": "8J6H6W9F+3MV7", "height": 4.484302520751953, "hmax": 0.009, "ratio": 0.002, "vulnClass": "none"}}, {"type": "Feature", "geometry": {"type": "MultiPolygon", "coordinates": [[[[71.92431015, 34.21771474], [71.92423628, 34.21769811], [71.92421087, 34.21777601], [71.92428474, 34.21779264], [71.92431015, 34.21771474]]]]}, "properties": {"id": "8J6H6W9F+3PRV", "height": 3.142820119857788, "hmax": 0.009, "ratio": 0.003, "vulnClass": "none"}}, {"type": "Feature", "geometry": {"type": "MultiPolygon", "coordinates": [[[[71.92396687, 34.21767481], [71.92393885, 34.2176716], [71.9239341, 34.21770017], [71.92396213, 34.21770338], [71.92396687, 34.21767481]]]]}, "properties": {"id": "8J6H6W9F+3HGF", "height": 4.065183162689209, "hmax": 0.009, "ratio": 0.002, "vulnClass": "none"}}, {"type": "Feature", "geometry": {"type": "MultiPolygon", "coordinates": [[[[71.92328857, 34.21766931], [71.92324583, 34.21765182], [71.92322355, 34.21768939], [71.92326629, 34.21770687], [71.92328857, 34.21766931]]]]}, "properties": {"id": "8J6H6W9F+38C2", "height": 2.602549076080322, "hmax": 0.014, "ratio": 0.005, "vulnClass": "none"}}, {"type": "Feature", "geometry": {"type": "MultiPolygon", "coordinates": [[[[71.92331385, 34.217828], [71.92317504, 34.2177712], [71.92315307, 34.21780825], [71.92329188, 34.21786505], [71.92331385, 34.217828]]]]}, "properties": {"id": "8J6H6W9F+47HM", "height": 7.90330696105957, "hmax": 0.014, "ratio": 0.002, "vulnClass": "none"}}, {"type": "Feature", "geometry": {"type": "MultiPolygon", "coordinates": [[[[71.92314787, 34.21780717], [71.92303649, 34.2177606], [71.92294311, 34.21791469], [71.9230267, 34.21794965], [71.92309691, 34.2178338], [71.92312469, 34.21784542], [71.92314787, 34.21780717]]]]}, "properties": {"id": "8J6H6W9F+46V2", "height": 9.537935256958008, "hmax": 0.014, "ratio": 0.002, "vulnClass": "none"}}, {"type": "Feature", "geometry": {"type": "MultiPolygon", "coordinates": [[[[71.9231901, 34.2176757], [71.92321237, 34.21763813], [71.92313, 34.21760442], [71.92303724, 34.21776085], [71.92315307, 34.21780825], [71.92319186, 34.21774284], [71.92312642, 34.21771606], [71.92315812, 34.21766261], [71.9231901, 34.2176757]]]]}, "properties": {"id": "8J6H6W9F+37JC", "height": 5.154830455780029, "hmax": 0.014, "ratio": 0.003, "vulnClass": "none"}}, {"type": "Feature", "geometry": {"type": "MultiPolygon", "coordinates": [[[[71.9229741, 34.21773515], [71.92301907, 34.21766099], [71.92297705, 34.21764341], [71.92293209, 34.21771757], [71.9229741, 34.21773515]]]]}, "properties": {"id": "8J6H6W9F+35HC", "height": 3.046029090881348, "hmax": 0.014, "ratio": 0.005, "vulnClass": "none"}}, {"type": "Feature", "geometry": {"type": "MultiPolygon", "coordinates": [[[[71.922876, 34.21780831], [71.92263774, 34.2177069], [71.92259436, 34.21777723], [71.92283263, 34.21787864], [71.922876, 34.21780831]]]]}, "properties": {"id": "8J6H6W9F+439P", "height": 3.979731559753418, "hmax": 0.013, "ratio": 0.003, "vulnClass": "none"}}, {"type": "Feature", "geometry": {"type": "MultiPolygon", "coordinates": [[[[71.92279478, 34.21812042], [71.92274587, 34.2181072], [71.92273608, 34.21813221], [71.92278481, 34.21814588], [71.92279478, 34.21812042]]]]}, "properties": {"id": "8J6H6W9F+7423", "height": 4.672122955322266, "hmax": 0.014, "ratio": 0.003, "vulnClass": "none"}}, {"type": "Feature", "geometry": {"type": "MultiPolygon", "coordinates": [[[[71.92290084, 34.21815684], [71.9228071, 34.21811959], [71.9227761, 34.21817342], [71.92286984, 34.21821067], [71.92290084, 34.21815684]]]]}, "properties": {"id": "8J6H6W9F+748Q", "height": 3.750125885009766, "hmax": 0.015, "ratio": 0.004, "vulnClass": "none"}}, {"type": "Feature", "geometry": {"type": "MultiPolygon", "coordinates": [[[[71.92299106, 34.21810847], [71.92287249, 34.21806135], [71.92283302, 34.21812989], [71.92295159, 34.21817701], [71.92299106, 34.21810847]]]]}, "properties": {"id": "8J6H6W9F+65VJ", "height": 4.270717620849609, "hmax": 0.015, "ratio": 0.003, "vulnClass": "none"}}, {"type": "Feature", "geometry": {"type": "MultiPolygon", "coordinates": [[[[71.92264348, 34.21795111], [71.92249165, 34.21788246], [71.92244635, 34.21795159], [71.92259818, 34.21802025], [71.92264348, 34.21795111]]]]}, "properties": {"id": "8J6H6W9F+52M3", "height": 6.381321907043457, "hmax": 0.013, "ratio": 0.002, "vulnClass": "none"}}, {"type": "Feature", "geometry": {"type": "MultiPolygon", "coordinates": [[[[71.92296001, 34.21788697], [71.92285581, 34.21784338], [71.92283897, 34.21787115], [71.92294317, 34.21791475], [71.92296001, 34.21788697]]]]}, "properties": {"id": "8J6H6W9F+5525", "height": 8.037618637084961, "hmax": 0.014, "ratio": 0.002, "vulnClass": "none"}}, {"type": "Feature", "geometry": {"type": "MultiPolygon", "coordinates": [[[[71.92320042, 34.21802456], [71.9232586, 34.21788902], [71.9232164, 34.21787652], [71.92315822, 34.21801206], [71.92320042, 34.21802456]]]]}, "properties": {"id": "8J6H6W9F+57P4", "height": 8.911930084228516, "hmax": 0.014, "ratio": 0.002, "vulnClass": "none"}}, {"type": "Feature", "geometry": {"type": "MultiPolygon", "coordinates": [[[[71.92342167, 34.21782844], [71.92332242, 34.21780041], [71.92329718, 34.21786207], [71.92342162, 34.21789722], [71.92343297, 34.21786948], [71.92340778, 34.21786237], [71.92342167, 34.21782844]]]]}, "properties": {"id": "8J6H6W9F+48QW", "height": 5.628783702850342, "hmax": 0.014, "ratio": 0.003, "vulnClass": "none"}}, {"type": "Feature", "geometry": {"type": "MultiPolygon", "coordinates": [[[[71.92339789, 34.21788969], [71.92336973, 34.21796384], [71.92341561, 34.21797586], [71.92342711, 34.2179456], [71.92349025, 34.21796215], [71.92350676, 34.21791868], [71.92339789, 34.21788969]]]]}, "properties": {"id": "8J6H6W9F+59F9", "height": 6.787810802459717, "hmax": 0.014, "ratio": 0.002, "vulnClass": "none"}}, {"type": "Feature", "geometry": {"type": "MultiPolygon", "coordinates": [[[[71.92359441, 34.21790087], [71.923561, 34.21789273], [71.92354688, 34.21793277], [71.92358029, 34.2179409], [71.92359441, 34.21790087]]]]}, "properties": {"id": "8J6H6W9F+5C8M", "height": 4.296271324157715, "hmax": 0.014, "ratio": 0.003, "vulnClass": "none"}}, {"type": "Feature", "geometry": {"type": "MultiPolygon", "coordinates": [[[[71.92377412, 34.21790904], [71.92379263, 34.21784443], [71.92376395, 34.21783876], [71.92374543, 34.21790336], [71.92377412, 34.21790904]]]]}, "properties": {"id": "8J6H6W9F+4GRW", "height": 6.181529521942139, "hmax": 0.014, "ratio": 0.002, "vulnClass": "none"}}, {"type": "Feature", "geometry": {"type": "MultiPolygon", "coordinates": [[[[71.92374632, 34.21787686], [71.92370694, 34.21786809], [71.92369553, 34.21790344], [71.92373491, 34.21791221], [71.92374632, 34.21787686]]]]}, "properties": {"id": "8J6H6W9F+5F5J", "height": 6.181529521942139, "hmax": 0.014, "ratio": 0.002, "vulnClass": "none"}}, {"type": "Feature", "geometry": {"type": "MultiPolygon", "coordinates": [[[[71.92372949, 34.21792801], [71.92362984, 34.21790363], [71.92361614, 34.21794227], [71.92371579, 34.21796665], [71.92372949, 34.21792801]]]]}, "properties": {"id": "8J6H6W9F+5FFG", "height": 6.181529521942139, "hmax": 0.014, "ratio": 0.002, "vulnClass": "none"}}, {"type": "Feature", "geometry": {"type": "MultiPolygon", "coordinates": [[[[71.92390752, 34.21794191], [71.92381512, 34.2179193], [71.92379173, 34.21798524], [71.92388414, 34.21800785], [71.92390752, 34.21794191]]]]}, "properties": {"id": "8J6H6W9F+5GQC", "height": 2.666967153549194, "hmax": 0.009, "ratio": 0.003, "vulnClass": "none"}}, {"type": "Feature", "geometry": {"type": "MultiPolygon", "coordinates": [[[[71.9237295, 34.217928], [71.9237158, 34.2179667], [71.9237917, 34.2179852], [71.9238054, 34.2179466], [71.9237295, 34.217928]]]]}, "properties": {"id": "8J6H6W9F+5GJ7", "height": 6.181529521942139, "hmax": 0.015, "ratio": 0.002, "vulnClass": "none"}}, {"type": "Feature", "geometry": {"type": "MultiPolygon", "coordinates": [[[[71.92377233, 34.21799561], [71.92366554, 34.21797216], [71.92365183, 34.21801523], [71.92375863, 34.21803868], [71.92377233, 34.21799561]]]]}, "properties": {"id": "8J6H6W9F+6F49", "height": 4.510978698730469, "hmax": 0.015, "ratio": 0.003, "vulnClass": "none"}}, {"type": "Feature", "geometry": {"type": "MultiPolygon", "coordinates": [[[[71.92336874, 34.21797422], [71.92335318, 34.21797041], [71.92334257, 34.21800034], [71.92335812, 34.21800415], [71.92336874, 34.21797422]]]]}, "properties": {"id": "8J6H6W9F+58XF", "height": 7.3587646484375, "hmax": 0.015, "ratio": 0.002, "vulnClass": "none"}}, {"type": "Feature", "geometry": {"type": "MultiPolygon", "coordinates": [[[[71.92345528, 34.2181136], [71.92351497, 34.21800627], [71.92347992, 34.21799281], [71.92342023, 34.21810015], [71.92345528, 34.2181136]]]]}, "properties": {"id": "8J6H6W9F+69G5", "height": 8.386566162109375, "hmax": 0.015, "ratio": 0.002, "vulnClass": "none"}}, {"type": "Feature", "geometry": {"type": "MultiPolygon", "coordinates": [[[[71.92372236, 34.21809327], [71.92365779, 34.21807747], [71.92363691, 34.21813635], [71.92370148, 34.21815215], [71.92372236, 34.21809327]]]]}, "properties": {"id": "8J6H6W9F+6FVG", "height": 5.441530227661133, "hmax": 0.015, "ratio": 0.003, "vulnClass": "none"}}, {"type": "Feature", "geometry": {"type": "MultiPolygon", "coordinates": [[[[71.92388001, 34.21809932], [71.92373297, 34.21806334], [71.92370148, 34.21815215], [71.92384852, 34.21818813], [71.92388001, 34.21809932]]]]}, "properties": {"id": "8J6H6W9F+7G33", "height": 2.683680057525635, "hmax": 0.013, "ratio": 0.005, "vulnClass": "none"}}, {"type": "Feature", "geometry": {"type": "MultiPolygon", "coordinates": [[[[71.92387248, 34.21823899], [71.92382936, 34.21823268], [71.92382104, 34.21827195], [71.92386415, 34.21827826], [71.92387248, 34.21823899]]]]}, "properties": {"id": "8J6H6W9F+8G56", "height": 5.796622276306152, "hmax": 0.007, "ratio": 0.001, "vulnClass": "none"}}, {"type": "Feature", "geometry": {"type": "MultiPolygon", "coordinates": [[[[71.92364512, 34.21829654], [71.92349126, 34.21826099], [71.92346886, 34.21832787], [71.92381242, 34.21840726], [71.92382633, 34.21836571], [71.92363664, 34.21832187], [71.92364512, 34.21829654]]]]}, "properties": {"id": "8J6H6W9F+8FJ6", "height": 3.335759162902832, "hmax": 0.015, "ratio": 0.005, "vulnClass": "none"}}, {"type": "Feature", "geometry": {"type": "MultiPolygon", "coordinates": [[[[71.92360535, 34.21818257], [71.92356557, 34.21817937], [71.92356202, 34.21820985], [71.9236018, 34.21821304], [71.92360535, 34.21818257]]]]}, "properties": {"id": "8J6H6W9F+7CGW", "height": 3.681694507598877, "hmax": 0.015, "ratio": 0.004, "vulnClass": "none"}}, {"type": "Feature", "geometry": {"type": "MultiPolygon", "coordinates": [[[[71.92319819, 34.21814722], [71.923164, 34.2181414], [71.92315651, 34.21817178], [71.92319071, 34.21817759], [71.92319819, 34.21814722]]]]}, "properties": {"id": "8J6H6W9F+7778", "height": 2.581653594970703, "hmax": 0.015, "ratio": 0.006, "vulnClass": "none"}}, {"type": "Feature", "geometry": {"type": "MultiPolygon", "coordinates": [[[[71.92318368, 34.21818577], [71.92306479, 34.21813818], [71.92302479, 34.21820714], [71.92314367, 34.21825473], [71.92318368, 34.21818577]]]]}, "properties": {"id": "8J6H6W9F+76HV", "height": 5.859134197235107, "hmax": 0.015, "ratio": 0.003, "vulnClass": "none"}}, {"type": "Feature", "geometry": {"type": "MultiPolygon", "coordinates": [[[[71.92308417, 34.21804065], [71.92305248, 34.21803292], [71.92303771, 34.21807474], [71.9230694, 34.21808246], [71.92308417, 34.21804065]]]]}, "properties": {"id": "8J6H6W9F+66F9", "height": 7.860649108886719, "hmax": 0.015, "ratio": 0.002, "vulnClass": "none"}}, {"type": "Feature", "geometry": {"type": "MultiPolygon", "coordinates": [[[[71.92295159, 34.21817701], [71.92290084, 34.21815684], [71.92285483, 34.21823675], [71.92290557, 34.21825692], [71.92295159, 34.21817701]]]]}, "properties": {"id": "8J6H6W9F+75J9", "height": 3.602530956268311, "hmax": 0.015, "ratio": 0.004, "vulnClass": "none"}}, {"type": "Feature", "geometry": {"type": "MultiPolygon", "coordinates": [[[[71.92299903, 34.21833773], [71.92305761, 34.218236], [71.92301755, 34.21822008], [71.92295897, 34.21832181], [71.92299903, 34.21833773]]]]}, "properties": {"id": "8J6H6W9F+8663", "height": 3.857418298721313, "hmax": 0.015, "ratio": 0.004, "vulnClass": "none"}}, {"type": "Feature", "geometry": {"type": "MultiPolygon", "coordinates": [[[[71.92364135, 34.21849299], [71.92368028, 34.21837672], [71.92352934, 34.21834184], [71.923458, 34.21855488], [71.92355138, 34.21857646], [71.92358379, 34.21847968], [71.92364135, 34.21849299]]]]}, "properties": {"id": "8J6H6W9F+9CP2", "height": 6.377036571502686, "hmax": 0.015, "ratio": 0.002, "vulnClass": "none"}}, {"type": "Feature", "geometry": {"type": "MultiPolygon", "coordinates": [[[[71.92364985, 34.21859922], [71.92368226, 34.21850244], [71.92364135, 34.21849299], [71.92360894, 34.21858976], [71.92364985, 34.21859922]]]]}, "properties": {"id": "8J6H6W9F+CF6W", "height": 3.016144514083862, "hmax": 0.015, "ratio": 0.005, "vulnClass": "none"}}, {"type": "Feature", "geometry": {"type": "MultiPolygon", "coordinates": [[[[71.92345801, 34.21859966], [71.92336294, 34.2185845], [71.92335499, 34.21861889], [71.92345006, 34.21863405], [71.92345801, 34.21859966]]]]}, "properties": {"id": "8J6H6W9F+C9V6", "height": 4.309731483459473, "hmax": 0.015, "ratio": 0.003, "vulnClass": "none"}}, {"type": "Feature", "geometry": {"type": "MultiPolygon", "coordinates": [[[[71.9232983, 34.21863491], [71.92324863, 34.21862343], [71.92320078, 34.21876623], [71.92349161, 34.21883348], [71.92353946, 34.21869068], [71.92347814, 34.2186765], [71.92345289, 34.21875184], [71.92327305, 34.21871026], [71.9232983, 34.21863491]]]]}, "properties": {"id": "8J6H6W9F+F8XX", "height": 5.809727191925049, "hmax": 0.015, "ratio": 0.003, "vulnClass": "none"}}, {"type": "Feature", "geometry": {"type": "MultiPolygon", "coordinates": [[[[71.92227287, 34.218383], [71.92212413, 34.21832083], [71.92209878, 34.2183627], [71.92224751, 34.21842486], [71.92227287, 34.218383]]]]}, "properties": {"id": "8J6H6W9C+8VVX", "height": 5.408862113952637, "hmax": 0.013, "ratio": 0.002, "vulnClass": "none"}}, {"type": "Feature", "geometry": {"type": "MultiPolygon", "coordinates": [[[[71.92181688, 34.21821218], [71.92188349, 34.21815959], [71.92185646, 34.21813597], [71.92178985, 34.21818855], [71.92181688, 34.21821218]]]]}, "properties": {"id": "8J6H6W9C+7P8X", "height": 3.164288997650146, "hmax": 0.013, "ratio": 0.004, "vulnClass": "none"}}, {"type": "Feature", "geometry": {"type": "MultiPolygon", "coordinates": [[[[71.9218804, 34.21815046], [71.92193082, 34.21809891], [71.92189893, 34.21807738], [71.92184851, 34.21812894], [71.9218804, 34.21815046]]]]}, "properties": {"id": "8J6H6W9C+6QRF", "height": 4.492826461791992, "hmax": 0.013, "ratio": 0.003, "vulnClass": "none"}}, {"type": "Feature", "geometry": {"type": "MultiPolygon", "coordinates": [[[[71.91708938, 34.22450056], [71.91700987, 34.22449448], [71.91700332, 34.22455357], [71.91708283, 34.22455966], [71.91708938, 34.22450056]]]]}, "properties": {"id": "8J6H6WF8+RR73", "height": 2.972039461135864, "hmax": 0.015, "ratio": 0.005, "vulnClass": "none"}}, {"type": "Feature", "geometry": {"type": "MultiPolygon", "coordinates": [[[[71.91694695, 34.22458438], [71.91682051, 34.22457471], [71.91681542, 34.22462063], [71.91705031, 34.2246386], [71.91705926, 34.22455785], [71.91700332, 34.22455357], [71.91700717, 34.22451886], [71.91695466, 34.22451485], [71.91694695, 34.22458438]]]]}, "properties": {"id": "8J6H6WF8+RQPP", "height": 4.546924114227295, "hmax": 0.015, "ratio": 0.003, "vulnClass": "none"}}, {"type": "Feature", "geometry": {"type": "MultiPolygon", "coordinates": [[[[71.91696686, 34.22438207], [71.91692436, 34.22437657], [71.91691742, 34.22441357], [71.91695992, 34.22441908], [71.91696686, 34.22438207]]]]}, "properties": {"id": "8J6H6WF8+QQ4R", "height": 2.867307186126709, "hmax": 0.015, "ratio": 0.005, "vulnClass": "none"}}, {"type": "Feature", "geometry": {"type": "MultiPolygon", "coordinates": [[[[71.91545163, 34.22658587], [71.91545844, 34.22652514], [71.91542572, 34.22652261], [71.91542227, 34.22655336], [71.91538741, 34.22655066], [71.91538405, 34.22658063], [71.91545163, 34.22658587]]]]}, "properties": {"id": "8J6H6WG8+J5F8", "height": 3.169557571411133, "hmax": 0.013, "ratio": 0.004, "vulnClass": "none"}}, {"type": "Feature", "geometry": {"type": "MultiPolygon", "coordinates": [[[[71.91569328, 34.22622025], [71.91563299, 34.22621449], [71.9156289, 34.22624398], [71.91565334, 34.22624632], [71.91564983, 34.22627162], [71.91568569, 34.22627505], [71.91569328, 34.22622025]]]]}, "properties": {"id": "8J6H6WG8+F7VJ", "height": 2.662240028381348, "hmax": 0.013, "ratio": 0.005, "vulnClass": "none"}}, {"type": "Feature", "geometry": {"type": "MultiPolygon", "coordinates": [[[[71.91538202, 34.22589537], [71.91521814, 34.22584217], [71.91520064, 34.22587936], [71.91536452, 34.22593256], [71.91538202, 34.22589537]]]]}, "properties": {"id": "8J6H6WG8+943F", "height": 3.774803161621094, "hmax": 0.013, "ratio": 0.003, "vulnClass": "none"}}, {"type": "Feature", "geometry": {"type": "MultiPolygon", "coordinates": [[[[71.91543898, 34.22591991], [71.91538943, 34.22590933], [71.91537796, 34.2259467], [71.91542753, 34.2259572], [71.91543898, 34.22591991]]]]}, "properties": {"id": "8J6H6WG8+95F6", "height": 2.865556240081787, "hmax": 0.013, "ratio": 0.005, "vulnClass": "none"}}, {"type": "Feature", "geometry": {"type": "MultiPolygon", "coordinates": [[[[71.91551766, 34.2259353], [71.91544564, 34.22591817], [71.91543015, 34.22596311], [71.91550224, 34.22598025], [71.91551766, 34.2259353]]]]}, "properties": {"id": "8J6H6WG8+95HR", "height": 2.865556240081787, "hmax": 0.013, "ratio": 0.005, "vulnClass": "none"}}, {"type": "Feature", "geometry": {"type": "MultiPolygon", "coordinates": [[[[71.91575228, 34.22561423], [71.91569846, 34.22559207], [71.91567643, 34.225629], [71.91573025, 34.22565115], [71.91575228, 34.22561423]]]]}, "properties": {"id": "8J6H6WG8+67WX", "height": 2.627992630004883, "hmax": 0.011, "ratio": 0.004, "vulnClass": "none"}}, {"type": "Feature", "geometry": {"type": "MultiPolygon", "coordinates": [[[[71.91583436, 34.22564946], [71.91579457, 34.22563479], [71.91575126, 34.22571585], [71.91579104, 34.22573052], [71.91583436, 34.22564946]]]]}, "properties": {"id": "8J6H6WG8+78F7", "height": 2.691040515899658, "hmax": 0.011, "ratio": 0.004, "vulnClass": "none"}}, {"type": "Feature", "geometry": {"type": "MultiPolygon", "coordinates": [[[[71.91593888, 34.22579302], [71.91584448, 34.22575765], [71.91581173, 34.22581796], [71.91590612, 34.22585333], [71.91593888, 34.22579302]]]]}, "properties": {"id": "8J6H6WG8+89C6", "height": 3.379016876220703, "hmax": 0.011, "ratio": 0.003, "vulnClass": "none"}}, {"type": "Feature", "geometry": {"type": "MultiPolygon", "coordinates": [[[[71.91597828, 34.22570392], [71.91594409, 34.22569314], [71.9159196, 34.22574672], [71.9159538, 34.2257575], [71.91597828, 34.22570392]]]]}, "properties": {"id": "8J6H6WG8+79W3", "height": 3.322014808654785, "hmax": 0.011, "ratio": 0.003, "vulnClass": "none"}}, {"type": "Feature", "geometry": {"type": "MultiPolygon", "coordinates": [[[[71.91597181, 34.2256279], [71.91586202, 34.22558652], [71.91583565, 34.22563451], [71.91594544, 34.22567589], [71.91597181, 34.2256279]]]]}, "properties": {"id": "8J6H6WG8+7929", "height": 2.519633531570435, "hmax": 0.011, "ratio": 0.004, "vulnClass": "none"}}, {"type": "Feature", "geometry": {"type": "MultiPolygon", "coordinates": [[[[71.91606709, 34.22564036], [71.91599321, 34.2256076], [71.91595538, 34.22566645], [71.91609706, 34.22572928], [71.9161451, 34.22565594], [71.91607703, 34.22562518], [71.91606709, 34.22564036]]]]}, "properties": {"id": "8J6H6WG8+7C7P", "height": 2.519633531570435, "hmax": 0.01, "ratio": 0.004, "vulnClass": "none"}}, {"type": "Feature", "geometry": {"type": "MultiPolygon", "coordinates": [[[[71.91630785, 34.22572325], [71.91624687, 34.2257004], [71.91620739, 34.22577307], [71.91630664, 34.22581026], [71.91632554, 34.22577545], [71.91628729, 34.22576112], [71.91630785, 34.22572325]]]]}, "properties": {"id": "8J6H6WG8+8G28", "height": 2.530691623687744, "hmax": 0.01, "ratio": 0.004, "vulnClass": "none"}}, {"type": "Feature", "geometry": {"type": "MultiPolygon", "coordinates": [[[[71.91638544, 34.22583979], [71.91618334, 34.22576406], [71.91616562, 34.22579669], [71.91636772, 34.22587243], [71.91638544, 34.22583979]]]]}, "properties": {"id": "8J6H6WG8+8GCQ", "height": 2.65192437171936, "hmax": 0.01, "ratio": 0.004, "vulnClass": "none"}}, {"type": "Feature", "geometry": {"type": "MultiPolygon", "coordinates": [[[[71.91702258, 34.2257331], [71.91698594, 34.22572227], [71.91696998, 34.22575951], [71.91700662, 34.22577034], [71.91702258, 34.2257331]]]]}, "properties": {"id": "8J6H6WG8+7QXX", "height": 2.849081516265869, "hmax": 0.01, "ratio": 0.003, "vulnClass": "none"}}, {"type": "Feature", "geometry": {"type": "MultiPolygon", "coordinates": [[[[71.91721709, 34.22592666], [71.91696842, 34.22585333], [71.9169363, 34.22592849], [71.91718497, 34.22600182], [71.91721709, 34.22592666]]]]}, "properties": {"id": "8J6H6WG8+9RG3", "height": 3.676601648330688, "hmax": 0.006, "ratio": 0.002, "vulnClass": "none"}}, {"type": "Feature", "geometry": {"type": "MultiPolygon", "coordinates": [[[[71.9166224, 34.22603101], [71.91653907, 34.22601084], [71.91652594, 34.22604828], [71.91660923, 34.22606848], [71.9166224, 34.22603101]]]]}, "properties": {"id": "8J6H6WG8+CJ8F", "height": 2.462843418121338, "hmax": 0.008, "ratio": 0.003, "vulnClass": "none"}}, {"type": "Feature", "geometry": {"type": "MultiPolygon", "coordinates": [[[[71.91682791, 34.22608078], [71.91663486, 34.22602593], [71.91661758, 34.22606789], [71.91685316, 34.22613482], [71.91688083, 34.22606762], [71.9168383, 34.22605554], [71.91682791, 34.22608078]]]]}, "properties": {"id": "8J6H6WG8+CPJ2", "height": 3.077894926071167, "hmax": 0.008, "ratio": 0.003, "vulnClass": "none"}}, {"type": "Feature", "geometry": {"type": "MultiPolygon", "coordinates": [[[[71.91654878, 34.22595107], [71.91644988, 34.22591888], [71.91640571, 34.2260125], [71.91650461, 34.2260447], [71.91654878, 34.22595107]]]]}, "properties": {"id": "8J6H6WG8+9HX7", "height": 3.329880952835083, "hmax": 0.008, "ratio": 0.002, "vulnClass": "none"}}, {"type": "Feature", "geometry": {"type": "MultiPolygon", "coordinates": [[[[71.91647308, 34.22587149], [71.91638741, 34.22584312], [71.91631, 34.22600442], [71.91639567, 34.22603279], [71.91647308, 34.22587149]]]]}, "properties": {"id": "8J6H6WG8+9HCG", "height": 4.431389331817627, "hmax": 0.008, "ratio": 0.002, "vulnClass": "none"}}, {"type": "Feature", "geometry": {"type": "MultiPolygon", "coordinates": [[[[71.91623719, 34.22607813], [71.9160248, 34.22605796], [71.91601982, 34.22609416], [71.91623221, 34.22611433], [71.91623719, 34.22607813]]]]}, "properties": {"id": "8J6H6WG8+CFJC", "height": 3.646375894546509, "hmax": 0.008, "ratio": 0.002, "vulnClass": "none"}}, {"type": "Feature", "geometry": {"type": "MultiPolygon", "coordinates": [[[[71.9174246, 34.22628663], [71.9174729, 34.22612927], [71.91737453, 34.22610844], [71.91735445, 34.22617387], [71.91716795, 34.22613437], [71.91713974, 34.2262263], [71.9174246, 34.22628663]]]]}, "properties": {"id": "8J6H6WG8+FWGR", "height": 5.336822986602783, "hmax": 0.005, "ratio": 0.001, "vulnClass": "none"}}, {"type": "Feature", "geometry": {"type": "MultiPolygon", "coordinates": [[[[71.91748092, 34.22607582], [71.91738682, 34.22606591], [71.9173816, 34.22610008], [71.9174757, 34.22610999], [71.91748092, 34.22607582]]]]}, "properties": {"id": "8J6H6WG8+CXMH", "height": 3.165244579315186, "hmax": 0.005, "ratio": 0.002, "vulnClass": "none"}}, {"type": "Feature", "geometry": {"type": "MultiPolygon", "coordinates": [[[[71.91747199, 34.22603439], [71.91742842, 34.22602555], [71.91741661, 34.22606571], [71.91746018, 34.22607455], [71.91747199, 34.22603439]]]]}, "properties": {"id": "8J6H6WG8+CXG2", "height": 2.97788405418396, "hmax": 0.005, "ratio": 0.002, "vulnClass": "none"}}, {"type": "Feature", "geometry": {"type": "MultiPolygon", "coordinates": [[[[71.91745123, 34.22596298], [71.91723465, 34.22591711], [71.91721606, 34.22597767], [71.91747698, 34.22603294], [71.91749274, 34.22598158], [71.9174484, 34.22597219], [71.91745123, 34.22596298]]]]}, "properties": {"id": "8J6H6WG8+9WX3", "height": 3.190833806991577, "hmax": 0.005, "ratio": 0.002, "vulnClass": "none"}}, {"type": "Feature", "geometry": {"type": "MultiPolygon", "coordinates": [[[[71.9174905, 34.22583524], [71.91743834, 34.22582997], [71.9174218, 34.22594305], [71.91747395, 34.22594832], [71.9174905, 34.22583524]]]]}, "properties": {"id": "8J6H6WG8+9X4G", "height": 3.169185161590576, "hmax": 0.007, "ratio": 0.002, "vulnClass": "none"}}, {"type": "Feature", "geometry": {"type": "MultiPolygon", "coordinates": [[[[71.91749596, 34.22579788], [71.917452, 34.22579344], [71.91744653, 34.2258308], [71.9174905, 34.22583524], [71.91749596, 34.22579788]]]]}, "properties": {"id": "8J6H6WG8+8XHC", "height": 2.457613229751587, "hmax": 0.008, "ratio": 0.003, "vulnClass": "none"}}, {"type": "Feature", "geometry": {"type": "MultiPolygon", "coordinates": [[[[71.91731729, 34.22579665], [71.91726725, 34.2257892], [71.91723831, 34.22592332], [71.91728835, 34.22593077], [71.91731729, 34.22579665]]]]}, "properties": {"id": "8J6H6WG8+8WR9", "height": 4.805922985076904, "hmax": 0.007, "ratio": 0.002, "vulnClass": "none"}}, {"type": "Feature", "geometry": {"type": "MultiPolygon", "coordinates": [[[[71.91722565, 34.22583332], [71.91723678, 34.22578277], [71.91720047, 34.22577726], [71.91718934, 34.2258278], [71.91722565, 34.22583332]]]]}, "properties": {"id": "8J6H6WG8+8VG9", "height": 5.51323413848877, "hmax": 0.008, "ratio": 0.002, "vulnClass": "none"}}, {"type": "Feature", "geometry": {"type": "MultiPolygon", "coordinates": [[[[71.91749596, 34.22579788], [71.91751001, 34.22570187], [71.91746604, 34.22569744], [71.91745746, 34.22575614], [71.91739336, 34.22574967], [71.91738791, 34.22578697], [71.91749596, 34.22579788]]]]}, "properties": {"id": "8J6H6WG8+8X48", "height": 2.565984010696411, "hmax": 0.008, "ratio": 0.003, "vulnClass": "none"}}, {"type": "Feature", "geometry": {"type": "MultiPolygon", "coordinates": [[[[71.91759505, 34.22558386], [71.91754684, 34.22557899], [71.91751454, 34.22579975], [71.91760538, 34.22580892], [71.91762259, 34.22569129], [71.91757996, 34.22568698], [71.91759505, 34.22558386]]]]}, "properties": {"id": "8J6H6WG9+72P6", "height": 2.499441146850586, "hmax": 0.008, "ratio": 0.003, "vulnClass": "none"}}, {"type": "Feature", "geometry": {"type": "MultiPolygon", "coordinates": [[[[71.91732602, 34.22515109], [71.91720752, 34.22513142], [71.91718953, 34.22520621], [71.91730803, 34.22522588], [71.91732602, 34.22515109]]]]}, "properties": {"id": "8J6H6WG8+3WC2", "height": 2.676195621490479, "hmax": 0.008, "ratio": 0.003, "vulnClass": "none"}}, {"type": "Feature", "geometry": {"type": "MultiPolygon", "coordinates": [[[[71.91716548, 34.22519811], [71.91717482, 34.22514124], [71.91714593, 34.22513797], [71.91713658, 34.22519483], [71.91716548, 34.22519811]]]]}, "properties": {"id": "8J6H6WG8+3V6Q", "height": 3.110151290893555, "hmax": 0.008, "ratio": 0.003, "vulnClass": "none"}}, {"type": "Feature", "geometry": {"type": "MultiPolygon", "coordinates": [[[[71.91743047, 34.22551173], [71.91737093, 34.22550127], [71.91736059, 34.22554189], [71.91742013, 34.22555234], [71.91743047, 34.22551173]]]]}, "properties": {"id": "8J6H6WG8+6X64", "height": 2.836604118347168, "hmax": 0.008, "ratio": 0.003, "vulnClass": "none"}}, {"type": "Feature", "geometry": {"type": "MultiPolygon", "coordinates": [[[[71.9174019, 34.2255749], [71.9173243, 34.2255666], [71.9173109, 34.225653], [71.9173886, 34.2256612], [71.9174019, 34.2255749]]]]}, "properties": {"id": "8J6H6WG8+6WXF", "height": 3.279761075973511, "hmax": 0.008, "ratio": 0.002, "vulnClass": "none"}}, {"type": "Feature", "geometry": {"type": "MultiPolygon", "coordinates": [[[[71.91692987, 34.22553243], [71.9168813, 34.22552394], [71.91687153, 34.22556251], [71.9169201, 34.225571], [71.91692987, 34.22553243]]]]}, "properties": {"id": "8J6H6WG8+6Q6X", "height": 2.738401412963867, "hmax": 0.01, "ratio": 0.004, "vulnClass": "none"}}, {"type": "Feature", "geometry": {"type": "MultiPolygon", "coordinates": [[[[71.91711763, 34.225509], [71.91696641, 34.22546442], [71.91693762, 34.22553179], [71.91708885, 34.22557636], [71.91711763, 34.225509]]]]}, "properties": {"id": "8J6H6WG8+6R2X", "height": 3.686314105987549, "hmax": 0.009, "ratio": 0.002, "vulnClass": "none"}}, {"type": "Feature", "geometry": {"type": "MultiPolygon", "coordinates": [[[[71.91635146, 34.22572408], [71.91642563, 34.22560292], [71.91638378, 34.22558489], [71.9163083, 34.22570548], [71.91635146, 34.22572408]]]]}, "properties": {"id": "8J6H6WG8+7G94", "height": 3.203349590301514, "hmax": 0.01, "ratio": 0.003, "vulnClass": "none"}}, {"type": "Feature", "geometry": {"type": "MultiPolygon", "coordinates": [[[[71.91624022, 34.22565042], [71.91627377, 34.22559103], [71.91621185, 34.2255669], [71.91616763, 34.22564516], [71.91619355, 34.22565526], [71.91620421, 34.22563638], [71.91624022, 34.22565042]]]]}, "properties": {"id": "8J6H6WG8+6FXC", "height": 2.922253608703613, "hmax": 0.01, "ratio": 0.003, "vulnClass": "none"}}, {"type": "Feature", "geometry": {"type": "MultiPolygon", "coordinates": [[[[71.91705973, 34.22510483], [71.9169627, 34.22509661], [71.91695071, 34.2251942], [71.91704775, 34.22520242], [71.91705973, 34.22510483]]]]}, "properties": {"id": "8J6H6WG8+3R2R", "height": 4.202799797058105, "hmax": 0.01, "ratio": 0.002, "vulnClass": "none"}}, {"type": "Feature", "geometry": {"type": "MultiPolygon", "coordinates": [[[[71.9170381, 34.2246611], [71.91697153, 34.22465564], [71.91696162, 34.22473888], [71.91702819, 34.22474435], [71.9170381, 34.2246611]]]]}, "properties": {"id": "8J6H6WF8+VQHX", "height": 2.919641017913818, "hmax": 0.015, "ratio": 0.005, "vulnClass": "none"}}, {"type": "Feature", "geometry": {"type": "MultiPolygon", "coordinates": [[[[71.91709983, 34.2246942], [71.91704923, 34.22469005], [71.91703644, 34.2247976], [71.91719256, 34.22481042], [71.91720535, 34.22470286], [71.91713905, 34.22469742], [71.91713479, 34.22473326], [71.91709557, 34.22473004], [71.91709983, 34.2246942]]]]}, "properties": {"id": "8J6H6WF8+WR55", "height": 3.770987749099731, "hmax": 0.01, "ratio": 0.003, "vulnClass": "none"}}, {"type": "Feature", "geometry": {"type": "MultiPolygon", "coordinates": [[[[71.92014164, 34.2228146], [71.9200451, 34.22281206], [71.92004278, 34.22287274], [71.92013933, 34.22287528], [71.92014164, 34.2228146]]]]}, "properties": {"id": "8J6H6WFC+42PQ", "height": 2.686046361923218, "hmax": 0.007, "ratio": 0.003, "vulnClass": "none"}}, {"type": "Feature", "geometry": {"type": "MultiPolygon", "coordinates": [[[[71.9203922, 34.22274], [71.9202856, 34.2227372], [71.9202802, 34.222879], [71.9203868, 34.2228818], [71.9203922, 34.22274]]]]}, "properties": {"id": "8J6H6WFC+44G9", "height": 2.541961908340454, "hmax": 0.007, "ratio": 0.003, "vulnClass": "none"}}, {"type": "Feature", "geometry": {"type": "MultiPolygon", "coordinates": [[[[71.92082587, 34.22280626], [71.92078049, 34.2228051], [71.9207764, 34.22291566], [71.92084985, 34.22291754], [71.92085179, 34.22286525], [71.92082371, 34.22286453], [71.92082587, 34.22280626]]]]}, "properties": {"id": "8J6H6WFC+48VQ", "height": 2.891634702682495, "hmax": 0.013, "ratio": 0.005, "vulnClass": "none"}}, {"type": "Feature", "geometry": {"type": "MultiPolygon", "coordinates": [[[[71.9210514, 34.22270676], [71.92101185, 34.22270416], [71.92100196, 34.22280776], [71.92104151, 34.22281036], [71.9210514, 34.22270676]]]]}, "properties": {"id": "8J6H6WFC+4C29", "height": 2.777511596679688, "hmax": 0.013, "ratio": 0.005, "vulnClass": "none"}}, {"type": "Feature", "geometry": {"type": "MultiPolygon", "coordinates": [[[[71.92188282, 34.22274166], [71.92189252, 34.22261411], [71.9218397, 34.22261134], [71.92183708, 34.22264586], [71.92165151, 34.22263613], [71.92164444, 34.22272916], [71.92188282, 34.22274166]]]]}, "properties": {"id": "8J6H6WFC+3PC9", "height": 2.521355152130127, "hmax": 0.022, "ratio": 0.009, "vulnClass": "none"}}, {"type": "Feature", "geometry": {"type": "MultiPolygon", "coordinates": [[[[71.92190335, 34.22247149], [71.92185054, 34.22246872], [71.9218397, 34.22261134], [71.92189252, 34.22261411], [71.92190335, 34.22247149]]]]}, "properties": {"id": "8J6H6WFC+2P9Q", "height": 4.336701393127441, "hmax": 0.022, "ratio": 0.005, "vulnClass": "none"}}, {"type": "Feature", "geometry": {"type": "MultiPolygon", "coordinates": [[[[71.92191163, 34.22237214], [71.9217143, 34.22236138], [71.92170739, 34.22244881], [71.92190472, 34.22245957], [71.92191163, 34.22237214]]]]}, "properties": {"id": "8J6H6WCC+XP7H", "height": 2.540855884552002, "hmax": 0.02, "ratio": 0.008, "vulnClass": "none"}}, {"type": "Feature", "geometry": {"type": "MultiPolygon", "coordinates": [[[[71.92144886, 34.22238182], [71.9213878, 34.22238025], [71.92138287, 34.22251189], [71.92144394, 34.22251347], [71.92144886, 34.22238182]]]]}, "properties": {"id": "8J6H6WCC+XHFV", "height": 2.730000257492065, "hmax": 0.013, "ratio": 0.005, "vulnClass": "none"}}, {"type": "Feature", "geometry": {"type": "MultiPolygon", "coordinates": [[[[71.92087106, 34.22265698], [71.92078484, 34.22265488], [71.92078172, 34.22274337], [71.92086794, 34.22274547], [71.92087106, 34.22265698]]]]}, "properties": {"id": "8J6H6WFC+38P3", "height": 2.772836923599243, "hmax": 0.013, "ratio": 0.005, "vulnClass": "none"}}, {"type": "Feature", "geometry": {"type": "MultiPolygon", "coordinates": [[[[71.92105534, 34.22258419], [71.9208833, 34.22258247], [71.92088217, 34.22266023], [71.92105421, 34.22266195], [71.92105534, 34.22258419]]]]}, "properties": {"id": "8J6H6WFC+29XR", "height": 2.895076274871826, "hmax": 0.013, "ratio": 0.005, "vulnClass": "none"}}, {"type": "Feature", "geometry": {"type": "MultiPolygon", "coordinates": [[[[71.92078217, 34.22247781], [71.92063496, 34.22248063], [71.92063684, 34.22254854], [71.92078405, 34.22254572], [71.92078217, 34.22247781]]]]}, "properties": {"id": "8J6H6WFC+274G", "height": 3.882325887680054, "hmax": 0.013, "ratio": 0.003, "vulnClass": "none"}}, {"type": "Feature", "geometry": {"type": "MultiPolygon", "coordinates": [[[[71.9205476, 34.22257846], [71.92050301, 34.22257722], [71.92050149, 34.2226149], [71.92054608, 34.22261614], [71.9205476, 34.22257846]]]]}, "properties": {"id": "8J6H6WFC+26JX", "height": 2.876418828964233, "hmax": 0.013, "ratio": 0.005, "vulnClass": "none"}}, {"type": "Feature", "geometry": {"type": "MultiPolygon", "coordinates": [[[[71.92068564, 34.2225476], [71.92063684, 34.22254854], [71.92063937, 34.22263972], [71.92078658, 34.2226369], [71.92078491, 34.22257671], [71.9206865, 34.22257859], [71.92068564, 34.2225476]]]]}, "properties": {"id": "8J6H6WFC+27W4", "height": 3.882325887680054, "hmax": 0.013, "ratio": 0.003, "vulnClass": "none"}}, {"type": "Feature", "geometry": {"type": "MultiPolygon", "coordinates": [[[[71.92054697, 34.22263336], [71.9204957, 34.22263072], [71.92048843, 34.22272821], [71.9205397, 34.22273085], [71.92054697, 34.22263336]]]]}, "properties": {"id": "8J6H6WFC+36C8", "height": 4.369210243225098, "hmax": 0.013, "ratio": 0.003, "vulnClass": "none"}}, {"type": "Feature", "geometry": {"type": "MultiPolygon", "coordinates": [[[[71.92029537, 34.22248149], [71.92019775, 34.22247892], [71.92018489, 34.22281574], [71.92014164, 34.2228146], [71.92013933, 34.22287528], [71.9202802, 34.22287899], [71.92029537, 34.22248149]]]]}, "properties": {"id": "8J6H6WFC+33HF", "height": 2.985002756118774, "hmax": 0.007, "ratio": 0.002, "vulnClass": "none"}}, {"type": "Feature", "geometry": {"type": "MultiPolygon", "coordinates": [[[[71.92150147, 34.22191482], [71.92139446, 34.22190844], [71.92138599, 34.22200629], [71.92149301, 34.22201268], [71.92150147, 34.22191482]]]]}, "properties": {"id": "8J6H6WCC+QHPC", "height": 2.990525722503662, "hmax": 0.004, "ratio": 0.001, "vulnClass": "none"}}, {"type": "Feature", "geometry": {"type": "MultiPolygon", "coordinates": [[[[71.92161631, 34.22190776], [71.9215018, 34.22190529], [71.92149903, 34.22199426], [71.92161353, 34.22199672], [71.92161631, 34.22190776]]]]}, "properties": {"id": "8J6H6WCC+QJM5", "height": 2.61051344871521, "hmax": 0.005, "ratio": 0.002, "vulnClass": "none"}}, {"type": "Feature", "geometry": {"type": "MultiPolygon", "coordinates": [[[[71.92128584, 34.21930215], [71.92121758, 34.21925535], [71.92119945, 34.21927359], [71.92122051, 34.21928803], [71.9211554, 34.21935356], [71.92113434, 34.21933912], [71.92110878, 34.21936484], [71.92117704, 34.21941164], [71.92128584, 34.21930215]]]]}, "properties": {"id": "8J6H6W9C+PFPF", "height": 3.083423852920532, "hmax": 0.013, "ratio": 0.004, "vulnClass": "none"}}, {"type": "Feature", "geometry": {"type": "MultiPolygon", "coordinates": [[[[71.92364951, 34.21886869], [71.92350013, 34.21884065], [71.92348809, 34.21888494], [71.92363746, 34.21891298], [71.92364951, 34.21886869]]]]}, "properties": {"id": "8J6H6W9F+HC42", "height": 7.8590989112854, "hmax": 0.012, "ratio": 0.002, "vulnClass": "none"}}, {"type": "Feature", "geometry": {"type": "MultiPolygon", "coordinates": [[[[71.92400692, 34.21886173], [71.92380265, 34.21883146], [71.92378806, 34.2188994], [71.92399233, 34.21892967], [71.92400692, 34.21886173]]]]}, "properties": {"id": "8J6H6W9F+HH28", "height": 5.100511074066162, "hmax": 0.014, "ratio": 0.003, "vulnClass": "none"}}, {"type": "Feature", "geometry": {"type": "MultiPolygon", "coordinates": [[[[71.92415487, 34.21891308], [71.92400416, 34.21888053], [71.92398355, 34.21894639], [71.92413426, 34.21897895], [71.92415487, 34.21891308]]]]}, "properties": {"id": "8J6H6W9F+HJG2", "height": 2.533430576324463, "hmax": 0.014, "ratio": 0.006, "vulnClass": "none"}}, {"type": "Feature", "geometry": {"type": "MultiPolygon", "coordinates": [[[[71.92235727, 34.22234633], [71.922274, 34.22234984], [71.92227808, 34.22241666], [71.92236135, 34.22241315], [71.92235727, 34.22234633]]]]}, "properties": {"id": "8J6H6WCC+XW46", "height": 3.902633666992188, "hmax": 0.011, "ratio": 0.003, "vulnClass": "none"}}, {"type": "Feature", "geometry": {"type": "MultiPolygon", "coordinates": [[[[71.92202544, 34.22260554], [71.92204187, 34.2223886], [71.92193938, 34.22238324], [71.92191646, 34.22268603], [71.92196242, 34.22268843], [71.92196892, 34.22260259], [71.92202544, 34.22260554]]]]}, "properties": {"id": "8J6H6WFC+2Q5J", "height": 3.443100452423096, "hmax": 0.022, "ratio": 0.006, "vulnClass": "none"}}, {"type": "Feature", "geometry": {"type": "MultiPolygon", "coordinates": [[[[71.92225523, 34.2224439], [71.92218864, 34.22244517], [71.92219092, 34.22252799], [71.92225751, 34.22252672], [71.92225523, 34.2224439]]]]}, "properties": {"id": "8J6H6WCC+XVXC", "height": 2.526955127716064, "hmax": 0.022, "ratio": 0.009, "vulnClass": "none"}}, {"type": "Feature", "geometry": {"type": "MultiPolygon", "coordinates": [[[[71.92350498, 34.22347768], [71.9234524, 34.22346849], [71.92343989, 34.22351788], [71.92349246, 34.22352707], [71.92350498, 34.22347768]]]]}, "properties": {"id": "8J6H6WFF+99XR", "height": 2.821381568908691, "hmax": 0.006, "ratio": 0.002, "vulnClass": "none"}}, {"type": "Feature", "geometry": {"type": "MultiPolygon", "coordinates": [[[[71.9170733, 34.2308264], [71.9169191, 34.2308215], [71.9169151, 34.230907], [71.9170694, 34.2309119], [71.9170733, 34.2308264]]]]}, "properties": {"id": "8J6H6WJ8+8QXQ", "height": 2.882823944091797, "hmax": 0.004, "ratio": 0.001, "vulnClass": "none"}}, {"type": "Feature", "geometry": {"type": "MultiPolygon", "coordinates": [[[[71.91794999, 34.2309108], [71.91792112, 34.23091486], [71.91793215, 34.23096899], [71.91796102, 34.23096493], [71.91794999, 34.2309108]]]]}, "properties": {"id": "8J6H6WJ9+95GC", "height": 2.706517457962036, "hmax": 0.004, "ratio": 0.002, "vulnClass": "none"}}, {"type": "Feature", "geometry": {"type": "MultiPolygon", "coordinates": [[[[71.91765931, 34.23091924], [71.91740805, 34.2308938], [71.91739602, 34.23097574], [71.91764728, 34.23100118], [71.91765931, 34.23091924]]]]}, "properties": {"id": "8J6H6WJ9+92CX", "height": 2.998167753219604, "hmax": 0.004, "ratio": 0.001, "vulnClass": "none"}}, {"type": "Feature", "geometry": {"type": "MultiPolygon", "coordinates": [[[[71.91621754, 34.22667103], [71.91622853, 34.22662434], [71.91620242, 34.2266201], [71.91619143, 34.22666679], [71.91621754, 34.22667103]]]]}, "properties": {"id": "8J6H6WG8+MF4W", "height": 2.496264457702637, "hmax": 0.008, "ratio": 0.003, "vulnClass": "none"}}, {"type": "Feature", "geometry": {"type": "MultiPolygon", "coordinates": [[[[71.9157158, 34.22714235], [71.91567653, 34.22713848], [71.9156716, 34.22717296], [71.91571087, 34.22717684], [71.9157158, 34.22714235]]]]}, "properties": {"id": "8J6H6WG8+V786", "height": 4.877481460571289, "hmax": 0.011, "ratio": 0.002, "vulnClass": "none"}}, {"type": "Feature", "geometry": {"type": "MultiPolygon", "coordinates": [[[[71.91577708, 34.2272649], [71.91565144, 34.22726036], [71.91564732, 34.2273388], [71.91582354, 34.22734518], [71.91582582, 34.22730179], [71.91577524, 34.22729996], [71.91577708, 34.2272649]]]]}, "properties": {"id": "8J6H6WG8+W7H7", "height": 4.581541061401367, "hmax": 0.011, "ratio": 0.002, "vulnClass": "none"}}, {"type": "Feature", "geometry": {"type": "MultiPolygon", "coordinates": [[[[71.91587703, 34.2272728], [71.91577773, 34.22726927], [71.91577631, 34.22729687], [71.91587561, 34.2273004], [71.91587703, 34.2272728]]]]}, "properties": {"id": "8J6H6WG8+W887", "height": 3.967300415039062, "hmax": 0.011, "ratio": 0.003, "vulnClass": "none"}}, {"type": "Feature", "geometry": {"type": "MultiPolygon", "coordinates": [[[[71.91609202, 34.22726502], [71.91590144, 34.22725989], [71.91589854, 34.22733431], [71.91608912, 34.22733944], [71.91609202, 34.22726502]]]]}, "properties": {"id": "8J6H6WG8+W99X", "height": 3.869794607162476, "hmax": 0.005, "ratio": 0.001, "vulnClass": "none"}}, {"type": "Feature", "geometry": {"type": "MultiPolygon", "coordinates": [[[[71.91593988, 34.22713459], [71.91589789, 34.22713173], [71.91589547, 34.22715619], [71.91593747, 34.22715906], [71.91593988, 34.22713459]]]]}, "properties": {"id": "8J6H6WG8+V93V", "height": 2.73796272277832, "hmax": 0.006, "ratio": 0.002, "vulnClass": "none"}}, {"type": "Feature", "geometry": {"type": "MultiPolygon", "coordinates": [[[[71.91594543, 34.22707839], [71.91590344, 34.22707553], [71.91589789, 34.22713173], [71.91597749, 34.22713715], [71.91598096, 34.22710207], [71.91594335, 34.22709951], [71.91594543, 34.22707839]]]]}, "properties": {"id": "8J6H6WG8+R9V9", "height": 2.610867977142334, "hmax": 0.005, "ratio": 0.002, "vulnClass": "none"}}, {"type": "Feature", "geometry": {"type": "MultiPolygon", "coordinates": [[[[71.91605747, 34.22698449], [71.91578455, 34.22693258], [71.91576608, 34.22699958], [71.91605835, 34.22705518], [71.91606666, 34.22702506], [71.9160473, 34.22702137], [71.91605747, 34.22698449]]]]}, "properties": {"id": "8J6H6WG8+Q9VM", "height": 3.787172317504883, "hmax": 0.008, "ratio": 0.002, "vulnClass": "none"}}, {"type": "Feature", "geometry": {"type": "MultiPolygon", "coordinates": [[[[71.91571698, 34.22687794], [71.91567346, 34.22687005], [71.91566516, 34.22690168], [71.91570867, 34.22690956], [71.91571698, 34.22687794]]]]}, "properties": {"id": "8J6H6WG8+Q74C", "height": 2.902384519577026, "hmax": 0.011, "ratio": 0.004, "vulnClass": "none"}}, {"type": "Feature", "geometry": {"type": "MultiPolygon", "coordinates": [[[[71.91529272, 34.22683271], [71.91514625, 34.22680499], [71.91512773, 34.22687254], [71.9152742, 34.22690025], [71.91529272, 34.22683271]]]]}, "properties": {"id": "8J6H6WG8+P3W4", "height": 4.166969776153564, "hmax": 0.011, "ratio": 0.003, "vulnClass": "none"}}, {"type": "Feature", "geometry": {"type": "MultiPolygon", "coordinates": [[[[71.91535449, 34.22683446], [71.91530912, 34.22682702], [71.91529199, 34.22689905], [71.91533736, 34.22690649], [71.91535449, 34.22683446]]]]}, "properties": {"id": "8J6H6WG8+P4WM", "height": 4.011090755462646, "hmax": 0.011, "ratio": 0.003, "vulnClass": "none"}}, {"type": "Feature", "geometry": {"type": "MultiPolygon", "coordinates": [[[[71.91495976, 34.22669896], [71.91477541, 34.22663769], [71.91474265, 34.22670568], [71.91492701, 34.22676695], [71.91495976, 34.22669896]]]]}, "properties": {"id": "8J6H6WG7+MWQ2", "height": 3.679113149642944, "hmax": 0.009, "ratio": 0.002, "vulnClass": "none"}}, {"type": "Feature", "geometry": {"type": "MultiPolygon", "coordinates": [[[[71.91434884, 34.22679717], [71.91431402, 34.22679065], [71.91430393, 34.2268278], [71.91433875, 34.22683432], [71.91434884, 34.22679717]]]]}, "properties": {"id": "8J6H6WG7+PPGF", "height": 2.471813917160034, "hmax": 0.009, "ratio": 0.004, "vulnClass": "none"}}, {"type": "Feature", "geometry": {"type": "MultiPolygon", "coordinates": [[[[71.91742098, 34.2299329], [71.91740663, 34.22989952], [71.91730682, 34.22992913], [71.91732117, 34.22996251], [71.91742098, 34.2299329]]]]}, "properties": {"id": "8J6H6WH8+XWH8", "height": 2.747899055480957, "hmax": 0.014, "ratio": 0.005, "vulnClass": "none"}}, {"type": "Feature", "geometry": {"type": "MultiPolygon", "coordinates": [[[[71.91752649, 34.22978985], [71.91742772, 34.22978696], [71.91742593, 34.22982911], [71.9174567, 34.22983001], [71.91745473, 34.22987646], [71.91758484, 34.22988027], [71.9175875, 34.22981743], [71.9175254, 34.22981561], [71.91752649, 34.22978985]]]]}, "properties": {"id": "8J6H6WH9+W2JC", "height": 2.871746778488159, "hmax": 0.014, "ratio": 0.005, "vulnClass": "none"}}, {"type": "Feature", "geometry": {"type": "MultiPolygon", "coordinates": [[[[71.91696324, 34.23015219], [71.91692351, 34.23013781], [71.9169058, 34.23017158], [71.91694552, 34.23018596], [71.91696324, 34.23015219]]]]}, "properties": {"id": "8J6H6WJ8+3Q7H", "height": 2.469548225402832, "hmax": 0.014, "ratio": 0.006, "vulnClass": "none"}}, {"type": "Feature", "geometry": {"type": "MultiPolygon", "coordinates": [[[[71.91708723, 34.23017768], [71.91701983, 34.23010526], [71.91696898, 34.23013791], [71.91703638, 34.23021033], [71.91708723, 34.23017768]]]]}, "properties": {"id": "8J6H6WJ8+3R69", "height": 2.570738792419434, "hmax": 0.014, "ratio": 0.005, "vulnClass": "none"}}, {"type": "Feature", "geometry": {"type": "MultiPolygon", "coordinates": [[[[71.913375, 34.2289014], [71.9130772, 34.2288628], [71.9130639, 34.2289335], [71.9132589, 34.2289588], [71.913256, 34.2289741], [71.9133588, 34.2289875], [71.913375, 34.2289014]]]]}, "properties": {"id": "8J6H6WH7+H79R", "height": 3.091000318527222, "hmax": 0.004, "ratio": 0.001, "vulnClass": "none"}}, {"type": "Feature", "geometry": {"type": "MultiPolygon", "coordinates": [[[[71.913247, 34.2289792], [71.9130564, 34.2289529], [71.9130131, 34.2291694], [71.9133069, 34.22921], [71.9133502, 34.2289935], [71.913247, 34.2289792]]]]}, "properties": {"id": "8J6H6WH7+J7M9", "height": 3.188451766967773, "hmax": 0.004, "ratio": 0.001, "vulnClass": "none"}}, {"type": "Feature", "geometry": {"type": "MultiPolygon", "coordinates": [[[[71.91333751, 34.22924338], [71.91314795, 34.2291995], [71.91313011, 34.22925266], [71.91331968, 34.22929654], [71.91333751, 34.22924338]]]]}, "properties": {"id": "8J6H6WH7+M7XV", "height": 2.96663761138916, "hmax": 0.004, "ratio": 0.001, "vulnClass": "none"}}]}