{"type": "FeatureCollection", "features": [{"type": "Feature", "geometry": {"type": "MultiPolygon", "coordinates": [[[[71.87599344, 34.45755749], [71.87598811, 34.45759457], [71.87605953, 34.45760155], [71.87606486, 34.45756447], [71.87599344, 34.45755749]]]]}, "properties": {"id": "Pakistan_123102132_465656", "height": 3.982962608337402, "hmax": 0.004, "ratio": 0.001, "vulnClass": "none"}}, {"type": "Feature", "geometry": {"type": "MultiPolygon", "coordinates": [[[[71.8758299, 34.45762839], [71.8758264, 34.45768353], [71.87589327, 34.45768642], [71.87589677, 34.45763128], [71.8758299, 34.45762839]]]]}, "properties": {"id": "Pakistan_123102132_431815", "height": 2.775531768798828, "hmax": 0.004, "ratio": 0.001, "vulnClass": "none"}}, {"type": "Feature", "geometry": {"type": "MultiPolygon", "coordinates": [[[[71.87583482, 34.45755045], [71.87619951, 34.45755506], [71.87620317, 34.45735727], [71.87607177, 34.45735562], [71.87607091, 34.45740205], [71.87615672, 34.45740313], [71.87615558, 34.45746504], [71.87583647, 34.45746102], [71.87583482, 34.45755045]]]]}, "properties": {"id": "Pakistan_123102132_274695", "height": 4.162602424621582, "hmax": 0.004, "ratio": 0.001, "vulnClass": "none"}}, {"type": "Feature", "geometry": {"type": "MultiPolygon", "coordinates": [[[[71.87782368, 34.45733833], [71.87769626, 34.45734009], [71.87769773, 34.45741305], [71.87782516, 34.4574113], [71.87782368, 34.45733833]]]]}, "properties": {"id": "Pakistan_123102132_104889", "height": 2.641798496246338, "hmax": 0.007, "ratio": 0.003, "vulnClass": "none"}}, {"type": "Feature", "geometry": {"type": "MultiPolygon", "coordinates": [[[[71.87848322, 34.45733358], [71.87842439, 34.45733622], [71.87842787, 34.45738914], [71.8784867, 34.45738651], [71.87848322, 34.45733358]]]]}, "properties": {"id": "Pakistan_123102132_563623", "height": 2.848008632659912, "hmax": 0.006, "ratio": 0.002, "vulnClass": "none"}}, {"type": "Feature", "geometry": {"type": "MultiPolygon", "coordinates": [[[[71.87822666, 34.45765055], [71.87857771, 34.45767095], [71.87858429, 34.45759393], [71.87845885, 34.45758664], [71.87846374, 34.45752942], [71.87851178, 34.45753221], [71.87851488, 34.45749593], [71.87845744, 34.45749259], [71.87846007, 34.45746178], [71.87841343, 34.45745907], [71.87840327, 34.4575779], [71.87818975, 34.45756548], [71.87818486, 34.4576227], [71.87822883, 34.45762526], [71.87822666, 34.45765055]]]]}, "properties": {"id": "Pakistan_123102132_49747", "height": 2.995772361755371, "hmax": 0.005, "ratio": 0.002, "vulnClass": "none"}}, {"type": "Feature", "geometry": {"type": "MultiPolygon", "coordinates": [[[[71.87822516, 34.45740613], [71.87822266, 34.45745801], [71.87829088, 34.45746026], [71.878295, 34.45737526], [71.87818391, 34.4573716], [71.87818231, 34.45740472], [71.87822516, 34.45740613]]]]}, "properties": {"id": "Pakistan_123102132_431826", "height": 2.729727983474731, "hmax": 0.005, "ratio": 0.002, "vulnClass": "none"}}, {"type": "Feature", "geometry": {"type": "MultiPolygon", "coordinates": [[[[71.87839613, 34.45745602], [71.87846853, 34.45745492], [71.8784671, 34.45739081], [71.8783947, 34.45739191], [71.87839613, 34.45745602]]]]}, "properties": {"id": "Pakistan_123102132_265502", "height": 2.757748126983643, "hmax": 0.005, "ratio": 0.002, "vulnClass": "none"}}, {"type": "Feature", "geometry": {"type": "MultiPolygon", "coordinates": [[[[71.87851404, 34.45740911], [71.87867839, 34.45743186], [71.87871319, 34.45726081], [71.87857232, 34.45724133], [71.87856794, 34.45726284], [71.87851181, 34.45725507], [71.87849255, 34.45734972], [71.87852521, 34.45735424], [71.87851404, 34.45740911]]]]}, "properties": {"id": "Pakistan_123102132_259303", "height": 3.362395286560059, "hmax": 0.006, "ratio": 0.002, "vulnClass": "none"}}, {"type": "Feature", "geometry": {"type": "MultiPolygon", "coordinates": [[[[71.87907677, 34.45757758], [71.87918277, 34.45758721], [71.87919416, 34.45750199], [71.87907365, 34.45749104], [71.87907628, 34.45747138], [71.87901129, 34.45746547], [71.87900442, 34.45751688], [71.87908392, 34.4575241], [71.87907677, 34.45757758]]]]}, "properties": {"id": "Pakistan_123102132_478043", "height": 3.02260684967041, "hmax": 0.005, "ratio": 0.002, "vulnClass": "none"}}, {"type": "Feature", "geometry": {"type": "MultiPolygon", "coordinates": [[[[71.87816147, 34.45521602], [71.87810907, 34.45520249], [71.87807464, 34.45529312], [71.87812705, 34.45530666], [71.87816147, 34.45521602]]]]}, "properties": {"id": "Pakistan_123102132_308691", "height": 3.067890167236328, "hmax": 0.002, "ratio": 0.001, "vulnClass": "none"}}, {"type": "Feature", "geometry": {"type": "MultiPolygon", "coordinates": [[[[71.8782282, 34.45512246], [71.8781555, 34.45510286], [71.87814679, 34.45512484], [71.87804017, 34.4550961], [71.87802116, 34.45514405], [71.87820047, 34.45519239], [71.8782282, 34.45512246]]]]}, "properties": {"id": "Pakistan_123102132_262411", "height": 3.857150554656982, "hmax": 0.002, "ratio": 0.001, "vulnClass": "none"}}, {"type": "Feature", "geometry": {"type": "MultiPolygon", "coordinates": [[[[71.87707361, 34.4545745], [71.87703545, 34.45460708], [71.87707707, 34.45464024], [71.87711524, 34.45460766], [71.87707361, 34.4545745]]]]}, "properties": {"id": "Pakistan_123102132_416367", "height": 2.567733526229858, "hmax": 0.003, "ratio": 0.001, "vulnClass": "none"}}, {"type": "Feature", "geometry": {"type": "MultiPolygon", "coordinates": [[[[71.87677037, 34.45481743], [71.87672538, 34.45486114], [71.87682986, 34.45493425], [71.87693439, 34.45483267], [71.87673636, 34.4546941], [71.87667682, 34.45475196], [71.87677037, 34.45481743]]]]}, "properties": {"id": "Pakistan_123102132_237696", "height": 2.769004344940186, "hmax": 0.002, "ratio": 0.001, "vulnClass": "none"}}, {"type": "Feature", "geometry": {"type": "MultiPolygon", "coordinates": [[[[71.87537457, 34.45430955], [71.87559719, 34.4543822], [71.87562473, 34.45432484], [71.87540211, 34.45425219], [71.87537457, 34.45430955]]]]}, "properties": {"id": "Pakistan_123102132_563599", "height": 2.439407348632812, "hmax": 0.025, "ratio": 0.01, "vulnClass": "none"}}, {"type": "Feature", "geometry": {"type": "MultiPolygon", "coordinates": [[[[71.87699333, 34.45442909], [71.87693712, 34.45437966], [71.87679581, 34.45448891], [71.87685202, 34.45453834], [71.87699333, 34.45442909]]]]}, "properties": {"id": "Pakistan_123102132_52834", "height": 4.124916076660156, "hmax": 0.002, "ratio": 0.001, "vulnClass": "none"}}, {"type": "Feature", "geometry": {"type": "MultiPolygon", "coordinates": [[[[71.87940403, 34.44931101], [71.87943489, 34.44945119], [71.87970753, 34.44941036], [71.8796795, 34.44928304], [71.87963679, 34.44928944], [71.87965304, 34.44936322], [71.87946465, 34.44939144], [71.87944557, 34.44930479], [71.87940403, 34.44931101]]]]}, "properties": {"id": "Pakistan_123102132_444187", "height": 2.558478832244873, "hmax": 0.015, "ratio": 0.006, "vulnClass": "none"}}, {"type": "Feature", "geometry": {"type": "MultiPolygon", "coordinates": [[[[71.88038097, 34.45013282], [71.88053338, 34.45019687], [71.8805622, 34.45015022], [71.88040979, 34.45008618], [71.88038097, 34.45013282]]]]}, "properties": {"id": "Pakistan_123102132_290127", "height": 3.391757011413574, "hmax": 0.021, "ratio": 0.006, "vulnClass": "none"}}, {"type": "Feature", "geometry": {"type": "MultiPolygon", "coordinates": [[[[71.88020875, 34.45075581], [71.88003607, 34.45072205], [71.88004209, 34.45070111], [71.87999892, 34.45069266], [71.87997664, 34.45077014], [71.88019249, 34.45081235], [71.88020875, 34.45075581]]]]}, "properties": {"id": "Pakistan_123102132_176186", "height": 3.087757110595703, "hmax": 0.002, "ratio": 0.001, "vulnClass": "none"}}, {"type": "Feature", "geometry": {"type": "MultiPolygon", "coordinates": [[[[71.87951078, 34.44746782], [71.87950446, 34.44752932], [71.87960832, 34.44753658], [71.87961464, 34.44747509], [71.87951078, 34.44746782]]]]}, "properties": {"id": "Pakistan_123102132_68251", "height": 3.57376766204834, "hmax": 0.001, "ratio": 0.0, "vulnClass": "none"}}, {"type": "Feature", "geometry": {"type": "MultiPolygon", "coordinates": [[[[71.87929816, 34.4477347], [71.87926245, 34.44779413], [71.87933028, 34.44782185], [71.87936599, 34.44776242], [71.87929816, 34.4477347]]]]}, "properties": {"id": "Pakistan_123102132_456556", "height": 2.528310775756836, "hmax": 0.003, "ratio": 0.001, "vulnClass": "none"}}, {"type": "Feature", "geometry": {"type": "MultiPolygon", "coordinates": [[[[71.87901348, 34.44840013], [71.87919032, 34.44840486], [71.87919397, 34.44831206], [71.87915378, 34.44831099], [71.87915717, 34.44822481], [71.87902052, 34.44822116], [71.87901348, 34.44840013]]]]}, "properties": {"id": "Pakistan_123102132_3772", "height": 3.528446674346924, "hmax": 0.003, "ratio": 0.001, "vulnClass": "none"}}, {"type": "Feature", "geometry": {"type": "MultiPolygon", "coordinates": [[[[71.87846647, 34.44910613], [71.87854411, 34.44908908], [71.87852511, 34.44903024], [71.87839351, 34.44905913], [71.87847751, 34.44931938], [71.87862667, 34.44928664], [71.87861333, 34.44924533], [71.87851815, 34.44926622], [71.87846647, 34.44910613]]]]}, "properties": {"id": "Pakistan_123102132_560602", "height": 2.537148714065552, "hmax": 0.002, "ratio": 0.001, "vulnClass": "none"}}, {"type": "Feature", "geometry": {"type": "MultiPolygon", "coordinates": [[[[71.87788161, 34.44832538], [71.87784188, 34.44832169], [71.87783681, 34.44835882], [71.87769378, 34.44834553], [71.8776823, 34.4484296], [71.87786505, 34.44844659], [71.87788161, 34.44832538]]]]}, "properties": {"id": "Pakistan_123102132_376060", "height": 3.603745222091675, "hmax": 0.004, "ratio": 0.001, "vulnClass": "none"}}, {"type": "Feature", "geometry": {"type": "MultiPolygon", "coordinates": [[[[71.87640733, 34.44757978], [71.87646466, 34.44758786], [71.87649138, 34.44745891], [71.87643404, 34.44745083], [71.87640733, 34.44757978]]]]}, "properties": {"id": "Pakistan_123102132_6761", "height": 2.56069278717041, "hmax": 0.004, "ratio": 0.002, "vulnClass": "none"}}, {"type": "Feature", "geometry": {"type": "MultiPolygon", "coordinates": [[[[71.87824755, 34.44783109], [71.87825734, 34.44775116], [71.87830514, 34.44775514], [71.8783105, 34.44771135], [71.87823483, 34.44770505], [71.87821966, 34.44782877], [71.87824755, 34.44783109]]]]}, "properties": {"id": "Pakistan_123102132_200888", "height": 4.041128635406494, "hmax": 0.004, "ratio": 0.001, "vulnClass": "none"}}, {"type": "Feature", "geometry": {"type": "MultiPolygon", "coordinates": [[[[71.87945614, 34.44408615], [71.87937625, 34.44407283], [71.87936896, 34.44410259], [71.8791973, 34.44407398], [71.87918325, 34.44413136], [71.87940229, 34.44416786], [71.87941479, 34.44411686], [71.87944729, 34.44412227], [71.87945614, 34.44408615]]]]}, "properties": {"id": "Pakistan_123102132_609828", "height": 3.622731685638428, "hmax": 0.003, "ratio": 0.001, "vulnClass": "none"}}, {"type": "Feature", "geometry": {"type": "MultiPolygon", "coordinates": [[[[71.87921136, 34.44394821], [71.87920829, 34.44405329], [71.87927963, 34.44405471], [71.87928272, 34.44394964], [71.87921136, 34.44394821]]]]}, "properties": {"id": "Pakistan_123102132_166838", "height": 3.289539813995361, "hmax": 0.003, "ratio": 0.001, "vulnClass": "none"}}, {"type": "Feature", "geometry": {"type": "MultiPolygon", "coordinates": [[[[71.87924002, 34.44273729], [71.87930595, 34.44273974], [71.87931024, 34.44266145], [71.87935674, 34.44266318], [71.87935855, 34.44263007], [71.87929064, 34.44262754], [71.87928919, 34.44265403], [71.87924468, 34.44265237], [71.87924002, 34.44273729]]]]}, "properties": {"id": "Pakistan_123102132_9830", "height": 2.609269618988037, "hmax": 0.001, "ratio": 0.0, "vulnClass": "none"}}, {"type": "Feature", "geometry": {"type": "MultiPolygon", "coordinates": [[[[71.87910923, 34.44273269], [71.87911685, 34.44267811], [71.8790745, 34.44267409], [71.87906687, 34.44272866], [71.87910923, 34.44273269]]]]}, "properties": {"id": "Pakistan_123102132_34308", "height": 2.748445510864258, "hmax": 0.001, "ratio": 0.0, "vulnClass": "none"}}, {"type": "Feature", "geometry": {"type": "MultiPolygon", "coordinates": [[[[71.8790484, 34.44287579], [71.87927323, 34.44288433], [71.8792784, 34.44279162], [71.87905357, 34.44278308], [71.8790484, 34.44287579]]]]}, "properties": {"id": "Pakistan_123102132_280919", "height": 3.085672616958618, "hmax": 0.001, "ratio": 0.0, "vulnClass": "none"}}, {"type": "Feature", "geometry": {"type": "MultiPolygon", "coordinates": [[[[71.87323025, 34.44281794], [71.87331842, 34.44286211], [71.87334936, 34.4428201], [71.8732612, 34.44277593], [71.87323025, 34.44281794]]]]}, "properties": {"id": "Pakistan_123102132_271609", "height": 3.304307460784912, "hmax": 0.001, "ratio": 0.0, "vulnClass": "none"}}, {"type": "Feature", "geometry": {"type": "MultiPolygon", "coordinates": [[[[71.87378855, 34.44263359], [71.87371167, 34.44280119], [71.87393075, 34.44286954], [71.87400763, 34.44270195], [71.87378855, 34.44263359]]]]}, "properties": {"id": "Pakistan_123102132_101756", "height": 3.392818450927734, "hmax": 0.001, "ratio": 0.0, "vulnClass": "none"}}, {"type": "Feature", "geometry": {"type": "MultiPolygon", "coordinates": [[[[71.87367079, 34.44273154], [71.87361271, 34.44282693], [71.87365905, 34.44284612], [71.87371712, 34.44275072], [71.87367079, 34.44273154]]]]}, "properties": {"id": "Pakistan_123102132_259279", "height": 2.459415674209595, "hmax": 0.001, "ratio": 0.0, "vulnClass": "none"}}, {"type": "Feature", "geometry": {"type": "MultiPolygon", "coordinates": [[[[71.87416666, 34.4428792], [71.87413541, 34.44297776], [71.87422579, 34.44299725], [71.87425703, 34.4428987], [71.87416666, 34.4428792]]]]}, "properties": {"id": "Pakistan_123102132_366897", "height": 3.741790533065796, "hmax": 0.003, "ratio": 0.001, "vulnClass": "none"}}, {"type": "Feature", "geometry": {"type": "MultiPolygon", "coordinates": [[[[71.87463108, 34.44340384], [71.87467487, 34.4434166], [71.87470941, 34.44333598], [71.87466563, 34.44332322], [71.87463108, 34.44340384]]]]}, "properties": {"id": "Pakistan_123102132_520981", "height": 2.775297164916992, "hmax": 0.003, "ratio": 0.001, "vulnClass": "none"}}, {"type": "Feature", "geometry": {"type": "MultiPolygon", "coordinates": [[[[71.87392433, 34.44298919], [71.87391745, 34.44303718], [71.87414493, 34.44305939], [71.87415182, 34.44301139], [71.87392433, 34.44298919]]]]}, "properties": {"id": "Pakistan_123102132_603559", "height": 3.037955284118652, "hmax": 0.003, "ratio": 0.001, "vulnClass": "none"}}, {"type": "Feature", "geometry": {"type": "MultiPolygon", "coordinates": [[[[71.87456423, 34.44343199], [71.87455178, 34.44347134], [71.87463372, 34.44348898], [71.87464618, 34.44344963], [71.87456423, 34.44343199]]]]}, "properties": {"id": "Pakistan_123102132_132884", "height": 2.772730588912964, "hmax": 0.003, "ratio": 0.001, "vulnClass": "none"}}, {"type": "Feature", "geometry": {"type": "MultiPolygon", "coordinates": [[[[71.87491997, 34.4433782], [71.87484818, 34.44336109], [71.87479169, 34.44352238], [71.87486348, 34.44353949], [71.87491997, 34.4433782]]]]}, "properties": {"id": "Pakistan_123102132_394788", "height": 3.751823663711548, "hmax": 0.003, "ratio": 0.001, "vulnClass": "none"}}, {"type": "Feature", "geometry": {"type": "MultiPolygon", "coordinates": [[[[71.87456371, 34.44357989], [71.87484184, 34.44363176], [71.87486608, 34.44354338], [71.87458794, 34.44349151], [71.87456371, 34.44357989]]]]}, "properties": {"id": "Pakistan_123102132_28225", "height": 2.611569881439209, "hmax": 0.003, "ratio": 0.001, "vulnClass": "none"}}, {"type": "Feature", "geometry": {"type": "MultiPolygon", "coordinates": [[[[71.87454211, 34.44367038], [71.87459773, 34.44368423], [71.87462965, 34.44359707], [71.87457403, 34.44358321], [71.87454211, 34.44367038]]]]}, "properties": {"id": "Pakistan_123102132_302461", "height": 2.448387384414673, "hmax": 0.003, "ratio": 0.001, "vulnClass": "none"}}, {"type": "Feature", "geometry": {"type": "MultiPolygon", "coordinates": [[[[71.87478408, 34.4437541], [71.87483076, 34.4437643], [71.87486026, 34.4436725], [71.87475342, 34.44364916], [71.87473455, 34.44370789], [71.8747947, 34.44372103], [71.87478408, 34.4437541]]]]}, "properties": {"id": "Pakistan_123102132_101764", "height": 2.884656429290771, "hmax": 0.003, "ratio": 0.001, "vulnClass": "none"}}, {"type": "Feature", "geometry": {"type": "MultiPolygon", "coordinates": [[[[71.87444859, 34.44393521], [71.87472451, 34.44399075], [71.87473218, 34.44396484], [71.87469577, 34.44395751], [71.87471246, 34.44390115], [71.87447293, 34.44385294], [71.87444859, 34.44393521]]]]}, "properties": {"id": "Pakistan_123102132_154398", "height": 2.466924428939819, "hmax": 0.001, "ratio": 0.0, "vulnClass": "none"}}, {"type": "Feature", "geometry": {"type": "MultiPolygon", "coordinates": [[[[71.87471493, 34.44410361], [71.87491078, 34.44416025], [71.8749669, 34.44402829], [71.87489672, 34.44400799], [71.87490845, 34.44398041], [71.87486399, 34.44396755], [71.87484975, 34.44400104], [71.87476854, 34.44397755], [71.87471493, 34.44410361]]]]}, "properties": {"id": "Pakistan_123102132_474892", "height": 2.706422328948975, "hmax": 0.001, "ratio": 0.0, "vulnClass": "none"}}, {"type": "Feature", "geometry": {"type": "MultiPolygon", "coordinates": [[[[71.87458695, 34.44423863], [71.87471127, 34.44427921], [71.8747287, 34.44424287], [71.87460439, 34.4442023], [71.87458695, 34.44423863]]]]}, "properties": {"id": "Pakistan_123102132_419482", "height": 3.693065881729126, "hmax": 0.001, "ratio": 0.0, "vulnClass": "none"}}, {"type": "Feature", "geometry": {"type": "MultiPolygon", "coordinates": [[[[71.87481052, 34.44426954], [71.87476789, 34.44425674], [71.8747472, 34.44430362], [71.87478983, 34.44431642], [71.87481052, 34.44426954]]]]}, "properties": {"id": "Pakistan_123102132_283909", "height": 3.684136629104614, "hmax": 0.001, "ratio": 0.0, "vulnClass": "none"}}, {"type": "Feature", "geometry": {"type": "MultiPolygon", "coordinates": [[[[71.87469528, 34.44450337], [71.87474176, 34.44441356], [71.87451941, 34.4443353], [71.87447293, 34.44442511], [71.87469528, 34.44450337]]]]}, "properties": {"id": "Pakistan_123102132_197789", "height": 2.894992351531982, "hmax": 0.001, "ratio": 0.0, "vulnClass": "none"}}, {"type": "Feature", "geometry": {"type": "MultiPolygon", "coordinates": [[[[71.87376921, 34.4447072], [71.87402599, 34.44476388], [71.8740595, 34.44466068], [71.87403798, 34.44465593], [71.87405205, 34.44461259], [71.87394843, 34.44458971], [71.87397122, 34.44451954], [71.87383957, 34.44449047], [71.87376921, 34.4447072]]]]}, "properties": {"id": "Pakistan_123102132_132877", "height": 3.594612121582031, "hmax": 0.003, "ratio": 0.001, "vulnClass": "none"}}, {"type": "Feature", "geometry": {"type": "MultiPolygon", "coordinates": [[[[71.87483242, 34.44447629], [71.87481838, 34.44451239], [71.87491567, 34.44453812], [71.87492971, 34.44450201], [71.87483242, 34.44447629]]]]}, "properties": {"id": "Pakistan_123102132_142107", "height": 2.587391376495361, "hmax": 0.001, "ratio": 0.0, "vulnClass": "none"}}, {"type": "Feature", "geometry": {"type": "MultiPolygon", "coordinates": [[[[71.87491888, 34.44454169], [71.87495989, 34.444553], [71.87497603, 34.44451322], [71.87493502, 34.4445019], [71.87491888, 34.44454169]]]]}, "properties": {"id": "Pakistan_123102132_108006", "height": 2.44199538230896, "hmax": 0.001, "ratio": 0.0, "vulnClass": "none"}}, {"type": "Feature", "geometry": {"type": "MultiPolygon", "coordinates": [[[[71.87468262, 34.44467069], [71.87489338, 34.44471634], [71.87493095, 34.4445984], [71.87487575, 34.44458644], [71.87486455, 34.44462162], [71.87470898, 34.44458792], [71.87468262, 34.44467069]]]]}, "properties": {"id": "Pakistan_123102132_468598", "height": 3.749523162841797, "hmax": 0.001, "ratio": 0.0, "vulnClass": "none"}}, {"type": "Feature", "geometry": {"type": "MultiPolygon", "coordinates": [[[[71.87501451, 34.44463023], [71.87499357, 34.44471519], [71.8751919, 34.44474845], [71.87521284, 34.44466348], [71.87501451, 34.44463023]]]]}, "properties": {"id": "Pakistan_123102132_179295", "height": 2.603169441223145, "hmax": 0.002, "ratio": 0.001, "vulnClass": "none"}}, {"type": "Feature", "geometry": {"type": "MultiPolygon", "coordinates": [[[[71.87491378, 34.44486507], [71.87505468, 34.44488807], [71.8750838, 34.44476674], [71.87494289, 34.44474374], [71.87491378, 34.44486507]]]]}, "properties": {"id": "Pakistan_123102132_578995", "height": 3.189302444458008, "hmax": 0.024, "ratio": 0.007, "vulnClass": "none"}}, {"type": "Feature", "geometry": {"type": "MultiPolygon", "coordinates": [[[[71.87093715, 34.44485066], [71.87085142, 34.44482887], [71.87083254, 34.44487937], [71.87091828, 34.44490116], [71.87093715, 34.44485066]]]]}, "properties": {"id": "Pakistan_123102132_160534", "height": 4.64420223236084, "hmax": 0.015, "ratio": 0.003, "vulnClass": "none"}}, {"type": "Feature", "geometry": {"type": "MultiPolygon", "coordinates": [[[[71.87046951, 34.44490308], [71.87056015, 34.44492217], [71.87059488, 34.44481004], [71.87050423, 34.44479095], [71.87046951, 34.44490308]]]]}, "properties": {"id": "Pakistan_123102132_188491", "height": 4.58784008026123, "hmax": 0.016, "ratio": 0.003, "vulnClass": "none"}}, {"type": "Feature", "geometry": {"type": "MultiPolygon", "coordinates": [[[[71.86904439, 34.44531228], [71.86916108, 34.44534465], [71.86919349, 34.44526516], [71.8690768, 34.4452328], [71.86904439, 34.44531228]]]]}, "properties": {"id": "Pakistan_123102132_419441", "height": 3.837203979492188, "hmax": 0.018, "ratio": 0.005, "vulnClass": "none"}}, {"type": "Feature", "geometry": {"type": "MultiPolygon", "coordinates": [[[[71.86872697, 34.44523968], [71.86862625, 34.44522704], [71.86861569, 34.44528424], [71.86871642, 34.44529688], [71.86872697, 34.44523968]]]]}, "properties": {"id": "Pakistan_123102132_77311", "height": 2.778879165649414, "hmax": 0.002, "ratio": 0.001, "vulnClass": "none"}}, {"type": "Feature", "geometry": {"type": "MultiPolygon", "coordinates": [[[[71.86853109, 34.44557269], [71.86855075, 34.44552398], [71.86850487, 34.44551139], [71.86845386, 34.44563776], [71.86867601, 34.44569873], [71.86869128, 34.4456609], [71.86860435, 34.44563704], [71.86862043, 34.44559721], [71.86853109, 34.44557269]]]]}, "properties": {"id": "Pakistan_123102132_296160", "height": 3.257451057434082, "hmax": 0.003, "ratio": 0.001, "vulnClass": "none"}}, {"type": "Feature", "geometry": {"type": "MultiPolygon", "coordinates": [[[[71.86857516, 34.44537563], [71.86855175, 34.44545842], [71.86874254, 34.4454951], [71.86876595, 34.44541233], [71.86857516, 34.44537563]]]]}, "properties": {"id": "Pakistan_123102132_228422", "height": 2.734289884567261, "hmax": 0.005, "ratio": 0.002, "vulnClass": "none"}}, {"type": "Feature", "geometry": {"type": "MultiPolygon", "coordinates": [[[[71.8686164, 34.44610595], [71.86865973, 34.44611645], [71.86867206, 34.44608184], [71.86862873, 34.44607134], [71.8686164, 34.44610595]]]]}, "properties": {"id": "Pakistan_123102132_135901", "height": 3.466457366943359, "hmax": 0.003, "ratio": 0.001, "vulnClass": "none"}}, {"type": "Feature", "geometry": {"type": "MultiPolygon", "coordinates": [[[[71.87259693, 34.44628628], [71.87246943, 34.44622255], [71.87249677, 34.44618534], [71.87242704, 34.44615049], [71.87240088, 34.44618608], [71.8723333, 34.4461523], [71.87235233, 34.44612642], [71.87227582, 34.44608818], [71.87224372, 34.44613185], [71.87217114, 34.44609558], [71.87212953, 34.44615219], [71.87254343, 34.44635907], [71.87259693, 34.44628628]]]]}, "properties": {"id": "Pakistan_123102132_311703", "height": 3.538377523422241, "hmax": 0.002, "ratio": 0.001, "vulnClass": "none"}}, {"type": "Feature", "geometry": {"type": "MultiPolygon", "coordinates": [[[[71.87271931, 34.44590422], [71.87268727, 34.44594002], [71.87274978, 34.44597806], [71.87278182, 34.44594226], [71.87271931, 34.44590422]]]]}, "properties": {"id": "Pakistan_123102132_345474", "height": 2.808212757110596, "hmax": 0.002, "ratio": 0.001, "vulnClass": "none"}}, {"type": "Feature", "geometry": {"type": "MultiPolygon", "coordinates": [[[[71.86810528, 34.44980428], [71.86806507, 34.4499063], [71.86811498, 34.44991968], [71.86815518, 34.44981765], [71.86810528, 34.44980428]]]]}, "properties": {"id": "Pakistan_123102132_83407", "height": 2.779264211654663, "hmax": 0.002, "ratio": 0.001, "vulnClass": "none"}}, {"type": "Feature", "geometry": {"type": "MultiPolygon", "coordinates": [[[[71.86799811, 34.44976462], [71.86804551, 34.44978008], [71.86806796, 34.44973328], [71.86802057, 34.44971782], [71.86799811, 34.44976462]]]]}, "properties": {"id": "Pakistan_123102132_333151", "height": 3.428337574005127, "hmax": 0.002, "ratio": 0.001, "vulnClass": "none"}}, {"type": "Feature", "geometry": {"type": "MultiPolygon", "coordinates": [[[[71.867861, 34.44990345], [71.86803916, 34.44993753], [71.86805303, 34.44988827], [71.86787487, 34.44985417], [71.867861, 34.44990345]]]]}, "properties": {"id": "Pakistan_123102132_530174", "height": 2.496615171432495, "hmax": 0.002, "ratio": 0.001, "vulnClass": "none"}}, {"type": "Feature", "geometry": {"type": "MultiPolygon", "coordinates": [[[[71.86802329, 34.45061621], [71.86817275, 34.45065265], [71.86819973, 34.45057739], [71.86817506, 34.45057138], [71.86819256, 34.45052256], [71.86806778, 34.45049214], [71.86802329, 34.45061621]]]]}, "properties": {"id": "Pakistan_123102132_46590", "height": 3.582288980484009, "hmax": 0.005, "ratio": 0.001, "vulnClass": "none"}}, {"type": "Feature", "geometry": {"type": "MultiPolygon", "coordinates": [[[[71.86782515, 34.45106163], [71.86778222, 34.4511504], [71.86798817, 34.45121814], [71.86803111, 34.45112936], [71.86782515, 34.45106163]]]]}, "properties": {"id": "Pakistan_123102132_173012", "height": 2.909625291824341, "hmax": 0.006, "ratio": 0.002, "vulnClass": "none"}}, {"type": "Feature", "geometry": {"type": "MultiPolygon", "coordinates": [[[[71.86849022, 34.45078445], [71.86870438, 34.45084867], [71.86873758, 34.45077337], [71.86852341, 34.45070917], [71.86849022, 34.45078445]]]]}, "properties": {"id": "Pakistan_123102132_566614", "height": 2.515930414199829, "hmax": 0.004, "ratio": 0.002, "vulnClass": "none"}}, {"type": "Feature", "geometry": {"type": "MultiPolygon", "coordinates": [[[[71.86822704, 34.45069897], [71.86841727, 34.45077503], [71.86845833, 34.45070519], [71.8682681, 34.45062913], [71.86822704, 34.45069897]]]]}, "properties": {"id": "Pakistan_123102132_517920", "height": 2.608275175094604, "hmax": 0.005, "ratio": 0.002, "vulnClass": "none"}}, {"type": "Feature", "geometry": {"type": "MultiPolygon", "coordinates": [[[[71.86852268, 34.45203682], [71.86847965, 34.45210747], [71.86858323, 34.45215037], [71.86862627, 34.45207972], [71.86852268, 34.45203682]]]]}, "properties": {"id": "Pakistan_123102132_403998", "height": 3.961568355560303, "hmax": 0.002, "ratio": 0.001, "vulnClass": "none"}}, {"type": "Feature", "geometry": {"type": "MultiPolygon", "coordinates": [[[[71.86859578, 34.45194772], [71.8685325, 34.45202939], [71.86890388, 34.45222508], [71.86896717, 34.45214341], [71.86859578, 34.45194772]]]]}, "properties": {"id": "Pakistan_123102132_145087", "height": 4.382265090942383, "hmax": 0.002, "ratio": 0.001, "vulnClass": "none"}}]}