{"type": "FeatureCollection", "features": [{"type": "Feature", "geometry": {"type": "MultiPolygon", "coordinates": [[[[72.00348724, 34.06889282], [72.00347735, 34.06874356], [72.00344413, 34.06874507], [72.00343355, 34.06858558], [72.00336784, 34.06858857], [72.00338829, 34.06889733], [72.00348724, 34.06889282]]]]}, "properties": {"id": "Pakistan_123102310_882077", "height": 2.520832538604736, "hmax": 0.024, "ratio": 0.009, "vulnClass": "none"}}, {"type": "Feature", "geometry": {"type": "MultiPolygon", "coordinates": [[[[72.00408336, 34.06861886], [72.00407078, 34.06850061], [72.00351985, 34.06854086], [72.00353242, 34.06865908], [72.00408336, 34.06861886]]]]}, "properties": {"id": "Pakistan_123102310_540646", "height": 4.963127136230469, "hmax": 0.022, "ratio": 0.004, "vulnClass": "none"}}, {"type": "Feature", "geometry": {"type": "MultiPolygon", "coordinates": [[[[72.00372293, 34.06881735], [72.00383143, 34.06881228], [72.00382689, 34.06874583], [72.00355418, 34.06875858], [72.00356128, 34.06886267], [72.00364261, 34.06885887], [72.00364291, 34.0688633], [72.0037258, 34.06885943], [72.00372293, 34.06881735]]]]}, "properties": {"id": "Pakistan_123102310_164631", "height": 2.659785747528076, "hmax": 0.024, "ratio": 0.009, "vulnClass": "none"}}, {"type": "Feature", "geometry": {"type": "MultiPolygon", "coordinates": [[[[72.00384848, 34.06908173], [72.00384368, 34.06896048], [72.0035715, 34.06896788], [72.0035763, 34.06908911], [72.00384848, 34.06908173]]]]}, "properties": {"id": "Pakistan_123102310_32239", "height": 5.568548679351807, "hmax": 0.024, "ratio": 0.004, "vulnClass": "none"}}, {"type": "Feature", "geometry": {"type": "MultiPolygon", "coordinates": [[[[72.00385954, 34.06918248], [72.00358672, 34.06919447], [72.00359395, 34.06930746], [72.00386677, 34.06929547], [72.00385954, 34.06918248]]]]}, "properties": {"id": "Pakistan_123102310_644892", "height": 4.611032485961914, "hmax": 0.024, "ratio": 0.005, "vulnClass": "none"}}, {"type": "Feature", "geometry": {"type": "MultiPolygon", "coordinates": [[[[72.00276632, 34.07171823], [72.00277256, 34.07189004], [72.00283152, 34.07188857], [72.00282528, 34.07171677], [72.00276632, 34.07171823]]]]}, "properties": {"id": "Pakistan_123102310_412761", "height": 2.861137390136719, "hmax": 0.002, "ratio": 0.001, "vulnClass": "none"}}, {"type": "Feature", "geometry": {"type": "MultiPolygon", "coordinates": [[[[72.00587315, 34.0724721], [72.00586135, 34.07239784], [72.00569788, 34.07241567], [72.00570899, 34.07248555], [72.00578018, 34.07247779], [72.00578087, 34.07248216], [72.00587315, 34.0724721]]]]}, "properties": {"id": "Pakistan_123102310_801693", "height": 3.493326663970947, "hmax": 0.003, "ratio": 0.001, "vulnClass": "none"}}, {"type": "Feature", "geometry": {"type": "MultiPolygon", "coordinates": [[[[72.0030101, 34.07417731], [72.00316264, 34.07417125], [72.00314544, 34.07387423], [72.00299291, 34.07388028], [72.0030101, 34.07417731]]]]}, "properties": {"id": "Pakistan_123102310_268455", "height": 3.814926624298096, "hmax": 0.007, "ratio": 0.002, "vulnClass": "none"}}, {"type": "Feature", "geometry": {"type": "MultiPolygon", "coordinates": [[[[72.00286853, 34.07290437], [72.00287328, 34.07299084], [72.00301247, 34.07298559], [72.00300771, 34.07289912], [72.00286853, 34.07290437]]]]}, "properties": {"id": "Pakistan_123102310_323057", "height": 2.539367914199829, "hmax": 0.008, "ratio": 0.003, "vulnClass": "none"}}, {"type": "Feature", "geometry": {"type": "MultiPolygon", "coordinates": [[[[72.00335248, 34.07772307], [72.00346884, 34.07772627], [72.0034727, 34.07763], [72.00335634, 34.07762679], [72.00335248, 34.07772307]]]]}, "properties": {"id": "Pakistan_123102310_706831", "height": 2.47187614440918, "hmax": 0.011, "ratio": 0.005, "vulnClass": "none"}}, {"type": "Feature", "geometry": {"type": "MultiPolygon", "coordinates": [[[[72.00252017, 34.07668284], [72.00251953, 34.07669615], [72.00246329, 34.07669429], [72.00245923, 34.07677858], [72.00300553, 34.07679663], [72.00301024, 34.07669903], [72.00252017, 34.07668284]]]]}, "properties": {"id": "Pakistan_123102310_502707", "height": 3.508759498596191, "hmax": 0.017, "ratio": 0.005, "vulnClass": "none"}}, {"type": "Feature", "geometry": {"type": "MultiPolygon", "coordinates": [[[[72.00248508, 34.07691039], [72.00248717, 34.07695698], [72.00250592, 34.0769564], [72.00250882, 34.07702074], [72.00273649, 34.07701372], [72.00273619, 34.07700707], [72.00299065, 34.07699922], [72.00298955, 34.07697481], [72.00302973, 34.07697358], [72.00302614, 34.07689371], [72.00248508, 34.07691039]]]]}, "properties": {"id": "Pakistan_123102310_32221", "height": 5.746035099029541, "hmax": 0.018, "ratio": 0.003, "vulnClass": "none"}}, {"type": "Feature", "geometry": {"type": "MultiPolygon", "coordinates": [[[[72.00247559, 34.07648505], [72.00248173, 34.07657585], [72.00297371, 34.076553], [72.00295917, 34.07633818], [72.00290302, 34.07634079], [72.00291142, 34.07646481], [72.00247559, 34.07648505]]]]}, "properties": {"id": "Pakistan_123102310_258927", "height": 5.492470264434814, "hmax": 0.011, "ratio": 0.002, "vulnClass": "none"}}, {"type": "Feature", "geometry": {"type": "MultiPolygon", "coordinates": [[[[72.00488085, 34.08106757], [72.00488271, 34.08114307], [72.00481195, 34.08114426], [72.00481308, 34.08119008], [72.00478464, 34.08119056], [72.00478729, 34.08129796], [72.00504468, 34.08129362], [72.00504304, 34.081227], [72.00521731, 34.08122406], [72.00521539, 34.08114634], [72.00535107, 34.08114405], [72.00534998, 34.08109964], [72.00529099, 34.08110064], [72.0052895, 34.08103984], [72.00531899, 34.08103934], [72.00531775, 34.08098911], [72.00525981, 34.08099009], [72.00526067, 34.08102477], [72.00521404, 34.08102556], [72.00521494, 34.08106193], [72.00488085, 34.08106757]]]]}, "properties": {"id": "Pakistan_123102310_479238", "height": 5.498486995697021, "hmax": 0.002, "ratio": 0.0, "vulnClass": "none"}}]}