{"type": "FeatureCollection", "features": [{"type": "Feature", "geometry": {"type": "MultiPolygon", "coordinates": [[[[72.23947213, 34.20088676], [72.23930856, 34.20088893], [72.23930963, 34.20094437], [72.2394732, 34.2009422], [72.23947213, 34.20088676]]]]}, "properties": {"id": "Pakistan_123102310_670442", "height": 3.25422215461731, "hmax": 0.131, "ratio": 0.04, "vulnClass": "none"}}, {"type": "Feature", "geometry": {"type": "MultiPolygon", "coordinates": [[[[72.23023199, 34.20104774], [72.23023509, 34.20110861], [72.23046147, 34.20110072], [72.23045838, 34.20103987], [72.23023199, 34.20104774]]]]}, "properties": {"id": "Pakistan_123102310_565889", "height": 2.562492847442627, "hmax": 0.171, "ratio": 0.067, "vulnClass": "low"}}, {"type": "Feature", "geometry": {"type": "MultiPolygon", "coordinates": [[[[72.23019402, 34.20084403], [72.23019584, 34.20089056], [72.23026015, 34.20088884], [72.23025832, 34.2008423], [72.23019402, 34.20084403]]]]}, "properties": {"id": "Pakistan_123102310_528068", "height": 4.436521530151367, "hmax": 0.478, "ratio": 0.108, "vulnClass": "low"}}, {"type": "Feature", "geometry": {"type": "MultiPolygon", "coordinates": [[[[72.22935383, 34.20044701], [72.22966752, 34.20045231], [72.22967042, 34.20033479], [72.22960608, 34.2003337], [72.22960537, 34.20036253], [72.22942305, 34.20035945], [72.22942404, 34.20031953], [72.22935701, 34.2003184], [72.22935383, 34.20044701]]]]}, "properties": {"id": "Pakistan_123102310_713351", "height": 2.489612102508545, "hmax": 0.478, "ratio": 0.192, "vulnClass": "low"}}, {"type": "Feature", "geometry": {"type": "MultiPolygon", "coordinates": [[[[72.23029516, 34.20048496], [72.23024695, 34.20048651], [72.23025362, 34.20062827], [72.23030183, 34.20062672], [72.23029516, 34.20048496]]]]}, "properties": {"id": "Pakistan_123102310_494947", "height": 3.386850357055664, "hmax": 0.478, "ratio": 0.141, "vulnClass": "low"}}, {"type": "Feature", "geometry": {"type": "MultiPolygon", "coordinates": [[[[72.23047484, 34.20026985], [72.230642, 34.20026432], [72.23063669, 34.20015462], [72.23055099, 34.20015746], [72.23055245, 34.20018742], [72.23052031, 34.20018848], [72.23051768, 34.20013417], [72.23046835, 34.2001358], [72.23047484, 34.20026985]]]]}, "properties": {"id": "Pakistan_123102310_897923", "height": 3.699823141098022, "hmax": 0.226, "ratio": 0.061, "vulnClass": "low"}}, {"type": "Feature", "geometry": {"type": "MultiPolygon", "coordinates": [[[[72.23066039, 34.20005144], [72.23021646, 34.20005925], [72.23021737, 34.20009473], [72.23027523, 34.20009371], [72.23027628, 34.20013477], [72.23066235, 34.200128], [72.23066039, 34.20005144]]]]}, "properties": {"id": "Pakistan_123102310_940491", "height": 3.102171897888184, "hmax": 0.333, "ratio": 0.107, "vulnClass": "low"}}, {"type": "Feature", "geometry": {"type": "MultiPolygon", "coordinates": [[[[72.2302082, 34.19996871], [72.23020488, 34.2000507], [72.23028101, 34.20005281], [72.23028432, 34.19997082], [72.2302082, 34.19996871]]]]}, "properties": {"id": "Pakistan_123102310_461790", "height": 3.082902908325195, "hmax": 0.544, "ratio": 0.176, "vulnClass": "low"}}, {"type": "Feature", "geometry": {"type": "MultiPolygon", "coordinates": [[[[72.2302527, 34.20122534], [72.23025809, 34.20132053], [72.23047487, 34.20131214], [72.23047061, 34.20123688], [72.23038376, 34.20124024], [72.23038263, 34.20122032], [72.2302527, 34.20122534]]]]}, "properties": {"id": "Pakistan_123102310_808095", "height": 3.566776514053345, "hmax": 0.169, "ratio": 0.047, "vulnClass": "none"}}, {"type": "Feature", "geometry": {"type": "MultiPolygon", "coordinates": [[[[72.22837977, 34.19577938], [72.22837814, 34.195857], [72.22842373, 34.19585766], [72.22842236, 34.19592315], [72.22851467, 34.19592447], [72.22851768, 34.19578136], [72.22837977, 34.19577938]]]]}, "properties": {"id": "Pakistan_123102310_689400", "height": 2.550293922424316, "hmax": 0.2, "ratio": 0.078, "vulnClass": "low"}}, {"type": "Feature", "geometry": {"type": "MultiPolygon", "coordinates": [[[[72.22903869, 34.19541096], [72.22895755, 34.19540422], [72.22892741, 34.19565241], [72.22913719, 34.19566984], [72.22914466, 34.19560834], [72.22901604, 34.19559766], [72.22903869, 34.19541096]]]]}, "properties": {"id": "Pakistan_123102310_916883", "height": 3.108644247055054, "hmax": 0.25, "ratio": 0.08, "vulnClass": "low"}}, {"type": "Feature", "geometry": {"type": "MultiPolygon", "coordinates": [[[[72.22892401, 34.19594141], [72.22893028, 34.19581962], [72.22890503, 34.19581873], [72.22890742, 34.19577222], [72.22876667, 34.19576727], [72.22876918, 34.19571855], [72.22865673, 34.19571459], [72.22864055, 34.19602905], [72.22933131, 34.19605336], [72.22933313, 34.19601793], [72.22910288, 34.19600983], [72.22910607, 34.19594782], [72.22892401, 34.19594141]]]]}, "properties": {"id": "Pakistan_123102310_409674", "height": 2.620521306991577, "hmax": 0.194, "ratio": 0.074, "vulnClass": "low"}}, {"type": "Feature", "geometry": {"type": "MultiPolygon", "coordinates": [[[[72.22913009, 34.19558727], [72.22915945, 34.19558896], [72.22916457, 34.19552822], [72.22913521, 34.19552653], [72.22913009, 34.19558727]]]]}, "properties": {"id": "Pakistan_123102310_589716", "height": 2.443427085876465, "hmax": 0.194, "ratio": 0.079, "vulnClass": "low"}}, {"type": "Feature", "geometry": {"type": "MultiPolygon", "coordinates": [[[[72.22928374, 34.19543023], [72.2293392, 34.19543595], [72.22934398, 34.19540426], [72.22922777, 34.19539226], [72.22922892, 34.19538464], [72.2291535, 34.19537686], [72.22914411, 34.19543909], [72.2291852, 34.19544333], [72.22915736, 34.19562795], [72.22925244, 34.19563776], [72.22928374, 34.19543023]]]]}, "properties": {"id": "Pakistan_123102310_897914", "height": 3.008069515228271, "hmax": 0.356, "ratio": 0.118, "vulnClass": "low"}}, {"type": "Feature", "geometry": {"type": "MultiPolygon", "coordinates": [[[[72.22972633, 34.19582811], [72.2299141, 34.1958652], [72.22992319, 34.19583372], [72.22981806, 34.19581295], [72.22982685, 34.19578253], [72.22974421, 34.1957662], [72.22972633, 34.19582811]]]]}, "properties": {"id": "Pakistan_123102310_296098", "height": 2.684690475463867, "hmax": 0.666, "ratio": 0.248, "vulnClass": "low"}}, {"type": "Feature", "geometry": {"type": "MultiPolygon", "coordinates": [[[[72.22999683, 34.19592481], [72.22999996, 34.19588613], [72.22993321, 34.19588244], [72.22993007, 34.1959211], [72.22999683, 34.19592481]]]]}, "properties": {"id": "Pakistan_123102310_684708", "height": 2.475622653961182, "hmax": 0.666, "ratio": 0.269, "vulnClass": "low"}}, {"type": "Feature", "geometry": {"type": "MultiPolygon", "coordinates": [[[[72.23029195, 34.1959249], [72.2304381, 34.19594504], [72.23045137, 34.19587916], [72.2301889, 34.195843], [72.23017345, 34.19591966], [72.23002097, 34.19589864], [72.23001163, 34.19594503], [72.22994117, 34.19593532], [72.22992465, 34.19601735], [72.23014909, 34.19604827], [72.23016474, 34.19597056], [72.23027957, 34.19598638], [72.23029195, 34.1959249]]]]}, "properties": {"id": "Pakistan_123102310_442678", "height": 2.665035724639893, "hmax": 0.666, "ratio": 0.25, "vulnClass": "low"}}, {"type": "Feature", "geometry": {"type": "MultiPolygon", "coordinates": [[[[72.23091447, 34.19611644], [72.23043044, 34.19599013], [72.23040735, 34.19605066], [72.23054499, 34.19608658], [72.23052611, 34.19613606], [72.23041043, 34.19610586], [72.2303762, 34.19619561], [72.23044308, 34.19621306], [72.23045232, 34.19618885], [72.23059522, 34.19622614], [72.23062986, 34.19613535], [72.23067967, 34.19614835], [72.23069004, 34.19612117], [72.2308925, 34.19617401], [72.23091447, 34.19611644]]]]}, "properties": {"id": "Pakistan_123102310_836385", "height": 2.708878517150879, "hmax": 0.498, "ratio": 0.184, "vulnClass": "low"}}, {"type": "Feature", "geometry": {"type": "MultiPolygon", "coordinates": [[[[72.22932691, 34.19622317], [72.2293037, 34.19646681], [72.22937301, 34.19647133], [72.22937154, 34.19648676], [72.22955598, 34.19649879], [72.22938353, 34.19638907], [72.22938828, 34.19633922], [72.22942937, 34.19634189], [72.22943357, 34.1962978], [72.22950443, 34.19630242], [72.22949981, 34.19635092], [72.22957445, 34.19635579], [72.2295671, 34.19643296], [72.22975636, 34.19644529], [72.22976896, 34.19631301], [72.22959836, 34.19630189], [72.22960971, 34.19618283], [72.22972433, 34.1961903], [72.22972979, 34.19613297], [72.22956719, 34.19612237], [72.2295697, 34.19609599], [72.22947866, 34.19603807], [72.22948068, 34.1960169], [72.22941137, 34.19601238], [72.22940759, 34.19605207], [72.22945824, 34.19605537], [72.22945214, 34.19611931], [72.22920133, 34.19610296], [72.22915976, 34.19614766], [72.22916457, 34.19609721], [72.22912305, 34.1960945], [72.22911211, 34.19620915], [72.22932691, 34.19622317]]]]}, "properties": {"id": "Pakistan_123102310_902693", "height": 2.845851421356201, "hmax": 0.421, "ratio": 0.148, "vulnClass": "low"}}, {"type": "Feature", "geometry": {"type": "MultiPolygon", "coordinates": [[[[72.22895817, 34.19621789], [72.22908323, 34.19622712], [72.22909914, 34.19607966], [72.22898738, 34.19607141], [72.22898334, 34.19610882], [72.22906317, 34.19611472], [72.22905558, 34.19618515], [72.22896244, 34.19617827], [72.22895817, 34.19621789]]]]}, "properties": {"id": "Pakistan_123102310_456928", "height": 2.756552219390869, "hmax": 0.194, "ratio": 0.07, "vulnClass": "low"}}, {"type": "Feature", "geometry": {"type": "MultiPolygon", "coordinates": [[[[72.22943805, 34.19668607], [72.2293658, 34.19668898], [72.22936789, 34.19672439], [72.22944014, 34.19672148], [72.22943805, 34.19668607]]]]}, "properties": {"id": "Pakistan_123102310_100320", "height": 3.484173059463501, "hmax": 0.152, "ratio": 0.044, "vulnClass": "none"}}, {"type": "Feature", "geometry": {"type": "MultiPolygon", "coordinates": [[[[72.22953514, 34.19672396], [72.22952163, 34.19666163], [72.22944107, 34.19667357], [72.22945458, 34.19673591], [72.22953514, 34.19672396]]]]}, "properties": {"id": "Pakistan_123102310_139335", "height": 3.180171489715576, "hmax": 0.641, "ratio": 0.202, "vulnClass": "low"}}, {"type": "Feature", "geometry": {"type": "MultiPolygon", "coordinates": [[[[72.22975687, 34.19680156], [72.23001783, 34.19680872], [72.23002356, 34.19666576], [72.22988156, 34.19666187], [72.22988205, 34.1966497], [72.22976307, 34.19664643], [72.22975687, 34.19680156]]]]}, "properties": {"id": "Pakistan_123102310_627541", "height": 2.675364971160889, "hmax": 0.659, "ratio": 0.246, "vulnClass": "low"}}, {"type": "Feature", "geometry": {"type": "MultiPolygon", "coordinates": [[[[72.2295382, 34.19692697], [72.22953608, 34.19689936], [72.22942655, 34.1969051], [72.22942866, 34.19693271], [72.2295382, 34.19692697]]]]}, "properties": {"id": "Pakistan_123102310_490166", "height": 2.668834686279297, "hmax": 0.59, "ratio": 0.221, "vulnClass": "low"}}, {"type": "Feature", "geometry": {"type": "MultiPolygon", "coordinates": [[[[72.22963428, 34.19682012], [72.22947642, 34.1968266], [72.22948027, 34.19689077], [72.22963813, 34.1968843], [72.22963428, 34.19682012]]]]}, "properties": {"id": "Pakistan_123102310_343584", "height": 3.169910192489624, "hmax": 0.659, "ratio": 0.208, "vulnClass": "low"}}, {"type": "Feature", "geometry": {"type": "MultiPolygon", "coordinates": [[[[72.22947854, 34.19689958], [72.22946787, 34.19683536], [72.22937732, 34.19684565], [72.22938799, 34.19690987], [72.22947854, 34.19689958]]]]}, "properties": {"id": "Pakistan_123102310_319965", "height": 2.817345857620239, "hmax": 0.315, "ratio": 0.112, "vulnClass": "low"}}, {"type": "Feature", "geometry": {"type": "MultiPolygon", "coordinates": [[[[72.22930396, 34.19692891], [72.22937779, 34.19692566], [72.22937279, 34.19684823], [72.22929897, 34.19685149], [72.22930396, 34.19692891]]]]}, "properties": {"id": "Pakistan_123102310_850497", "height": 2.817345857620239, "hmax": 0.152, "ratio": 0.054, "vulnClass": "low"}}, {"type": "Feature", "geometry": {"type": "MultiPolygon", "coordinates": [[[[72.22921336, 34.19697267], [72.2292172, 34.19687961], [72.22904842, 34.19687484], [72.22904457, 34.1969679], [72.22921336, 34.19697267]]]]}, "properties": {"id": "Pakistan_123102310_334137", "height": 2.517204523086548, "hmax": 0.152, "ratio": 0.06, "vulnClass": "low"}}, {"type": "Feature", "geometry": {"type": "MultiPolygon", "coordinates": [[[[72.22823625, 34.19711716], [72.22823458, 34.19708069], [72.22813979, 34.19708367], [72.22814147, 34.19712014], [72.22823625, 34.19711716]]]]}, "properties": {"id": "Pakistan_123102310_5924", "height": 2.448607921600342, "hmax": 0.092, "ratio": 0.038, "vulnClass": "none"}}, {"type": "Feature", "geometry": {"type": "MultiPolygon", "coordinates": [[[[72.22782592, 34.1976107], [72.22792146, 34.19761177], [72.22792589, 34.19733895], [72.22783038, 34.19733788], [72.22782592, 34.1976107]]]]}, "properties": {"id": "Pakistan_123102310_452221", "height": 2.456184864044189, "hmax": 0.102, "ratio": 0.042, "vulnClass": "none"}}, {"type": "Feature", "geometry": {"type": "MultiPolygon", "coordinates": [[[[72.22931649, 34.19894061], [72.22904028, 34.19894363], [72.22904148, 34.19901904], [72.2293177, 34.19901602], [72.22931649, 34.19894061]]]]}, "properties": {"id": "Pakistan_123102310_930958", "height": 2.78045129776001, "hmax": 0.278, "ratio": 0.1, "vulnClass": "low"}}, {"type": "Feature", "geometry": {"type": "MultiPolygon", "coordinates": [[[[72.23360484, 34.19803692], [72.23360327, 34.19811232], [72.23378196, 34.19811487], [72.233785, 34.19796849], [72.23366262, 34.19796675], [72.23366115, 34.19803772], [72.23360484, 34.19803692]]]]}, "properties": {"id": "Pakistan_123102310_419125", "height": 2.728563547134399, "hmax": 0.003, "ratio": 0.001, "vulnClass": "none"}}, {"type": "Feature", "geometry": {"type": "MultiPolygon", "coordinates": [[[[72.23366429, 34.19577651], [72.23365074, 34.19583514], [72.23349695, 34.19581083], [72.23350111, 34.19579286], [72.23343753, 34.1957828], [72.23342319, 34.19584487], [72.23364055, 34.19587924], [72.23364252, 34.19587068], [72.23392347, 34.19591512], [72.23394523, 34.19582094], [72.23366429, 34.19577651]]]]}, "properties": {"id": "Pakistan_123102310_54411", "height": 3.045862674713135, "hmax": 0.043, "ratio": 0.014, "vulnClass": "none"}}, {"type": "Feature", "geometry": {"type": "MultiPolygon", "coordinates": [[[[72.23109901, 34.19237612], [72.23106853, 34.19229278], [72.23116682, 34.19226818], [72.23113931, 34.19219298], [72.2309329, 34.19224464], [72.23099089, 34.19240318], [72.23109901, 34.19237612]]]]}, "properties": {"id": "Pakistan_123102310_803260", "height": 2.699127197265625, "hmax": 0.012, "ratio": 0.004, "vulnClass": "none"}}, {"type": "Feature", "geometry": {"type": "MultiPolygon", "coordinates": [[[[72.22758742, 34.19168092], [72.22766925, 34.19168368], [72.22767166, 34.19163495], [72.22768354, 34.19163535], [72.22768644, 34.19157655], [72.22759272, 34.19157338], [72.22758742, 34.19168092]]]]}, "properties": {"id": "Pakistan_123102310_280018", "height": 3.116806030273438, "hmax": 0.832, "ratio": 0.267, "vulnClass": "low"}}, {"type": "Feature", "geometry": {"type": "MultiPolygon", "coordinates": [[[[72.22765981, 34.19169267], [72.22760102, 34.1916956], [72.22760311, 34.19172434], [72.22766191, 34.1917214], [72.22765981, 34.19169267]]]]}, "properties": {"id": "Pakistan_123102310_334122", "height": 3.207810163497925, "hmax": 0.832, "ratio": 0.259, "vulnClass": "low"}}, {"type": "Feature", "geometry": {"type": "MultiPolygon", "coordinates": [[[[72.22805978, 34.1918262], [72.22796477, 34.19183625], [72.22798354, 34.19195749], [72.22790437, 34.19196588], [72.22791754, 34.19205101], [72.22809171, 34.19203256], [72.22805978, 34.1918262]]]]}, "properties": {"id": "Pakistan_123102310_471282", "height": 3.044633150100708, "hmax": 0.511, "ratio": 0.168, "vulnClass": "low"}}, {"type": "Feature", "geometry": {"type": "MultiPolygon", "coordinates": [[[[72.22875428, 34.19467436], [72.22897806, 34.19467816], [72.22897902, 34.19463938], [72.22894291, 34.19463877], [72.22894573, 34.19452453], [72.22875806, 34.19452134], [72.22875428, 34.19467436]]]]}, "properties": {"id": "Pakistan_123102310_233839", "height": 2.507851362228394, "hmax": 0.539, "ratio": 0.215, "vulnClass": "low"}}, {"type": "Feature", "geometry": {"type": "MultiPolygon", "coordinates": [[[[72.22854893, 34.19473339], [72.2285582, 34.19507044], [72.22872709, 34.19506726], [72.22872618, 34.195034], [72.22865111, 34.19503541], [72.22864276, 34.19473163], [72.22854893, 34.19473339]]]]}, "properties": {"id": "Pakistan_123102310_718057", "height": 3.449969291687012, "hmax": 0.596, "ratio": 0.173, "vulnClass": "low"}}, {"type": "Feature", "geometry": {"type": "MultiPolygon", "coordinates": [[[[72.22905739, 34.18948831], [72.22914858, 34.18948762], [72.22914698, 34.18934341], [72.2290558, 34.18934411], [72.22905739, 34.18948831]]]]}, "properties": {"id": "Pakistan_123102310_930955", "height": 3.126312255859375, "hmax": 0.429, "ratio": 0.137, "vulnClass": "low"}}, {"type": "Feature", "geometry": {"type": "MultiPolygon", "coordinates": [[[[72.2282889, 34.18967481], [72.22827614, 34.18995618], [72.22834846, 34.18995843], [72.22834981, 34.18992845], [72.22833374, 34.18992795], [72.22833811, 34.18983164], [72.22842382, 34.1898343], [72.22842613, 34.18978335], [72.22833507, 34.18978052], [72.22833999, 34.18967196], [72.22840595, 34.189674], [72.22840977, 34.18958981], [72.22827417, 34.18958561], [72.22827231, 34.18962652], [72.2278518, 34.18961344], [72.22785556, 34.18953046], [72.22770825, 34.18952589], [72.22771277, 34.18942619], [72.22761099, 34.18942303], [72.2276027, 34.1896057], [72.22778652, 34.18961141], [72.22778495, 34.18964586], [72.22788774, 34.18964905], [72.22788402, 34.18973102], [72.22801425, 34.18973507], [72.22801113, 34.18980375], [72.228055, 34.18980511], [72.22806123, 34.18966774], [72.2282889, 34.18967481]]]]}, "properties": {"id": "Pakistan_123102310_353094", "height": 2.642911434173584, "hmax": 0.615, "ratio": 0.233, "vulnClass": "low"}}, {"type": "Feature", "geometry": {"type": "MultiPolygon", "coordinates": [[[[72.22807663, 34.18989298], [72.22800723, 34.18988895], [72.22800283, 34.18994075], [72.22807223, 34.18994478], [72.22807663, 34.18989298]]]]}, "properties": {"id": "Pakistan_123102310_859958", "height": 4.130592346191406, "hmax": 0.615, "ratio": 0.149, "vulnClass": "low"}}, {"type": "Feature", "geometry": {"type": "MultiPolygon", "coordinates": [[[[72.22813316, 34.19017078], [72.22803562, 34.19016866], [72.22803143, 34.19030067], [72.228196, 34.19030424], [72.22819817, 34.1902355], [72.22813116, 34.19023405], [72.22813316, 34.19017078]]]]}, "properties": {"id": "Pakistan_123102310_546896", "height": 3.193090438842773, "hmax": 0.814, "ratio": 0.255, "vulnClass": "low"}}, {"type": "Feature", "geometry": {"type": "MultiPolygon", "coordinates": [[[[72.22790034, 34.19048361], [72.22817652, 34.19048772], [72.22817826, 34.19040787], [72.22800397, 34.19040528], [72.22800561, 34.19032987], [72.22790372, 34.19032835], [72.22790034, 34.19048361]]]]}, "properties": {"id": "Pakistan_123102310_452222", "height": 2.501146793365479, "hmax": 0.814, "ratio": 0.325, "vulnClass": "moderate"}}, {"type": "Feature", "geometry": {"type": "MultiPolygon", "coordinates": [[[[72.2278841, 34.19146144], [72.22786985, 34.19115471], [72.22773749, 34.19115892], [72.22773599, 34.19112669], [72.2276782, 34.19112852], [72.2276817, 34.19120384], [72.22762277, 34.19120571], [72.22762092, 34.19116584], [72.22751647, 34.19116915], [72.22752285, 34.1913065], [72.22749071, 34.19130752], [72.22749308, 34.19135847], [72.22753593, 34.19135712], [72.22753963, 34.19143687], [72.22763222, 34.19143393], [72.22763433, 34.19147946], [72.22771736, 34.19147682], [72.22771864, 34.1915044], [72.22781354, 34.19150139], [72.22781179, 34.19146373], [72.2278841, 34.19146144]]]]}, "properties": {"id": "Pakistan_123102310_561127", "height": 3.491369724273682, "hmax": 0.832, "ratio": 0.238, "vulnClass": "low"}}, {"type": "Feature", "geometry": {"type": "MultiPolygon", "coordinates": [[[[72.2281419, 34.19161288], [72.22813037, 34.19153642], [72.22821224, 34.19152797], [72.22819181, 34.19139253], [72.22800693, 34.19141161], [72.2280389, 34.19162352], [72.2281419, 34.19161288]]]]}, "properties": {"id": "Pakistan_123102310_613309", "height": 2.828279256820679, "hmax": 0.832, "ratio": 0.294, "vulnClass": "low"}}, {"type": "Feature", "geometry": {"type": "MultiPolygon", "coordinates": [[[[72.22866522, 34.19101871], [72.22861429, 34.19101975], [72.22861613, 34.19108183], [72.22841085, 34.19108601], [72.22841315, 34.19116361], [72.22866936, 34.1911584], [72.22866522, 34.19101871]]]]}, "properties": {"id": "Pakistan_123102310_139323", "height": 3.685415267944336, "hmax": 0.585, "ratio": 0.159, "vulnClass": "low"}}, {"type": "Feature", "geometry": {"type": "MultiPolygon", "coordinates": [[[[72.22876107, 34.1906983], [72.22876776, 34.1905176], [72.22863537, 34.19051424], [72.22862868, 34.19069495], [72.22876107, 34.1906983]]]]}, "properties": {"id": "Pakistan_123102310_831688", "height": 2.690401554107666, "hmax": 0.723, "ratio": 0.269, "vulnClass": "low"}}, {"type": "Feature", "geometry": {"type": "MultiPolygon", "coordinates": [[[[72.24137019, 34.18864573], [72.24140215, 34.18877459], [72.2414562, 34.18876542], [72.24142424, 34.18863656], [72.24137019, 34.18864573]]]]}, "properties": {"id": "Pakistan_123102310_594459", "height": 2.54351282119751, "hmax": 0.022, "ratio": 0.009, "vulnClass": "none"}}]}