{"type": "FeatureCollection", "features": [{"type": "Feature", "geometry": {"type": "MultiPolygon", "coordinates": [[[[72.3756006, 34.18789555], [72.37543719, 34.18789073], [72.37543462, 34.18795056], [72.37549087, 34.18795222], [72.37548973, 34.18797881], [72.37559688, 34.18798197], [72.3756006, 34.18789555]]]]}, "properties": {"id": "Pakistan_123102310_841997", "height": 3.894469499588013, "hmax": 0.012, "ratio": 0.003, "vulnClass": "none"}}, {"type": "Feature", "geometry": {"type": "MultiPolygon", "coordinates": [[[[72.37561585, 34.18801526], [72.37555048, 34.18801674], [72.37555328, 34.18810099], [72.37561864, 34.18809951], [72.37561585, 34.18801526]]]]}, "properties": {"id": "Pakistan_123102310_54734", "height": 3.274795532226562, "hmax": 0.012, "ratio": 0.004, "vulnClass": "none"}}, {"type": "Feature", "geometry": {"type": "MultiPolygon", "coordinates": [[[[72.37749513, 34.18999414], [72.37749865, 34.18993297], [72.37746819, 34.18993177], [72.37746466, 34.18999294], [72.37749513, 34.18999414]]]]}, "properties": {"id": "Pakistan_123102310_358742", "height": 3.588821649551392, "hmax": 0.002, "ratio": 0.001, "vulnClass": "none"}}, {"type": "Feature", "geometry": {"type": "MultiPolygon", "coordinates": [[[[72.37723396, 34.19013977], [72.37723513, 34.19005325], [72.37687308, 34.1900499], [72.37687572, 34.18985468], [72.37677649, 34.18985376], [72.3767761, 34.1898826], [72.37673051, 34.18988218], [72.37673098, 34.18984754], [72.37665321, 34.18984683], [72.37665272, 34.18988232], [72.37660713, 34.1898819], [72.37660519, 34.19002523], [72.37680633, 34.19002709], [72.37680486, 34.19013579], [72.37723396, 34.19013977]]]]}, "properties": {"id": "Pakistan_123102310_538508", "height": 2.548575878143311, "hmax": 0.003, "ratio": 0.001, "vulnClass": "none"}}, {"type": "Feature", "geometry": {"type": "MultiPolygon", "coordinates": [[[[72.37651935, 34.1900498], [72.37651749, 34.18994111], [72.37643972, 34.18994202], [72.37644325, 34.19014831], [72.37664706, 34.19014593], [72.37664539, 34.19004833], [72.37651935, 34.1900498]]]]}, "properties": {"id": "Pakistan_123102310_562121", "height": 2.568226099014282, "hmax": 0.003, "ratio": 0.001, "vulnClass": "none"}}, {"type": "Feature", "geometry": {"type": "MultiPolygon", "coordinates": [[[[72.37601404, 34.19334639], [72.37601259, 34.19339295], [72.37597907, 34.19339224], [72.37597796, 34.19342771], [72.37608518, 34.19342999], [72.37608773, 34.19334796], [72.37601404, 34.19334639]]]]}, "properties": {"id": "Pakistan_123102310_198047", "height": 2.545812606811523, "hmax": 0.018, "ratio": 0.007, "vulnClass": "none"}}, {"type": "Feature", "geometry": {"type": "MultiPolygon", "coordinates": [[[[72.37618447, 34.19333763], [72.37618569, 34.19329772], [72.37608919, 34.1932957], [72.37608797, 34.19333561], [72.37618447, 34.19333763]]]]}, "properties": {"id": "Pakistan_123102310_216889", "height": 2.678041458129883, "hmax": 0.016, "ratio": 0.006, "vulnClass": "none"}}, {"type": "Feature", "geometry": {"type": "MultiPolygon", "coordinates": [[[[72.37573221, 34.1931048], [72.3757328, 34.19325252], [72.37605734, 34.19325166], [72.37605711, 34.19319266], [72.37599542, 34.19319283], [72.37599532, 34.19316842], [72.37595241, 34.19316854], [72.375952, 34.19306649], [72.37589706, 34.19306664], [72.37589721, 34.19310435], [72.37573221, 34.1931048]]]]}, "properties": {"id": "Pakistan_123102310_510237", "height": 3.162117481231689, "hmax": 0.012, "ratio": 0.004, "vulnClass": "none"}}, {"type": "Feature", "geometry": {"type": "MultiPolygon", "coordinates": [[[[72.37606913, 34.1932866], [72.37606872, 34.19325554], [72.37591049, 34.19325695], [72.37591179, 34.19335678], [72.37599361, 34.19335605], [72.37599272, 34.19328728], [72.37606913, 34.1932866]]]]}, "properties": {"id": "Pakistan_123102310_462788", "height": 2.79469108581543, "hmax": 0.021, "ratio": 0.007, "vulnClass": "none"}}, {"type": "Feature", "geometry": {"type": "MultiPolygon", "coordinates": [[[[72.37590587, 34.19334022], [72.37582563, 34.19333668], [72.37582071, 34.19341281], [72.37590095, 34.19341635], [72.37590587, 34.19334022]]]]}, "properties": {"id": "Pakistan_123102310_747590", "height": 3.047779083251953, "hmax": 0.026, "ratio": 0.009, "vulnClass": "none"}}, {"type": "Feature", "geometry": {"type": "MultiPolygon", "coordinates": [[[[72.37573887, 34.1935658], [72.37589844, 34.19356443], [72.37589912, 34.19361898], [72.3760292, 34.19361787], [72.37602764, 34.19349233], [72.37579163, 34.19349435], [72.37579145, 34.19348012], [72.37573781, 34.19348058], [72.37573887, 34.1935658]]]]}, "properties": {"id": "Pakistan_123102310_946093", "height": 3.09439492225647, "hmax": 0.025, "ratio": 0.008, "vulnClass": "none"}}, {"type": "Feature", "geometry": {"type": "MultiPolygon", "coordinates": [[[[72.37681501, 34.19347568], [72.3766408, 34.1934717], [72.37663858, 34.1935382], [72.37652468, 34.1935356], [72.37652597, 34.19349704], [72.37646969, 34.19349575], [72.37646538, 34.19362433], [72.37654846, 34.19362623], [72.37654765, 34.19365062], [72.37663609, 34.19365265], [72.37663309, 34.19374219], [72.37680597, 34.19374614], [72.37680881, 34.19366104], [72.37673109, 34.19365926], [72.37673472, 34.19355064], [72.37681244, 34.19355242], [72.37681501, 34.19347568]]]]}, "properties": {"id": "Pakistan_123102310_566898", "height": 3.450169324874878, "hmax": 0.016, "ratio": 0.005, "vulnClass": "none"}}, {"type": "Feature", "geometry": {"type": "MultiPolygon", "coordinates": [[[[72.37663005, 34.19374336], [72.37662806, 34.19365552], [72.37655299, 34.19365668], [72.37655409, 34.19370547], [72.37648974, 34.19370647], [72.37649062, 34.19374552], [72.37663005, 34.19374336]]]]}, "properties": {"id": "Pakistan_123102310_638013", "height": 3.355331897735596, "hmax": 0.016, "ratio": 0.005, "vulnClass": "none"}}, {"type": "Feature", "geometry": {"type": "MultiPolygon", "coordinates": [[[[72.37628882, 34.19377214], [72.37629131, 34.19387859], [72.37645486, 34.19387598], [72.37645849, 34.19403122], [72.37640081, 34.19403214], [72.37640169, 34.19406985], [72.37645401, 34.19406901], [72.37645458, 34.1940934], [72.37641298, 34.19409407], [72.37641494, 34.19417834], [72.37662675, 34.19417496], [72.37662415, 34.19406321], [72.37675155, 34.19406118], [72.37675067, 34.19402348], [72.37684451, 34.19402198], [72.37684344, 34.19397626], [72.3765217, 34.1939814], [72.37652121, 34.19396057], [72.37656274, 34.19395991], [72.37656135, 34.19390003], [72.37691127, 34.19389446], [72.37691082, 34.19387535], [72.37669765, 34.19387876], [72.37669625, 34.19381888], [72.37662522, 34.19382001], [72.3766239, 34.1937637], [72.37648581, 34.1937659], [72.37648588, 34.19376899], [72.37628882, 34.19377214]]]]}, "properties": {"id": "Pakistan_123102310_566891", "height": 3.85020923614502, "hmax": 0.016, "ratio": 0.004, "vulnClass": "none"}}, {"type": "Feature", "geometry": {"type": "MultiPolygon", "coordinates": [[[[72.37644521, 34.19391792], [72.37639558, 34.19391857], [72.3763968, 34.19398289], [72.37644643, 34.19398224], [72.37644521, 34.19391792]]]]}, "properties": {"id": "Pakistan_123102310_140386", "height": 3.312150955200195, "hmax": 0.016, "ratio": 0.005, "vulnClass": "none"}}, {"type": "Feature", "geometry": {"type": "MultiPolygon", "coordinates": [[[[72.37676475, 34.19409195], [72.37676585, 34.19412878], [72.37669616, 34.19413021], [72.37669749, 34.19417456], [72.37700169, 34.19416832], [72.37699926, 34.19408713], [72.37676475, 34.19409195]]]]}, "properties": {"id": "Pakistan_123102310_301820", "height": 3.257349491119385, "hmax": 0.016, "ratio": 0.005, "vulnClass": "none"}}, {"type": "Feature", "geometry": {"type": "MultiPolygon", "coordinates": [[[[72.37567363, 34.1940263], [72.3758881, 34.19402245], [72.37588508, 34.19390714], [72.37591993, 34.19390651], [72.37591879, 34.19386307], [72.37566946, 34.19386756], [72.37567363, 34.1940263]]]]}, "properties": {"id": "Pakistan_123102310_647420", "height": 2.919735670089722, "hmax": 0.026, "ratio": 0.009, "vulnClass": "none"}}, {"type": "Feature", "geometry": {"type": "MultiPolygon", "coordinates": [[[[72.37526639, 34.19450838], [72.37526703, 34.19461043], [72.37526561, 34.19461043], [72.37526577, 34.19463706], [72.37545352, 34.19463626], [72.37545273, 34.19450759], [72.37526639, 34.19450838]]]]}, "properties": {"id": "Pakistan_123102310_604735", "height": 2.873472690582275, "hmax": 0.026, "ratio": 0.009, "vulnClass": "none"}}, {"type": "Feature", "geometry": {"type": "MultiPolygon", "coordinates": [[[[72.37534099, 34.1944459], [72.37536652, 34.19444637], [72.37536511, 34.19449959], [72.37554741, 34.19450292], [72.37555099, 34.19436859], [72.37534316, 34.1943648], [72.37534099, 34.1944459]]]]}, "properties": {"id": "Pakistan_123102310_600063", "height": 3.467409133911133, "hmax": 0.026, "ratio": 0.007, "vulnClass": "none"}}, {"type": "Feature", "geometry": {"type": "MultiPolygon", "coordinates": [[[[72.37596944, 34.19474974], [72.37660766, 34.19474169], [72.37660622, 34.19466319], [72.37652309, 34.19466423], [72.37652158, 34.19458217], [72.37658594, 34.19458136], [72.37658497, 34.19452812], [72.37635971, 34.19453095], [72.3763593, 34.19450877], [72.37628154, 34.19450975], [72.37628317, 34.19459847], [72.37607937, 34.19460103], [72.3760779, 34.19452118], [72.37596527, 34.1945226], [72.37596944, 34.19474974]]]]}, "properties": {"id": "Pakistan_123102310_150765", "height": 3.951150417327881, "hmax": 0.019, "ratio": 0.005, "vulnClass": "none"}}, {"type": "Feature", "geometry": {"type": "MultiPolygon", "coordinates": [[[[72.3756121, 34.19545853], [72.37594074, 34.19546299], [72.37594343, 34.19532679], [72.37575961, 34.19532428], [72.37576003, 34.19530302], [72.37574811, 34.19530286], [72.37574938, 34.19523854], [72.37561651, 34.19523674], [72.3756121, 34.19545853]]]]}, "properties": {"id": "Pakistan_123102310_207559", "height": 3.716395378112793, "hmax": 0.015, "ratio": 0.004, "vulnClass": "none"}}, {"type": "Feature", "geometry": {"type": "MultiPolygon", "coordinates": [[[[72.37609517, 34.19552395], [72.37610642, 34.19593063], [72.37616118, 34.19592959], [72.37615892, 34.19584755], [72.37623551, 34.1958461], [72.3762333, 34.19576627], [72.37616476, 34.19576757], [72.37616027, 34.19560481], [72.3763104, 34.19560198], [72.37631578, 34.1957971], [72.37637896, 34.19579591], [72.37637289, 34.19557639], [72.37639819, 34.19557592], [72.37639097, 34.19531427], [72.37645799, 34.195313], [72.37645157, 34.19508018], [72.3763631, 34.19508185], [72.37636635, 34.19519937], [72.37630737, 34.19520048], [72.37631618, 34.19551978], [72.37609517, 34.19552395]]]]}, "properties": {"id": "Pakistan_123102310_500541", "height": 2.837948799133301, "hmax": 0.017, "ratio": 0.006, "vulnClass": "none"}}, {"type": "Feature", "geometry": {"type": "MultiPolygon", "coordinates": [[[[72.37749196, 34.1942149], [72.37749376, 34.19431833], [72.37760639, 34.194317], [72.37760463, 34.19421577], [72.37752954, 34.19421667], [72.37752825, 34.19414266], [72.37743569, 34.19414376], [72.37743694, 34.19421556], [72.37749196, 34.1942149]]]]}, "properties": {"id": "Pakistan_123102310_301829", "height": 2.814165115356445, "hmax": 0.021, "ratio": 0.007, "vulnClass": "none"}}, {"type": "Feature", "geometry": {"type": "MultiPolygon", "coordinates": [[[[72.37702692, 34.1939548], [72.37704548, 34.19411081], [72.37715706, 34.19410173], [72.3771615, 34.19413908], [72.3777539, 34.19409086], [72.3777471, 34.19403374], [72.37760896, 34.19404498], [72.37760739, 34.1940318], [72.37746394, 34.19404347], [72.37745401, 34.19395997], [72.37743541, 34.19396149], [72.37743071, 34.19392194], [72.37702692, 34.1939548]]]]}, "properties": {"id": "Pakistan_123102310_571680", "height": 4.034530639648438, "hmax": 0.021, "ratio": 0.005, "vulnClass": "none"}}, {"type": "Feature", "geometry": {"type": "MultiPolygon", "coordinates": [[[[72.37560488, 34.19554669], [72.37560377, 34.19575966], [72.37584632, 34.19576053], [72.37584746, 34.19554756], [72.37560488, 34.19554669]]]]}, "properties": {"id": "Pakistan_123102310_633266", "height": 2.847260713577271, "hmax": 0.015, "ratio": 0.005, "vulnClass": "none"}}, {"type": "Feature", "geometry": {"type": "MultiPolygon", "coordinates": [[[[72.37540062, 34.19598163], [72.37542056, 34.19605462], [72.37557877, 34.19602504], [72.37555883, 34.19595205], [72.37540062, 34.19598163]]]]}, "properties": {"id": "Pakistan_123102310_642706", "height": 4.071615219116211, "hmax": 0.01, "ratio": 0.003, "vulnClass": "none"}}, {"type": "Feature", "geometry": {"type": "MultiPolygon", "coordinates": [[[[72.37562878, 34.19610783], [72.37565736, 34.19630465], [72.3757076, 34.19629966], [72.37570188, 34.1962603], [72.37575851, 34.19625467], [72.37573566, 34.19609721], [72.37562878, 34.19610783]]]]}, "properties": {"id": "Pakistan_123102310_552643", "height": 3.305514574050903, "hmax": 0.009, "ratio": 0.003, "vulnClass": "none"}}, {"type": "Feature", "geometry": {"type": "MultiPolygon", "coordinates": [[[[72.37559225, 34.19627213], [72.37555657, 34.19622558], [72.3754609, 34.19627574], [72.37549658, 34.1963223], [72.37559225, 34.19627213]]]]}, "properties": {"id": "Pakistan_123102310_913097", "height": 3.081298351287842, "hmax": 0.009, "ratio": 0.003, "vulnClass": "none"}}, {"type": "Feature", "geometry": {"type": "MultiPolygon", "coordinates": [[[[72.37551672, 34.19748928], [72.37546369, 34.19752377], [72.3755041, 34.19756626], [72.37555712, 34.19753177], [72.37551672, 34.19748928]]]]}, "properties": {"id": "Pakistan_123102310_685685", "height": 2.790302753448486, "hmax": 0.021, "ratio": 0.007, "vulnClass": "none"}}, {"type": "Feature", "geometry": {"type": "MultiPolygon", "coordinates": [[[[72.37552942, 34.19959232], [72.37548594, 34.19991571], [72.37559721, 34.19992595], [72.37561978, 34.19975814], [72.37561605, 34.19975779], [72.37563698, 34.19960221], [72.37552942, 34.19959232]]]]}, "properties": {"id": "Pakistan_123102310_354033", "height": 4.441947460174561, "hmax": 0.07, "ratio": 0.016, "vulnClass": "none"}}, {"type": "Feature", "geometry": {"type": "MultiPolygon", "coordinates": [[[[72.37575827, 34.19974037], [72.37575841, 34.20001102], [72.37584156, 34.20001099], [72.37584142, 34.19974034], [72.37575827, 34.19974037]]]]}, "properties": {"id": "Pakistan_123102310_931952", "height": 3.536693334579468, "hmax": 0.055, "ratio": 0.016, "vulnClass": "none"}}, {"type": "Feature", "geometry": {"type": "MultiPolygon", "coordinates": [[[[72.37550627, 34.20017741], [72.37550305, 34.20010652], [72.37535418, 34.20011115], [72.3753574, 34.20018204], [72.37550627, 34.20017741]]]]}, "properties": {"id": "Pakistan_123102310_552640", "height": 2.625861167907715, "hmax": 0.07, "ratio": 0.027, "vulnClass": "none"}}, {"type": "Feature", "geometry": {"type": "MultiPolygon", "coordinates": [[[[72.37521016, 34.20007465], [72.37520746, 34.20025654], [72.37527719, 34.20025724], [72.37527988, 34.20007536], [72.37521016, 34.20007465]]]]}, "properties": {"id": "Pakistan_123102310_898892", "height": 2.761743068695068, "hmax": 0.07, "ratio": 0.025, "vulnClass": "none"}}, {"type": "Feature", "geometry": {"type": "MultiPolygon", "coordinates": [[[[72.37526386, 34.20037385], [72.37557452, 34.20038397], [72.37558007, 34.20026751], [72.37540599, 34.20026184], [72.37540509, 34.20028084], [72.37526851, 34.20027639], [72.37526386, 34.20037385]]]]}, "properties": {"id": "Pakistan_123102310_36120", "height": 2.494126558303833, "hmax": 0.07, "ratio": 0.028, "vulnClass": "none"}}, {"type": "Feature", "geometry": {"type": "MultiPolygon", "coordinates": [[[[72.37714061, 34.20030206], [72.37705777, 34.20029792], [72.3770548, 34.20033854], [72.37713764, 34.20034268], [72.37714061, 34.20030206]]]]}, "properties": {"id": "Pakistan_123102310_187612", "height": 2.822652339935303, "hmax": 0.007, "ratio": 0.003, "vulnClass": "none"}}, {"type": "Feature", "geometry": {"type": "MultiPolygon", "coordinates": [[[[72.37511886, 34.20035271], [72.37512061, 34.20026718], [72.37505894, 34.20026631], [72.37505866, 34.20027962], [72.37495141, 34.20027812], [72.37495088, 34.20030377], [72.37486394, 34.20030254], [72.37486772, 34.20011847], [72.37476159, 34.20011698], [72.37475686, 34.20034762], [72.37511886, 34.20035271]]]]}, "properties": {"id": "Pakistan_123102310_505312", "height": 2.467259645462036, "hmax": 0.07, "ratio": 0.028, "vulnClass": "none"}}, {"type": "Feature", "geometry": {"type": "MultiPolygon", "coordinates": [[[[72.37500136, 34.20005504], [72.37500509, 34.20012019], [72.37487016, 34.20012547], [72.37487167, 34.20015203], [72.37489041, 34.2001513], [72.37489212, 34.20018132], [72.37494677, 34.20017919], [72.37495024, 34.20023991], [72.37506532, 34.20023541], [72.37505488, 34.20005295], [72.37500136, 34.20005504]]]]}, "properties": {"id": "Pakistan_123102310_728519", "height": 4.26993465423584, "hmax": 0.07, "ratio": 0.016, "vulnClass": "none"}}, {"type": "Feature", "geometry": {"type": "MultiPolygon", "coordinates": [[[[72.37438291, 34.2003252], [72.37439697, 34.20010965], [72.37417232, 34.20009962], [72.37416403, 34.20022671], [72.3740876, 34.20022331], [72.3740842, 34.20027538], [72.37405211, 34.20027395], [72.37404974, 34.20031035], [72.37438291, 34.2003252]]]]}, "properties": {"id": "Pakistan_123102310_889359", "height": 3.508480548858643, "hmax": 0.112, "ratio": 0.032, "vulnClass": "none"}}, {"type": "Feature", "geometry": {"type": "MultiPolygon", "coordinates": [[[[72.37428032, 34.19990854], [72.37426672, 34.1997697], [72.37418944, 34.19977488], [72.37418435, 34.19972298], [72.3740751, 34.19973031], [72.37408602, 34.19984171], [72.37417771, 34.19983556], [72.37418117, 34.19987082], [72.37408414, 34.19987733], [72.37408846, 34.1999214], [72.37428032, 34.19990854]]]]}, "properties": {"id": "Pakistan_123102310_771182", "height": 2.679246187210083, "hmax": 0.112, "ratio": 0.042, "vulnClass": "none"}}, {"type": "Feature", "geometry": {"type": "MultiPolygon", "coordinates": [[[[72.37414639, 34.19957842], [72.37414021, 34.19972022], [72.37419379, 34.19972182], [72.37419997, 34.19958002], [72.37414639, 34.19957842]]]]}, "properties": {"id": "Pakistan_123102310_54696", "height": 2.65351676940918, "hmax": 0.112, "ratio": 0.042, "vulnClass": "none"}}, {"type": "Feature", "geometry": {"type": "MultiPolygon", "coordinates": [[[[72.37345075, 34.19993657], [72.37345578, 34.19982358], [72.37341183, 34.19982225], [72.37340921, 34.19988101], [72.37337281, 34.1998799], [72.37337039, 34.19993412], [72.37345075, 34.19993657]]]]}, "properties": {"id": "Pakistan_123102310_420059", "height": 2.539064884185791, "hmax": 0.073, "ratio": 0.029, "vulnClass": "none"}}, {"type": "Feature", "geometry": {"type": "MultiPolygon", "coordinates": [[[[72.37289491, 34.20013033], [72.37304765, 34.20013422], [72.37304947, 34.20008546], [72.37299051, 34.20008396], [72.37299423, 34.19998423], [72.37290044, 34.19998184], [72.37289491, 34.20013033]]]]}, "properties": {"id": "Pakistan_123102310_846780", "height": 2.897833585739136, "hmax": 0.073, "ratio": 0.025, "vulnClass": "none"}}, {"type": "Feature", "geometry": {"type": "MultiPolygon", "coordinates": [[[[72.37235347, 34.200006], [72.37236078, 34.19985984], [72.37231259, 34.19985819], [72.37230528, 34.20000435], [72.37235347, 34.200006]]]]}, "properties": {"id": "Pakistan_123102310_908299", "height": 2.479281425476074, "hmax": 0.044, "ratio": 0.018, "vulnClass": "none"}}, {"type": "Feature", "geometry": {"type": "MultiPolygon", "coordinates": [[[[72.37265163, 34.20001671], [72.37264868, 34.19995025], [72.3725951, 34.19995188], [72.37259806, 34.20001835], [72.37265163, 34.20001671]]]]}, "properties": {"id": "Pakistan_123102310_111848", "height": 3.017007827758789, "hmax": 0.073, "ratio": 0.024, "vulnClass": "none"}}, {"type": "Feature", "geometry": {"type": "MultiPolygon", "coordinates": [[[[72.37262858, 34.19936792], [72.37261074, 34.19925562], [72.37238662, 34.19927997], [72.37240447, 34.19939228], [72.37262858, 34.19936792]]]]}, "properties": {"id": "Pakistan_123102310_63992", "height": 3.128252029418945, "hmax": 0.026, "ratio": 0.008, "vulnClass": "none"}}, {"type": "Feature", "geometry": {"type": "MultiPolygon", "coordinates": [[[[72.37216784, 34.19947491], [72.3724642, 34.1994827], [72.37246726, 34.19940292], [72.3721709, 34.19939513], [72.37216784, 34.19947491]]]]}, "properties": {"id": "Pakistan_123102310_234784", "height": 2.926139116287231, "hmax": 0.02, "ratio": 0.007, "vulnClass": "none"}}, {"type": "Feature", "geometry": {"type": "MultiPolygon", "coordinates": [[[[72.37141924, 34.20016397], [72.37216062, 34.20019238], [72.37216582, 34.20009941], [72.37214976, 34.20009879], [72.3721788, 34.1995797], [72.37201553, 34.19957346], [72.3719904, 34.20002283], [72.37194914, 34.20002125], [72.37195596, 34.1998995], [72.37143515, 34.19987957], [72.37141924, 34.20016397]]]]}, "properties": {"id": "Pakistan_123102310_552613", "height": 4.684426307678223, "hmax": 0.043, "ratio": 0.009, "vulnClass": "none"}}, {"type": "Feature", "geometry": {"type": "MultiPolygon", "coordinates": [[[[72.37149802, 34.19972297], [72.37194974, 34.19975166], [72.3719612, 34.19962815], [72.37150949, 34.19959947], [72.37149802, 34.19972297]]]]}, "properties": {"id": "Pakistan_123102310_306633", "height": 2.656184673309326, "hmax": 0.044, "ratio": 0.017, "vulnClass": "none"}}, {"type": "Feature", "geometry": {"type": "MultiPolygon", "coordinates": [[[[72.37140343, 34.20015136], [72.37143004, 34.19987582], [72.37121415, 34.19986156], [72.37118755, 34.2001371], [72.37140343, 34.20015136]]]]}, "properties": {"id": "Pakistan_123102310_941410", "height": 3.36828088760376, "hmax": 0.023, "ratio": 0.007, "vulnClass": "none"}}, {"type": "Feature", "geometry": {"type": "MultiPolygon", "coordinates": [[[[72.37143886, 34.20058668], [72.37143236, 34.20075288], [72.37182506, 34.20076338], [72.37182814, 34.20068468], [72.37166586, 34.20068033], [72.37166928, 34.20059284], [72.3715931, 34.2005908], [72.37159484, 34.20054648], [72.37152097, 34.2005445], [72.37151924, 34.20058883], [72.37143886, 34.20058668]]]]}, "properties": {"id": "Pakistan_123102310_358706", "height": 3.219160318374634, "hmax": 0.039, "ratio": 0.012, "vulnClass": "none"}}, {"type": "Feature", "geometry": {"type": "MultiPolygon", "coordinates": [[[[72.37171494, 34.20037554], [72.37172274, 34.20045711], [72.37177072, 34.20045396], [72.37176481, 34.20039224], [72.37181013, 34.20038927], [72.37180549, 34.20034077], [72.37174151, 34.20034496], [72.37174426, 34.20037362], [72.37171494, 34.20037554]]]]}, "properties": {"id": "Pakistan_123102310_757022", "height": 3.320764541625977, "hmax": 0.042, "ratio": 0.013, "vulnClass": "none"}}, {"type": "Feature", "geometry": {"type": "MultiPolygon", "coordinates": [[[[72.37209754, 34.20076118], [72.37239363, 34.20075607], [72.37239066, 34.20063855], [72.37209458, 34.20064366], [72.37209754, 34.20076118]]]]}, "properties": {"id": "Pakistan_123102310_931928", "height": 4.499392986297607, "hmax": 0.039, "ratio": 0.009, "vulnClass": "none"}}, {"type": "Feature", "geometry": {"type": "MultiPolygon", "coordinates": [[[[72.37041286, 34.20038795], [72.37042898, 34.20071351], [72.37060036, 34.2007077], [72.37059926, 34.20068556], [72.37065549, 34.20068365], [72.37065352, 34.20064379], [72.37049285, 34.20064923], [72.37048266, 34.20044326], [72.37066742, 34.20043701], [72.37066457, 34.20037942], [72.37041286, 34.20038795]]]]}, "properties": {"id": "Pakistan_123102310_197957", "height": 4.20627498626709, "hmax": 0.044, "ratio": 0.011, "vulnClass": "none"}}, {"type": "Feature", "geometry": {"type": "MultiPolygon", "coordinates": [[[[72.37134682, 34.19967964], [72.37125187, 34.1995647], [72.37062726, 34.1999177], [72.37076776, 34.20008777], [72.37107604, 34.19991357], [72.37103048, 34.19985842], [72.37134682, 34.19967964]]]]}, "properties": {"id": "Pakistan_123102310_282004", "height": 3.678874492645264, "hmax": 0.023, "ratio": 0.006, "vulnClass": "none"}}, {"type": "Feature", "geometry": {"type": "MultiPolygon", "coordinates": [[[[72.3698984, 34.19970404], [72.3698099, 34.19970479], [72.36981006, 34.19971809], [72.36965879, 34.19971936], [72.36966042, 34.1998534], [72.36990289, 34.19985138], [72.36990168, 34.19975282], [72.369899, 34.19975284], [72.3698984, 34.19970404]]]]}, "properties": {"id": "Pakistan_123102310_121510", "height": 4.094799041748047, "hmax": 0.016, "ratio": 0.004, "vulnClass": "none"}}, {"type": "Feature", "geometry": {"type": "MultiPolygon", "coordinates": [[[[72.36990798, 34.19950806], [72.36982861, 34.19950922], [72.36982959, 34.19955484], [72.36972931, 34.19955632], [72.3697315, 34.19965833], [72.36983984, 34.19965673], [72.3698385, 34.19959464], [72.36990982, 34.19959359], [72.36990798, 34.19950806]]]]}, "properties": {"id": "Pakistan_123102310_600024", "height": 3.210101842880249, "hmax": 0.016, "ratio": 0.005, "vulnClass": "none"}}, {"type": "Feature", "geometry": {"type": "MultiPolygon", "coordinates": [[[[72.36933691, 34.19950761], [72.36933564, 34.19942426], [72.36928469, 34.19942478], [72.36928602, 34.19951258], [72.36931284, 34.1995123], [72.36931349, 34.19955537], [72.36972112, 34.19955115], [72.36972013, 34.19948587], [72.36963807, 34.19948673], [72.36963766, 34.19946011], [72.36950893, 34.19946145], [72.36950961, 34.19950581], [72.36933691, 34.19950761]]]]}, "properties": {"id": "Pakistan_123102310_543144", "height": 2.934360504150391, "hmax": 0.016, "ratio": 0.006, "vulnClass": "none"}}, {"type": "Feature", "geometry": {"type": "MultiPolygon", "coordinates": [[[[72.36905842, 34.20033052], [72.36905073, 34.20037767], [72.36915361, 34.2004955], [72.36980287, 34.20010772], [72.3698109, 34.20010862], [72.36989988, 34.20005547], [72.36990704, 34.20001161], [72.36963565, 34.19998132], [72.36944256, 34.20009665], [72.36944176, 34.20010156], [72.36905842, 34.20033052]]]]}, "properties": {"id": "Pakistan_123102310_272362", "height": 5.689605712890625, "hmax": 0.019, "ratio": 0.003, "vulnClass": "none"}}, {"type": "Feature", "geometry": {"type": "MultiPolygon", "coordinates": [[[[72.36846725, 34.19973633], [72.36846347, 34.19981829], [72.36861078, 34.19982293], [72.36861455, 34.19974097], [72.36846725, 34.19973633]]]]}, "properties": {"id": "Pakistan_123102310_761764", "height": 2.450957775115967, "hmax": 0.013, "ratio": 0.005, "vulnClass": "none"}}, {"type": "Feature", "geometry": {"type": "MultiPolygon", "coordinates": [[[[72.36873785, 34.19983975], [72.36874519, 34.19979306], [72.36867133, 34.19978512], [72.36866399, 34.19983181], [72.36873785, 34.19983975]]]]}, "properties": {"id": "Pakistan_123102310_45358", "height": 3.935179471969604, "hmax": 0.013, "ratio": 0.003, "vulnClass": "none"}}, {"type": "Feature", "geometry": {"type": "MultiPolygon", "coordinates": [[[[72.36863025, 34.19993903], [72.36862879, 34.20038048], [72.36852149, 34.20038023], [72.36844785, 34.20040575], [72.3684477, 34.20045239], [72.36803417, 34.20045146], [72.36799551, 34.20046485], [72.3679952, 34.2005591], [72.36802718, 34.20062224], [72.36802723, 34.20060646], [72.36806871, 34.20068835], [72.36806863, 34.20071194], [72.36840023, 34.20071271], [72.36841118, 34.20073434], [72.3684286, 34.20072831], [72.36875684, 34.20072907], [72.36883577, 34.20070172], [72.36883596, 34.20064626], [72.36882264, 34.20061996], [72.36882434, 34.20011827], [72.36941442, 34.2001196], [72.36941502, 34.19994084], [72.36863025, 34.19993903]]]]}, "properties": {"id": "Pakistan_123102310_600017", "height": 6.057819366455078, "hmax": 0.026, "ratio": 0.004, "vulnClass": "none"}}, {"type": "Feature", "geometry": {"type": "MultiPolygon", "coordinates": [[[[72.36772805, 34.20098887], [72.36771414, 34.20072876], [72.36771253, 34.20072691], [72.36769976, 34.20048855], [72.36752729, 34.20049487], [72.36754126, 34.20075612], [72.36739607, 34.20076144], [72.36738483, 34.2007681], [72.36738722, 34.20081279], [72.36745297, 34.20081038], [72.3674613, 34.20096619], [72.36738486, 34.20096898], [72.3674147, 34.2015261], [72.36753581, 34.20152166], [72.36790538, 34.20130277], [72.36785803, 34.20124809], [72.36781376, 34.20124971], [72.36765658, 34.20134282], [72.36759009, 34.20134525], [72.36757448, 34.20105381], [72.36755604, 34.20103252], [72.36755405, 34.20099524], [72.36772805, 34.20098887]]]]}, "properties": {"id": "Pakistan_123102310_197915", "height": 3.867673635482788, "hmax": 0.034, "ratio": 0.009, "vulnClass": "none"}}, {"type": "Feature", "geometry": {"type": "MultiPolygon", "coordinates": [[[[72.36784257, 34.20094073], [72.36788245, 34.20107458], [72.36783947, 34.20108334], [72.36789804, 34.20127993], [72.36800424, 34.20125828], [72.36797932, 34.20117463], [72.36807793, 34.20115453], [72.3679998, 34.2008923], [72.36796187, 34.20090004], [72.36791849, 34.20075444], [72.36779712, 34.20077918], [72.36782329, 34.20086702], [72.36786881, 34.20085774], [72.36789062, 34.20093094], [72.36784257, 34.20094073]]]]}, "properties": {"id": "Pakistan_123102310_235667", "height": 2.493912220001221, "hmax": 0.031, "ratio": 0.012, "vulnClass": "none"}}, {"type": "Feature", "geometry": {"type": "MultiPolygon", "coordinates": [[[[72.36799164, 34.20161938], [72.36787574, 34.20254286], [72.36786787, 34.20255896], [72.36808972, 34.20263312], [72.36808107, 34.20270207], [72.3682175, 34.20274769], [72.36822282, 34.20270529], [72.36828238, 34.20258344], [72.3683946, 34.20168987], [72.36846971, 34.20153619], [72.36830161, 34.20152176], [72.36828095, 34.20168642], [72.36823234, 34.20178587], [72.36815351, 34.20241358], [72.3681116, 34.20249932], [72.36806426, 34.20248349], [72.36817085, 34.20163477], [72.36799164, 34.20161938]]]]}, "properties": {"id": "Pakistan_123102310_614252", "height": 3.593359470367432, "hmax": 0.041, "ratio": 0.011, "vulnClass": "none"}}, {"type": "Feature", "geometry": {"type": "MultiPolygon", "coordinates": [[[[72.36762479, 34.2023823], [72.36756356, 34.20203474], [72.36744537, 34.20204899], [72.3675066, 34.20239654], [72.36762479, 34.2023823]]]]}, "properties": {"id": "Pakistan_123102310_875091", "height": 4.764408111572266, "hmax": 0.041, "ratio": 0.009, "vulnClass": "none"}}, {"type": "Feature", "geometry": {"type": "MultiPolygon", "coordinates": [[[[72.36560475, 34.2023848], [72.36547871, 34.20238624], [72.36548168, 34.20256368], [72.36560772, 34.20256223], [72.36560475, 34.2023848]]]]}, "properties": {"id": "Pakistan_123102310_178887", "height": 3.051795244216919, "hmax": 0.063, "ratio": 0.021, "vulnClass": "none"}}, {"type": "Feature", "geometry": {"type": "MultiPolygon", "coordinates": [[[[72.36716144, 34.20214565], [72.36732042, 34.20243677], [72.3674474, 34.20238934], [72.36728843, 34.20209822], [72.36716144, 34.20214565]]]]}, "properties": {"id": "Pakistan_123102310_851383", "height": 2.955587863922119, "hmax": 0.04, "ratio": 0.014, "vulnClass": "none"}}, {"type": "Feature", "geometry": {"type": "MultiPolygon", "coordinates": [[[[72.366973, 34.20161113], [72.36697424, 34.20166515], [72.36706808, 34.20166367], [72.36706908, 34.20170723], [72.3671186, 34.20170645], [72.36711635, 34.20160887], [72.366973, 34.20161113]]]]}, "properties": {"id": "Pakistan_123102310_335005", "height": 3.039025783538818, "hmax": 0.028, "ratio": 0.009, "vulnClass": "none"}}, {"type": "Feature", "geometry": {"type": "MultiPolygon", "coordinates": [[[[72.36563053, 34.20169678], [72.36525148, 34.20170696], [72.36525462, 34.20178674], [72.36563367, 34.20177656], [72.36563053, 34.20169678]]]]}, "properties": {"id": "Pakistan_123102310_73414", "height": 2.81747841835022, "hmax": 0.032, "ratio": 0.011, "vulnClass": "none"}}, {"type": "Feature", "geometry": {"type": "MultiPolygon", "coordinates": [[[[72.36572533, 34.20169817], [72.36562078, 34.20170026], [72.365642, 34.20242478], [72.36566567, 34.20245749], [72.36562611, 34.20247707], [72.36562769, 34.20253101], [72.36564725, 34.20255804], [72.36565069, 34.20267565], [72.36560177, 34.20269986], [72.36560254, 34.20272602], [72.36563332, 34.20276854], [72.36577077, 34.2027005], [72.36576309, 34.20243835], [72.36584619, 34.20243669], [72.36584334, 34.20233914], [72.36579777, 34.20234005], [72.36579482, 34.2022394], [72.36573891, 34.20216216], [72.36572533, 34.20169817]]]]}, "properties": {"id": "Pakistan_123102310_481707", "height": 3.55227518081665, "hmax": 0.054, "ratio": 0.015, "vulnClass": "none"}}, {"type": "Feature", "geometry": {"type": "MultiPolygon", "coordinates": [[[[72.36478251, 34.20201026], [72.36481393, 34.2026405], [72.36493442, 34.20263639], [72.36493988, 34.20274581], [72.36497201, 34.20274471], [72.36497046, 34.20271371], [72.3650615, 34.2027106], [72.3650636, 34.20275268], [72.36520552, 34.20274783], [72.3652032, 34.20270132], [72.36530093, 34.20269799], [72.36529326, 34.2025443], [72.36532674, 34.20254316], [72.36529893, 34.20198508], [72.36510473, 34.2019917], [72.36510776, 34.20205239], [72.36521755, 34.20204864], [72.36522551, 34.20220809], [72.36526973, 34.20220658], [72.36528448, 34.20250245], [72.36502071, 34.20251144], [72.36499533, 34.20200299], [72.36478251, 34.20201026]]]]}, "properties": {"id": "Pakistan_123102310_576472", "height": 3.576369524002075, "hmax": 0.058, "ratio": 0.016, "vulnClass": "none"}}, {"type": "Feature", "geometry": {"type": "MultiPolygon", "coordinates": [[[[72.36393545, 34.20209497], [72.36347105, 34.20211202], [72.36347936, 34.20226699], [72.36352486, 34.20226532], [72.36352581, 34.20228304], [72.36368773, 34.20227709], [72.36368725, 34.20226824], [72.36374615, 34.20226608], [72.36375969, 34.20251847], [72.36395778, 34.2025112], [72.36393545, 34.20209497]]]]}, "properties": {"id": "Pakistan_123102310_647339", "height": 4.795166969299316, "hmax": 0.043, "ratio": 0.009, "vulnClass": "none"}}, {"type": "Feature", "geometry": {"type": "MultiPolygon", "coordinates": [[[[72.36409082, 34.20256345], [72.36409251, 34.20262776], [72.36420779, 34.20262568], [72.3642061, 34.20256138], [72.36409082, 34.20256345]]]]}, "properties": {"id": "Pakistan_123102310_272304", "height": 3.837264060974121, "hmax": 0.057, "ratio": 0.015, "vulnClass": "none"}}, {"type": "Feature", "geometry": {"type": "MultiPolygon", "coordinates": [[[[72.36306763, 34.20102248], [72.36306866, 34.20089281], [72.36301084, 34.20089249], [72.36301056, 34.20092798], [72.36286454, 34.20092719], [72.36286379, 34.20102138], [72.36306763, 34.20102248]]]]}, "properties": {"id": "Pakistan_123102310_225276", "height": 3.465450286865234, "hmax": 0.003, "ratio": 0.001, "vulnClass": "none"}}, {"type": "Feature", "geometry": {"type": "MultiPolygon", "coordinates": [[[[72.3627032, 34.2004336], [72.36270541, 34.20033262], [72.36253112, 34.20033002], [72.36252891, 34.20043098], [72.3627032, 34.2004336]]]]}, "properties": {"id": "Pakistan_123102310_818421", "height": 2.865019559860229, "hmax": 0.003, "ratio": 0.001, "vulnClass": "none"}}, {"type": "Feature", "geometry": {"type": "MultiPolygon", "coordinates": [[[[72.3650876, 34.19853088], [72.36508225, 34.19837571], [72.36490536, 34.19837989], [72.36491072, 34.19853505], [72.3650876, 34.19853088]]]]}, "properties": {"id": "Pakistan_123102310_609429", "height": 3.134382486343384, "hmax": 0.01, "ratio": 0.003, "vulnClass": "none"}}, {"type": "Feature", "geometry": {"type": "MultiPolygon", "coordinates": [[[[72.3628046, 34.19777668], [72.3627839, 34.19784327], [72.3628603, 34.19785951], [72.36288101, 34.19779292], [72.3628046, 34.19777668]]]]}, "properties": {"id": "Pakistan_123102310_813589", "height": 3.089020252227783, "hmax": 0.009, "ratio": 0.003, "vulnClass": "none"}}, {"type": "Feature", "geometry": {"type": "MultiPolygon", "coordinates": [[[[72.3634664, 34.1981547], [72.36350217, 34.19799605], [72.36340461, 34.197981], [72.36339397, 34.19802816], [72.36333435, 34.19801897], [72.36332012, 34.19808211], [72.36321903, 34.19806652], [72.36320812, 34.19811485], [72.3634664, 34.1981547]]]]}, "properties": {"id": "Pakistan_123102310_472165", "height": 3.384083271026611, "hmax": 0.012, "ratio": 0.003, "vulnClass": "none"}}, {"type": "Feature", "geometry": {"type": "MultiPolygon", "coordinates": [[[[72.3628713, 34.19787493], [72.36299724, 34.19789048], [72.36301369, 34.19779933], [72.36288775, 34.19778378], [72.3628713, 34.19787493]]]]}, "properties": {"id": "Pakistan_123102310_253428", "height": 3.089020252227783, "hmax": 0.012, "ratio": 0.004, "vulnClass": "none"}}, {"type": "Feature", "geometry": {"type": "MultiPolygon", "coordinates": [[[[72.36307701, 34.19782798], [72.36304404, 34.19791368], [72.36321454, 34.19795855], [72.36324751, 34.19787284], [72.36307701, 34.19782798]]]]}, "properties": {"id": "Pakistan_123102310_851342", "height": 2.471272945404053, "hmax": 0.012, "ratio": 0.005, "vulnClass": "none"}}, {"type": "Feature", "geometry": {"type": "MultiPolygon", "coordinates": [[[[72.36504109, 34.19597396], [72.36501762, 34.19608689], [72.36518695, 34.19611096], [72.3652055, 34.19602175], [72.36511953, 34.19600952], [72.36512446, 34.19598582], [72.36504109, 34.19597396]]]]}, "properties": {"id": "Pakistan_123102310_785321", "height": 5.125992774963379, "hmax": 0.02, "ratio": 0.004, "vulnClass": "none"}}, {"type": "Feature", "geometry": {"type": "MultiPolygon", "coordinates": [[[[72.36499398, 34.19630362], [72.36519228, 34.19630863], [72.36519899, 34.19612688], [72.36514807, 34.1961256], [72.3651451, 34.19620628], [72.36501535, 34.19620302], [72.36501701, 34.19615779], [72.36495114, 34.19615612], [72.36494902, 34.19621375], [72.36499725, 34.19621497], [72.36499398, 34.19630362]]]]}, "properties": {"id": "Pakistan_123102310_244078", "height": 3.516508102416992, "hmax": 0.02, "ratio": 0.006, "vulnClass": "none"}}, {"type": "Feature", "geometry": {"type": "MultiPolygon", "coordinates": [[[[72.36487482, 34.19617287], [72.36483192, 34.19617216], [72.36483058, 34.19622852], [72.36473673, 34.19622698], [72.3647361, 34.19625359], [72.36461388, 34.19625159], [72.36461452, 34.19622498], [72.36454369, 34.19622382], [72.36454196, 34.19629607], [72.36487174, 34.19630149], [72.36487482, 34.19617287]]]]}, "properties": {"id": "Pakistan_123102310_344483", "height": 3.198206901550293, "hmax": 0.017, "ratio": 0.005, "vulnClass": "none"}}, {"type": "Feature", "geometry": {"type": "MultiPolygon", "coordinates": [[[[72.36787148, 34.19845204], [72.36787025, 34.19841214], [72.36806495, 34.19840805], [72.36806243, 34.19832602], [72.36797129, 34.19832793], [72.36797177, 34.19834345], [72.36777073, 34.19834768], [72.367774, 34.19845409], [72.36787148, 34.19845204]]]]}, "properties": {"id": "Pakistan_123102310_215732", "height": 2.982912063598633, "hmax": 0.018, "ratio": 0.006, "vulnClass": "none"}}, {"type": "Feature", "geometry": {"type": "MultiPolygon", "coordinates": [[[[72.36822441, 34.19852724], [72.36824391, 34.19844615], [72.36818457, 34.19843639], [72.36820099, 34.1983681], [72.36815455, 34.19836046], [72.36814069, 34.19841808], [72.36809683, 34.19841086], [72.36808092, 34.19847701], [72.36818929, 34.19849484], [72.36817235, 34.19856526], [72.36828846, 34.19858437], [72.36829924, 34.19853955], [72.36822441, 34.19852724]]]]}, "properties": {"id": "Pakistan_123102310_168698", "height": 2.97201681137085, "hmax": 0.016, "ratio": 0.005, "vulnClass": "none"}}, {"type": "Feature", "geometry": {"type": "MultiPolygon", "coordinates": [[[[72.36813417, 34.19876317], [72.36813289, 34.19871661], [72.3681597, 34.1987161], [72.36815823, 34.19866289], [72.3679813, 34.19866622], [72.36798154, 34.19867509], [72.36778584, 34.19867877], [72.36778834, 34.19876968], [72.36813417, 34.19876317]]]]}, "properties": {"id": "Pakistan_123102310_913027", "height": 4.324391841888428, "hmax": 0.013, "ratio": 0.003, "vulnClass": "none"}}, {"type": "Feature", "geometry": {"type": "MultiPolygon", "coordinates": [[[[72.36770717, 34.19881644], [72.36774201, 34.19881565], [72.36774304, 34.19884668], [72.36811827, 34.19883815], [72.36811594, 34.19876807], [72.3677836, 34.19877561], [72.36778077, 34.19869053], [72.36770305, 34.1986923], [72.36770717, 34.19881644]]]]}, "properties": {"id": "Pakistan_123102310_234718", "height": 4.739546775817871, "hmax": 0.013, "ratio": 0.003, "vulnClass": "none"}}, {"type": "Feature", "geometry": {"type": "MultiPolygon", "coordinates": [[[[72.36775331, 34.1988568], [72.36775721, 34.19897873], [72.36782422, 34.19897727], [72.36782032, 34.19885534], [72.36775331, 34.1988568]]]]}, "properties": {"id": "Pakistan_123102310_420001", "height": 3.369503974914551, "hmax": 0.013, "ratio": 0.004, "vulnClass": "none"}}, {"type": "Feature", "geometry": {"type": "MultiPolygon", "coordinates": [[[[72.3696445, 34.19921561], [72.36947947, 34.19920367], [72.36947481, 34.1992477], [72.36963984, 34.19925964], [72.3696445, 34.19921561]]]]}, "properties": {"id": "Pakistan_123102310_922399", "height": 3.328866720199585, "hmax": 0.016, "ratio": 0.005, "vulnClass": "none"}}, {"type": "Feature", "geometry": {"type": "MultiPolygon", "coordinates": [[[[72.37237398, 34.19833707], [72.37241466, 34.19837855], [72.37259688, 34.1982563], [72.3725562, 34.19821482], [72.37237398, 34.19833707]]]]}, "properties": {"id": "Pakistan_123102310_150717", "height": 3.19982385635376, "hmax": 0.015, "ratio": 0.005, "vulnClass": "none"}}, {"type": "Feature", "geometry": {"type": "MultiPolygon", "coordinates": [[[[72.37151886, 34.1995457], [72.37195698, 34.19929392], [72.3719643, 34.19936587], [72.37199595, 34.19940354], [72.37200837, 34.19939641], [72.37215679, 34.19938608], [72.37215779, 34.19939598], [72.37235222, 34.19938246], [72.37229854, 34.19885471], [72.37221745, 34.19890132], [72.37224291, 34.19915158], [72.37225574, 34.19916686], [72.37224335, 34.19920967], [72.37220542, 34.19920216], [72.37218103, 34.19921618], [72.37215234, 34.19921049], [72.37214189, 34.19910778], [72.37216977, 34.19909176], [72.37216582, 34.199053], [72.37221807, 34.19902298], [72.3722132, 34.19897506], [72.37213705, 34.19898035], [72.37212328, 34.1990279], [72.37208744, 34.19903039], [72.37206645, 34.19900541], [72.37205798, 34.19903466], [72.3720633, 34.19903429], [72.37140641, 34.19941184], [72.37151886, 34.1995457]]]]}, "properties": {"id": "Pakistan_123102310_898866", "height": 3.896907567977905, "hmax": 0.02, "ratio": 0.005, "vulnClass": "none"}}, {"type": "Feature", "geometry": {"type": "MultiPolygon", "coordinates": [[[[72.37236572, 34.19896599], [72.37238302, 34.19923366], [72.3725328, 34.19922703], [72.37252193, 34.19905891], [72.37246741, 34.19906132], [72.37245884, 34.1989286], [72.37231276, 34.19893506], [72.3723149, 34.19896824], [72.37236572, 34.19896599]]]]}, "properties": {"id": "Pakistan_123102310_481744", "height": 3.027578115463257, "hmax": 0.02, "ratio": 0.007, "vulnClass": "none"}}, {"type": "Feature", "geometry": {"type": "MultiPolygon", "coordinates": [[[[72.37285472, 34.19892492], [72.37256508, 34.19892738], [72.37256676, 34.19906269], [72.37285641, 34.19906023], [72.37285472, 34.19892492]]]]}, "properties": {"id": "Pakistan_123102310_179001", "height": 4.467323303222656, "hmax": 0.053, "ratio": 0.012, "vulnClass": "none"}}, {"type": "Feature", "geometry": {"type": "MultiPolygon", "coordinates": [[[[72.37286114, 34.19891335], [72.37285808, 34.19883026], [72.37276697, 34.19883255], [72.37277003, 34.19891564], [72.37286114, 34.19891335]]]]}, "properties": {"id": "Pakistan_123102310_130954", "height": 3.667332649230957, "hmax": 0.055, "ratio": 0.015, "vulnClass": "none"}}, {"type": "Feature", "geometry": {"type": "MultiPolygon", "coordinates": [[[[72.37251411, 34.19879801], [72.37272584, 34.19879309], [72.3727202, 34.19862684], [72.37257111, 34.1986303], [72.37257371, 34.19870677], [72.37251107, 34.19870823], [72.37251411, 34.19879801]]]]}, "properties": {"id": "Pakistan_123102310_273435", "height": 2.954554080963135, "hmax": 0.044, "ratio": 0.015, "vulnClass": "none"}}, {"type": "Feature", "geometry": {"type": "MultiPolygon", "coordinates": [[[[72.3733086, 34.19887694], [72.37330038, 34.19828469], [72.37316189, 34.19828601], [72.37317016, 34.19887825], [72.3733086, 34.19887694]]]]}, "properties": {"id": "Pakistan_123102310_282787", "height": 4.970302104949951, "hmax": 0.053, "ratio": 0.011, "vulnClass": "none"}}, {"type": "Feature", "geometry": {"type": "MultiPolygon", "coordinates": [[[[72.37347957, 34.19862768], [72.37404258, 34.19859405], [72.37403275, 34.1984815], [72.37346974, 34.19851513], [72.37347957, 34.19862768]]]]}, "properties": {"id": "Pakistan_123102310_325648", "height": 2.816515445709229, "hmax": 0.045, "ratio": 0.016, "vulnClass": "none"}}, {"type": "Feature", "geometry": {"type": "MultiPolygon", "coordinates": [[[[72.37330833, 34.19877106], [72.37342635, 34.19877063], [72.37342503, 34.1985266], [72.37340187, 34.19852669], [72.37340157, 34.19847123], [72.37341668, 34.19847117], [72.37341554, 34.19826043], [72.37330557, 34.19826083], [72.37330833, 34.19877106]]]]}, "properties": {"id": "Pakistan_123102310_354014", "height": 4.543883323669434, "hmax": 0.052, "ratio": 0.011, "vulnClass": "none"}}, {"type": "Feature", "geometry": {"type": "MultiPolygon", "coordinates": [[[[72.37358325, 34.19863538], [72.37348751, 34.19864272], [72.3734917, 34.19868011], [72.37358744, 34.19867277], [72.37358325, 34.19863538]]]]}, "properties": {"id": "Pakistan_123102310_884643", "height": 2.561492919921875, "hmax": 0.055, "ratio": 0.021, "vulnClass": "none"}}, {"type": "Feature", "geometry": {"type": "MultiPolygon", "coordinates": [[[[72.37360308, 34.19890894], [72.373598, 34.19878145], [72.37331399, 34.19878919], [72.37331907, 34.19891667], [72.37360308, 34.19890894]]]]}, "properties": {"id": "Pakistan_123102310_358718", "height": 3.323605537414551, "hmax": 0.055, "ratio": 0.017, "vulnClass": "none"}}, {"type": "Feature", "geometry": {"type": "MultiPolygon", "coordinates": [[[[72.37441139, 34.19763404], [72.37445394, 34.19779495], [72.37454704, 34.19777812], [72.374467, 34.19747535], [72.37436205, 34.19749433], [72.37438164, 34.19756843], [72.37433044, 34.19757769], [72.37434835, 34.19764544], [72.37441139, 34.19763404]]]]}, "properties": {"id": "Pakistan_123102310_349328", "height": 3.08336353302002, "hmax": 0.026, "ratio": 0.008, "vulnClass": "none"}}, {"type": "Feature", "geometry": {"type": "MultiPolygon", "coordinates": [[[[72.3743322, 34.19760798], [72.37421315, 34.19764876], [72.37424349, 34.19770936], [72.37436254, 34.19766857], [72.3743322, 34.19760798]]]]}, "properties": {"id": "Pakistan_123102310_410607", "height": 3.058165550231934, "hmax": 0.025, "ratio": 0.008, "vulnClass": "none"}}, {"type": "Feature", "geometry": {"type": "MultiPolygon", "coordinates": [[[[72.37413434, 34.19769743], [72.3741773, 34.19786051], [72.37441288, 34.19781806], [72.37439001, 34.19773122], [72.37425173, 34.19775614], [72.37423165, 34.19767989], [72.37413434, 34.19769743]]]]}, "properties": {"id": "Pakistan_123102310_112837", "height": 3.587827205657959, "hmax": 0.037, "ratio": 0.01, "vulnClass": "none"}}, {"type": "Feature", "geometry": {"type": "MultiPolygon", "coordinates": [[[[72.37494139, 34.19745543], [72.37490671, 34.19743933], [72.37487695, 34.1974832], [72.37491163, 34.1974993], [72.37494139, 34.19745543]]]]}, "properties": {"id": "Pakistan_123102310_207549", "height": 3.204035043716431, "hmax": 0.021, "ratio": 0.007, "vulnClass": "none"}}, {"type": "Feature", "geometry": {"type": "MultiPolygon", "coordinates": [[[[72.37491251, 34.19740832], [72.37474409, 34.19735215], [72.37472497, 34.19739138], [72.37467421, 34.19737445], [72.37464909, 34.19742597], [72.37486826, 34.19749908], [72.37491251, 34.19740832]]]]}, "properties": {"id": "Pakistan_123102310_215824", "height": 4.582443237304688, "hmax": 0.023, "ratio": 0.005, "vulnClass": "none"}}, {"type": "Feature", "geometry": {"type": "MultiPolygon", "coordinates": [[[[72.37472485, 34.19728431], [72.37477669, 34.19733752], [72.37481997, 34.19730867], [72.37483627, 34.19732539], [72.37503689, 34.19719165], [72.37496875, 34.19712172], [72.37472485, 34.19728431]]]]}, "properties": {"id": "Pakistan_123102310_894091", "height": 3.29766321182251, "hmax": 0.022, "ratio": 0.007, "vulnClass": "none"}}, {"type": "Feature", "geometry": {"type": "MultiPolygon", "coordinates": [[[[72.37315093, 34.19765369], [72.37309569, 34.19615646], [72.37289204, 34.19616162], [72.37294727, 34.19765883], [72.37315093, 34.19765369]]]]}, "properties": {"id": "Pakistan_123102310_846783", "height": 4.997161865234375, "hmax": 0.034, "ratio": 0.007, "vulnClass": "none"}}, {"type": "Feature", "geometry": {"type": "MultiPolygon", "coordinates": [[[[72.37342311, 34.19574534], [72.37448466, 34.19572427], [72.3744829, 34.19566341], [72.37438639, 34.19566532], [72.37438485, 34.19561211], [72.37425886, 34.1956146], [72.37426027, 34.19566338], [72.37373486, 34.19567378], [72.37373159, 34.1955607], [72.37415396, 34.19555234], [72.37415045, 34.1954314], [72.3736021, 34.19544229], [72.37360248, 34.19545559], [72.37341484, 34.19545932], [72.37342311, 34.19574534]]]]}, "properties": {"id": "Pakistan_123102310_424741", "height": 5.169553756713867, "hmax": 0.034, "ratio": 0.007, "vulnClass": "none"}}, {"type": "Feature", "geometry": {"type": "MultiPolygon", "coordinates": [[[[72.37331256, 34.19663975], [72.37330715, 34.19609287], [72.37317996, 34.19609374], [72.37318628, 34.19672712], [72.37331342, 34.19672626], [72.37331256, 34.19663975], [72.37331256, 34.19663975]]]]}, "properties": {"id": "Pakistan_123102310_160283", "height": 3.560502529144287, "hmax": 0.04, "ratio": 0.011, "vulnClass": "none"}}, {"type": "Feature", "geometry": {"type": "MultiPolygon", "coordinates": [[[[72.37435094, 34.1958667], [72.37416185, 34.19587177], [72.37416771, 34.19602126], [72.37435681, 34.19601618], [72.37435094, 34.1958667]]]]}, "properties": {"id": "Pakistan_123102310_884646", "height": 4.321841239929199, "hmax": 0.027, "ratio": 0.006, "vulnClass": "none"}}, {"type": "Feature", "geometry": {"type": "MultiPolygon", "coordinates": [[[[72.37436179, 34.19601288], [72.37460036, 34.19600787], [72.37460138, 34.19604113], [72.37481314, 34.19603668], [72.37481143, 34.19598125], [72.37477123, 34.19598209], [72.37476966, 34.1959311], [72.37463564, 34.19593392], [72.37463397, 34.19587973], [72.37435788, 34.19588551], [72.37436179, 34.19601288]]]]}, "properties": {"id": "Pakistan_123102310_879884", "height": 4.321841239929199, "hmax": 0.028, "ratio": 0.007, "vulnClass": "none"}}, {"type": "Feature", "geometry": {"type": "MultiPolygon", "coordinates": [[[[72.37425616, 34.1962321], [72.37425816, 34.19627519], [72.37429945, 34.19627388], [72.37430712, 34.19644003], [72.37441047, 34.19643675], [72.37440079, 34.19622753], [72.37425616, 34.1962321]]]]}, "properties": {"id": "Pakistan_123102310_37445", "height": 5.191786766052246, "hmax": 0.032, "ratio": 0.006, "vulnClass": "none"}}, {"type": "Feature", "geometry": {"type": "MultiPolygon", "coordinates": [[[[72.37498278, 34.19536852], [72.37497723, 34.19523904], [72.37492633, 34.19524053], [72.37492836, 34.19528803], [72.37481973, 34.19529122], [72.37482324, 34.1953732], [72.37498278, 34.19536852]]]]}, "properties": {"id": "Pakistan_123102310_837342", "height": 2.949581623077393, "hmax": 0.017, "ratio": 0.006, "vulnClass": "none"}}, {"type": "Feature", "geometry": {"type": "MultiPolygon", "coordinates": [[[[72.37558053, 34.19510709], [72.37557561, 34.1950497], [72.37524589, 34.19506901], [72.37524438, 34.19505135], [72.37513375, 34.19505783], [72.37512562, 34.19496291], [72.37513896, 34.19496213], [72.3751348, 34.19491357], [72.37499603, 34.1949217], [72.37500585, 34.19503649], [72.37485106, 34.19504555], [72.37485995, 34.1951493], [72.37558053, 34.19510709]]]]}, "properties": {"id": "Pakistan_123102310_661903", "height": 3.167258977890015, "hmax": 0.019, "ratio": 0.006, "vulnClass": "none"}}, {"type": "Feature", "geometry": {"type": "MultiPolygon", "coordinates": [[[[72.37496456, 34.19515662], [72.37476079, 34.19516006], [72.37475923, 34.19509672], [72.37462518, 34.19509899], [72.37462592, 34.19512905], [72.37453208, 34.19513063], [72.37453331, 34.19518041], [72.3744892, 34.19518115], [72.37449172, 34.19528316], [72.37470204, 34.19527961], [72.37470035, 34.19521086], [72.37477153, 34.19520966], [72.37477099, 34.19518748], [72.37484069, 34.1951863], [72.37484204, 34.19524077], [72.37496658, 34.19523867], [72.37496456, 34.19515662]]]]}, "properties": {"id": "Pakistan_123102310_571668", "height": 3.167258977890015, "hmax": 0.021, "ratio": 0.007, "vulnClass": "none"}}, {"type": "Feature", "geometry": {"type": "MultiPolygon", "coordinates": [[[[72.37492221, 34.19477047], [72.37491705, 34.19463528], [72.37448565, 34.19464654], [72.37448819, 34.19471303], [72.37433813, 34.19471695], [72.37433094, 34.19452856], [72.37422644, 34.19453129], [72.37423346, 34.19471524], [72.37416379, 34.19471706], [72.37416109, 34.19464614], [72.37410481, 34.19464761], [72.37410676, 34.19469858], [72.37405442, 34.19469995], [72.37405644, 34.19475314], [72.37400429, 34.19475451], [72.37400581, 34.1947944], [72.37492221, 34.19477047]]]]}, "properties": {"id": "Pakistan_123102310_813688", "height": 4.509999752044678, "hmax": 0.022, "ratio": 0.005, "vulnClass": "none"}}, {"type": "Feature", "geometry": {"type": "MultiPolygon", "coordinates": [[[[72.37480119, 34.19430125], [72.37479964, 34.19424263], [72.37469508, 34.19424451], [72.37469663, 34.19430314], [72.37480119, 34.19430125]]]]}, "properties": {"id": "Pakistan_123102310_733303", "height": 2.77314567565918, "hmax": 0.021, "ratio": 0.008, "vulnClass": "none"}}, {"type": "Feature", "geometry": {"type": "MultiPolygon", "coordinates": [[[[72.37474987, 34.19433065], [72.37471372, 34.19433065], [72.37471372, 34.19439943], [72.37474986, 34.19439943], [72.37474987, 34.19433065]]]]}, "properties": {"id": "Pakistan_123102310_719036", "height": 2.690626859664917, "hmax": 0.021, "ratio": 0.008, "vulnClass": "none"}}, {"type": "Feature", "geometry": {"type": "MultiPolygon", "coordinates": [[[[72.37438217, 34.19425617], [72.3743667, 34.19448051], [72.37426243, 34.19447559], [72.37427646, 34.19427215], [72.3740706, 34.19426243], [72.37406466, 34.19434868], [72.37417287, 34.19435378], [72.37416921, 34.19440685], [72.37408773, 34.19440301], [72.37408201, 34.19448603], [72.37430123, 34.19449639], [72.3743004, 34.19450844], [72.3747549, 34.19452988], [72.37476183, 34.1944294], [72.37458805, 34.19442119], [72.37459445, 34.19432832], [72.3746893, 34.1943328], [72.37469358, 34.19427088], [72.37438217, 34.19425617]]]]}, "properties": {"id": "Pakistan_123102310_457916", "height": 3.459871530532837, "hmax": 0.021, "ratio": 0.006, "vulnClass": "none"}}, {"type": "Feature", "geometry": {"type": "MultiPolygon", "coordinates": [[[[72.3726602, 34.19497574], [72.37294181, 34.19497789], [72.37294258, 34.19490912], [72.37279775, 34.19490801], [72.37279845, 34.1948459], [72.37266167, 34.19484486], [72.3726602, 34.19497574]]]]}, "properties": {"id": "Pakistan_123102310_7788", "height": 3.339254856109619, "hmax": 0.022, "ratio": 0.007, "vulnClass": "none"}}, {"type": "Feature", "geometry": {"type": "MultiPolygon", "coordinates": [[[[72.37305448, 34.1952497], [72.37305089, 34.1950878], [72.37313011, 34.1950866], [72.37312816, 34.19499904], [72.37293633, 34.19500195], [72.37293965, 34.19515162], [72.37284191, 34.1951531], [72.37283868, 34.19500786], [72.37276483, 34.19500898], [72.37277026, 34.19525403], [72.37305448, 34.1952497]]]]}, "properties": {"id": "Pakistan_123102310_263200", "height": 2.646631956100464, "hmax": 0.044, "ratio": 0.017, "vulnClass": "none"}}, {"type": "Feature", "geometry": {"type": "MultiPolygon", "coordinates": [[[[72.36856057, 34.19390284], [72.36851608, 34.19390865], [72.36852285, 34.19394415], [72.36856734, 34.19393834], [72.36856057, 34.19390284]]]]}, "properties": {"id": "Pakistan_123102310_187458", "height": 3.353988647460938, "hmax": 0.015, "ratio": 0.005, "vulnClass": "none"}}, {"type": "Feature", "geometry": {"type": "MultiPolygon", "coordinates": [[[[72.3683973, 34.19387009], [72.36839468, 34.19392991], [72.36844022, 34.19393128], [72.36844284, 34.19387145], [72.3683973, 34.19387009]]]]}, "properties": {"id": "Pakistan_123102310_344518", "height": 2.613146781921387, "hmax": 0.014, "ratio": 0.005, "vulnClass": "none"}}, {"type": "Feature", "geometry": {"type": "MultiPolygon", "coordinates": [[[[72.36856938, 34.19382581], [72.36851315, 34.19382382], [72.36851075, 34.19387033], [72.36856698, 34.19387231], [72.36856938, 34.19382581]]]]}, "properties": {"id": "Pakistan_123102310_297096", "height": 3.000037908554077, "hmax": 0.015, "ratio": 0.005, "vulnClass": "none"}}, {"type": "Feature", "geometry": {"type": "MultiPolygon", "coordinates": [[[[72.36906029, 34.19336247], [72.36905887, 34.1933957], [72.36910309, 34.19339699], [72.36909993, 34.19347103], [72.36921912, 34.19347452], [72.36922228, 34.19340047], [72.36912452, 34.19339762], [72.36912594, 34.19336438], [72.36906029, 34.19336247]]]]}, "properties": {"id": "Pakistan_123102310_738018", "height": 4.493770122528076, "hmax": 0.015, "ratio": 0.003, "vulnClass": "none"}}, {"type": "Feature", "geometry": {"type": "MultiPolygon", "coordinates": [[[[72.36931166, 34.19325568], [72.36936651, 34.19325769], [72.36936828, 34.19322448], [72.36931344, 34.19322247], [72.36931166, 34.19325568]]]]}, "properties": {"id": "Pakistan_123102310_837295", "height": 2.46757698059082, "hmax": 0.015, "ratio": 0.006, "vulnClass": "none"}}, {"type": "Feature", "geometry": {"type": "MultiPolygon", "coordinates": [[[[72.36888534, 34.19308717], [72.36926283, 34.19310061], [72.36926491, 34.19306075], [72.36918191, 34.19305779], [72.36918768, 34.19294707], [72.36911143, 34.19294436], [72.36910757, 34.19301835], [72.36903658, 34.19301582], [72.36903554, 34.19303575], [72.36888829, 34.1930305], [72.36888534, 34.19308717]]]]}, "properties": {"id": "Pakistan_123102310_420012", "height": 2.624538421630859, "hmax": 0.007, "ratio": 0.003, "vulnClass": "none"}}, {"type": "Feature", "geometry": {"type": "MultiPolygon", "coordinates": [[[[72.36890888, 34.19291684], [72.36867558, 34.19291966], [72.36867644, 34.19296846], [72.36890975, 34.19296564], [72.36890888, 34.19291684]]]]}, "properties": {"id": "Pakistan_123102310_82978", "height": 3.534096717834473, "hmax": 0.007, "ratio": 0.002, "vulnClass": "none"}}, {"type": "Feature", "geometry": {"type": "MultiPolygon", "coordinates": [[[[72.36718972, 34.19282413], [72.36736571, 34.19283529], [72.36736297, 34.19286478], [72.3674323, 34.19286918], [72.36744376, 34.19274567], [72.36719844, 34.19273009], [72.36718972, 34.19282413]]]]}, "properties": {"id": "Pakistan_123102310_102128", "height": 3.050763368606567, "hmax": 0.011, "ratio": 0.004, "vulnClass": "none"}}, {"type": "Feature", "geometry": {"type": "MultiPolygon", "coordinates": [[[[72.36911744, 34.19280668], [72.36887622, 34.19281201], [72.36887741, 34.1928488], [72.36890421, 34.19284821], [72.36890622, 34.19291028], [72.36912065, 34.19290553], [72.36911744, 34.19280668]]]]}, "properties": {"id": "Pakistan_123102310_642656", "height": 3.528123378753662, "hmax": 0.007, "ratio": 0.002, "vulnClass": "none"}}, {"type": "Feature", "geometry": {"type": "MultiPolygon", "coordinates": [[[[72.36817122, 34.19215643], [72.36825847, 34.19215804], [72.36825981, 34.19210839], [72.36837094, 34.19211044], [72.36837315, 34.19202839], [72.36817476, 34.19202474], [72.36817122, 34.19215643]]]]}, "properties": {"id": "Pakistan_123102310_372861", "height": 3.005879878997803, "hmax": 0.004, "ratio": 0.001, "vulnClass": "none"}}, {"type": "Feature", "geometry": {"type": "MultiPolygon", "coordinates": [[[[72.36857924, 34.19208007], [72.36857813, 34.19203127], [72.36849354, 34.19203259], [72.36849344, 34.19202816], [72.36839155, 34.19202974], [72.36839283, 34.19208606], [72.36845061, 34.19208517], [72.3684523, 34.1921597], [72.36868825, 34.19215602], [72.36868649, 34.1920784], [72.36857924, 34.19208007]]]]}, "properties": {"id": "Pakistan_123102310_656982", "height": 3.984147548675537, "hmax": 0.006, "ratio": 0.002, "vulnClass": "none"}}, {"type": "Feature", "geometry": {"type": "MultiPolygon", "coordinates": [[[[72.36786724, 34.19224341], [72.36792845, 34.1922479], [72.36793185, 34.19221624], [72.36787064, 34.19221175], [72.36786724, 34.19224341]]]]}, "properties": {"id": "Pakistan_123102310_756991", "height": 3.486382484436035, "hmax": 0.01, "ratio": 0.003, "vulnClass": "none"}}, {"type": "Feature", "geometry": {"type": "MultiPolygon", "coordinates": [[[[72.36748425, 34.19215403], [72.36748218, 34.19209196], [72.36725437, 34.19209716], [72.36725644, 34.19215923], [72.36748425, 34.19215403]]]]}, "properties": {"id": "Pakistan_123102310_656977", "height": 2.675846099853516, "hmax": 0.006, "ratio": 0.002, "vulnClass": "none"}}, {"type": "Feature", "geometry": {"type": "MultiPolygon", "coordinates": [[[[72.36823866, 34.19196163], [72.36823788, 34.19188842], [72.36817352, 34.19188889], [72.36817279, 34.19182012], [72.36807356, 34.19182083], [72.36807506, 34.19196281], [72.36823866, 34.19196163]]]]}, "properties": {"id": "Pakistan_123102310_159190", "height": 3.733130931854248, "hmax": 0.004, "ratio": 0.001, "vulnClass": "none"}}, {"type": "Feature", "geometry": {"type": "MultiPolygon", "coordinates": [[[[72.36729276, 34.19182882], [72.36729048, 34.19186118], [72.36741196, 34.19186702], [72.3674132, 34.19184933], [72.36734103, 34.19184586], [72.36734206, 34.19183119], [72.36729276, 34.19182882]]]]}, "properties": {"id": "Pakistan_123102310_316066", "height": 3.05389404296875, "hmax": 0.007, "ratio": 0.002, "vulnClass": "none"}}, {"type": "Feature", "geometry": {"type": "MultiPolygon", "coordinates": [[[[72.36752572, 34.19167411], [72.36752716, 34.19191372], [72.36755666, 34.19191359], [72.36755653, 34.19189141], [72.36763431, 34.19189109], [72.36763382, 34.191809], [72.36758018, 34.19180922], [72.36757956, 34.19170717], [72.36763321, 34.19170695], [72.36763301, 34.19167367], [72.36752572, 34.19167411]]]]}, "properties": {"id": "Pakistan_123102310_794716", "height": 2.792310476303101, "hmax": 0.004, "ratio": 0.001, "vulnClass": "none"}}, {"type": "Feature", "geometry": {"type": "MultiPolygon", "coordinates": [[[[72.36818937, 34.19164229], [72.36818882, 34.1915602], [72.36786965, 34.19156166], [72.36786942, 34.19152701], [72.36774756, 34.19152756], [72.36774729, 34.19148679], [72.36749517, 34.19148794], [72.36749562, 34.19155672], [72.36775043, 34.19155555], [72.36775101, 34.19164429], [72.36818937, 34.19164229]]]]}, "properties": {"id": "Pakistan_123102310_704594", "height": 3.508393526077271, "hmax": 0.004, "ratio": 0.001, "vulnClass": "none"}}, {"type": "Feature", "geometry": {"type": "MultiPolygon", "coordinates": [[[[72.3684773, 34.19169604], [72.36847602, 34.19165701], [72.36840097, 34.19165869], [72.36840225, 34.19169772], [72.3684773, 34.19169604]]]]}, "properties": {"id": "Pakistan_123102310_742864", "height": 2.717276096343994, "hmax": 0.004, "ratio": 0.002, "vulnClass": "none"}}, {"type": "Feature", "geometry": {"type": "MultiPolygon", "coordinates": [[[[72.36847059, 34.1917024], [72.36839014, 34.19170314], [72.36839076, 34.19174973], [72.36847122, 34.19174899], [72.36847059, 34.1917024]]]]}, "properties": {"id": "Pakistan_123102310_344519", "height": 3.114780902862549, "hmax": 0.004, "ratio": 0.001, "vulnClass": "none"}}, {"type": "Feature", "geometry": {"type": "MultiPolygon", "coordinates": [[[[72.36850566, 34.19182584], [72.36850436, 34.19175842], [72.36839442, 34.19175988], [72.36839572, 34.1918273], [72.36850566, 34.19182584]]]]}, "properties": {"id": "Pakistan_123102310_837290", "height": 3.596442222595215, "hmax": 0.004, "ratio": 0.001, "vulnClass": "none"}}, {"type": "Feature", "geometry": {"type": "MultiPolygon", "coordinates": [[[[72.36824689, 34.19179131], [72.36818138, 34.19178994], [72.36817852, 34.19188306], [72.36824404, 34.19188444], [72.36824689, 34.19179131]]]]}, "properties": {"id": "Pakistan_123102310_453156", "height": 3.284788846969604, "hmax": 0.004, "ratio": 0.001, "vulnClass": "none"}}, {"type": "Feature", "geometry": {"type": "MultiPolygon", "coordinates": [[[[72.36849899, 34.19183031], [72.36839443, 34.19183208], [72.36839571, 34.19188396], [72.3684398, 34.19188322], [72.36843928, 34.19186238], [72.36849976, 34.19186136], [72.36849899, 34.19183031]]]]}, "properties": {"id": "Pakistan_123102310_879835", "height": 3.58715033531189, "hmax": 0.004, "ratio": 0.001, "vulnClass": "none"}}, {"type": "Feature", "geometry": {"type": "MultiPolygon", "coordinates": [[[[72.37260745, 34.19280677], [72.37260846, 34.1923808], [72.372528, 34.19238067], [72.37252778, 34.19247163], [72.37238831, 34.19247141], [72.37238808, 34.19256459], [72.37237199, 34.19256456], [72.37237178, 34.19265552], [72.37231009, 34.19265542], [72.37230973, 34.19280629], [72.37260745, 34.19280677]]]]}, "properties": {"id": "Pakistan_123102310_187524", "height": 3.205926179885864, "hmax": 0.005, "ratio": 0.002, "vulnClass": "none"}}, {"type": "Feature", "geometry": {"type": "MultiPolygon", "coordinates": [[[[72.37336641, 34.19317099], [72.37336661, 34.19299466], [72.37324988, 34.19299458], [72.3732497, 34.19317091], [72.37336641, 34.19317099]]]]}, "properties": {"id": "Pakistan_123102310_84541", "height": 2.592814922332764, "hmax": 0.004, "ratio": 0.002, "vulnClass": "none"}}, {"type": "Feature", "geometry": {"type": "MultiPolygon", "coordinates": [[[[72.3712617, 34.1895138], [72.37126371, 34.18957484], [72.37131999, 34.18957357], [72.37131798, 34.18951254], [72.3712617, 34.1895138]]]]}, "properties": {"id": "Pakistan_123102310_794742", "height": 3.231232643127441, "hmax": 0.004, "ratio": 0.001, "vulnClass": "none"}}, {"type": "Feature", "geometry": {"type": "MultiPolygon", "coordinates": [[[[72.37142589, 34.18951627], [72.37151539, 34.18951568], [72.37151636, 34.18961551], [72.37157704, 34.18961511], [72.37157557, 34.18946203], [72.37142537, 34.18946303], [72.37142589, 34.18951627]]]]}, "properties": {"id": "Pakistan_123102310_633236", "height": 3.34630298614502, "hmax": 0.004, "ratio": 0.001, "vulnClass": "none"}}, {"type": "Feature", "geometry": {"type": "MultiPolygon", "coordinates": [[[[72.37217382, 34.18765518], [72.37217119, 34.18769945], [72.37224076, 34.18770228], [72.37224339, 34.18765801], [72.37217382, 34.18765518]]]]}, "properties": {"id": "Pakistan_123102310_83038", "height": 4.617951393127441, "hmax": 0.018, "ratio": 0.004, "vulnClass": "none"}}, {"type": "Feature", "geometry": {"type": "MultiPolygon", "coordinates": [[[[72.3720172, 34.18766297], [72.37196522, 34.1876644], [72.37196874, 34.18775191], [72.37202071, 34.18775049], [72.3720172, 34.18766297]]]]}, "properties": {"id": "Pakistan_123102310_235745", "height": 3.072329759597778, "hmax": 0.018, "ratio": 0.006, "vulnClass": "none"}}, {"type": "Feature", "geometry": {"type": "MultiPolygon", "coordinates": [[[[72.37122896, 34.18927898], [72.37123356, 34.18940088], [72.37133807, 34.18939819], [72.37133347, 34.18927628], [72.37122896, 34.18927898]]]]}, "properties": {"id": "Pakistan_123102310_94001", "height": 4.184708595275879, "hmax": 0.004, "ratio": 0.001, "vulnClass": "none"}}, {"type": "Feature", "geometry": {"type": "MultiPolygon", "coordinates": [[[[72.37137507, 34.18937779], [72.37137275, 34.18944429], [72.37158277, 34.1894493], [72.37158509, 34.18938279], [72.37137507, 34.18937779]]]]}, "properties": {"id": "Pakistan_123102310_282762", "height": 3.981164455413818, "hmax": 0.004, "ratio": 0.001, "vulnClass": "none"}}, {"type": "Feature", "geometry": {"type": "MultiPolygon", "coordinates": [[[[72.37130066, 34.18944793], [72.37123642, 34.18945034], [72.37123927, 34.18950231], [72.37130351, 34.1894999], [72.37130066, 34.18944793]]]]}, "properties": {"id": "Pakistan_123102310_827835", "height": 4.172727584838867, "hmax": 0.004, "ratio": 0.001, "vulnClass": "none"}}, {"type": "Feature", "geometry": {"type": "MultiPolygon", "coordinates": [[[[72.37122702, 34.18940612], [72.37122888, 34.18943933], [72.37134664, 34.18943483], [72.37134479, 34.18940162], [72.37122702, 34.18940612]]]]}, "properties": {"id": "Pakistan_123102310_884629", "height": 4.421322345733643, "hmax": 0.004, "ratio": 0.001, "vulnClass": "none"}}, {"type": "Feature", "geometry": {"type": "MultiPolygon", "coordinates": [[[[72.37056284, 34.18909108], [72.3705816, 34.18909154], [72.37057978, 34.18914253], [72.37078881, 34.18914764], [72.37079076, 34.18909323], [72.37074079, 34.18909201], [72.3707417, 34.18906661], [72.37067643, 34.18906502], [72.37068236, 34.18889876], [72.37056981, 34.18889601], [72.37056284, 34.18909108]]]]}, "properties": {"id": "Pakistan_123102310_941405", "height": 3.739500045776367, "hmax": 0.005, "ratio": 0.001, "vulnClass": "none"}}, {"type": "Feature", "geometry": {"type": "MultiPolygon", "coordinates": [[[[72.36918186, 34.19016923], [72.36913361, 34.19017021], [72.3691346, 34.19020347], [72.36891911, 34.19020785], [72.36892115, 34.19027659], [72.3691849, 34.19027123], [72.36918186, 34.19016923]]]]}, "properties": {"id": "Pakistan_123102310_752257", "height": 3.457307100296021, "hmax": 0.004, "ratio": 0.001, "vulnClass": "none"}}, {"type": "Feature", "geometry": {"type": "MultiPolygon", "coordinates": [[[[72.3711404, 34.19121554], [72.37079996, 34.19122247], [72.37079782, 34.19115032], [72.37077906, 34.1911507], [72.37077787, 34.19111079], [72.3708851, 34.19110861], [72.37088371, 34.19106204], [72.370747, 34.19106482], [72.37075115, 34.19120451], [72.37058495, 34.19120789], [72.37058693, 34.19127441], [72.37114181, 34.19126313], [72.3711404, 34.19121554]]]]}, "properties": {"id": "Pakistan_123102310_54644", "height": 2.69861888885498, "hmax": 0.004, "ratio": 0.002, "vulnClass": "none"}}, {"type": "Feature", "geometry": {"type": "MultiPolygon", "coordinates": [[[[72.36735689, 34.19096676], [72.36735677, 34.19106964], [72.36775486, 34.19106996], [72.36775495, 34.19098787], [72.36744806, 34.19098762], [72.36744815, 34.19091662], [72.36738646, 34.19091657], [72.3673864, 34.19096679], [72.36735689, 34.19096676]]]]}, "properties": {"id": "Pakistan_123102310_510167", "height": 2.646912097930908, "hmax": 0.003, "ratio": 0.001, "vulnClass": "none"}}, {"type": "Feature", "geometry": {"type": "MultiPolygon", "coordinates": [[[[72.36753757, 34.19136777], [72.36754124, 34.19126802], [72.36761092, 34.19126977], [72.3676126, 34.19122406], [72.36757622, 34.19122314], [72.36757959, 34.19113143], [72.3674724, 34.19112874], [72.36746857, 34.19123292], [72.3674123, 34.1912315], [72.36740877, 34.19132763], [72.36748112, 34.19132946], [72.36747977, 34.19136632], [72.36753757, 34.19136777]]]]}, "properties": {"id": "Pakistan_123102310_103475", "height": 2.499042987823486, "hmax": 0.003, "ratio": 0.001, "vulnClass": "none"}}, {"type": "Feature", "geometry": {"type": "MultiPolygon", "coordinates": [[[[72.36798842, 34.19146988], [72.36798703, 34.19139975], [72.36774838, 34.19140296], [72.36775055, 34.19151302], [72.36779882, 34.19151237], [72.36779803, 34.19147245], [72.36798842, 34.19146988]]]]}, "properties": {"id": "Pakistan_123102310_382300", "height": 2.583269357681274, "hmax": 0.004, "ratio": 0.002, "vulnClass": "none"}}, {"type": "Feature", "geometry": {"type": "MultiPolygon", "coordinates": [[[[72.36743303, 34.19140291], [72.36743138, 34.19148054], [72.3677022, 34.19148446], [72.36770385, 34.19140683], [72.36743303, 34.19140291]]]]}, "properties": {"id": "Pakistan_123102310_898834", "height": 3.497003316879272, "hmax": 0.004, "ratio": 0.001, "vulnClass": "none"}}, {"type": "Feature", "geometry": {"type": "MultiPolygon", "coordinates": [[[[72.36492022, 34.18917385], [72.36522323, 34.18917001], [72.36522254, 34.1891323], [72.36491952, 34.18913614], [72.36492022, 34.18917385]]]]}, "properties": {"id": "Pakistan_123102310_931868", "height": 5.276243209838867, "hmax": 0.004, "ratio": 0.001, "vulnClass": "none"}}, {"type": "Feature", "geometry": {"type": "MultiPolygon", "coordinates": [[[[72.36479555, 34.1891468], [72.36479708, 34.18918226], [72.36486137, 34.18918036], [72.36485984, 34.1891449], [72.36479555, 34.1891468]]]]}, "properties": {"id": "Pakistan_123102310_35988", "height": 5.095614910125732, "hmax": 0.004, "ratio": 0.001, "vulnClass": "none"}}, {"type": "Feature", "geometry": {"type": "MultiPolygon", "coordinates": [[[[72.366295, 34.19318253], [72.36674541, 34.19323296], [72.36675789, 34.19315671], [72.36630748, 34.19310628], [72.366295, 34.19318253]]]]}, "properties": {"id": "Pakistan_123102310_922378", "height": 3.020197629928589, "hmax": 0.018, "ratio": 0.006, "vulnClass": "none"}}, {"type": "Feature", "geometry": {"type": "MultiPolygon", "coordinates": [[[[72.36571729, 34.1932343], [72.36572602, 34.19344482], [72.36585462, 34.19344116], [72.36584589, 34.19323065], [72.36571729, 34.1932343]]]]}, "properties": {"id": "Pakistan_123102310_514864", "height": 4.242300987243652, "hmax": 0.017, "ratio": 0.004, "vulnClass": "none"}}, {"type": "Feature", "geometry": {"type": "MultiPolygon", "coordinates": [[[[72.36516545, 34.19268197], [72.36533544, 34.19267658], [72.36533396, 34.19264468], [72.36526039, 34.19264701], [72.36525726, 34.19257922], [72.36533885, 34.19257663], [72.36533255, 34.19244062], [72.36532863, 34.19244074], [72.36532642, 34.19239288], [72.36525678, 34.19239509], [72.36525945, 34.19245269], [72.36515499, 34.19245601], [72.36516545, 34.19268197]]]]}, "properties": {"id": "Pakistan_123102310_273337", "height": 2.616381406784058, "hmax": 0.014, "ratio": 0.005, "vulnClass": "none"}}]}