{"type": "FeatureCollection", "features": [{"type": "Feature", "geometry": {"type": "MultiPolygon", "coordinates": [[[[71.77990079, 34.3675688], [71.77977699, 34.36756383], [71.77977051, 34.36767506], [71.77989431, 34.36768002], [71.77990079, 34.3675688]]]]}, "properties": {"id": "8J6H9Q9H+2WWW", "height": 3.206468105316162, "hmax": 0.003, "ratio": 0.001, "vulnClass": "none"}}, {"type": "Feature", "geometry": {"type": "MultiPolygon", "coordinates": [[[[71.7807592, 34.36721947], [71.78067127, 34.3672116], [71.78065336, 34.36734922], [71.78072208, 34.36735537], [71.78071698, 34.36739453], [71.78103297, 34.36742282], [71.78104329, 34.36734355], [71.7810011, 34.36733977], [71.78099588, 34.36737987], [71.78083453, 34.36736543], [71.78083975, 34.36732533], [71.78074651, 34.36731699], [71.7807592, 34.36721947]]]]}, "properties": {"id": "8J6H9Q8J+W8MH", "height": 3.077387809753418, "hmax": 0.001, "ratio": 0.0, "vulnClass": "none"}}, {"type": "Feature", "geometry": {"type": "MultiPolygon", "coordinates": [[[[71.78094022, 34.36741452], [71.78076603, 34.36739892], [71.78076128, 34.36743544], [71.78091179, 34.36744891], [71.78090464, 34.36750386], [71.78092831, 34.36750597], [71.78091185, 34.36763246], [71.78103801, 34.36764375], [71.78105093, 34.36754454], [71.78101751, 34.36754155], [71.78102359, 34.36749489], [71.78093084, 34.36748659], [71.78094022, 34.36741452]]]]}, "properties": {"id": "8J6H9Q9J+2982", "height": 2.658847332000732, "hmax": 0.004, "ratio": 0.002, "vulnClass": "none"}}, {"type": "Feature", "geometry": {"type": "MultiPolygon", "coordinates": [[[[71.78055353, 34.3673785], [71.78047329, 34.36735435], [71.78040221, 34.36751676], [71.78048246, 34.36754091], [71.78055353, 34.3673785]]]]}, "properties": {"id": "8J6H9Q8J+X5HV", "height": 2.47558331489563, "hmax": 0.003, "ratio": 0.001, "vulnClass": "none"}}, {"type": "Feature", "geometry": {"type": "MultiPolygon", "coordinates": [[[[71.78054083, 34.36760641], [71.78052303, 34.36754406], [71.78047079, 34.36755431], [71.78048858, 34.36761666], [71.78054083, 34.36760641]]]]}, "properties": {"id": "8J6H9Q9J+26J6", "height": 3.077195167541504, "hmax": 0.006, "ratio": 0.002, "vulnClass": "none"}}, {"type": "Feature", "geometry": {"type": "MultiPolygon", "coordinates": [[[[71.78043352, 34.3675302], [71.78040479, 34.36753854], [71.78044095, 34.36762418], [71.78046967, 34.36761584], [71.78043352, 34.3675302]]]]}, "properties": {"id": "8J6H9Q9J+25M5", "height": 2.573815822601318, "hmax": 0.006, "ratio": 0.002, "vulnClass": "none"}}, {"type": "Feature", "geometry": {"type": "MultiPolygon", "coordinates": [[[[71.78071089, 34.36763907], [71.78071091, 34.36757359], [71.78066159, 34.36757357], [71.78066157, 34.36763906], [71.78071089, 34.36763907]]]]}, "properties": {"id": "8J6H9Q9J+27V9", "height": 3.385558128356934, "hmax": 0.006, "ratio": 0.002, "vulnClass": "none"}}, {"type": "Feature", "geometry": {"type": "MultiPolygon", "coordinates": [[[[71.78073998, 34.36759904], [71.78071014, 34.36759637], [71.7807032, 34.36764969], [71.78090723, 34.36766796], [71.78091765, 34.36758792], [71.78074346, 34.36757233], [71.78073998, 34.36759904]]]]}, "properties": {"id": "8J6H9Q9J+28WR", "height": 3.372415781021118, "hmax": 0.006, "ratio": 0.002, "vulnClass": "none"}}, {"type": "Feature", "geometry": {"type": "MultiPolygon", "coordinates": [[[[71.78065046, 34.36764115], [71.7806283, 34.36753725], [71.78054736, 34.36754912], [71.78056952, 34.36765301], [71.78065046, 34.36764115]]]]}, "properties": {"id": "8J6H9Q9J+26QR", "height": 3.366973400115967, "hmax": 0.006, "ratio": 0.002, "vulnClass": "none"}}, {"type": "Feature", "geometry": {"type": "MultiPolygon", "coordinates": [[[[71.78069627, 34.36748207], [71.78065103, 34.3674865], [71.78066298, 34.36757037], [71.78070822, 34.36756594], [71.78069627, 34.36748207]]]]}, "properties": {"id": "8J6H9Q9J+2774", "height": 3.324842691421509, "hmax": 0.006, "ratio": 0.002, "vulnClass": "none"}}, {"type": "Feature", "geometry": {"type": "MultiPolygon", "coordinates": [[[[71.78083417, 34.36719727], [71.78077397, 34.36719992], [71.78077641, 34.36723814], [71.78083662, 34.36723549], [71.78083417, 34.36719727]]]]}, "properties": {"id": "8J6H9Q8J+V8MQ", "height": 2.446580648422241, "hmax": 0.001, "ratio": 0.0, "vulnClass": "none"}}, {"type": "Feature", "geometry": {"type": "MultiPolygon", "coordinates": [[[[71.78114511, 34.36723048], [71.78108021, 34.36722587], [71.78107449, 34.3672812], [71.78113939, 34.36728581], [71.78114511, 34.36723048]]]]}, "properties": {"id": "8J6H9Q8J+WC58", "height": 2.468761920928955, "hmax": 0.001, "ratio": 0.0, "vulnClass": "none"}}, {"type": "Feature", "geometry": {"type": "MultiPolygon", "coordinates": [[[[71.78129991, 34.36725341], [71.78120091, 34.36724152], [71.78119657, 34.36726636], [71.78129558, 34.36727825], [71.78129991, 34.36725341]]]]}, "properties": {"id": "8J6H9Q8J+WF59", "height": 3.122978448867798, "hmax": 0.001, "ratio": 0.0, "vulnClass": "none"}}, {"type": "Feature", "geometry": {"type": "MultiPolygon", "coordinates": [[[[71.78106846, 34.36712382], [71.78102092, 34.36712357], [71.78102065, 34.36715945], [71.78106819, 34.36715969], [71.78106846, 34.36712382]]]]}, "properties": {"id": "8J6H9Q8J+VC3M", "height": 3.006285667419434, "hmax": 0.001, "ratio": 0.0, "vulnClass": "none"}}, {"type": "Feature", "geometry": {"type": "MultiPolygon", "coordinates": [[[[71.78117377, 34.36709199], [71.78109687, 34.36707513], [71.78107722, 34.36713675], [71.78115412, 34.36715361], [71.78117377, 34.36709199]]]]}, "properties": {"id": "8J6H9Q8J+RFRC", "height": 3.68113899230957, "hmax": 0.001, "ratio": 0.0, "vulnClass": "none"}}, {"type": "Feature", "geometry": {"type": "MultiPolygon", "coordinates": [[[[71.78129777, 34.36711917], [71.78117377, 34.36709199], [71.78113372, 34.3672176], [71.78125772, 34.36724479], [71.78129777, 34.36711917]]]]}, "properties": {"id": "8J6H9Q8J+VF8Q", "height": 3.698767900466919, "hmax": 0.001, "ratio": 0.0, "vulnClass": "none"}}, {"type": "Feature", "geometry": {"type": "MultiPolygon", "coordinates": [[[[71.78135759, 34.36708373], [71.78123634, 34.36705715], [71.78122187, 34.36710253], [71.78134312, 34.36712911], [71.78135759, 34.36708373]]]]}, "properties": {"id": "8J6H9Q8J+RGMM", "height": 2.817930698394775, "hmax": 0.001, "ratio": 0.0, "vulnClass": "none"}}, {"type": "Feature", "geometry": {"type": "MultiPolygon", "coordinates": [[[[71.7811579, 34.36703995], [71.78111134, 34.36702974], [71.78109687, 34.36707513], [71.78114343, 34.36708534], [71.7811579, 34.36703995]]]]}, "properties": {"id": "8J6H9Q8J+RFC6", "height": 3.014707088470459, "hmax": 0.001, "ratio": 0.0, "vulnClass": "none"}}, {"type": "Feature", "geometry": {"type": "MultiPolygon", "coordinates": [[[[71.7806128, 34.36722855], [71.78050513, 34.36714124], [71.78043958, 34.36719682], [71.78054725, 34.36728414], [71.7806128, 34.36722855]]]]}, "properties": {"id": "8J6H9Q8J+V6JH", "height": 3.366955757141113, "hmax": 0.001, "ratio": 0.0, "vulnClass": "none"}}, {"type": "Feature", "geometry": {"type": "MultiPolygon", "coordinates": [[[[71.78054725, 34.36728414], [71.78042122, 34.36718194], [71.78036578, 34.36722895], [71.78049181, 34.36733115], [71.78054725, 34.36728414]]]]}, "properties": {"id": "8J6H9Q8J+W548", "height": 3.243722677230835, "hmax": 0.001, "ratio": 0.0, "vulnClass": "none"}}, {"type": "Feature", "geometry": {"type": "MultiPolygon", "coordinates": [[[[71.78052173, 34.36714066], [71.78049793, 34.36710591], [71.78041105, 34.36714682], [71.78043486, 34.36718158], [71.78052173, 34.36714066]]]]}, "properties": {"id": "8J6H9Q8J+V54Q", "height": 3.327135562896729, "hmax": 0.001, "ratio": 0.0, "vulnClass": "none"}}, {"type": "Feature", "geometry": {"type": "MultiPolygon", "coordinates": [[[[71.78051652, 34.36705982], [71.78046214, 34.36700142], [71.78037208, 34.36705908], [71.78039797, 34.36708689], [71.78035406, 34.36711501], [71.78038255, 34.3671456], [71.78051652, 34.36705982]]]]}, "properties": {"id": "8J6H9Q8J+R5FX", "height": 3.338647127151489, "hmax": 0.001, "ratio": 0.0, "vulnClass": "none"}}, {"type": "Feature", "geometry": {"type": "MultiPolygon", "coordinates": [[[[71.78031051, 34.36697138], [71.78027403, 34.36697992], [71.78033678, 34.3671643], [71.78037327, 34.36715576], [71.78031051, 34.36697138]]]]}, "properties": {"id": "8J6H9Q8J+R4GM", "height": 3.338647127151489, "hmax": 0.001, "ratio": 0.0, "vulnClass": "none"}}, {"type": "Feature", "geometry": {"type": "MultiPolygon", "coordinates": [[[[71.78122515, 34.3668244], [71.78102385, 34.36682067], [71.78102138, 34.36691219], [71.78122268, 34.36691593], [71.78122515, 34.3668244]]]]}, "properties": {"id": "8J6H9Q8J+PCXQ", "height": 2.665285587310791, "hmax": 0.001, "ratio": 0.0, "vulnClass": "none"}}, {"type": "Feature", "geometry": {"type": "MultiPolygon", "coordinates": [[[[71.78106394, 34.36676395], [71.7810254, 34.36676323], [71.78102385, 34.36682067], [71.78106239, 34.36682138], [71.78106394, 34.36676395]]]]}, "properties": {"id": "8J6H9Q8J+PC7M", "height": 2.624972820281982, "hmax": 0.001, "ratio": 0.0, "vulnClass": "none"}}, {"type": "Feature", "geometry": {"type": "MultiPolygon", "coordinates": [[[[71.77940092, 34.36633592], [71.77935645, 34.3663304], [71.77934813, 34.36637647], [71.7793926, 34.36638199], [71.77940092, 34.36633592]]]]}, "properties": {"id": "8J6H9Q8H+GPX9", "height": 2.457297801971436, "hmax": 0.002, "ratio": 0.001, "vulnClass": "none"}}, {"type": "Feature", "geometry": {"type": "MultiPolygon", "coordinates": [[[[71.78024351, 34.36709329], [71.77988697, 34.36711236], [71.7798947, 34.36721171], [71.78025124, 34.36719264], [71.78024351, 34.36709329]]]]}, "properties": {"id": "8J6H9Q8J+V282", "height": 3.634420156478882, "hmax": 0.002, "ratio": 0.001, "vulnClass": "none"}}, {"type": "Feature", "geometry": {"type": "MultiPolygon", "coordinates": [[[[71.7792116, 34.3662967], [71.77913947, 34.36627784], [71.779125, 34.3663159], [71.77919712, 34.36633476], [71.7792116, 34.3662967]]]]}, "properties": {"id": "8J6H9Q8H+GMF7", "height": 3.967462301254272, "hmax": 0.001, "ratio": 0.0, "vulnClass": "none"}}, {"type": "Feature", "geometry": {"type": "MultiPolygon", "coordinates": [[[[71.7792588, 34.36630977], [71.77921751, 34.36630375], [71.77920992, 34.36633956], [71.77925121, 34.36634558], [71.7792588, 34.36630977]]]]}, "properties": {"id": "8J6H9Q8H+GMHV", "height": 2.778364419937134, "hmax": 0.001, "ratio": 0.0, "vulnClass": "none"}}, {"type": "Feature", "geometry": {"type": "MultiPolygon", "coordinates": [[[[71.77934912, 34.36632841], [71.7792752, 34.36631041], [71.77925996, 34.36635347], [71.77933388, 34.36637147], [71.77934912, 34.36632841]]]]}, "properties": {"id": "8J6H9Q8H+GPMP", "height": 2.444673538208008, "hmax": 0.002, "ratio": 0.001, "vulnClass": "none"}}, {"type": "Feature", "geometry": {"type": "MultiPolygon", "coordinates": [[[[71.77897066, 34.3660726], [71.77892804, 34.36605701], [71.77883748, 34.3662273], [71.77905697, 34.36630756], [71.77910016, 34.36622633], [71.7789233, 34.36616166], [71.77897066, 34.3660726]]]]}, "properties": {"id": "8J6H9Q8H+FHP9", "height": 3.975625514984131, "hmax": 0.001, "ratio": 0.0, "vulnClass": "none"}}, {"type": "Feature", "geometry": {"type": "MultiPolygon", "coordinates": [[[[71.77917392, 34.36626261], [71.77931752, 34.36605335], [71.77925112, 34.36602202], [71.77910753, 34.36623127], [71.77917392, 34.36626261]]]]}, "properties": {"id": "8J6H9Q8H+FM4Q", "height": 4.326046466827393, "hmax": 0.001, "ratio": 0.0, "vulnClass": "none"}}, {"type": "Feature", "geometry": {"type": "MultiPolygon", "coordinates": [[[[71.77952647, 34.36603298], [71.77930757, 34.36595294], [71.77926719, 34.36602888], [71.77948609, 34.36610892], [71.77952647, 34.36603298]]]]}, "properties": {"id": "8J6H9Q8H+CQ68", "height": 3.602507352828979, "hmax": 0.002, "ratio": 0.001, "vulnClass": "none"}}, {"type": "Feature", "geometry": {"type": "MultiPolygon", "coordinates": [[[[71.77792852, 34.36530015], [71.77778096, 34.36530756], [71.77778779, 34.36540111], [71.77793535, 34.3653937], [71.77792852, 34.36530015]]]]}, "properties": {"id": "8J6H9Q8H+44X3", "height": 2.479270219802856, "hmax": 0.001, "ratio": 0.0, "vulnClass": "none"}}, {"type": "Feature", "geometry": {"type": "MultiPolygon", "coordinates": [[[[71.7785782, 34.3652496], [71.7785849, 34.3653036], [71.7786614, 34.365297], [71.7786639, 34.3653174], [71.7787048, 34.3653139], [71.7787079, 34.3653383], [71.7788087, 34.3653296], [71.7788126, 34.3653608], [71.7788691, 34.365356], [71.7788596, 34.36528], [71.778763, 34.3652883], [71.7787562, 34.3652344], [71.7785782, 34.3652496]]]]}, "properties": {"id": "8J6H9Q8H+4F9M", "height": 2.542052745819092, "hmax": 0.001, "ratio": 0.0, "vulnClass": "none"}}, {"type": "Feature", "geometry": {"type": "MultiPolygon", "coordinates": [[[[71.7786773, 34.36540229], [71.77859017, 34.36540289], [71.77859161, 34.36554597], [71.77867874, 34.36554537], [71.7786773, 34.36540229]]]]}, "properties": {"id": "8J6H9Q8H+5FJV", "height": 3.050946712493896, "hmax": 0.001, "ratio": 0.0, "vulnClass": "none"}}, {"type": "Feature", "geometry": {"type": "MultiPolygon", "coordinates": [[[[71.77881936, 34.36535882], [71.77874246, 34.36535947], [71.77874285, 34.36539157], [71.77881975, 34.36539092], [71.77881936, 34.36535882]]]]}, "properties": {"id": "8J6H9Q8H+5G25", "height": 2.542052745819092, "hmax": 0.001, "ratio": 0.0, "vulnClass": "none"}}, {"type": "Feature", "geometry": {"type": "MultiPolygon", "coordinates": [[[[71.77883665, 34.3654753], [71.77878867, 34.36547597], [71.77878939, 34.3655114], [71.77883737, 34.36551072], [71.77883665, 34.3654753]]]]}, "properties": {"id": "8J6H9Q8H+5GWJ", "height": 2.554625988006592, "hmax": 0.001, "ratio": 0.0, "vulnClass": "none"}}, {"type": "Feature", "geometry": {"type": "MultiPolygon", "coordinates": [[[[71.77883823, 34.3655527], [71.77883737, 34.36551072], [71.7786885, 34.36551282], [71.77868936, 34.36555479], [71.77883823, 34.3655527]]]]}, "properties": {"id": "8J6H9Q8H+6G67", "height": 3.050946712493896, "hmax": 0.001, "ratio": 0.0, "vulnClass": "none"}}, {"type": "Feature", "geometry": {"type": "MultiPolygon", "coordinates": [[[[71.7789271, 34.36564334], [71.77887043, 34.36564424], [71.77887192, 34.36570872], [71.7789286, 34.36570781], [71.7789271, 34.36564334]]]]}, "properties": {"id": "8J6H9Q8H+7HC5", "height": 2.503880977630615, "hmax": 0.001, "ratio": 0.0, "vulnClass": "none"}}, {"type": "Feature", "geometry": {"type": "MultiPolygon", "coordinates": [[[[71.77891745, 34.36537658], [71.77883466, 34.36537774], [71.77883823, 34.3655527], [71.77892103, 34.36555154], [71.77891745, 34.36537658]]]]}, "properties": {"id": "8J6H9Q8H+5HJC", "height": 2.554625988006592, "hmax": 0.001, "ratio": 0.0, "vulnClass": "none"}}, {"type": "Feature", "geometry": {"type": "MultiPolygon", "coordinates": [[[[71.7797319, 34.36573367], [71.77963957, 34.36573577], [71.77964061, 34.36576729], [71.77973294, 34.3657652], [71.7797319, 34.36573367]]]]}, "properties": {"id": "8J6H9Q8H+8V35", "height": 3.667793273925781, "hmax": 0.002, "ratio": 0.001, "vulnClass": "none"}}, {"type": "Feature", "geometry": {"type": "MultiPolygon", "coordinates": [[[[71.77960859, 34.36611726], [71.77950232, 34.3660784], [71.77948609, 34.36610892], [71.77959236, 34.36614778], [71.77960859, 34.36611726]]]]}, "properties": {"id": "8J6H9Q8H+CRVG", "height": 2.457111120223999, "hmax": 0.002, "ratio": 0.001, "vulnClass": "none"}}, {"type": "Feature", "geometry": {"type": "MultiPolygon", "coordinates": [[[[71.77946342, 34.36610706], [71.77939358, 34.36608822], [71.77938278, 34.36611573], [71.77945262, 34.36613458], [71.77946342, 34.36610706]]]]}, "properties": {"id": "8J6H9Q8H+CQVG", "height": 3.236063957214355, "hmax": 0.002, "ratio": 0.001, "vulnClass": "none"}}, {"type": "Feature", "geometry": {"type": "MultiPolygon", "coordinates": [[[[71.77986819, 34.36574056], [71.77981435, 34.36574067], [71.77981448, 34.36578536], [71.77986831, 34.36578525], [71.77986819, 34.36574056]]]]}, "properties": {"id": "8J6H9Q8H+8W4H", "height": 2.504593133926392, "hmax": 0.002, "ratio": 0.001, "vulnClass": "none"}}, {"type": "Feature", "geometry": {"type": "MultiPolygon", "coordinates": [[[[71.7809024, 34.36563111], [71.78087622, 34.36563039], [71.78087532, 34.365653], [71.7809015, 34.36565372], [71.7809024, 34.36563111]]]]}, "properties": {"id": "8J6H9Q8J+792M", "height": 3.069214582443237, "hmax": 0.002, "ratio": 0.001, "vulnClass": "none"}}, {"type": "Feature", "geometry": {"type": "MultiPolygon", "coordinates": [[[[71.77912053, 34.36376897], [71.77911183, 34.36370001], [71.7790017, 34.36370957], [71.7790104, 34.36377852], [71.77912053, 34.36376897]]]]}, "properties": {"id": "8J6H9Q7H+FJVH", "height": 2.905657291412354, "hmax": 0.351, "ratio": 0.121, "vulnClass": "low"}}, {"type": "Feature", "geometry": {"type": "MultiPolygon", "coordinates": [[[[71.7792204, 34.3636042], [71.7789909, 34.3636241], [71.7790017, 34.3637096], [71.7792311, 34.3636897], [71.7792204, 34.3636042]]]]}, "properties": {"id": "8J6H9Q7H+FJ98", "height": 3.578074932098389, "hmax": 0.351, "ratio": 0.098, "vulnClass": "low"}}, {"type": "Feature", "geometry": {"type": "MultiPolygon", "coordinates": [[[[71.77900858, 34.36349056], [71.77897444, 34.36349353], [71.77898835, 34.36360375], [71.77902249, 34.36360079], [71.77900858, 34.36349056]]]]}, "properties": {"id": "8J6H9Q7H+CH9X", "height": 2.551608562469482, "hmax": 0.351, "ratio": 0.138, "vulnClass": "low"}}, {"type": "Feature", "geometry": {"type": "MultiPolygon", "coordinates": [[[[71.77843735, 34.36425471], [71.77828747, 34.36425438], [71.77828723, 34.36433046], [71.77847826, 34.36433088], [71.7784784, 34.36428535], [71.77843726, 34.36428526], [71.77843735, 34.36425471]]]]}, "properties": {"id": "8J6H9Q7H+P96J", "height": 2.818105220794678, "hmax": 0.001, "ratio": 0.0, "vulnClass": "none"}}, {"type": "Feature", "geometry": {"type": "MultiPolygon", "coordinates": [[[[71.77883706, 34.36429302], [71.77849902, 34.36429639], [71.77850011, 34.36437161], [71.77883815, 34.36436824], [71.77883706, 34.36429302]]]]}, "properties": {"id": "8J6H9Q7H+PFM7", "height": 4.279437065124512, "hmax": 0.001, "ratio": 0.0, "vulnClass": "none"}}, {"type": "Feature", "geometry": {"type": "MultiPolygon", "coordinates": [[[[71.77881111, 34.3651428], [71.77875771, 34.36514246], [71.77875729, 34.36518711], [71.77881069, 34.36518746], [71.77881111, 34.3651428]]]]}, "properties": {"id": "8J6H9Q8H+3G7C", "height": 2.763475894927979, "hmax": 0.001, "ratio": 0.0, "vulnClass": "none"}}, {"type": "Feature", "geometry": {"type": "MultiPolygon", "coordinates": [[[[71.77794175, 34.36318878], [71.77767974, 34.36307687], [71.77762922, 34.36315821], [71.77789124, 34.36327012], [71.77794175, 34.36318878]]]]}, "properties": {"id": "8J6H9Q7H+747R", "height": 3.238556861877441, "hmax": 0.002, "ratio": 0.001, "vulnClass": "none"}}, {"type": "Feature", "geometry": {"type": "MultiPolygon", "coordinates": [[[[71.7809233, 34.3607849], [71.7808424, 34.3607837], [71.7808408, 34.3608565], [71.7809217, 34.3608578], [71.7809233, 34.3607849]]]]}, "properties": {"id": "8J6H9Q6J+89CR", "height": 2.922012567520142, "hmax": 0.001, "ratio": 0.0, "vulnClass": "none"}}, {"type": "Feature", "geometry": {"type": "MultiPolygon", "coordinates": [[[[71.78080316, 34.36078307], [71.7806083, 34.36078015], [71.78060671, 34.36085303], [71.78084082, 34.36085654], [71.78084148, 34.36082626], [71.78080223, 34.36082567], [71.78080316, 34.36078307]]]]}, "properties": {"id": "8J6H9Q6J+87GQ", "height": 3.510968446731567, "hmax": 0.001, "ratio": 0.0, "vulnClass": "none"}}, {"type": "Feature", "geometry": {"type": "MultiPolygon", "coordinates": [[[[71.78018889, 34.36070663], [71.77990917, 34.36070727], [71.77990965, 34.3608498], [71.78018936, 34.36084916], [71.78018889, 34.36070663]]]]}, "properties": {"id": "8J6H9Q6J+8274", "height": 3.712500095367432, "hmax": 0.001, "ratio": 0.0, "vulnClass": "none"}}, {"type": "Feature", "geometry": {"type": "MultiPolygon", "coordinates": [[[[71.77982584, 34.36085971], [71.77982536, 34.36081887], [71.77963667, 34.36082039], [71.77963715, 34.36086124], [71.77982584, 34.36085971]]]]}, "properties": {"id": "8J6H9Q6H+8VQM", "height": 2.597059726715088, "hmax": 0.001, "ratio": 0.0, "vulnClass": "none"}}, {"type": "Feature", "geometry": {"type": "MultiPolygon", "coordinates": [[[[71.77939096, 34.36077259], [71.77939186, 34.36085257], [71.77964715, 34.3608506], [71.77964626, 34.36077063], [71.77939096, 34.36077259]]]]}, "properties": {"id": "8J6H9Q6H+8RCG", "height": 3.430205583572388, "hmax": 0.001, "ratio": 0.0, "vulnClass": "none"}}, {"type": "Feature", "geometry": {"type": "MultiPolygon", "coordinates": [[[[71.77924247, 34.36071402], [71.77915129, 34.36071506], [71.77915377, 34.36086488], [71.77924495, 34.36086384], [71.77924247, 34.36071402]]]]}, "properties": {"id": "8J6H9Q6H+8M8F", "height": 2.812179088592529, "hmax": 0.001, "ratio": 0.0, "vulnClass": "none"}}, {"type": "Feature", "geometry": {"type": "MultiPolygon", "coordinates": [[[[71.77995089, 34.35983464], [71.77986708, 34.35982953], [71.77985483, 34.35996781], [71.77993864, 34.35997292], [71.77995089, 34.35983464]]]]}, "properties": {"id": "8J6H9Q5H+XX65", "height": 2.449971914291382, "hmax": 0.001, "ratio": 0.0, "vulnClass": "none"}}, {"type": "Feature", "geometry": {"type": "MultiPolygon", "coordinates": [[[[71.77951747, 34.35985179], [71.77944202, 34.35986131], [71.77944825, 34.35989533], [71.77952371, 34.35988582], [71.77951747, 34.35985179]]]]}, "properties": {"id": "8J6H9Q5H+WQXV", "height": 2.695078372955322, "hmax": 0.002, "ratio": 0.001, "vulnClass": "none"}}, {"type": "Feature", "geometry": {"type": "MultiPolygon", "coordinates": [[[[71.77963384, 34.36022684], [71.77947503, 34.36022525], [71.77947431, 34.36027417], [71.77963313, 34.36027576], [71.77963384, 34.36022684]]]]}, "properties": {"id": "8J6H9Q6H+4R34", "height": 3.148943185806274, "hmax": 0.001, "ratio": 0.0, "vulnClass": "none"}}, {"type": "Feature", "geometry": {"type": "MultiPolygon", "coordinates": [[[[71.77961758, 34.36028319], [71.77949108, 34.360281], [71.77948897, 34.36036503], [71.77961547, 34.36036722], [71.77961758, 34.36028319]]]]}, "properties": {"id": "8J6H9Q6H+4RFW", "height": 2.577792167663574, "hmax": 0.001, "ratio": 0.0, "vulnClass": "none"}}, {"type": "Feature", "geometry": {"type": "MultiPolygon", "coordinates": [[[[71.77978977, 34.36023374], [71.77975773, 34.36023393], [71.77975809, 34.36027452], [71.77979013, 34.36027432], [71.77978977, 34.36023374]]]]}, "properties": {"id": "8J6H9Q6H+4W25", "height": 2.480493783950806, "hmax": 0.001, "ratio": 0.0, "vulnClass": "none"}}, {"type": "Feature", "geometry": {"type": "MultiPolygon", "coordinates": [[[[71.77977744, 34.36021609], [71.77977536, 34.36012917], [71.77971645, 34.36013015], [71.77971746, 34.36017219], [71.7796678, 34.36017301], [71.77966887, 34.36021788], [71.77977744, 34.36021609]]]]}, "properties": {"id": "8J6H9Q6H+3VH3", "height": 2.572544813156128, "hmax": 0.001, "ratio": 0.0, "vulnClass": "none"}}, {"type": "Feature", "geometry": {"type": "MultiPolygon", "coordinates": [[[[71.78005187, 34.36019006], [71.78004993, 34.36025886], [71.78028689, 34.36026345], [71.78028883, 34.36019466], [71.78005187, 34.36019006]]]]}, "properties": {"id": "8J6H9Q6J+33V3", "height": 2.664109230041504, "hmax": 0.001, "ratio": 0.0, "vulnClass": "none"}}, {"type": "Feature", "geometry": {"type": "MultiPolygon", "coordinates": [[[[71.78029187, 34.36008668], [71.78023868, 34.36008565], [71.78023563, 34.36019363], [71.78028883, 34.36019466], [71.78029187, 34.36008668]]]]}, "properties": {"id": "8J6H9Q6J+342M", "height": 2.692725419998169, "hmax": 0.001, "ratio": 0.0, "vulnClass": "none"}}, {"type": "Feature", "geometry": {"type": "MultiPolygon", "coordinates": [[[[71.7801157, 34.36002824], [71.78002142, 34.36001827], [71.78000334, 34.3601358], [71.78009763, 34.36014577], [71.7801157, 34.36002824]]]]}, "properties": {"id": "8J6H9Q6J+22M9", "height": 2.840556621551514, "hmax": 0.001, "ratio": 0.0, "vulnClass": "none"}}, {"type": "Feature", "geometry": {"type": "MultiPolygon", "coordinates": [[[[71.78003028, 34.35996061], [71.77995933, 34.3599531], [71.77995046, 34.36001076], [71.78002142, 34.36001827], [71.78003028, 34.35996061]]]]}, "properties": {"id": "8J6H9Q5H+XXXG", "height": 2.896209001541138, "hmax": 0.001, "ratio": 0.0, "vulnClass": "none"}}, {"type": "Feature", "geometry": {"type": "MultiPolygon", "coordinates": [[[[71.77994056, 34.35997115], [71.77985912, 34.35996986], [71.77985826, 34.36000702], [71.7799397, 34.36000831], [71.77994056, 34.35997115]]]]}, "properties": {"id": "8J6H9Q5H+XXRH", "height": 2.449971914291382, "hmax": 0.001, "ratio": 0.0, "vulnClass": "none"}}, {"type": "Feature", "geometry": {"type": "MultiPolygon", "coordinates": [[[[71.7801157, 34.36002824], [71.78013693, 34.35989021], [71.78008105, 34.3598843], [71.78007751, 34.3599073], [71.78003911, 34.35990324], [71.78002142, 34.36001827], [71.7801157, 34.36002824]]]]}, "properties": {"id": "8J6H9Q5J+X2P8", "height": 2.896209001541138, "hmax": 0.001, "ratio": 0.0, "vulnClass": "none"}}, {"type": "Feature", "geometry": {"type": "MultiPolygon", "coordinates": [[[[71.7803397, 34.3599865], [71.7802624, 34.359985], [71.7802595, 34.3600861], [71.7803369, 34.3600876], [71.7803397, 34.3599865]]]]}, "properties": {"id": "8J6H9Q6J+247G", "height": 2.692725419998169, "hmax": 0.001, "ratio": 0.0, "vulnClass": "none"}}, {"type": "Feature", "geometry": {"type": "MultiPolygon", "coordinates": [[[[71.7850168, 34.36143626], [71.78499088, 34.36120788], [71.78494893, 34.36121116], [71.78495379, 34.36125396], [71.78487367, 34.36126022], [71.78486881, 34.36121741], [71.78477022, 34.3612251], [71.78477953, 34.36130716], [71.7848229, 34.36130378], [71.7848288, 34.36135578], [71.78488403, 34.36135147], [71.78489473, 34.36144579], [71.7850168, 34.36143626]]]]}, "properties": {"id": "8J6H9Q6M+GXFR", "height": 2.775468111038208, "hmax": 0.002, "ratio": 0.001, "vulnClass": "none"}}, {"type": "Feature", "geometry": {"type": "MultiPolygon", "coordinates": [[[[71.78463678, 34.3611504], [71.7845523, 34.36115699], [71.78456188, 34.36124136], [71.78490054, 34.36121493], [71.78489005, 34.36112254], [71.78476975, 34.36113193], [71.78476772, 34.36111403], [71.78463384, 34.36112448], [71.78463678, 34.3611504]]]]}, "properties": {"id": "8J6H9Q6M+FVH3", "height": 3.118798732757568, "hmax": 0.004, "ratio": 0.001, "vulnClass": "none"}}, {"type": "Feature", "geometry": {"type": "MultiPolygon", "coordinates": [[[[71.7843596, 34.3611737], [71.7843588, 34.3612473], [71.7845524, 34.3612488], [71.7845532, 34.3611752], [71.7843596, 34.3611737]]]]}, "properties": {"id": "8J6H9Q6M+FQPG", "height": 3.073514699935913, "hmax": 0.004, "ratio": 0.001, "vulnClass": "none"}}, {"type": "Feature", "geometry": {"type": "MultiPolygon", "coordinates": [[[[71.78506533, 34.36328197], [71.78506081, 34.36325495], [71.78500879, 34.36326093], [71.78501331, 34.36328795], [71.78506533, 34.36328197]]]]}, "properties": {"id": "8J6H9Q7P+823R", "height": 2.668112516403198, "hmax": 0.065, "ratio": 0.024, "vulnClass": "none"}}, {"type": "Feature", "geometry": {"type": "MultiPolygon", "coordinates": [[[[71.78518207, 34.36326291], [71.78513191, 34.36328114], [71.78519137, 34.36339362], [71.78524152, 34.36337539], [71.78518207, 34.36326291]]]]}, "properties": {"id": "8J6H9Q7P+83M5", "height": 3.133746862411499, "hmax": 0.065, "ratio": 0.021, "vulnClass": "none"}}, {"type": "Feature", "geometry": {"type": "MultiPolygon", "coordinates": [[[[71.78523251, 34.36309906], [71.78514873, 34.36304778], [71.78512266, 34.36307707], [71.78520645, 34.36312835], [71.78523251, 34.36309906]]]]}, "properties": {"id": "8J6H9Q7P+63MG", "height": 3.025679588317871, "hmax": 0.039, "ratio": 0.013, "vulnClass": "none"}}, {"type": "Feature", "geometry": {"type": "MultiPolygon", "coordinates": [[[[71.78489807, 34.36296597], [71.78483669, 34.3629342], [71.78481449, 34.3629637], [71.78487587, 34.36299546], [71.78489807, 34.36296597]]]]}, "properties": {"id": "8J6H9Q7M+5WQF", "height": 3.070246934890747, "hmax": 0.001, "ratio": 0.0, "vulnClass": "none"}}, {"type": "Feature", "geometry": {"type": "MultiPolygon", "coordinates": [[[[71.78506471, 34.36221565], [71.78509832, 34.36214962], [71.78505713, 34.36213521], [71.78502353, 34.36220123], [71.78506471, 34.36221565]]]]}, "properties": {"id": "8J6H9Q6P+V2F5", "height": 2.521760702133179, "hmax": 0.001, "ratio": 0.0, "vulnClass": "none"}}, {"type": "Feature", "geometry": {"type": "MultiPolygon", "coordinates": [[[[71.78510268, 34.36222894], [71.78514807, 34.36213976], [71.7851101, 34.36212647], [71.78506471, 34.36221565], [71.78510268, 34.36222894]]]]}, "properties": {"id": "8J6H9Q6P+V2H3", "height": 2.49312686920166, "hmax": 0.001, "ratio": 0.0, "vulnClass": "none"}}, {"type": "Feature", "geometry": {"type": "MultiPolygon", "coordinates": [[[[71.78523881, 34.36212194], [71.78513152, 34.36208439], [71.7851101, 34.36212647], [71.78521739, 34.36216403], [71.78523881, 34.36212194]]]]}, "properties": {"id": "8J6H9Q6P+R3VW", "height": 2.788500308990479, "hmax": 0.001, "ratio": 0.0, "vulnClass": "none"}}, {"type": "Feature", "geometry": {"type": "MultiPolygon", "coordinates": [[[[71.78528989, 34.36205485], [71.78517443, 34.36201223], [71.78513549, 34.36208477], [71.78528581, 34.36214026], [71.78534242, 34.36203481], [71.78530756, 34.36202194], [71.78528989, 34.36205485]]]]}, "properties": {"id": "8J6H9Q6P+R3HW", "height": 2.581280708312988, "hmax": 0.001, "ratio": 0.0, "vulnClass": "none"}}, {"type": "Feature", "geometry": {"type": "MultiPolygon", "coordinates": [[[[71.78513549, 34.36208477], [71.78504873, 34.36205273], [71.78501819, 34.36210962], [71.78510495, 34.36214166], [71.78513549, 34.36208477]]]]}, "properties": {"id": "8J6H9Q6P+R2PV", "height": 2.669442892074585, "hmax": 0.001, "ratio": 0.0, "vulnClass": "none"}}, {"type": "Feature", "geometry": {"type": "MultiPolygon", "coordinates": [[[[71.7850073, 34.36213728], [71.78486674, 34.36205259], [71.78481368, 34.36211315], [71.78495423, 34.36219785], [71.7850073, 34.36213728]]]]}, "properties": {"id": "8J6H9Q6M+VX32", "height": 2.541459560394287, "hmax": 0.001, "ratio": 0.0, "vulnClass": "none"}}, {"type": "Feature", "geometry": {"type": "MultiPolygon", "coordinates": [[[[71.7844383, 34.3613338], [71.78437, 34.3613391], [71.7843935, 34.3615466], [71.7844618, 34.3615413], [71.7844383, 34.3613338]]]]}, "properties": {"id": "8J6H9Q6M+HQFM", "height": 2.481485843658447, "hmax": 0.001, "ratio": 0.0, "vulnClass": "none"}}, {"type": "Feature", "geometry": {"type": "MultiPolygon", "coordinates": [[[[71.78633047, 34.36209791], [71.7862663, 34.36210253], [71.78627334, 34.36216974], [71.7863375, 34.36216512], [71.78633047, 34.36209791]]]]}, "properties": {"id": "8J6H9Q6P+VG38", "height": 3.173484325408936, "hmax": 0.001, "ratio": 0.0, "vulnClass": "none"}}, {"type": "Feature", "geometry": {"type": "MultiPolygon", "coordinates": [[[[71.7861469, 34.36227688], [71.78611024, 34.36227684], [71.78611001, 34.36242065], [71.78640358, 34.36242097], [71.78640373, 34.36232563], [71.78614683, 34.36232535], [71.7861469, 34.36227688]]]]}, "properties": {"id": "8J6H9Q6P+WFXQ", "height": 2.44399881362915, "hmax": 0.104, "ratio": 0.043, "vulnClass": "none"}}, {"type": "Feature", "geometry": {"type": "MultiPolygon", "coordinates": [[[[71.78610655, 34.36200483], [71.78608546, 34.3619011], [71.78595806, 34.36191891], [71.78596862, 34.36197085], [71.78590146, 34.36198024], [71.78591199, 34.36203203], [71.78610655, 34.36200483]]]]}, "properties": {"id": "8J6H9Q6P+QCJV", "height": 2.604764223098755, "hmax": 0.001, "ratio": 0.0, "vulnClass": "none"}}, {"type": "Feature", "geometry": {"type": "MultiPolygon", "coordinates": [[[[71.78536553, 34.36218109], [71.7853316, 34.36224295], [71.78546673, 34.36229391], [71.78547925, 34.36227108], [71.78549779, 34.36227807], [71.78551919, 34.36223904], [71.78536553, 34.36218109]]]]}, "properties": {"id": "8J6H9Q6P+V5VG", "height": 2.66992712020874, "hmax": 0.0, "ratio": 0.0, "vulnClass": "none"}}, {"type": "Feature", "geometry": {"type": "MultiPolygon", "coordinates": [[[[71.78544538, 34.36231313], [71.78538106, 34.36230421], [71.785375, 34.36233427], [71.78543932, 34.36234319], [71.78544538, 34.36231313]]]]}, "properties": {"id": "8J6H9Q6P+W5FR", "height": 2.787534475326538, "hmax": 0.0, "ratio": 0.0, "vulnClass": "none"}}, {"type": "Feature", "geometry": {"type": "MultiPolygon", "coordinates": [[[[71.78531425, 34.36224523], [71.78527144, 34.3622372], [71.78525988, 34.36227957], [71.78530269, 34.3622876], [71.78531425, 34.36224523]]]]}, "properties": {"id": "8J6H9Q6P+W43C", "height": 2.742417812347412, "hmax": 0.0, "ratio": 0.0, "vulnClass": "none"}}, {"type": "Feature", "geometry": {"type": "MultiPolygon", "coordinates": [[[[71.7854098, 34.36240445], [71.78524354, 34.36234025], [71.7852031, 34.36241226], [71.78536937, 34.36247646], [71.7854098, 34.36240445]]]]}, "properties": {"id": "8J6H9Q6P+X479", "height": 2.95418643951416, "hmax": 0.0, "ratio": 0.0, "vulnClass": "none"}}, {"type": "Feature", "geometry": {"type": "MultiPolygon", "coordinates": [[[[71.78549654, 34.3624062], [71.78541417, 34.36238753], [71.78538251, 34.36248357], [71.78556798, 34.36252561], [71.78559078, 34.36245643], [71.78548769, 34.36243306], [71.78549654, 34.3624062]]]]}, "properties": {"id": "8J6H9Q6P+X5QF", "height": 2.882706642150879, "hmax": 0.0, "ratio": 0.0, "vulnClass": "none"}}, {"type": "Feature", "geometry": {"type": "MultiPolygon", "coordinates": [[[[71.7857122, 34.36239758], [71.78566811, 34.36238758], [71.78561881, 34.36253714], [71.7856629, 34.36254713], [71.7857122, 34.36239758]]]]}, "properties": {"id": "8J6H9Q6P+X7MM", "height": 2.471150875091553, "hmax": 0.0, "ratio": 0.0, "vulnClass": "none"}}, {"type": "Feature", "geometry": {"type": "MultiPolygon", "coordinates": [[[[71.78566811, 34.36238758], [71.78561728, 34.36237606], [71.78560631, 34.36240933], [71.78557555, 34.36240235], [71.78556002, 34.36244946], [71.78559078, 34.36245643], [71.78556798, 34.36252561], [71.78561881, 34.36253714], [71.78566811, 34.36238758]]]]}, "properties": {"id": "8J6H9Q6P+X6Q4", "height": 2.62265944480896, "hmax": 0.0, "ratio": 0.0, "vulnClass": "none"}}, {"type": "Feature", "geometry": {"type": "MultiPolygon", "coordinates": [[[[71.78573811, 34.36282096], [71.7856998, 34.36276809], [71.78563075, 34.3628025], [71.78566907, 34.36285537], [71.78573811, 34.36282096]]]]}, "properties": {"id": "8J6H9Q7P+47FH", "height": 3.870112419128418, "hmax": 0.0, "ratio": 0.0, "vulnClass": "none"}}, {"type": "Feature", "geometry": {"type": "MultiPolygon", "coordinates": [[[[71.78567939, 34.3626525], [71.78557188, 34.36264803], [71.78556951, 34.36268741], [71.78567702, 34.36269188], [71.78567939, 34.3626525]]]]}, "properties": {"id": "8J6H9Q7P+369Q", "height": 2.526860475540161, "hmax": 0.0, "ratio": 0.0, "vulnClass": "none"}}, {"type": "Feature", "geometry": {"type": "MultiPolygon", "coordinates": [[[[71.78557188, 34.36264803], [71.78535649, 34.36263908], [71.78535223, 34.3627097], [71.78556762, 34.36271864], [71.78557188, 34.36264803]]]]}, "properties": {"id": "8J6H9Q7P+35G5", "height": 2.553591251373291, "hmax": 0.0, "ratio": 0.0, "vulnClass": "none"}}, {"type": "Feature", "geometry": {"type": "MultiPolygon", "coordinates": [[[[71.78524201, 34.36293559], [71.78520318, 34.36288865], [71.7851567, 34.36291509], [71.78519553, 34.36296203], [71.78524201, 34.36293559]]]]}, "properties": {"id": "8J6H9Q7P+53G3", "height": 2.618233919143677, "hmax": 0.0, "ratio": 0.0, "vulnClass": "none"}}, {"type": "Feature", "geometry": {"type": "MultiPolygon", "coordinates": [[[[71.7854449, 34.36283523], [71.78535417, 34.36287723], [71.78537545, 34.36290884], [71.78540692, 34.36289427], [71.78544621, 34.36295263], [71.78550546, 34.36292521], [71.7854449, 34.36283523]]]]}, "properties": {"id": "8J6H9Q7P+553Q", "height": 2.838142871856689, "hmax": 0.0, "ratio": 0.0, "vulnClass": "none"}}, {"type": "Feature", "geometry": {"type": "MultiPolygon", "coordinates": [[[[71.78566907, 34.36285537], [71.78563075, 34.3628025], [71.78559539, 34.36282013], [71.78557878, 34.36279722], [71.78546075, 34.36285605], [71.78551567, 34.36293182], [71.78566907, 34.36285537]]]]}, "properties": {"id": "8J6H9Q7P+46V9", "height": 3.550193786621094, "hmax": 0.0, "ratio": 0.0, "vulnClass": "none"}}, {"type": "Feature", "geometry": {"type": "MultiPolygon", "coordinates": [[[[71.78551951, 34.3629649], [71.78550658, 34.3629368], [71.78544975, 34.36295479], [71.78546268, 34.36298289], [71.78551951, 34.3629649]]]]}, "properties": {"id": "8J6H9Q7P+55Q8", "height": 3.311963081359863, "hmax": 0.0, "ratio": 0.0, "vulnClass": "none"}}, {"type": "Feature", "geometry": {"type": "MultiPolygon", "coordinates": [[[[71.78567002, 34.36297795], [71.78565012, 34.36295009], [71.78552602, 34.36301107], [71.78554592, 34.36303892], [71.78567002, 34.36297795]]]]}, "properties": {"id": "8J6H9Q7P+56XJ", "height": 3.162860631942749, "hmax": 0.0, "ratio": 0.0, "vulnClass": "none"}}, {"type": "Feature", "geometry": {"type": "MultiPolygon", "coordinates": [[[[71.78531166, 34.36301978], [71.78524201, 34.36293559], [71.78519553, 34.36296203], [71.78526519, 34.36304623], [71.78531166, 34.36301978]]]]}, "properties": {"id": "8J6H9Q7P+54RJ", "height": 2.53413200378418, "hmax": 0.0, "ratio": 0.0, "vulnClass": "none"}}, {"type": "Feature", "geometry": {"type": "MultiPolygon", "coordinates": [[[[71.78531166, 34.36301978], [71.78526519, 34.36304623], [71.78530889, 34.36309905], [71.78535536, 34.3630726], [71.78531166, 34.36301978]]]]}, "properties": {"id": "8J6H9Q7P+64F9", "height": 2.53413200378418, "hmax": 0.004, "ratio": 0.002, "vulnClass": "none"}}, {"type": "Feature", "geometry": {"type": "MultiPolygon", "coordinates": [[[[71.78523926, 34.36314482], [71.78527506, 34.36310949], [71.78524731, 34.36309015], [71.78521151, 34.36312548], [71.78523926, 34.36314482]]]]}, "properties": {"id": "8J6H9Q7P+63XQ", "height": 3.688292980194092, "hmax": 0.065, "ratio": 0.018, "vulnClass": "none"}}, {"type": "Feature", "geometry": {"type": "MultiPolygon", "coordinates": [[[[71.78532563, 34.36315054], [71.78526546, 34.36313342], [71.78524923, 34.36317264], [71.7853094, 34.36318977], [71.78532563, 34.36315054]]]]}, "properties": {"id": "8J6H9Q7P+747C", "height": 4.473108291625977, "hmax": 0.065, "ratio": 0.014, "vulnClass": "none"}}, {"type": "Feature", "geometry": {"type": "MultiPolygon", "coordinates": [[[[71.78524748, 34.36328795], [71.78535392, 34.36323508], [71.78533385, 34.36320729], [71.78522741, 34.36326017], [71.78524748, 34.36328795]]]]}, "properties": {"id": "8J6H9Q7P+74VV", "height": 4.894875526428223, "hmax": 0.065, "ratio": 0.013, "vulnClass": "none"}}, {"type": "Feature", "geometry": {"type": "MultiPolygon", "coordinates": [[[[71.78540982, 34.36322528], [71.78536618, 34.36318422], [71.78532625, 34.36321341], [71.7853699, 34.36325447], [71.78540982, 34.36322528]]]]}, "properties": {"id": "8J6H9Q7P+74QQ", "height": 3.717655181884766, "hmax": 0.065, "ratio": 0.018, "vulnClass": "none"}}, {"type": "Feature", "geometry": {"type": "MultiPolygon", "coordinates": [[[[71.78553127, 34.36320264], [71.78548832, 34.36320948], [71.78550081, 34.36326337], [71.78554376, 34.36325653], [71.78553127, 34.36320264]]]]}, "properties": {"id": "8J6H9Q7P+76R8", "height": 4.63764762878418, "hmax": 0.065, "ratio": 0.014, "vulnClass": "none"}}, {"type": "Feature", "geometry": {"type": "MultiPolygon", "coordinates": [[[[71.78571937, 34.36317553], [71.78568982, 34.36313071], [71.78563719, 34.36315457], [71.78566674, 34.36319939], [71.78571937, 34.36317553]]]]}, "properties": {"id": "8J6H9Q7P+777P", "height": 2.903200626373291, "hmax": 0.065, "ratio": 0.022, "vulnClass": "none"}}, {"type": "Feature", "geometry": {"type": "MultiPolygon", "coordinates": [[[[71.7854736, 34.36312225], [71.78551075, 34.36305386], [71.78547596, 34.36304086], [71.78543881, 34.36310926], [71.7854736, 34.36312225]]]]}, "properties": {"id": "8J6H9Q7P+65Q6", "height": 2.996599435806274, "hmax": 0.024, "ratio": 0.008, "vulnClass": "none"}}, {"type": "Feature", "geometry": {"type": "MultiPolygon", "coordinates": [[[[71.78575868, 34.36326007], [71.78588899, 34.3631961], [71.7858721, 34.36317242], [71.78574178, 34.3632364], [71.78575868, 34.36326007]]]]}, "properties": {"id": "8J6H9Q7P+78PJ", "height": 11.32646369934082, "hmax": 0.065, "ratio": 0.006, "vulnClass": "none"}}, {"type": "Feature", "geometry": {"type": "MultiPolygon", "coordinates": [[[[71.78568514, 34.36287371], [71.78564926, 34.36289192], [71.78568988, 34.36294697], [71.78572576, 34.36292876], [71.78568514, 34.36287371]]]]}, "properties": {"id": "8J6H9Q7P+578C", "height": 4.070834159851074, "hmax": 0.0, "ratio": 0.0, "vulnClass": "none"}}, {"type": "Feature", "geometry": {"type": "MultiPolygon", "coordinates": [[[[71.78583363, 34.36290465], [71.78578254, 34.36282654], [71.78568853, 34.36286882], [71.78573962, 34.36294693], [71.78583363, 34.36290465]]]]}, "properties": {"id": "8J6H9Q7P+582F", "height": 4.070834159851074, "hmax": 0.0, "ratio": 0.0, "vulnClass": "none"}}, {"type": "Feature", "geometry": {"type": "MultiPolygon", "coordinates": [[[[71.7862719, 34.36283218], [71.78621417, 34.36283292], [71.78621489, 34.36287159], [71.78642934, 34.36286883], [71.78642811, 34.36280344], [71.7862714, 34.36280546], [71.7862719, 34.36283218]]]]}, "properties": {"id": "8J6H9Q7P+4GPG", "height": 2.711485624313354, "hmax": 0.104, "ratio": 0.038, "vulnClass": "none"}}, {"type": "Feature", "geometry": {"type": "MultiPolygon", "coordinates": [[[[71.78631552, 34.36295482], [71.78626445, 34.36296227], [71.78627121, 34.36299409], [71.78632228, 34.36298663], [71.78631552, 34.36295482]]]]}, "properties": {"id": "8J6H9Q7P+5GMV", "height": 2.717545986175537, "hmax": 0.104, "ratio": 0.038, "vulnClass": "none"}}, {"type": "Feature", "geometry": {"type": "MultiPolygon", "coordinates": [[[[71.78683754, 34.36324914], [71.78677185, 34.36324605], [71.78676887, 34.36328959], [71.78683455, 34.36329268], [71.78683754, 34.36324914]]]]}, "properties": {"id": "8J6H9Q7P+8P3P", "height": 3.750343322753906, "hmax": 0.083, "ratio": 0.022, "vulnClass": "none"}}, {"type": "Feature", "geometry": {"type": "MultiPolygon", "coordinates": [[[[71.78684331, 34.36316483], [71.78677762, 34.36316174], [71.78677518, 34.36319737], [71.78684087, 34.36320047], [71.78684331, 34.36316483]]]]}, "properties": {"id": "8J6H9Q7P+7PF9", "height": 3.185252666473389, "hmax": 0.083, "ratio": 0.026, "vulnClass": "none"}}, {"type": "Feature", "geometry": {"type": "MultiPolygon", "coordinates": [[[[71.78663632, 34.36272665], [71.78658167, 34.36271019], [71.78660349, 34.36274759], [71.7866244, 34.36275388], [71.78663632, 34.36272665]]]]}, "properties": {"id": "8J6H9Q7P+3JX8", "height": 2.537988662719727, "hmax": 0.104, "ratio": 0.041, "vulnClass": "none"}}, {"type": "Feature", "geometry": {"type": "MultiPolygon", "coordinates": [[[[71.78637974, 34.36246339], [71.78634173, 34.36246425], [71.78634258, 34.36249013], [71.7863806, 34.36248926], [71.78637974, 34.36246339]]]]}, "properties": {"id": "8J6H9Q6P+XGX4", "height": 2.558929443359375, "hmax": 0.104, "ratio": 0.041, "vulnClass": "none"}}, {"type": "Feature", "geometry": {"type": "MultiPolygon", "coordinates": [[[[71.78790548, 34.36313928], [71.78786148, 34.36307803], [71.78777326, 34.36312161], [71.78781726, 34.36318286], [71.78790548, 34.36313928]]]]}, "properties": {"id": "8J6H9Q7Q+7449", "height": 3.01537036895752, "hmax": 0.186, "ratio": 0.062, "vulnClass": "low"}}, {"type": "Feature", "geometry": {"type": "MultiPolygon", "coordinates": [[[[71.78803282, 34.36326108], [71.78800608, 34.36323007], [71.78796438, 34.3632548], [71.78799113, 34.36328581], [71.78803282, 34.36326108]]]]}, "properties": {"id": "8J6H9Q7Q+8559", "height": 3.044116735458374, "hmax": 0.113, "ratio": 0.037, "vulnClass": "none"}}, {"type": "Feature", "geometry": {"type": "MultiPolygon", "coordinates": [[[[71.78766637, 34.36287766], [71.78760169, 34.36288888], [71.7876161, 34.362946], [71.78768077, 34.36293479], [71.78766637, 34.36287766]]]]}, "properties": {"id": "8J6H9Q7Q+536G", "height": 2.773478507995605, "hmax": 0.2, "ratio": 0.072, "vulnClass": "low"}}, {"type": "Feature", "geometry": {"type": "MultiPolygon", "coordinates": [[[[71.78883711, 34.36154501], [71.78886583, 34.36148284], [71.78881375, 34.36146629], [71.78878503, 34.36152846], [71.78883711, 34.36154501]]]]}, "properties": {"id": "8J6H9Q6Q+JG47", "height": 2.54681658744812, "hmax": 0.091, "ratio": 0.036, "vulnClass": "none"}}, {"type": "Feature", "geometry": {"type": "MultiPolygon", "coordinates": [[[[71.78827678, 34.36039423], [71.78823666, 34.36040651], [71.78830179, 34.36055291], [71.78834191, 34.36054063], [71.78827678, 34.36039423]]]]}, "properties": {"id": "8J6H9Q6Q+58MV", "height": 2.601041316986084, "hmax": 0.173, "ratio": 0.067, "vulnClass": "low"}}, {"type": "Feature", "geometry": {"type": "MultiPolygon", "coordinates": [[[[71.78823666, 34.36040651], [71.78820201, 34.36041711], [71.78822861, 34.36047692], [71.78826327, 34.36046632], [71.78823666, 34.36040651]]]]}, "properties": {"id": "8J6H9Q6Q+57HM", "height": 2.902492046356201, "hmax": 0.166, "ratio": 0.057, "vulnClass": "low"}}, {"type": "Feature", "geometry": {"type": "MultiPolygon", "coordinates": [[[[71.78836332, 34.36058876], [71.78834191, 34.36054063], [71.7882407, 34.3605716], [71.78826211, 34.36061972], [71.78836332, 34.36058876]]]]}, "properties": {"id": "8J6H9Q6Q+68M8", "height": 2.808295011520386, "hmax": 0.176, "ratio": 0.063, "vulnClass": "low"}}, {"type": "Feature", "geometry": {"type": "MultiPolygon", "coordinates": [[[[71.78832733, 34.36068429], [71.78828803, 34.36063694], [71.7882124, 34.36068011], [71.7882517, 34.36072746], [71.78832733, 34.36068429]]]]}, "properties": {"id": "8J6H9Q6Q+78C8", "height": 2.956224203109741, "hmax": 0.176, "ratio": 0.06, "vulnClass": "low"}}, {"type": "Feature", "geometry": {"type": "MultiPolygon", "coordinates": [[[[71.78856524, 34.36068425], [71.78860991, 34.36064534], [71.78857308, 34.36063594], [71.78854133, 34.36065803], [71.78853451, 34.3606764], [71.78856524, 34.36068425]]]]}, "properties": {"id": "8J6H9Q6Q+7C86", "height": 4.46741771697998, "hmax": 0.176, "ratio": 0.039, "vulnClass": "none"}}, {"type": "Feature", "geometry": {"type": "MultiPolygon", "coordinates": [[[[71.78850003, 34.36071225], [71.78847902, 34.36066339], [71.78842105, 34.36068054], [71.78844206, 34.36072939], [71.78850003, 34.36071225]]]]}, "properties": {"id": "8J6H9Q6Q+79GW", "height": 2.533823251724243, "hmax": 0.176, "ratio": 0.07, "vulnClass": "low"}}, {"type": "Feature", "geometry": {"type": "MultiPolygon", "coordinates": [[[[71.78830775, 34.36078598], [71.7882786, 34.3607357], [71.78818749, 34.36077203], [71.78821664, 34.36082231], [71.78830775, 34.36078598]]]]}, "properties": {"id": "8J6H9Q6Q+8795", "height": 2.585892200469971, "hmax": 0.175, "ratio": 0.068, "vulnClass": "low"}}, {"type": "Feature", "geometry": {"type": "MultiPolygon", "coordinates": [[[[71.78634054, 34.36045785], [71.78627782, 34.36045664], [71.78627479, 34.36056412], [71.78633751, 34.36056534], [71.78634054, 34.36045785]]]]}, "properties": {"id": "8J6H9Q6P+6G3H", "height": 3.44343638420105, "hmax": 0.002, "ratio": 0.001, "vulnClass": "none"}}, {"type": "Feature", "geometry": {"type": "MultiPolygon", "coordinates": [[[[71.78630544, 34.36039324], [71.78625832, 34.36039357], [71.78625882, 34.36044201], [71.78630594, 34.36044168], [71.78630544, 34.36039324]]]]}, "properties": {"id": "8J6H9Q6P+5G7J", "height": 2.510624408721924, "hmax": 0.002, "ratio": 0.001, "vulnClass": "none"}}, {"type": "Feature", "geometry": {"type": "MultiPolygon", "coordinates": [[[[71.78635878, 34.36060211], [71.78634486, 34.3605541], [71.78629497, 34.36056404], [71.78630889, 34.36061206], [71.78635878, 34.36060211]]]]}, "properties": {"id": "8J6H9Q6P+6GP7", "height": 2.556310892105103, "hmax": 0.002, "ratio": 0.001, "vulnClass": "none"}}, {"type": "Feature", "geometry": {"type": "MultiPolygon", "coordinates": [[[[71.78635878, 34.36060211], [71.7862765, 34.36061852], [71.78628961, 34.36066374], [71.7863719, 34.36064734], [71.78635878, 34.36060211]]]]}, "properties": {"id": "8J6H9Q6P+7G47", "height": 2.940973281860352, "hmax": 0.002, "ratio": 0.001, "vulnClass": "none"}}, {"type": "Feature", "geometry": {"type": "MultiPolygon", "coordinates": [[[[71.79085603, 34.36717981], [71.79070701, 34.36712037], [71.79068323, 34.36716136], [71.79083225, 34.36722081], [71.79085603, 34.36717981]]]]}, "properties": {"id": "8J6H9Q8R+V86W", "height": 2.89443826675415, "hmax": 0.002, "ratio": 0.001, "vulnClass": "none"}}, {"type": "Feature", "geometry": {"type": "MultiPolygon", "coordinates": [[[[71.78840376, 34.36719825], [71.7883844, 34.36707932], [71.78811857, 34.36710908], [71.78813077, 34.36718398], [71.78830786, 34.36716415], [71.78831503, 34.36720819], [71.78840376, 34.36719825]]]]}, "properties": {"id": "8J6H9Q8Q+V82H", "height": 2.76317310333252, "hmax": 0.196, "ratio": 0.071, "vulnClass": "low"}}, {"type": "Feature", "geometry": {"type": "MultiPolygon", "coordinates": [[[[71.78708888, 34.365736], [71.78710432, 34.36565654], [71.78707214, 34.36565224], [71.7870567, 34.3657317], [71.78708888, 34.365736]]]]}, "properties": {"id": "8J6H9Q8P+7RGP", "height": 2.453249216079712, "hmax": 0.082, "ratio": 0.033, "vulnClass": "none"}}, {"type": "Feature", "geometry": {"type": "MultiPolygon", "coordinates": [[[[71.78742002, 34.3646354], [71.78736598, 34.36463609], [71.78736828, 34.36475981], [71.78742233, 34.36475911], [71.78742002, 34.3646354]]]]}, "properties": {"id": "8J6H9Q7P+VXCW", "height": 4.344961643218994, "hmax": 0.045, "ratio": 0.01, "vulnClass": "none"}}, {"type": "Feature", "geometry": {"type": "MultiPolygon", "coordinates": [[[[71.78837539, 34.3645071], [71.78808831, 34.36447619], [71.78808085, 34.36452388], [71.78836792, 34.36455478], [71.78837539, 34.3645071]]]]}, "properties": {"id": "8J6H9Q7Q+R75M", "height": 2.844347476959229, "hmax": 0.082, "ratio": 0.029, "vulnClass": "none"}}, {"type": "Feature", "geometry": {"type": "MultiPolygon", "coordinates": [[[[71.7881599, 34.36453239], [71.78811819, 34.3645279], [71.78811167, 34.36456955], [71.78815338, 34.36457404], [71.7881599, 34.36453239]]]]}, "properties": {"id": "8J6H9Q7Q+R7C3", "height": 2.704249143600464, "hmax": 0.082, "ratio": 0.03, "vulnClass": "none"}}, {"type": "Feature", "geometry": {"type": "MultiPolygon", "coordinates": [[[[71.78880561, 34.36421741], [71.78879205, 34.36416404], [71.78865048, 34.36418877], [71.78866404, 34.36424215], [71.78880561, 34.36421741]]]]}, "properties": {"id": "8J6H9Q7Q+MFQ3", "height": 2.557451009750366, "hmax": 0.082, "ratio": 0.032, "vulnClass": "none"}}, {"type": "Feature", "geometry": {"type": "MultiPolygon", "coordinates": [[[[71.7882636, 34.36424044], [71.78821021, 34.36424444], [71.7882136, 34.36427553], [71.78826699, 34.36427153], [71.7882636, 34.36424044]]]]}, "properties": {"id": "8J6H9Q7Q+P758", "height": 2.53632378578186, "hmax": 0.082, "ratio": 0.032, "vulnClass": "none"}}, {"type": "Feature", "geometry": {"type": "MultiPolygon", "coordinates": [[[[71.7882144, 34.36415818], [71.78821578, 34.36410922], [71.788146, 34.36410786], [71.78814462, 34.36415683], [71.7882144, 34.36415818]]]]}, "properties": {"id": "8J6H9Q7Q+M739", "height": 3.056145429611206, "hmax": 0.082, "ratio": 0.027, "vulnClass": "none"}}, {"type": "Feature", "geometry": {"type": "MultiPolygon", "coordinates": [[[[71.78818754, 34.36407936], [71.78814896, 34.36407963], [71.78814929, 34.36411347], [71.78818787, 34.36411321], [71.78818754, 34.36407936]]]]}, "properties": {"id": "8J6H9Q7Q+J7MV", "height": 2.95095157623291, "hmax": 0.082, "ratio": 0.028, "vulnClass": "none"}}, {"type": "Feature", "geometry": {"type": "MultiPolygon", "coordinates": [[[[71.78826326, 34.36407885], [71.78818754, 34.36407936], [71.78818787, 34.36411321], [71.78826359, 34.3641127], [71.78826326, 34.36407885]]]]}, "properties": {"id": "8J6H9Q7Q+J7QR", "height": 2.658011436462402, "hmax": 0.082, "ratio": 0.031, "vulnClass": "none"}}, {"type": "Feature", "geometry": {"type": "MultiPolygon", "coordinates": [[[[71.78820911, 34.36402629], [71.78816702, 34.36402669], [71.78816735, 34.36405049], [71.78820944, 34.36405009], [71.78820911, 34.36402629]]]]}, "properties": {"id": "8J6H9Q7Q+J78C", "height": 2.601333141326904, "hmax": 0.031, "ratio": 0.012, "vulnClass": "none"}}, {"type": "Feature", "geometry": {"type": "MultiPolygon", "coordinates": [[[[71.78841285, 34.36353555], [71.78839018, 34.3634838], [71.78834856, 34.36349633], [71.78837123, 34.36354809], [71.78841285, 34.36353555]]]]}, "properties": {"id": "8J6H9Q7Q+C92J", "height": 4.641239643096924, "hmax": 0.031, "ratio": 0.007, "vulnClass": "none"}}, {"type": "Feature", "geometry": {"type": "MultiPolygon", "coordinates": [[[[71.78827479, 34.36334523], [71.78826656, 34.36331583], [71.78821081, 34.36332657], [71.78821904, 34.36335597], [71.78827479, 34.36334523]]]]}, "properties": {"id": "8J6H9Q7Q+87QH", "height": 3.338856935501099, "hmax": 0.031, "ratio": 0.009, "vulnClass": "none"}}, {"type": "Feature", "geometry": {"type": "MultiPolygon", "coordinates": [[[[71.78819393, 34.36352043], [71.78817287, 34.36345651], [71.7881156, 34.36346949], [71.78813666, 34.3635334], [71.78819393, 34.36352043]]]]}, "properties": {"id": "8J6H9Q7Q+97RQ", "height": 3.855319499969482, "hmax": 0.031, "ratio": 0.008, "vulnClass": "none"}}, {"type": "Feature", "geometry": {"type": "MultiPolygon", "coordinates": [[[[71.78834944, 34.36349838], [71.78832877, 34.3634363], [71.78825013, 34.36345429], [71.7882708, 34.36351638], [71.78834944, 34.36349838]]]]}, "properties": {"id": "8J6H9Q7Q+98V4", "height": 5.208461761474609, "hmax": 0.031, "ratio": 0.006, "vulnClass": "none"}}, {"type": "Feature", "geometry": {"type": "MultiPolygon", "coordinates": [[[[71.78820443, 34.36354633], [71.78819524, 34.36351555], [71.78814911, 34.36352501], [71.78815787, 34.36355589], [71.78820443, 34.36354633]]]]}, "properties": {"id": "8J6H9Q7Q+C77G", "height": 3.537260770797729, "hmax": 0.031, "ratio": 0.009, "vulnClass": "none"}}, {"type": "Feature", "geometry": {"type": "MultiPolygon", "coordinates": [[[[71.78837554, 34.36358895], [71.78827783, 34.36358574], [71.78827404, 34.36366525], [71.78837174, 34.36366846], [71.78837554, 34.36358895]]]]}, "properties": {"id": "8J6H9Q7Q+F843", "height": 3.837267160415649, "hmax": 0.031, "ratio": 0.008, "vulnClass": "none"}}, {"type": "Feature", "geometry": {"type": "MultiPolygon", "coordinates": [[[[71.78844337, 34.36359817], [71.78843095, 34.36356083], [71.78837452, 34.36357374], [71.78838694, 34.36361108], [71.78844337, 34.36359817]]]]}, "properties": {"id": "8J6H9Q7Q+C9MC", "height": 3.649101495742798, "hmax": 0.031, "ratio": 0.009, "vulnClass": "none"}}, {"type": "Feature", "geometry": {"type": "MultiPolygon", "coordinates": [[[[71.78846846, 34.36359242], [71.78842379, 34.36360265], [71.78843901, 34.36364837], [71.78848368, 34.36363815], [71.78846846, 34.36359242]]]]}, "properties": {"id": "8J6H9Q7Q+C9WW", "height": 3.097891569137573, "hmax": 0.031, "ratio": 0.01, "vulnClass": "none"}}, {"type": "Feature", "geometry": {"type": "MultiPolygon", "coordinates": [[[[71.78848136, 34.36371232], [71.78845859, 34.36364389], [71.78837654, 34.36366267], [71.78839931, 34.3637311], [71.78848136, 34.36371232]]]]}, "properties": {"id": "8J6H9Q7Q+F9FG", "height": 2.726519346237183, "hmax": 0.031, "ratio": 0.011, "vulnClass": "none"}}, {"type": "Feature", "geometry": {"type": "MultiPolygon", "coordinates": [[[[71.78833766, 34.36373746], [71.7881013, 34.36374698], [71.78810352, 34.36378487], [71.78833988, 34.36377535], [71.78833766, 34.36373746]]]]}, "properties": {"id": "8J6H9Q7Q+G75C", "height": 4.087911605834961, "hmax": 0.031, "ratio": 0.008, "vulnClass": "none"}}, {"type": "Feature", "geometry": {"type": "MultiPolygon", "coordinates": [[[[71.78811027, 34.36356709], [71.7880764, 34.36356749], [71.78807711, 34.36360986], [71.78811098, 34.36360947], [71.78811027, 34.36356709]]]]}, "properties": {"id": "8J6H9Q7Q+C6PH", "height": 5.893525123596191, "hmax": 0.057, "ratio": 0.01, "vulnClass": "none"}}, {"type": "Feature", "geometry": {"type": "MultiPolygon", "coordinates": [[[[71.78811296, 34.36393792], [71.7880551, 34.36393628], [71.78805374, 34.36396926], [71.78811159, 34.3639709], [71.78811296, 34.36393792]]]]}, "properties": {"id": "8J6H9Q7Q+H6P4", "height": 2.691275596618652, "hmax": 0.058, "ratio": 0.022, "vulnClass": "none"}}, {"type": "Feature", "geometry": {"type": "MultiPolygon", "coordinates": [[[[71.78818876, 34.3639824], [71.78803984, 34.36398032], [71.78803909, 34.3640173], [71.78818801, 34.36401937], [71.78818876, 34.3639824]]]]}, "properties": {"id": "8J6H9Q7Q+H6XW", "height": 3.211954116821289, "hmax": 0.049, "ratio": 0.015, "vulnClass": "none"}}, {"type": "Feature", "geometry": {"type": "MultiPolygon", "coordinates": [[[[71.78810814, 34.3640799], [71.78806218, 34.36408022], [71.78806251, 34.36411406], [71.78810847, 34.36411375], [71.78810814, 34.3640799]]]]}, "properties": {"id": "8J6H9Q7Q+J6PW", "height": 3.115260601043701, "hmax": 0.077, "ratio": 0.025, "vulnClass": "none"}}, {"type": "Feature", "geometry": {"type": "MultiPolygon", "coordinates": [[[[71.78814929, 34.36411347], [71.78806251, 34.36411406], [71.78806296, 34.36415916], [71.78814974, 34.36415857], [71.78814929, 34.36411347]]]]}, "properties": {"id": "8J6H9Q7Q+M65F", "height": 3.153539419174194, "hmax": 0.08, "ratio": 0.025, "vulnClass": "none"}}, {"type": "Feature", "geometry": {"type": "MultiPolygon", "coordinates": [[[[71.78812177, 34.36417303], [71.78806768, 34.36417322], [71.78806793, 34.36422364], [71.78809298, 34.36422355], [71.78809311, 34.3642496], [71.78812216, 34.3642495], [71.78812177, 34.36417303]]]]}, "properties": {"id": "8J6H9Q7Q+M6Q6", "height": 3.069207191467285, "hmax": 0.082, "ratio": 0.027, "vulnClass": "none"}}, {"type": "Feature", "geometry": {"type": "MultiPolygon", "coordinates": [[[[71.7870763, 34.3639965], [71.787149, 34.3640018], [71.7871533, 34.3639614], [71.7870806, 34.363956], [71.7870763, 34.3639965]]]]}, "properties": {"id": "8J6H9Q7P+HRX4", "height": 2.739811420440674, "hmax": 0.113, "ratio": 0.041, "vulnClass": "none"}}, {"type": "Feature", "geometry": {"type": "MultiPolygon", "coordinates": [[[[71.78666905, 34.36339739], [71.78661967, 34.36336428], [71.78657862, 34.36340639], [71.78668903, 34.36348042], [71.78673607, 34.36343217], [71.78667504, 34.36339125], [71.78666905, 34.36339739]]]]}, "properties": {"id": "8J6H9Q7P+9M7R", "height": 3.237448930740356, "hmax": 0.083, "ratio": 0.026, "vulnClass": "none"}}, {"type": "Feature", "geometry": {"type": "MultiPolygon", "coordinates": [[[[71.7866189, 34.3635872], [71.78658011, 34.36355793], [71.78651052, 34.36362134], [71.78654931, 34.36365061], [71.7866189, 34.3635872]]]]}, "properties": {"id": "8J6H9Q7P+CJW2", "height": 2.442778348922729, "hmax": 0.083, "ratio": 0.034, "vulnClass": "none"}}, {"type": "Feature", "geometry": {"type": "MultiPolygon", "coordinates": [[[[71.78605991, 34.36380627], [71.78600799, 34.36368941], [71.78596891, 34.36370135], [71.78602082, 34.36381821], [71.78605991, 34.36380627]]]]}, "properties": {"id": "8J6H9Q7P+GC23", "height": 2.952024221420288, "hmax": 0.083, "ratio": 0.028, "vulnClass": "none"}}, {"type": "Feature", "geometry": {"type": "MultiPolygon", "coordinates": [[[[71.78606773, 34.36367116], [71.78604721, 34.36362498], [71.78598748, 34.36364323], [71.78600799, 34.36368941], [71.78606773, 34.36367116]]]]}, "properties": {"id": "8J6H9Q7P+FC69", "height": 3.206983327865601, "hmax": 0.083, "ratio": 0.026, "vulnClass": "none"}}, {"type": "Feature", "geometry": {"type": "MultiPolygon", "coordinates": [[[[71.78626899, 34.36359751], [71.78625323, 34.36356204], [71.78604721, 34.36362498], [71.78606297, 34.36366045], [71.78626899, 34.36359751]]]]}, "properties": {"id": "8J6H9Q7P+CFVC", "height": 3.112444162368774, "hmax": 0.083, "ratio": 0.027, "vulnClass": "none"}}, {"type": "Feature", "geometry": {"type": "MultiPolygon", "coordinates": [[[[71.78536164, 34.36333247], [71.78533628, 34.3632836], [71.78521579, 34.36332659], [71.78524114, 34.36337546], [71.78536164, 34.36333247]]]]}, "properties": {"id": "8J6H9Q7P+84M2", "height": 2.945003986358643, "hmax": 0.065, "ratio": 0.022, "vulnClass": "none"}}, {"type": "Feature", "geometry": {"type": "MultiPolygon", "coordinates": [[[[71.78393145, 34.3650205], [71.78376331, 34.36502465], [71.78376703, 34.36512809], [71.78393516, 34.36512394], [71.78393145, 34.3650205]]]]}, "properties": {"id": "8J6H9Q8M+2GHR", "height": 2.657690763473511, "hmax": 0.181, "ratio": 0.068, "vulnClass": "low"}}, {"type": "Feature", "geometry": {"type": "MultiPolygon", "coordinates": [[[[71.78515754, 34.36406591], [71.78511974, 34.36408353], [71.78518382, 34.36417806], [71.78527041, 34.36413769], [71.78524645, 34.36410235], [71.78519766, 34.36412509], [71.78515754, 34.36406591]]]]}, "properties": {"id": "8J6H9Q7P+M342", "height": 2.640352487564087, "hmax": 0.036, "ratio": 0.014, "vulnClass": "none"}}, {"type": "Feature", "geometry": {"type": "MultiPolygon", "coordinates": [[[[71.78502367, 34.36376052], [71.78494585, 34.36374672], [71.78491943, 34.36384915], [71.78499726, 34.36386296], [71.78502367, 34.36376052]]]]}, "properties": {"id": "8J6H9Q7M+GXH2", "height": 3.813421010971069, "hmax": 0.065, "ratio": 0.017, "vulnClass": "none"}}, {"type": "Feature", "geometry": {"type": "MultiPolygon", "coordinates": [[[[71.78515697, 34.36335889], [71.78514187, 34.36332331], [71.78511145, 34.3633322], [71.78512655, 34.36336777], [71.78515697, 34.36335889]]]]}, "properties": {"id": "8J6H9Q7P+83JV", "height": 2.439680576324463, "hmax": 0.065, "ratio": 0.027, "vulnClass": "none"}}, {"type": "Feature", "geometry": {"type": "MultiPolygon", "coordinates": [[[[71.78466025, 34.3636655], [71.78458387, 34.36364193], [71.78457337, 34.36366533], [71.78461002, 34.36367664], [71.7845655, 34.36377587], [71.78460523, 34.36378813], [71.78466025, 34.3636655]]]]}, "properties": {"id": "8J6H9Q7M+FRQG", "height": 4.564182281494141, "hmax": 0.057, "ratio": 0.013, "vulnClass": "none"}}, {"type": "Feature", "geometry": {"type": "MultiPolygon", "coordinates": [[[[71.78206275, 34.36563098], [71.7819635, 34.36558822], [71.78194073, 34.36562456], [71.78203998, 34.36566732], [71.78206275, 34.36563098]]]]}, "properties": {"id": "8J6H9Q8J+7R22", "height": 2.753517627716064, "hmax": 0.001, "ratio": 0.0, "vulnClass": "none"}}, {"type": "Feature", "geometry": {"type": "MultiPolygon", "coordinates": [[[[71.78190322, 34.36568614], [71.78181359, 34.36567085], [71.78180428, 34.36570843], [71.78199942, 34.3657417], [71.78201341, 34.36568527], [71.7819079, 34.36566728], [71.78190322, 34.36568614]]]]}, "properties": {"id": "8J6H9Q8J+7QM3", "height": 2.819683074951172, "hmax": 0.001, "ratio": 0.0, "vulnClass": "none"}}, {"type": "Feature", "geometry": {"type": "MultiPolygon", "coordinates": [[[[71.78133729, 34.36659228], [71.78134141, 34.36650523], [71.78130636, 34.36650409], [71.78130223, 34.36659114], [71.78133729, 34.36659228]]]]}, "properties": {"id": "8J6H9Q8J+JG8V", "height": 3.269152641296387, "hmax": 0.002, "ratio": 0.001, "vulnClass": "none"}}, {"type": "Feature", "geometry": {"type": "MultiPolygon", "coordinates": [[[[71.78140214, 34.36657155], [71.78135192, 34.36657019], [71.78135076, 34.36659968], [71.78140098, 34.36660104], [71.78140214, 34.36657155]]]]}, "properties": {"id": "8J6H9Q8J+JHJC", "height": 2.824308633804321, "hmax": 0.002, "ratio": 0.001, "vulnClass": "none"}}, {"type": "Feature", "geometry": {"type": "MultiPolygon", "coordinates": [[[[71.78155432, 34.3666027], [71.78151167, 34.36660367], [71.78151256, 34.36663069], [71.78155522, 34.36662972], [71.78155432, 34.3666027]]]]}, "properties": {"id": "8J6H9Q8J+JJVJ", "height": 4.415321350097656, "hmax": 0.087, "ratio": 0.02, "vulnClass": "none"}}, {"type": "Feature", "geometry": {"type": "MultiPolygon", "coordinates": [[[[71.78154687, 34.36665308], [71.78152129, 34.36665238], [71.78151973, 34.36669149], [71.78154531, 34.36669219], [71.78154687, 34.36665308]]]]}, "properties": {"id": "8J6H9Q8J+MJ7R", "height": 4.527719497680664, "hmax": 0.087, "ratio": 0.019, "vulnClass": "none"}}, {"type": "Feature", "geometry": {"type": "MultiPolygon", "coordinates": [[[[71.78154531, 34.36669219], [71.78151973, 34.36669149], [71.78151805, 34.36673356], [71.78154363, 34.36673426], [71.78154531, 34.36669219]]]]}, "properties": {"id": "8J6H9Q8J+MJMC", "height": 4.52583122253418, "hmax": 0.087, "ratio": 0.019, "vulnClass": "none"}}, {"type": "Feature", "geometry": {"type": "MultiPolygon", "coordinates": [[[[71.78139418, 34.36659398], [71.78130395, 34.36659088], [71.78129939, 34.36668225], [71.78138962, 34.36668535], [71.78139418, 34.36659398]]]]}, "properties": {"id": "8J6H9Q8J+MG5C", "height": 2.705597162246704, "hmax": 0.001, "ratio": 0.0, "vulnClass": "none"}}, {"type": "Feature", "geometry": {"type": "MultiPolygon", "coordinates": [[[[71.78138155, 34.36682201], [71.78129924, 34.36681927], [71.78129533, 34.36690007], [71.78137765, 34.36690281], [71.78138155, 34.36682201]]]]}, "properties": {"id": "8J6H9Q8J+PGWH", "height": 2.59573221206665, "hmax": 0.001, "ratio": 0.0, "vulnClass": "none"}}, {"type": "Feature", "geometry": {"type": "MultiPolygon", "coordinates": [[[[71.78130307, 34.36725473], [71.78134312, 34.36712911], [71.78129777, 34.36711917], [71.78125772, 34.36724479], [71.78130307, 34.36725473]]]]}, "properties": {"id": "8J6H9Q8J+VGFG", "height": 3.07123851776123, "hmax": 0.001, "ratio": 0.0, "vulnClass": "none"}}, {"type": "Feature", "geometry": {"type": "MultiPolygon", "coordinates": [[[[71.78906107, 34.36762209], [71.78902757, 34.36763448], [71.78904853, 34.36767346], [71.78908204, 34.36766106], [71.78906107, 34.36762209]]]]}, "properties": {"id": "8J6H9Q9Q+3J3X", "height": 3.461649417877197, "hmax": 0.027, "ratio": 0.008, "vulnClass": "none"}}, {"type": "Feature", "geometry": {"type": "MultiPolygon", "coordinates": [[[[71.79074176, 34.36755035], [71.7906831, 34.36753607], [71.79067223, 34.36756679], [71.79073089, 34.36758107], [71.79074176, 34.36755035]]]]}, "properties": {"id": "8J6H9Q9R+27G8", "height": 3.093117952346802, "hmax": 0.002, "ratio": 0.001, "vulnClass": "none"}}, {"type": "Feature", "geometry": {"type": "MultiPolygon", "coordinates": [[[[71.79070916, 34.36734003], [71.79064977, 34.36732963], [71.79064023, 34.36736707], [71.79069961, 34.36737748], [71.79070916, 34.36734003]]]]}, "properties": {"id": "8J6H9Q8R+W7V4", "height": 2.773607492446899, "hmax": 0.002, "ratio": 0.001, "vulnClass": "none"}}, {"type": "Feature", "geometry": {"type": "MultiPolygon", "coordinates": [[[[71.79261172, 34.35654047], [71.79255958, 34.35654415], [71.79256684, 34.35661472], [71.79261897, 34.35661103], [71.79261172, 34.35654047]]]]}, "properties": {"id": "8J6H9Q4V+J2P5", "height": 6.237504959106445, "hmax": 0.395, "ratio": 0.063, "vulnClass": "low"}}, {"type": "Feature", "geometry": {"type": "MultiPolygon", "coordinates": [[[[71.79260045, 34.35649012], [71.79252745, 34.35650254], [71.79253601, 34.35653711], [71.792609, 34.35652469], [71.79260045, 34.35649012]]]]}, "properties": {"id": "8J6H9Q4V+J24C", "height": 4.975334167480469, "hmax": 0.395, "ratio": 0.079, "vulnClass": "low"}}, {"type": "Feature", "geometry": {"type": "MultiPolygon", "coordinates": [[[[71.7925747, 34.35624406], [71.79256034, 34.35612149], [71.79246129, 34.35612947], [71.79247566, 34.35625205], [71.7925747, 34.35624406]]]]}, "properties": {"id": "8J6H9Q4V+F2CG", "height": 3.494967937469482, "hmax": 0.395, "ratio": 0.113, "vulnClass": "low"}}, {"type": "Feature", "geometry": {"type": "MultiPolygon", "coordinates": [[[[71.7880326, 34.35859177], [71.78799092, 34.35858965], [71.78798841, 34.35862355], [71.78803009, 34.35862566], [71.7880326, 34.35859177]]]]}, "properties": {"id": "8J6H9Q5Q+C6R7", "height": 3.186628580093384, "hmax": 0.002, "ratio": 0.001, "vulnClass": "none"}}, {"type": "Feature", "geometry": {"type": "MultiPolygon", "coordinates": [[[[71.78810538, 34.35859546], [71.7880326, 34.35859177], [71.78803009, 34.35862566], [71.78810288, 34.35862936], [71.78810538, 34.35859546]]]]}, "properties": {"id": "8J6H9Q5Q+C6WC", "height": 3.186628580093384, "hmax": 0.002, "ratio": 0.001, "vulnClass": "none"}}, {"type": "Feature", "geometry": {"type": "MultiPolygon", "coordinates": [[[[71.78798916, 34.35862291], [71.78799868, 34.3584805], [71.7879562, 34.35847854], [71.78794668, 34.35862096], [71.78798916, 34.35862291]]]]}, "properties": {"id": "8J6H9Q5Q+C5H2", "height": 3.115034103393555, "hmax": 0.002, "ratio": 0.001, "vulnClass": "none"}}, {"type": "Feature", "geometry": {"type": "MultiPolygon", "coordinates": [[[[71.79041193, 34.3528256], [71.79043461, 34.35274245], [71.79033139, 34.35272308], [71.79030871, 34.35280623], [71.79041193, 34.3528256]]]]}, "properties": {"id": "8J6H9Q3R+445X", "height": 5.659956932067871, "hmax": 0.004, "ratio": 0.001, "vulnClass": "none"}}, {"type": "Feature", "geometry": {"type": "MultiPolygon", "coordinates": [[[[71.7904442, 34.35268326], [71.79032998, 34.35266672], [71.79032077, 34.3527105], [71.79043499, 34.35272704], [71.7904442, 34.35268326]]]]}, "properties": {"id": "8J6H9Q3R+35CR", "height": 6.212944030761719, "hmax": 0.004, "ratio": 0.001, "vulnClass": "none"}}, {"type": "Feature", "geometry": {"type": "MultiPolygon", "coordinates": [[[[71.79056, 34.3526829], [71.7904997, 34.3527], [71.7905579, 34.3528413], [71.7906182, 34.3528242], [71.79056, 34.3526829]]]]}, "properties": {"id": "8J6H9Q3R+463H", "height": 5.037769317626953, "hmax": 0.004, "ratio": 0.001, "vulnClass": "none"}}, {"type": "Feature", "geometry": {"type": "MultiPolygon", "coordinates": [[[[71.79019988, 34.3527198], [71.79012819, 34.35270957], [71.79011786, 34.35275937], [71.79018955, 34.3527696], [71.79019988, 34.3527198]]]]}, "properties": {"id": "8J6H9Q3R+33VC", "height": 3.484471559524536, "hmax": 0.004, "ratio": 0.001, "vulnClass": "none"}}, {"type": "Feature", "geometry": {"type": "MultiPolygon", "coordinates": [[[[71.79023392, 34.35274419], [71.79019594, 34.35273877], [71.79018955, 34.3527696], [71.79022752, 34.35277502], [71.79023392, 34.35274419]]]]}, "properties": {"id": "8J6H9Q3R+4349", "height": 3.348912954330444, "hmax": 0.004, "ratio": 0.001, "vulnClass": "none"}}, {"type": "Feature", "geometry": {"type": "MultiPolygon", "coordinates": [[[[71.79029483, 34.35275948], [71.79023987, 34.35274784], [71.79023142, 34.35277527], [71.79028625, 34.35278732], [71.79029483, 34.35275948]]]]}, "properties": {"id": "8J6H9Q3R+442M", "height": 5.286045074462891, "hmax": 0.004, "ratio": 0.001, "vulnClass": "none"}}, {"type": "Feature", "geometry": {"type": "MultiPolygon", "coordinates": [[[[71.79016106, 34.35278516], [71.79010163, 34.35278167], [71.79009849, 34.3528174], [71.79015802, 34.35282101], [71.79016106, 34.35278516]]]]}, "properties": {"id": "8J6H9Q3R+43C2", "height": 3.516096591949463, "hmax": 0.004, "ratio": 0.001, "vulnClass": "none"}}, {"type": "Feature", "geometry": {"type": "MultiPolygon", "coordinates": [[[[71.79015415, 34.35286653], [71.79015802, 34.35282101], [71.79013571, 34.35281966], [71.79013184, 34.35286522], [71.79015415, 34.35286653]]]]}, "properties": {"id": "8J6H9Q3R+43JP", "height": 3.265010356903076, "hmax": 0.004, "ratio": 0.001, "vulnClass": "none"}}, {"type": "Feature", "geometry": {"type": "MultiPolygon", "coordinates": [[[[71.79009879, 34.3528513], [71.79004949, 34.35284427], [71.79003909, 34.35289442], [71.79008839, 34.35290145], [71.79009879, 34.3528513]]]]}, "properties": {"id": "8J6H9Q3R+42WR", "height": 3.623446464538574, "hmax": 0.004, "ratio": 0.001, "vulnClass": "none"}}, {"type": "Feature", "geometry": {"type": "MultiPolygon", "coordinates": [[[[71.79036633, 34.35284778], [71.79029407, 34.35283731], [71.7902793, 34.3529075], [71.79035155, 34.35291796], [71.79036633, 34.35284778]]]]}, "properties": {"id": "8J6H9Q3R+5443", "height": 3.623068809509277, "hmax": 0.004, "ratio": 0.001, "vulnClass": "none"}}, {"type": "Feature", "geometry": {"type": "MultiPolygon", "coordinates": [[[[71.79029228, 34.35280174], [71.79019033, 34.35278479], [71.79016302, 34.35289782], [71.79026496, 34.35291477], [71.79029228, 34.35280174]]]]}, "properties": {"id": "8J6H9Q3R+43QV", "height": 3.893868684768677, "hmax": 0.004, "ratio": 0.001, "vulnClass": "none"}}, {"type": "Feature", "geometry": {"type": "MultiPolygon", "coordinates": [[[[71.79040053, 34.35282492], [71.79035771, 34.35282238], [71.79036467, 34.35284322], [71.79040365, 34.35283426], [71.79040053, 34.35282492]]]]}, "properties": {"id": "8J6H9Q3R+45J6", "height": 4.711367607116699, "hmax": 0.004, "ratio": 0.001, "vulnClass": "none"}}, {"type": "Feature", "geometry": {"type": "MultiPolygon", "coordinates": [[[[71.79023649, 34.35294047], [71.79016692, 34.35294462], [71.79016924, 34.35297133], [71.7902388, 34.35296719], [71.79023649, 34.35294047]]]]}, "properties": {"id": "8J6H9Q3R+53P7", "height": 2.947794437408447, "hmax": 0.004, "ratio": 0.001, "vulnClass": "none"}}, {"type": "Feature", "geometry": {"type": "MultiPolygon", "coordinates": [[[[71.7899013, 34.35293746], [71.78987349, 34.35293504], [71.78986831, 34.3529759], [71.78989613, 34.35297832], [71.7899013, 34.35293746]]]]}, "properties": {"id": "8J6H9Q3Q+5XJ7", "height": 3.199935436248779, "hmax": 0.004, "ratio": 0.001, "vulnClass": "none"}}, {"type": "Feature", "geometry": {"type": "MultiPolygon", "coordinates": [[[[71.78976954, 34.35302047], [71.78970256, 34.35302176], [71.78970415, 34.35307884], [71.78977114, 34.35307755], [71.78976954, 34.35302047]]]]}, "properties": {"id": "8J6H9Q3Q+6V9W", "height": 2.882026195526123, "hmax": 0.004, "ratio": 0.001, "vulnClass": "none"}}, {"type": "Feature", "geometry": {"type": "MultiPolygon", "coordinates": [[[[71.78970256, 34.35302176], [71.78964317, 34.35302289], [71.78964476, 34.35307998], [71.78970415, 34.35307884], [71.78970256, 34.35302176]]]]}, "properties": {"id": "8J6H9Q3Q+6VF4", "height": 3.098382949829102, "hmax": 0.004, "ratio": 0.001, "vulnClass": "none"}}, {"type": "Feature", "geometry": {"type": "MultiPolygon", "coordinates": [[[[71.78969624, 34.35296569], [71.78968698, 34.35291417], [71.78962082, 34.35292234], [71.78963007, 34.35297387], [71.78969624, 34.35296569]]]]}, "properties": {"id": "8J6H9Q3Q+5VFJ", "height": 3.224957466125488, "hmax": 0.004, "ratio": 0.001, "vulnClass": "none"}}, {"type": "Feature", "geometry": {"type": "MultiPolygon", "coordinates": [[[[71.78985213, 34.35288441], [71.78973301, 34.35286392], [71.78970859, 34.35296159], [71.7898277, 34.35298207], [71.78985213, 34.35288441]]]]}, "properties": {"id": "8J6H9Q3Q+5W6X", "height": 3.497659683227539, "hmax": 0.004, "ratio": 0.001, "vulnClass": "none"}}, {"type": "Feature", "geometry": {"type": "MultiPolygon", "coordinates": [[[[71.78967938, 34.35287181], [71.78961316, 34.35287969], [71.78962082, 34.35292234], [71.78968698, 34.35291417], [71.78967938, 34.35287181]]]]}, "properties": {"id": "8J6H9Q3Q+5V2X", "height": 3.055490493774414, "hmax": 0.004, "ratio": 0.001, "vulnClass": "none"}}, {"type": "Feature", "geometry": {"type": "MultiPolygon", "coordinates": [[[[71.78993209, 34.35279593], [71.78988208, 34.35278415], [71.7898713, 34.35281559], [71.78992132, 34.35282738], [71.78993209, 34.35279593]]]]}, "properties": {"id": "8J6H9Q3Q+4XC9", "height": 4.775457382202148, "hmax": 0.004, "ratio": 0.001, "vulnClass": "none"}}, {"type": "Feature", "geometry": {"type": "MultiPolygon", "coordinates": [[[[71.7899874, 34.3528338], [71.7899417, 34.3528187], [71.7899078, 34.3528892], [71.7899535, 34.3529043], [71.7899874, 34.3528338]]]]}, "properties": {"id": "8J6H9Q3Q+4XWF", "height": 4.20500659942627, "hmax": 0.004, "ratio": 0.001, "vulnClass": "none"}}, {"type": "Feature", "geometry": {"type": "MultiPolygon", "coordinates": [[[[71.78989636, 34.35284017], [71.78985756, 34.35283118], [71.7898474, 34.3528613], [71.78988621, 34.3528703], [71.78989636, 34.35284017]]]]}, "properties": {"id": "8J6H9Q3Q+4WX5", "height": 4.413576126098633, "hmax": 0.004, "ratio": 0.001, "vulnClass": "none"}}, {"type": "Feature", "geometry": {"type": "MultiPolygon", "coordinates": [[[[71.79011757, 34.35297754], [71.79012683, 34.35290739], [71.79007188, 34.3529024], [71.79006968, 34.35291907], [71.79002127, 34.35291468], [71.79001422, 34.35296816], [71.79011757, 34.35297754]]]]}, "properties": {"id": "8J6H9Q3R+52GM", "height": 3.109550476074219, "hmax": 0.004, "ratio": 0.001, "vulnClass": "none"}}, {"type": "Feature", "geometry": {"type": "MultiPolygon", "coordinates": [[[[71.78996152, 34.35278946], [71.789953, 34.3528305], [71.79009879, 34.3528513], [71.7901073, 34.35281026], [71.78996152, 34.35278946]]]]}, "properties": {"id": "8J6H9Q3R+42CX", "height": 4.281149864196777, "hmax": 0.004, "ratio": 0.001, "vulnClass": "none"}}, {"type": "Feature", "geometry": {"type": "MultiPolygon", "coordinates": [[[[71.78995738, 34.35274176], [71.78993054, 34.35274018], [71.78992787, 34.35277144], [71.78995471, 34.35277302], [71.78995738, 34.35274176]]]]}, "properties": {"id": "8J6H9Q3Q+4X46", "height": 5.060351848602295, "hmax": 0.004, "ratio": 0.001, "vulnClass": "none"}}, {"type": "Feature", "geometry": {"type": "MultiPolygon", "coordinates": [[[[71.78988059, 34.35277453], [71.78983237, 34.35276221], [71.7898186, 34.35279967], [71.78986666, 34.35281246], [71.78988059, 34.35277453]]]]}, "properties": {"id": "8J6H9Q3Q+4W9C", "height": 5.01610279083252, "hmax": 0.004, "ratio": 0.001, "vulnClass": "none"}}, {"type": "Feature", "geometry": {"type": "MultiPolygon", "coordinates": [[[[71.79002262, 34.35279818], [71.79006541, 34.35259185], [71.79000431, 34.35258313], [71.78996152, 34.35278946], [71.79002262, 34.35279818]]]]}, "properties": {"id": "8J6H9Q3R+32CM", "height": 4.629804611206055, "hmax": 0.004, "ratio": 0.001, "vulnClass": "none"}}, {"type": "Feature", "geometry": {"type": "MultiPolygon", "coordinates": [[[[71.78998325, 34.35266925], [71.78993164, 34.35265791], [71.78991627, 34.35270602], [71.78996788, 34.35271736], [71.78998325, 34.35266925]]]]}, "properties": {"id": "8J6H9Q3Q+3XGF", "height": 4.851370811462402, "hmax": 0.004, "ratio": 0.001, "vulnClass": "none"}}, {"type": "Feature", "geometry": {"type": "MultiPolygon", "coordinates": [[[[71.78985289, 34.35267221], [71.78978232, 34.35264844], [71.7897644, 34.35268504], [71.78983497, 34.35270881], [71.78985289, 34.35267221]]]]}, "properties": {"id": "8J6H9Q3Q+3WF5", "height": 4.951003074645996, "hmax": 0.004, "ratio": 0.001, "vulnClass": "none"}}, {"type": "Feature", "geometry": {"type": "MultiPolygon", "coordinates": [[[[71.78968487, 34.35270047], [71.78963653, 34.35269659], [71.7896309, 34.35274479], [71.78967924, 34.35274868], [71.78968487, 34.35270047]]]]}, "properties": {"id": "8J6H9Q3Q+3VMR", "height": 4.272085189819336, "hmax": 0.004, "ratio": 0.001, "vulnClass": "none"}}, {"type": "Feature", "geometry": {"type": "MultiPolygon", "coordinates": [[[[71.78983237, 34.35276221], [71.78980081, 34.35275415], [71.78978703, 34.35279128], [71.7898186, 34.35279967], [71.78983237, 34.35276221]]]]}, "properties": {"id": "8J6H9Q3Q+4W75", "height": 3.989070892333984, "hmax": 0.004, "ratio": 0.001, "vulnClass": "none"}}, {"type": "Feature", "geometry": {"type": "MultiPolygon", "coordinates": [[[[71.789757, 34.3527553], [71.7896957, 34.3527609], [71.7897088, 34.3528606], [71.7897702, 34.352855], [71.789757, 34.3527553]]]]}, "properties": {"id": "8J6H9Q3Q+4VH7", "height": 2.943815946578979, "hmax": 0.004, "ratio": 0.001, "vulnClass": "none"}}, {"type": "Feature", "geometry": {"type": "MultiPolygon", "coordinates": [[[[71.78967563, 34.3527508], [71.78961707, 34.35275478], [71.789621, 34.35279456], [71.78967956, 34.35279059], [71.78967563, 34.3527508]]]]}, "properties": {"id": "8J6H9Q3Q+4V2W", "height": 3.709522724151611, "hmax": 0.004, "ratio": 0.001, "vulnClass": "none"}}, {"type": "Feature", "geometry": {"type": "MultiPolygon", "coordinates": [[[[71.7896184, 34.3527438], [71.7895005, 34.3527343], [71.7894951, 34.3527804], [71.789613, 34.3527899], [71.7896184, 34.3527438]]]]}, "properties": {"id": "8J6H9Q3Q+4R3H", "height": 4.263460159301758, "hmax": 0.004, "ratio": 0.001, "vulnClass": "none"}}, {"type": "Feature", "geometry": {"type": "MultiPolygon", "coordinates": [[[[71.78944939, 34.35272809], [71.78936795, 34.35272907], [71.78937005, 34.352849], [71.78945148, 34.35284802], [71.78944939, 34.35272809]]]]}, "properties": {"id": "8J6H9Q3Q+4Q7C", "height": 5.103584289550781, "hmax": 0.005, "ratio": 0.001, "vulnClass": "none"}}, {"type": "Feature", "geometry": {"type": "MultiPolygon", "coordinates": [[[[71.78963833, 34.35273532], [71.78964636, 34.35262155], [71.78958506, 34.35261858], [71.78958078, 34.35267922], [71.78936573, 34.35266879], [71.78936198, 34.35272192], [71.78963833, 34.35273532]]]]}, "properties": {"id": "8J6H9Q3Q+3RCQ", "height": 5.119949340820312, "hmax": 0.004, "ratio": 0.001, "vulnClass": "none"}}, {"type": "Feature", "geometry": {"type": "MultiPolygon", "coordinates": [[[[71.78936132, 34.35281067], [71.78936255, 34.35267271], [71.78930744, 34.35267237], [71.78930621, 34.35281034], [71.78936132, 34.35281067]]]]}, "properties": {"id": "8J6H9Q3Q+3PWP", "height": 5.225655555725098, "hmax": 0.005, "ratio": 0.001, "vulnClass": "none"}}, {"type": "Feature", "geometry": {"type": "MultiPolygon", "coordinates": [[[[71.78928958, 34.35274131], [71.78923053, 34.35274504], [71.78923422, 34.35278516], [71.78929326, 34.35278143], [71.78928958, 34.35274131]]]]}, "properties": {"id": "8J6H9Q3Q+4P2F", "height": 4.631425857543945, "hmax": 0.005, "ratio": 0.001, "vulnClass": "none"}}, {"type": "Feature", "geometry": {"type": "MultiPolygon", "coordinates": [[[[71.78918988, 34.35290197], [71.78913066, 34.35290896], [71.78913917, 34.35295852], [71.78919838, 34.35295152], [71.78918988, 34.35290197]]]]}, "properties": {"id": "8J6H9Q3Q+5MF7", "height": 2.54774284362793, "hmax": 0.005, "ratio": 0.002, "vulnClass": "none"}}, {"type": "Feature", "geometry": {"type": "MultiPolygon", "coordinates": [[[[71.78934303, 34.35288986], [71.78930524, 34.35288697], [71.78929973, 34.35293666], [71.7892689, 34.35293431], [71.78926593, 34.35296102], [71.7893719, 34.3529691], [71.78937486, 34.35294239], [71.78933752, 34.35293954], [71.78934303, 34.35288986]]]]}, "properties": {"id": "8J6H9Q3Q+5PGF", "height": 3.693612098693848, "hmax": 0.005, "ratio": 0.001, "vulnClass": "none"}}, {"type": "Feature", "geometry": {"type": "MultiPolygon", "coordinates": [[[[71.7893587, 34.35282445], [71.78932476, 34.35282773], [71.78933244, 34.35288461], [71.7893664, 34.35288146], [71.7893587, 34.35282445]]]]}, "properties": {"id": "8J6H9Q3Q+4PX2", "height": 4.571708202362061, "hmax": 0.005, "ratio": 0.001, "vulnClass": "none"}}, {"type": "Feature", "geometry": {"type": "MultiPolygon", "coordinates": [[[[71.7896176, 34.3529011], [71.7896095, 34.3528353], [71.7893704, 34.3528555], [71.7893829, 34.3529579], [71.7894304, 34.3529539], [71.7894259, 34.3529173], [71.7896176, 34.3529011]]]]}, "properties": {"id": "8J6H9Q3Q+5Q58", "height": 4.196815490722656, "hmax": 0.004, "ratio": 0.001, "vulnClass": "none"}}, {"type": "Feature", "geometry": {"type": "MultiPolygon", "coordinates": [[[[71.7895054, 34.3529634], [71.7895038, 34.353031], [71.7896032, 34.3530326], [71.7896047, 34.352965], [71.7895054, 34.3529634]]]]}, "properties": {"id": "8J6H9Q3Q+5RVW", "height": 3.496070384979248, "hmax": 0.004, "ratio": 0.001, "vulnClass": "none"}}, {"type": "Feature", "geometry": {"type": "MultiPolygon", "coordinates": [[[[71.78943108, 34.35297362], [71.78940596, 34.3529717], [71.78940191, 34.35300817], [71.78942704, 34.35301008], [71.78943108, 34.35297362]]]]}, "properties": {"id": "8J6H9Q3Q+5QVM", "height": 3.196265935897827, "hmax": 0.005, "ratio": 0.002, "vulnClass": "none"}}, {"type": "Feature", "geometry": {"type": "MultiPolygon", "coordinates": [[[[71.78926883, 34.35293088], [71.78920322, 34.35293144], [71.78920385, 34.35296376], [71.78926922, 34.35296288], [71.78926883, 34.35293088]]]]}, "properties": {"id": "8J6H9Q3Q+5MHW", "height": 3.132936954498291, "hmax": 0.005, "ratio": 0.002, "vulnClass": "none"}}, {"type": "Feature", "geometry": {"type": "MultiPolygon", "coordinates": [[[[71.78920385, 34.35296376], [71.78914799, 34.35296452], [71.78914872, 34.35302441], [71.78920503, 34.35302394], [71.78920385, 34.35296376]]]]}, "properties": {"id": "8J6H9Q3Q+5MVP", "height": 3.323562145233154, "hmax": 0.005, "ratio": 0.002, "vulnClass": "none"}}, {"type": "Feature", "geometry": {"type": "MultiPolygon", "coordinates": [[[[71.78952311, 34.35312853], [71.78947058, 34.35312765], [71.78946964, 34.35316576], [71.78952218, 34.35316664], [71.78952311, 34.35312853]]]]}, "properties": {"id": "8J6H9Q3Q+7Q5X", "height": 2.667802095413208, "hmax": 0.005, "ratio": 0.002, "vulnClass": "none"}}, {"type": "Feature", "geometry": {"type": "MultiPolygon", "coordinates": [[[[71.78947337, 34.35310511], [71.78941299, 34.35309563], [71.78940701, 34.35312185], [71.78946738, 34.35313133], [71.78947337, 34.35310511]]]]}, "properties": {"id": "8J6H9Q3Q+6QWC", "height": 3.003027200698853, "hmax": 0.005, "ratio": 0.002, "vulnClass": "none"}}, {"type": "Feature", "geometry": {"type": "MultiPolygon", "coordinates": [[[[71.78983825, 34.35307627], [71.78977114, 34.35307755], [71.78977342, 34.35315958], [71.78984054, 34.35315829], [71.78983825, 34.35307627]]]]}, "properties": {"id": "8J6H9Q3Q+6WVQ", "height": 2.539175033569336, "hmax": 0.004, "ratio": 0.002, "vulnClass": "none"}}]}