{"type": "FeatureCollection", "features": [{"type": "Feature", "geometry": {"type": "MultiPolygon", "coordinates": [[[[71.95727437, 34.47114558], [71.95723612, 34.47116725], [71.95729176, 34.47123399], [71.95733001, 34.47121232], [71.95727437, 34.47114558]]]]}, "properties": {"id": "Pakistan_123102132_204533", "height": 2.979994535446167, "hmax": 0.004, "ratio": 0.001, "vulnClass": "none"}}, {"type": "Feature", "geometry": {"type": "MultiPolygon", "coordinates": [[[[71.95449367, 34.4704564], [71.9544595, 34.47042676], [71.954413, 34.4704632], [71.95444717, 34.47049284], [71.95449367, 34.4704564]]]]}, "properties": {"id": "Pakistan_123102132_382833", "height": 6.415658473968506, "hmax": 0.013, "ratio": 0.002, "vulnClass": "none"}}, {"type": "Feature", "geometry": {"type": "MultiPolygon", "coordinates": [[[[71.95502022, 34.47068049], [71.95486655, 34.47073775], [71.95491688, 34.47082956], [71.95513069, 34.47074989], [71.95489513, 34.47032023], [71.95483277, 34.47034347], [71.95486901, 34.47040957], [71.95475319, 34.47045273], [71.95484279, 34.47061614], [71.95496083, 34.47057216], [71.95502022, 34.47068049]]]]}, "properties": {"id": "Pakistan_123102132_114696", "height": 4.960320472717285, "hmax": 0.006, "ratio": 0.001, "vulnClass": "none"}}, {"type": "Feature", "geometry": {"type": "MultiPolygon", "coordinates": [[[[71.95460931, 34.47100351], [71.95458768, 34.47082282], [71.95463919, 34.47081863], [71.95469174, 34.47080115], [71.9546194, 34.47065331], [71.95458914, 34.47065577], [71.95458471, 34.47061877], [71.95450987, 34.47046582], [71.95445829, 34.47048298], [71.95450557, 34.47057963], [71.95425888, 34.4705997], [71.95428241, 34.4706478], [71.95428566, 34.47067492], [71.95401304, 34.47069709], [71.95402169, 34.47076936], [71.95408467, 34.47076424], [71.95403641, 34.47078029], [71.95405229, 34.47091282], [71.95418245, 34.47090223], [71.95416816, 34.47078292], [71.95425813, 34.4707756], [71.95427736, 34.4708149], [71.95429952, 34.4708131], [71.95431171, 34.47091496], [71.95425859, 34.47091929], [71.95426157, 34.47094422], [71.95421772, 34.4709588], [71.9542268, 34.47103465], [71.95460931, 34.47100351]]]]}, "properties": {"id": "Pakistan_123102132_444687", "height": 4.485715389251709, "hmax": 0.013, "ratio": 0.003, "vulnClass": "none"}}, {"type": "Feature", "geometry": {"type": "MultiPolygon", "coordinates": [[[[71.95369296, 34.47074061], [71.95398143, 34.47076618], [71.95400766, 34.47076202], [71.95401013, 34.47074308], [71.95399593, 34.47068227], [71.9535316, 34.47064109], [71.95352249, 34.47071088], [71.95351968, 34.47069885], [71.95351286, 34.47075118], [71.95332963, 34.47073495], [71.95336231, 34.47087494], [71.95345541, 34.47088319], [71.95344958, 34.47092796], [71.95339206, 34.47093709], [71.95338564, 34.47098634], [71.9533917, 34.47101233], [71.95338235, 34.47101381], [71.95347716, 34.47102222], [71.95348215, 34.47104358], [71.95376283, 34.47106847], [71.95376895, 34.47102154], [71.95367351, 34.47101308], [71.95366727, 34.47098634], [71.95368361, 34.47086103], [71.95367953, 34.47084354], [71.95369296, 34.47074061]]]]}, "properties": {"id": "Pakistan_123102132_25622", "height": 7.435063362121582, "hmax": 0.006, "ratio": 0.001, "vulnClass": "none"}}, {"type": "Feature", "geometry": {"type": "MultiPolygon", "coordinates": [[[[71.95403667, 34.47107402], [71.95412569, 34.47105879], [71.95416625, 34.4712199], [71.95439095, 34.47118145], [71.95436533, 34.47107969], [71.95422904, 34.47110302], [71.9541914, 34.47095352], [71.95406186, 34.47097568], [71.95404453, 34.47090683], [71.95399664, 34.47091503], [71.95403667, 34.47107402]]]]}, "properties": {"id": "Pakistan_123102132_71720", "height": 3.513706684112549, "hmax": 0.008, "ratio": 0.002, "vulnClass": "none"}}, {"type": "Feature", "geometry": {"type": "MultiPolygon", "coordinates": [[[[71.95376841, 34.47107268], [71.95383511, 34.47107665], [71.95383925, 34.47102942], [71.95377254, 34.47102546], [71.95376841, 34.47107268]]]]}, "properties": {"id": "Pakistan_123102132_105359", "height": 3.927226781845093, "hmax": 0.01, "ratio": 0.003, "vulnClass": "none"}}, {"type": "Feature", "geometry": {"type": "MultiPolygon", "coordinates": [[[[71.95384, 34.47110054], [71.95396831, 34.47111182], [71.95397466, 34.47106268], [71.95384635, 34.47105141], [71.95384, 34.47110054]]]]}, "properties": {"id": "Pakistan_123102132_447697", "height": 3.394644498825073, "hmax": 0.005, "ratio": 0.002, "vulnClass": "none"}}, {"type": "Feature", "geometry": {"type": "MultiPolygon", "coordinates": [[[[71.9541425, 34.47117533], [71.95412453, 34.47106562], [71.9540524, 34.47107365], [71.95406041, 34.47112256], [71.95352669, 34.471182], [71.95353966, 34.47126118], [71.95401381, 34.47120841], [71.95401079, 34.47119], [71.9541425, 34.47117533]]]]}, "properties": {"id": "Pakistan_123102132_303019", "height": 2.811403512954712, "hmax": 0.004, "ratio": 0.001, "vulnClass": "none"}}, {"type": "Feature", "geometry": {"type": "MultiPolygon", "coordinates": [[[[71.95368474, 34.47177264], [71.95377053, 34.47209314], [71.95371832, 34.47210264], [71.9537688, 34.47229129], [71.95388901, 34.47226943], [71.95389552, 34.47229374], [71.95414212, 34.47224887], [71.95398917, 34.47167746], [71.95384082, 34.47170444], [71.95383066, 34.47166649], [71.95373245, 34.47168436], [71.95375276, 34.47176027], [71.95368474, 34.47177264]]]]}, "properties": {"id": "Pakistan_123102132_7214", "height": 4.654425144195557, "hmax": 0.004, "ratio": 0.001, "vulnClass": "none"}}, {"type": "Feature", "geometry": {"type": "MultiPolygon", "coordinates": [[[[71.95468523, 34.47101264], [71.9546936, 34.47115495], [71.95481236, 34.47115019], [71.95480827, 34.4710807], [71.9548126, 34.47108052], [71.95480683, 34.47098236], [71.95472923, 34.47098547], [71.95473072, 34.47101083], [71.95468523, 34.47101264]]]]}, "properties": {"id": "Pakistan_123102132_419977", "height": 4.677875995635986, "hmax": 0.009, "ratio": 0.002, "vulnClass": "none"}}, {"type": "Feature", "geometry": {"type": "MultiPolygon", "coordinates": [[[[71.9546691, 34.47100149], [71.95457737, 34.47101305], [71.95457937, 34.47102385], [71.95438804, 34.47104796], [71.95441828, 34.47121107], [71.95470135, 34.47117542], [71.9546691, 34.47100149]]]]}, "properties": {"id": "Pakistan_123102132_324380", "height": 4.671167373657227, "hmax": 0.007, "ratio": 0.002, "vulnClass": "none"}}, {"type": "Feature", "geometry": {"type": "MultiPolygon", "coordinates": [[[[71.95676014, 34.4711127], [71.95690749, 34.47105123], [71.95687507, 34.47099842], [71.95675335, 34.47104919], [71.95668635, 34.47094005], [71.95660734, 34.47097301], [71.95668623, 34.47110152], [71.95665206, 34.47111577], [71.95668448, 34.47116859], [71.95654058, 34.47122862], [71.95658164, 34.47129552], [71.95666361, 34.47126132], [71.95672952, 34.47136871], [71.95659072, 34.47142661], [71.9566588, 34.47153752], [71.95716062, 34.47132818], [71.95712064, 34.47126304], [71.9568409, 34.47137974], [71.95681064, 34.47133044], [71.95687684, 34.47130283], [71.95676014, 34.4711127]]]]}, "properties": {"id": "Pakistan_123102132_120964", "height": 5.240934371948242, "hmax": 0.004, "ratio": 0.001, "vulnClass": "none"}}, {"type": "Feature", "geometry": {"type": "MultiPolygon", "coordinates": [[[[71.95365539, 34.47194125], [71.95366391, 34.47196577], [71.95371845, 34.4719529], [71.95370993, 34.47192837], [71.95365539, 34.47194125]]]]}, "properties": {"id": "Pakistan_123102132_352105", "height": 4.477174758911133, "hmax": 0.003, "ratio": 0.001, "vulnClass": "none"}}, {"type": "Feature", "geometry": {"type": "MultiPolygon", "coordinates": [[[[71.95348796, 34.47184004], [71.95365138, 34.47212462], [71.95372588, 34.47209554], [71.95368072, 34.47201691], [71.95369168, 34.47201263], [71.95361754, 34.47188353], [71.95356187, 34.47190526], [71.95351776, 34.47182842], [71.95348796, 34.47184004]]]]}, "properties": {"id": "Pakistan_123102132_496904", "height": 3.972396850585938, "hmax": 0.003, "ratio": 0.001, "vulnClass": "none"}}, {"type": "Feature", "geometry": {"type": "MultiPolygon", "coordinates": [[[[71.95236092, 34.47243353], [71.95243571, 34.47242952], [71.95243745, 34.47245154], [71.95249621, 34.47244839], [71.95249343, 34.47241316], [71.95250945, 34.4724123], [71.95250319, 34.47233303], [71.9524017, 34.47233847], [71.95239422, 34.47224379], [71.95234615, 34.47224637], [71.95236092, 34.47243353]]]]}, "properties": {"id": "Pakistan_123102132_312235", "height": 3.159658908843994, "hmax": 0.007, "ratio": 0.002, "vulnClass": "none"}}, {"type": "Feature", "geometry": {"type": "MultiPolygon", "coordinates": [[[[71.95274435, 34.4721785], [71.9527084, 34.47217934], [71.95271238, 34.47229644], [71.95274834, 34.47229561], [71.95274435, 34.4721785]]]]}, "properties": {"id": "Pakistan_123102132_450721", "height": 2.828842163085938, "hmax": 0.003, "ratio": 0.001, "vulnClass": "none"}}, {"type": "Feature", "geometry": {"type": "MultiPolygon", "coordinates": [[[[71.95240544, 34.4722], [71.95259451, 34.47218675], [71.95259904, 34.47223065], [71.95255909, 34.47223345], [71.95257155, 34.4723542], [71.95275796, 34.47234113], [71.95275365, 34.47229942], [71.95271105, 34.47230241], [71.95269791, 34.47217508], [71.95273253, 34.47217265], [71.95271532, 34.4720058], [71.95261679, 34.47201271], [71.95262459, 34.47208832], [71.95239557, 34.47210436], [71.95240544, 34.4722]]]]}, "properties": {"id": "Pakistan_123102132_272122", "height": 3.540090084075928, "hmax": 0.005, "ratio": 0.001, "vulnClass": "none"}}, {"type": "Feature", "geometry": {"type": "MultiPolygon", "coordinates": [[[[71.95229595, 34.47236597], [71.95227915, 34.47224498], [71.95212295, 34.47225972], [71.95213113, 34.47231865], [71.9520956, 34.472322], [71.95209197, 34.47229581], [71.95198606, 34.4723058], [71.95197668, 34.47223814], [71.95194336, 34.47224128], [71.95192943, 34.47214088], [71.95181029, 34.47215212], [71.95183998, 34.47236601], [71.95173408, 34.47237601], [71.95174317, 34.47244148], [71.95207299, 34.47241037], [71.95206979, 34.47238729], [71.95229595, 34.47236597]]]]}, "properties": {"id": "Pakistan_123102132_321347", "height": 4.436292171478271, "hmax": 0.007, "ratio": 0.002, "vulnClass": "none"}}, {"type": "Feature", "geometry": {"type": "MultiPolygon", "coordinates": [[[[71.95229823, 34.47213888], [71.95227604, 34.47207219], [71.95211243, 34.47210918], [71.95205593, 34.47193937], [71.95195365, 34.47196249], [71.9519906, 34.47207354], [71.95204446, 34.47206137], [71.95208618, 34.47218682], [71.95229823, 34.47213888]]]]}, "properties": {"id": "Pakistan_123102132_222783", "height": 3.868726015090942, "hmax": 0.007, "ratio": 0.002, "vulnClass": "none"}}, {"type": "Feature", "geometry": {"type": "MultiPolygon", "coordinates": [[[[71.95205198, 34.47228606], [71.95204943, 34.47223529], [71.95200123, 34.47223694], [71.95200378, 34.47228771], [71.95205198, 34.47228606]]]]}, "properties": {"id": "Pakistan_123102132_219781", "height": 2.627372980117798, "hmax": 0.007, "ratio": 0.003, "vulnClass": "none"}}, {"type": "Feature", "geometry": {"type": "MultiPolygon", "coordinates": [[[[71.9510779, 34.47234671], [71.95105396, 34.47221252], [71.95097367, 34.47222226], [71.95098796, 34.47230234], [71.9509501, 34.47230693], [71.950942, 34.47226148], [71.9508407, 34.47227377], [71.95085847, 34.47237333], [71.9510779, 34.47234671]]]]}, "properties": {"id": "Pakistan_123102132_228924", "height": 3.71612024307251, "hmax": 0.004, "ratio": 0.001, "vulnClass": "none"}}, {"type": "Feature", "geometry": {"type": "MultiPolygon", "coordinates": [[[[71.94946107, 34.47262941], [71.94965148, 34.4726311], [71.94965233, 34.47256618], [71.94948337, 34.4725647], [71.94948433, 34.47249031], [71.94946288, 34.47249012], [71.94946107, 34.47262941]]]]}, "properties": {"id": "Pakistan_123102132_225766", "height": 4.366661071777344, "hmax": 0.004, "ratio": 0.001, "vulnClass": "none"}}, {"type": "Feature", "geometry": {"type": "MultiPolygon", "coordinates": [[[[71.9495103, 34.47238083], [71.94950631, 34.47244336], [71.9496026, 34.47244754], [71.94960659, 34.47238501], [71.9495103, 34.47238083]]]]}, "properties": {"id": "Pakistan_123102132_327415", "height": 3.627988338470459, "hmax": 0.004, "ratio": 0.001, "vulnClass": "none"}}, {"type": "Feature", "geometry": {"type": "MultiPolygon", "coordinates": [[[[71.94946021, 34.47237388], [71.94946021, 34.47226774], [71.94940925, 34.47226774], [71.94940925, 34.47237388], [71.94946021, 34.47237388]]]]}, "properties": {"id": "Pakistan_123102132_302998", "height": 2.693143844604492, "hmax": 0.004, "ratio": 0.002, "vulnClass": "none"}}, {"type": "Feature", "geometry": {"type": "MultiPolygon", "coordinates": [[[[71.94938334, 34.47231795], [71.94934004, 34.47221701], [71.9492699, 34.47223745], [71.9493132, 34.4723384], [71.94938334, 34.47231795]]]]}, "properties": {"id": "Pakistan_123102132_475386", "height": 2.833473920822144, "hmax": 0.003, "ratio": 0.001, "vulnClass": "none"}}, {"type": "Feature", "geometry": {"type": "MultiPolygon", "coordinates": [[[[71.94957974, 34.47219193], [71.9494975, 34.47219905], [71.94950893, 34.47228872], [71.94959117, 34.4722816], [71.94957974, 34.47219193]]]]}, "properties": {"id": "Pakistan_123102132_333653", "height": 4.629310607910156, "hmax": 0.004, "ratio": 0.001, "vulnClass": "none"}}, {"type": "Feature", "geometry": {"type": "MultiPolygon", "coordinates": [[[[71.94978931, 34.47210268], [71.94982674, 34.47221589], [71.94988312, 34.47220323], [71.94983074, 34.47204473], [71.94974335, 34.47206436], [71.94972498, 34.47200878], [71.94957517, 34.47204243], [71.94960851, 34.4721433], [71.94978931, 34.47210268]]]]}, "properties": {"id": "Pakistan_123102132_265950", "height": 3.890599012374878, "hmax": 0.004, "ratio": 0.001, "vulnClass": "none"}}, {"type": "Feature", "geometry": {"type": "MultiPolygon", "coordinates": [[[[71.94948019, 34.47183896], [71.94948336, 34.47190962], [71.94953802, 34.47190795], [71.94953484, 34.47183729], [71.94948019, 34.47183896]]]]}, "properties": {"id": "Pakistan_123102132_503046", "height": 4.66008186340332, "hmax": 0.006, "ratio": 0.001, "vulnClass": "none"}}, {"type": "Feature", "geometry": {"type": "MultiPolygon", "coordinates": [[[[71.94956509, 34.47215272], [71.94953163, 34.47191265], [71.94949192, 34.47191642], [71.94949405, 34.47193169], [71.94940669, 34.47193997], [71.94941582, 34.47200544], [71.94948838, 34.47199857], [71.94949933, 34.47207713], [71.94936588, 34.47208978], [71.94937714, 34.47217053], [71.94956509, 34.47215272]]]]}, "properties": {"id": "Pakistan_123102132_352077", "height": 3.712685823440552, "hmax": 0.004, "ratio": 0.001, "vulnClass": "none"}}, {"type": "Feature", "geometry": {"type": "MultiPolygon", "coordinates": [[[[71.94945761, 34.47172977], [71.9492192, 34.47174737], [71.94922898, 34.47183731], [71.94927155, 34.47183417], [71.94928261, 34.47193587], [71.94940235, 34.47192702], [71.94939329, 34.47184366], [71.94953431, 34.47183324], [71.9495293, 34.47178717], [71.94946437, 34.47179197], [71.94945761, 34.47172977]]]]}, "properties": {"id": "Pakistan_123102132_582525", "height": 5.521810531616211, "hmax": 0.008, "ratio": 0.001, "vulnClass": "none"}}, {"type": "Feature", "geometry": {"type": "MultiPolygon", "coordinates": [[[[71.95261992, 34.47085426], [71.95263105, 34.47111044], [71.95282124, 34.47110481], [71.9528175, 34.47101868], [71.9526819, 34.47102269], [71.95267959, 34.47096969], [71.95271977, 34.4709685], [71.95271823, 34.47093317], [71.95268073, 34.47093428], [71.95267717, 34.47085257], [71.95261992, 34.47085426]]]]}, "properties": {"id": "Pakistan_123102132_287497", "height": 3.930438995361328, "hmax": 0.004, "ratio": 0.001, "vulnClass": "none"}}, {"type": "Feature", "geometry": {"type": "MultiPolygon", "coordinates": [[[[71.95262458, 34.47042136], [71.95264606, 34.4705818], [71.95255163, 34.47059039], [71.95256291, 34.47067464], [71.95270865, 34.47066137], [71.95267588, 34.47041669], [71.95262458, 34.47042136]]]]}, "properties": {"id": "Pakistan_123102132_327433", "height": 2.707159042358398, "hmax": 0.004, "ratio": 0.002, "vulnClass": "none"}}, {"type": "Feature", "geometry": {"type": "MultiPolygon", "coordinates": [[[[71.95264154, 34.47039671], [71.95263934, 34.47034911], [71.95246161, 34.47035468], [71.95246381, 34.47040229], [71.95264154, 34.47039671]]]]}, "properties": {"id": "Pakistan_123102132_604014", "height": 3.801947832107544, "hmax": 0.004, "ratio": 0.001, "vulnClass": "none"}}, {"type": "Feature", "geometry": {"type": "MultiPolygon", "coordinates": [[[[71.95249022, 34.470299], [71.95250017, 34.47033236], [71.95255581, 34.47032108], [71.95254586, 34.47028772], [71.95249022, 34.470299]]]]}, "properties": {"id": "Pakistan_123102132_367395", "height": 4.525691509246826, "hmax": 0.004, "ratio": 0.001, "vulnClass": "none"}}, {"type": "Feature", "geometry": {"type": "MultiPolygon", "coordinates": [[[[71.95264829, 34.47067933], [71.95256897, 34.47068226], [71.95257487, 34.4707904], [71.95265418, 34.47078746], [71.95264829, 34.47067933]]]]}, "properties": {"id": "Pakistan_123102132_284383", "height": 2.798659801483154, "hmax": 0.004, "ratio": 0.001, "vulnClass": "none"}}, {"type": "Feature", "geometry": {"type": "MultiPolygon", "coordinates": [[[[71.95228803, 34.47068065], [71.95231356, 34.47077549], [71.95253179, 34.47073556], [71.95250626, 34.47064073], [71.95228803, 34.47068065]]]]}, "properties": {"id": "Pakistan_123102132_506207", "height": 3.049215793609619, "hmax": 0.004, "ratio": 0.001, "vulnClass": "none"}}, {"type": "Feature", "geometry": {"type": "MultiPolygon", "coordinates": [[[[71.94950774, 34.47042945], [71.9495096, 34.47033218], [71.94958641, 34.47033318], [71.94958735, 34.47028455], [71.94937819, 34.47028182], [71.94937538, 34.47042772], [71.94950774, 34.47042945]]]]}, "properties": {"id": "Pakistan_123102132_475387", "height": 3.80853796005249, "hmax": 0.008, "ratio": 0.002, "vulnClass": "none"}}, {"type": "Feature", "geometry": {"type": "MultiPolygon", "coordinates": [[[[71.94760756, 34.47038843], [71.9476196, 34.47044415], [71.94770446, 34.4704317], [71.94769243, 34.47037597], [71.94760756, 34.47038843]]]]}, "properties": {"id": "Pakistan_123102132_603996", "height": 5.159700870513916, "hmax": 0.005, "ratio": 0.001, "vulnClass": "none"}}, {"type": "Feature", "geometry": {"type": "MultiPolygon", "coordinates": [[[[71.94765165, 34.47036008], [71.94764586, 34.47026746], [71.9475549, 34.47027132], [71.9475607, 34.47036395], [71.94765165, 34.47036008]]]]}, "properties": {"id": "Pakistan_123102132_117825", "height": 2.882855653762817, "hmax": 0.005, "ratio": 0.002, "vulnClass": "none"}}, {"type": "Feature", "geometry": {"type": "MultiPolygon", "coordinates": [[[[71.94736168, 34.47018681], [71.94738991, 34.47048259], [71.94756051, 34.47047152], [71.94754822, 34.47034275], [71.94748253, 34.47034702], [71.94747342, 34.47025162], [71.94742277, 34.47025491], [71.94741593, 34.47018328], [71.94736168, 34.47018681]]]]}, "properties": {"id": "Pakistan_123102132_582513", "height": 4.209906578063965, "hmax": 0.005, "ratio": 0.001, "vulnClass": "none"}}, {"type": "Feature", "geometry": {"type": "MultiPolygon", "coordinates": [[[[71.9474308, 34.47011097], [71.94743485, 34.47019043], [71.94749279, 34.47018842], [71.94748873, 34.47010896], [71.9474308, 34.47011097]]]]}, "properties": {"id": "Pakistan_123102132_216680", "height": 5.013489723205566, "hmax": 0.005, "ratio": 0.001, "vulnClass": "none"}}, {"type": "Feature", "geometry": {"type": "MultiPolygon", "coordinates": [[[[71.94906584, 34.46924601], [71.94902337, 34.46924241], [71.94901764, 34.46928836], [71.9490601, 34.46929196], [71.94906584, 34.46924601]]]]}, "properties": {"id": "Pakistan_123102132_413773", "height": 3.009212017059326, "hmax": 0.002, "ratio": 0.001, "vulnClass": "none"}}, {"type": "Feature", "geometry": {"type": "MultiPolygon", "coordinates": [[[[71.94913665, 34.4691813], [71.94913433, 34.46914381], [71.94902197, 34.46914854], [71.94902429, 34.46918603], [71.94913665, 34.4691813]]]]}, "properties": {"id": "Pakistan_123102132_376558", "height": 4.161996364593506, "hmax": 0.002, "ratio": 0.001, "vulnClass": "none"}}, {"type": "Feature", "geometry": {"type": "MultiPolygon", "coordinates": [[[[71.94655486, 34.47050941], [71.94653567, 34.47039664], [71.94643835, 34.4704079], [71.94647709, 34.4706356], [71.94681642, 34.47059636], [71.94679686, 34.47048143], [71.94655486, 34.47050941]]]]}, "properties": {"id": "Pakistan_123102132_182850", "height": 4.817886352539062, "hmax": 0.005, "ratio": 0.001, "vulnClass": "none"}}, {"type": "Feature", "geometry": {"type": "MultiPolygon", "coordinates": [[[[71.94677539, 34.4703414], [71.9466563, 34.47036516], [71.94666366, 34.47039023], [71.94678275, 34.47036647], [71.94677539, 34.4703414]]]]}, "properties": {"id": "Pakistan_123102132_275125", "height": 4.563972473144531, "hmax": 0.005, "ratio": 0.001, "vulnClass": "none"}}, {"type": "Feature", "geometry": {"type": "MultiPolygon", "coordinates": [[[[71.94717315, 34.47034772], [71.94720213, 34.47050552], [71.94739879, 34.47048098], [71.94738093, 34.4703837], [71.94733467, 34.47038947], [71.94732355, 34.47032895], [71.94717315, 34.47034772]]]]}, "properties": {"id": "Pakistan_123102132_28647", "height": 3.337227344512939, "hmax": 0.005, "ratio": 0.002, "vulnClass": "none"}}, {"type": "Feature", "geometry": {"type": "MultiPolygon", "coordinates": [[[[71.94685359, 34.47050428], [71.94685638, 34.47056926], [71.94701443, 34.47056465], [71.94701164, 34.47049967], [71.94685359, 34.47050428]]]]}, "properties": {"id": "Pakistan_123102132_506180", "height": 4.085932731628418, "hmax": 0.005, "ratio": 0.001, "vulnClass": "none"}}, {"type": "Feature", "geometry": {"type": "MultiPolygon", "coordinates": [[[[71.94559508, 34.47157356], [71.94554625, 34.47152539], [71.94546255, 34.47158306], [71.94551139, 34.47163123], [71.94559508, 34.47157356]]]]}, "properties": {"id": "Pakistan_123102132_114644", "height": 5.174415111541748, "hmax": 0.004, "ratio": 0.001, "vulnClass": "none"}}, {"type": "Feature", "geometry": {"type": "MultiPolygon", "coordinates": [[[[71.94575482, 34.47163986], [71.94584986, 34.47161173], [71.9458691, 34.4716559], [71.94610669, 34.47158558], [71.94607124, 34.47150418], [71.94598809, 34.4715288], [71.94596297, 34.47147112], [71.94579902, 34.47151964], [71.94576319, 34.47143737], [71.94567766, 34.47146268], [71.94575482, 34.47163986]]]]}, "properties": {"id": "Pakistan_123102132_426120", "height": 2.661404132843018, "hmax": 0.004, "ratio": 0.002, "vulnClass": "none"}}, {"type": "Feature", "geometry": {"type": "MultiPolygon", "coordinates": [[[[71.94608769, 34.47174415], [71.94603794, 34.47162567], [71.94593255, 34.47165574], [71.9459823, 34.47177422], [71.94608769, 34.47174415]]]]}, "properties": {"id": "Pakistan_123102132_164119", "height": 3.054613590240479, "hmax": 0.004, "ratio": 0.001, "vulnClass": "none"}}, {"type": "Feature", "geometry": {"type": "MultiPolygon", "coordinates": [[[[71.94630765, 34.47180928], [71.94660879, 34.47168458], [71.94654532, 34.4715804], [71.94647893, 34.47160789], [71.94648968, 34.47162555], [71.94634061, 34.47168729], [71.94631647, 34.47164766], [71.94623079, 34.47168314], [71.94630765, 34.47180928]]]]}, "properties": {"id": "Pakistan_123102132_105325", "height": 4.315151691436768, "hmax": 0.002, "ratio": 0.001, "vulnClass": "none"}}, {"type": "Feature", "geometry": {"type": "MultiPolygon", "coordinates": [[[[71.94586992, 34.47138572], [71.94589355, 34.47143934], [71.94601676, 34.47140243], [71.94599312, 34.47134882], [71.94586992, 34.47138572]]]]}, "properties": {"id": "Pakistan_123102132_278261", "height": 3.126214981079102, "hmax": 0.004, "ratio": 0.001, "vulnClass": "none"}}, {"type": "Feature", "geometry": {"type": "MultiPolygon", "coordinates": [[[[71.94592733, 34.47121827], [71.94585727, 34.47123869], [71.94587835, 34.47128783], [71.94582352, 34.47130381], [71.94585763, 34.47138332], [71.94598252, 34.4713469], [71.94592733, 34.47121827]]]]}, "properties": {"id": "Pakistan_123102132_22586", "height": 2.574686050415039, "hmax": 0.004, "ratio": 0.002, "vulnClass": "none"}}, {"type": "Feature", "geometry": {"type": "MultiPolygon", "coordinates": [[[[71.94653513, 34.47144649], [71.9466303, 34.4716826], [71.94671822, 34.47165851], [71.94663071, 34.47144146], [71.94672639, 34.47141525], [71.94674164, 34.47145308], [71.94682712, 34.47142966], [71.94680418, 34.47137277], [71.94653513, 34.47144649]]]]}, "properties": {"id": "Pakistan_123102132_327407", "height": 5.884746074676514, "hmax": 0.002, "ratio": 0.0, "vulnClass": "none"}}, {"type": "Feature", "geometry": {"type": "MultiPolygon", "coordinates": [[[[71.94691042, 34.47177494], [71.94721653, 34.47176254], [71.94721192, 34.47168533], [71.94717072, 34.471687], [71.94716914, 34.47166053], [71.94690424, 34.47167126], [71.94691042, 34.47177494]]]]}, "properties": {"id": "Pakistan_123102132_43981", "height": 4.350669860839844, "hmax": 0.002, "ratio": 0.001, "vulnClass": "none"}}, {"type": "Feature", "geometry": {"type": "MultiPolygon", "coordinates": [[[[71.94744992, 34.4715959], [71.94720033, 34.47162062], [71.94721366, 34.47171217], [71.94746326, 34.47168746], [71.94744992, 34.4715959]]]]}, "properties": {"id": "Pakistan_123102132_173517", "height": 3.987469911575317, "hmax": 0.002, "ratio": 0.001, "vulnClass": "none"}}, {"type": "Feature", "geometry": {"type": "MultiPolygon", "coordinates": [[[[71.94890549, 34.47163156], [71.94858236, 34.47172721], [71.94864464, 34.4718702], [71.94891549, 34.47179002], [71.94894535, 34.47185858], [71.94880279, 34.47190077], [71.94886197, 34.47203666], [71.94905679, 34.47197898], [71.94890549, 34.47163156]]]]}, "properties": {"id": "Pakistan_123102132_139516", "height": 7.815821170806885, "hmax": 0.003, "ratio": 0.0, "vulnClass": "none"}}, {"type": "Feature", "geometry": {"type": "MultiPolygon", "coordinates": [[[[71.94740998, 34.47176202], [71.94738202, 34.47169224], [71.94731914, 34.47170936], [71.94733272, 34.47174326], [71.94735449, 34.47173733], [71.94736887, 34.47177321], [71.94740998, 34.47176202]]]]}, "properties": {"id": "Pakistan_123102132_463084", "height": 2.771279811859131, "hmax": 0.002, "ratio": 0.001, "vulnClass": "none"}}, {"type": "Feature", "geometry": {"type": "MultiPolygon", "coordinates": [[[[71.94728711, 34.47179295], [71.94730002, 34.47188551], [71.94755522, 34.4718613], [71.94754486, 34.4717871], [71.94749457, 34.47179187], [71.94749201, 34.47177352], [71.94728711, 34.47179295]]]]}, "properties": {"id": "Pakistan_123102132_597861", "height": 3.944149971008301, "hmax": 0.002, "ratio": 0.001, "vulnClass": "none"}}, {"type": "Feature", "geometry": {"type": "MultiPolygon", "coordinates": [[[[71.94748315, 34.47174369], [71.94751272, 34.47173643], [71.94749878, 34.47169784], [71.94746921, 34.47170509], [71.94748315, 34.47174369]]]]}, "properties": {"id": "Pakistan_123102132_99148", "height": 2.603387832641602, "hmax": 0.002, "ratio": 0.001, "vulnClass": "none"}}, {"type": "Feature", "geometry": {"type": "MultiPolygon", "coordinates": [[[[71.94744255, 34.47200744], [71.94739962, 34.47201993], [71.94751021, 34.47227834], [71.94769288, 34.47222521], [71.94764492, 34.47211312], [71.94761391, 34.47212213], [71.94760381, 34.47209854], [71.94749508, 34.47213017], [71.94744255, 34.47200744]]]]}, "properties": {"id": "Pakistan_123102132_235054", "height": 3.665343761444092, "hmax": 0.002, "ratio": 0.001, "vulnClass": "none"}}, {"type": "Feature", "geometry": {"type": "MultiPolygon", "coordinates": [[[[71.94735683, 34.47200738], [71.94737906, 34.47210473], [71.94742051, 34.4720983], [71.94739827, 34.47200095], [71.94735683, 34.47200738]]]]}, "properties": {"id": "Pakistan_123102132_124034", "height": 2.996415376663208, "hmax": 0.002, "ratio": 0.001, "vulnClass": "none"}}, {"type": "Feature", "geometry": {"type": "MultiPolygon", "coordinates": [[[[71.94797262, 34.47198409], [71.94776899, 34.47197849], [71.94776212, 34.47214857], [71.94771389, 34.47214724], [71.94771827, 34.47203901], [71.94772363, 34.47203916], [71.94772505, 34.47200382], [71.9475777, 34.47199977], [71.94757422, 34.47208592], [71.94770014, 34.47208937], [71.94769353, 34.47225282], [71.94807934, 34.47226342], [71.94808425, 34.47214194], [71.94796637, 34.4721387], [71.94797262, 34.47198409]]]]}, "properties": {"id": "Pakistan_123102132_404495", "height": 3.724395275115967, "hmax": 0.002, "ratio": 0.001, "vulnClass": "none"}}, {"type": "Feature", "geometry": {"type": "MultiPolygon", "coordinates": [[[[71.94811076, 34.47216727], [71.94811696, 34.47227538], [71.94824274, 34.47227048], [71.94823655, 34.47216237], [71.94811076, 34.47216727]]]]}, "properties": {"id": "Pakistan_123102132_19477", "height": 4.075086116790771, "hmax": 0.002, "ratio": 0.001, "vulnClass": "none"}}, {"type": "Feature", "geometry": {"type": "MultiPolygon", "coordinates": [[[[71.9490693, 34.47211869], [71.94897222, 34.47215074], [71.94900219, 34.47221242], [71.94916303, 34.47215931], [71.94911859, 34.47206784], [71.94915653, 34.47205532], [71.94911116, 34.47196195], [71.94900946, 34.47199553], [71.9490693, 34.47211869]]]]}, "properties": {"id": "Pakistan_123102132_250590", "height": 2.569615840911865, "hmax": 0.003, "ratio": 0.001, "vulnClass": "none"}}, {"type": "Feature", "geometry": {"type": "MultiPolygon", "coordinates": [[[[71.9492172, 34.47207184], [71.94926346, 34.47222132], [71.94936923, 34.47219908], [71.94930819, 34.47200185], [71.9491571, 34.47203362], [71.94917187, 34.47208137], [71.9492172, 34.47207184]]]]}, "properties": {"id": "Pakistan_123102132_188948", "height": 2.828017234802246, "hmax": 0.003, "ratio": 0.001, "vulnClass": "none"}}, {"type": "Feature", "geometry": {"type": "MultiPolygon", "coordinates": [[[[71.94933959, 34.47241069], [71.94929788, 34.47231212], [71.94925862, 34.47232341], [71.9492408, 34.4722813], [71.94918102, 34.47229848], [71.94922772, 34.47240888], [71.94927794, 34.47239445], [71.94929075, 34.47242473], [71.94933959, 34.47241069]]]]}, "properties": {"id": "Pakistan_123102132_161024", "height": 2.721785306930542, "hmax": 0.003, "ratio": 0.001, "vulnClass": "none"}}, {"type": "Feature", "geometry": {"type": "MultiPolygon", "coordinates": [[[[71.94911974, 34.47235319], [71.94913198, 34.47244272], [71.94919025, 34.4724373], [71.94917801, 34.47234778], [71.94911974, 34.47235319]]]]}, "properties": {"id": "Pakistan_123102132_34739", "height": 3.565561294555664, "hmax": 0.003, "ratio": 0.001, "vulnClass": "none"}}, {"type": "Feature", "geometry": {"type": "MultiPolygon", "coordinates": [[[[71.9491158, 34.47261123], [71.94945247, 34.47262842], [71.94945787, 34.47255652], [71.9491212, 34.47253934], [71.9491158, 34.47261123]]]]}, "properties": {"id": "Pakistan_123102132_358231", "height": 3.955568075180054, "hmax": 0.003, "ratio": 0.001, "vulnClass": "none"}}, {"type": "Feature", "geometry": {"type": "MultiPolygon", "coordinates": [[[[71.94765058, 34.47263749], [71.94760598, 34.47248493], [71.94750965, 34.47250408], [71.94756745, 34.47270176], [71.94763082, 34.47268917], [71.94761763, 34.47264404], [71.94765058, 34.47263749]]]]}, "properties": {"id": "Pakistan_123102132_364370", "height": 5.795366764068604, "hmax": 0.002, "ratio": 0.0, "vulnClass": "none"}}, {"type": "Feature", "geometry": {"type": "MultiPolygon", "coordinates": [[[[71.94670781, 34.47262803], [71.94667047, 34.4725063], [71.94661898, 34.47251703], [71.94665631, 34.47263876], [71.94670781, 34.47262803]]]]}, "properties": {"id": "Pakistan_123102132_250581", "height": 4.356334686279297, "hmax": 0.002, "ratio": 0.001, "vulnClass": "none"}}, {"type": "Feature", "geometry": {"type": "MultiPolygon", "coordinates": [[[[71.94678646, 34.47260949], [71.94683629, 34.4725934], [71.94687273, 34.47267008], [71.94690063, 34.47266106], [71.94691209, 34.47268517], [71.94718316, 34.47259763], [71.94714528, 34.47251792], [71.94702535, 34.47255665], [71.94700713, 34.47251831], [71.94695598, 34.47253484], [71.94698019, 34.47258579], [71.94690578, 34.47260982], [71.94685333, 34.47249945], [71.94680118, 34.47251629], [71.94677568, 34.47246261], [71.94672452, 34.47247914], [71.94678646, 34.47260949]]]]}, "properties": {"id": "Pakistan_123102132_478504", "height": 3.917991638183594, "hmax": 0.002, "ratio": 0.001, "vulnClass": "none"}}, {"type": "Feature", "geometry": {"type": "MultiPolygon", "coordinates": [[[[71.94708902, 34.47220235], [71.94704043, 34.47221308], [71.94709005, 34.47236575], [71.94724375, 34.4723318], [71.94721788, 34.4722522], [71.94711277, 34.47227542], [71.94708902, 34.47220235]]]]}, "properties": {"id": "Pakistan_123102132_573291", "height": 4.229556560516357, "hmax": 0.002, "ratio": 0.001, "vulnClass": "none"}}, {"type": "Feature", "geometry": {"type": "MultiPolygon", "coordinates": [[[[71.9472182, 34.47193956], [71.94703094, 34.47199429], [71.94706763, 34.47207958], [71.94725488, 34.47202484], [71.9472182, 34.47193956]]]]}, "properties": {"id": "Pakistan_123102132_499949", "height": 3.827267646789551, "hmax": 0.002, "ratio": 0.001, "vulnClass": "none"}}, {"type": "Feature", "geometry": {"type": "MultiPolygon", "coordinates": [[[[71.94734539, 34.47229936], [71.94710671, 34.47235841], [71.94715544, 34.47249229], [71.94735579, 34.47244273], [71.94738946, 34.4725352], [71.94722601, 34.47257563], [71.94727843, 34.47271966], [71.94754524, 34.47265367], [71.94749163, 34.47250641], [71.94748179, 34.47250885], [71.94744856, 34.47241756], [71.94750165, 34.47240443], [71.94751346, 34.47243688], [71.94757848, 34.4724208], [71.94753461, 34.47230029], [71.94751001, 34.47230638], [71.94744606, 34.47213072], [71.94736876, 34.47214985], [71.94732121, 34.47201918], [71.94726215, 34.47203379], [71.94727544, 34.47207031], [71.9472986, 34.47206458], [71.9473122, 34.47210193], [71.94728021, 34.47210984], [71.94729763, 34.47215769], [71.94732614, 34.47215064], [71.94734637, 34.47220624], [71.94731439, 34.47221416], [71.94734539, 34.47229936]]]]}, "properties": {"id": "Pakistan_123102132_37778", "height": 6.308413505554199, "hmax": 0.002, "ratio": 0.0, "vulnClass": "none"}}, {"type": "Feature", "geometry": {"type": "MultiPolygon", "coordinates": [[[[71.94741857, 34.47194641], [71.94740697, 34.47189972], [71.94722934, 34.47192971], [71.94724094, 34.4719764], [71.94741857, 34.47194641]]]]}, "properties": {"id": "Pakistan_123102132_336720", "height": 4.102760314941406, "hmax": 0.002, "ratio": 0.001, "vulnClass": "none"}}, {"type": "Feature", "geometry": {"type": "MultiPolygon", "coordinates": [[[[71.94707676, 34.47183689], [71.94708828, 34.47189277], [71.94716543, 34.47188196], [71.94714329, 34.4717745], [71.94708072, 34.47178327], [71.94709135, 34.47183485], [71.94707676, 34.47183689]]]]}, "properties": {"id": "Pakistan_123102132_385962", "height": 4.762463569641113, "hmax": 0.002, "ratio": 0.0, "vulnClass": "none"}}, {"type": "Feature", "geometry": {"type": "MultiPolygon", "coordinates": [[[[71.9469796, 34.47179011], [71.94698154, 34.47183556], [71.94708174, 34.47183266], [71.9470798, 34.4717872], [71.9469796, 34.47179011]]]]}, "properties": {"id": "Pakistan_123102132_281334", "height": 2.442178964614868, "hmax": 0.002, "ratio": 0.001, "vulnClass": "none"}}, {"type": "Feature", "geometry": {"type": "MultiPolygon", "coordinates": [[[[71.94686255, 34.47175035], [71.94665679, 34.47179045], [71.94663877, 34.47172763], [71.94652598, 34.47174961], [71.94653619, 34.47178521], [71.94660732, 34.47177135], [71.94662954, 34.47184883], [71.94639076, 34.47189537], [71.94641658, 34.47198542], [71.94666299, 34.4719374], [71.94667199, 34.47196881], [71.94674162, 34.47195524], [71.94677732, 34.47207969], [71.94687788, 34.47206008], [71.94682537, 34.471877], [71.94689499, 34.47186343], [71.94686255, 34.47175035]]]]}, "properties": {"id": "Pakistan_123102132_4192", "height": 2.827015399932861, "hmax": 0.002, "ratio": 0.001, "vulnClass": "none"}}, {"type": "Feature", "geometry": {"type": "MultiPolygon", "coordinates": [[[[71.94698006, 34.47215515], [71.94693832, 34.4720803], [71.94666376, 34.47218435], [71.9467055, 34.4722592], [71.94698006, 34.47215515]]]]}, "properties": {"id": "Pakistan_123102132_68671", "height": 4.249218463897705, "hmax": 0.002, "ratio": 0.001, "vulnClass": "none"}}, {"type": "Feature", "geometry": {"type": "MultiPolygon", "coordinates": [[[[71.94628841, 34.47193963], [71.94624238, 34.47177595], [71.94614057, 34.47179541], [71.94615355, 34.47184157], [71.94604155, 34.47186298], [71.94604922, 34.47189026], [71.94594995, 34.47190923], [71.94593343, 34.47185047], [71.94585452, 34.47186555], [71.94589641, 34.47201454], [71.94628841, 34.47193963]]]]}, "properties": {"id": "Pakistan_123102132_269062", "height": 3.1385657787323, "hmax": 0.008, "ratio": 0.003, "vulnClass": "none"}}, {"type": "Feature", "geometry": {"type": "MultiPolygon", "coordinates": [[[[71.94531034, 34.47181147], [71.94526216, 34.47181329], [71.94526363, 34.47183977], [71.94531181, 34.47183795], [71.94531034, 34.47181147]]]]}, "properties": {"id": "Pakistan_123102132_496857", "height": 2.559735298156738, "hmax": 0.015, "ratio": 0.006, "vulnClass": "none"}}, {"type": "Feature", "geometry": {"type": "MultiPolygon", "coordinates": [[[[71.94501031, 34.47173834], [71.9450167, 34.47177968], [71.94505523, 34.47177563], [71.94504885, 34.47173429], [71.94501031, 34.47173834]]]]}, "properties": {"id": "Pakistan_123102132_407567", "height": 3.393824100494385, "hmax": 0.013, "ratio": 0.004, "vulnClass": "none"}}, {"type": "Feature", "geometry": {"type": "MultiPolygon", "coordinates": [[[[71.94479903, 34.47175003], [71.94478515, 34.47169611], [71.94472355, 34.47170689], [71.94473743, 34.47176081], [71.94479903, 34.47175003]]]]}, "properties": {"id": "Pakistan_123102132_339801", "height": 3.393405437469482, "hmax": 0.009, "ratio": 0.003, "vulnClass": "none"}}, {"type": "Feature", "geometry": {"type": "MultiPolygon", "coordinates": [[[[71.94569635, 34.47207164], [71.94565698, 34.47187579], [71.94580577, 34.47185546], [71.94582408, 34.47194651], [71.9458406, 34.47182856], [71.94585734, 34.47191186], [71.94586497, 34.47185744], [71.94594088, 34.47184707], [71.94591217, 34.47170429], [71.94591021, 34.4717041], [71.94578625, 34.47172104], [71.94565623, 34.47170865], [71.94565017, 34.47175189], [71.94562933, 34.47175473], [71.94552879, 34.47174516], [71.94549763, 34.47174941], [71.94548121, 34.47186666], [71.94530916, 34.47185027], [71.94530535, 34.47187748], [71.94472568, 34.47182229], [71.94471155, 34.47192315], [71.94477607, 34.47191434], [71.94478216, 34.47187083], [71.94493359, 34.47188526], [71.94493586, 34.47189653], [71.94505455, 34.47190784], [71.94508732, 34.47207082], [71.9448341, 34.47210542], [71.94481943, 34.47203243], [71.94474286, 34.47202515], [71.94477745, 34.47219719], [71.94569635, 34.47207164]]]]}, "properties": {"id": "Pakistan_123102132_521436", "height": 3.857423782348633, "hmax": 0.013, "ratio": 0.003, "vulnClass": "none"}}, {"type": "Feature", "geometry": {"type": "MultiPolygon", "coordinates": [[[[71.94508974, 34.47169089], [71.94504348, 34.47154854], [71.94500094, 34.47155793], [71.9450472, 34.47170029], [71.94508974, 34.47169089]]]]}, "properties": {"id": "Pakistan_123102132_339804", "height": 2.441641807556152, "hmax": 0.005, "ratio": 0.002, "vulnClass": "none"}}, {"type": "Feature", "geometry": {"type": "MultiPolygon", "coordinates": [[[[71.94509645, 34.4718231], [71.9454618, 34.47176102], [71.94543104, 34.471638], [71.94506569, 34.47170008], [71.94509645, 34.4718231]]]]}, "properties": {"id": "Pakistan_123102132_74780", "height": 3.596005916595459, "hmax": 0.008, "ratio": 0.002, "vulnClass": "none"}}, {"type": "Feature", "geometry": {"type": "MultiPolygon", "coordinates": [[[[71.95066244, 34.45816046], [71.95063797, 34.45820701], [71.95066507, 34.4582167], [71.95060929, 34.45832282], [71.950738, 34.45836882], [71.95074034, 34.45836437], [71.95078324, 34.4583797], [71.950822, 34.45830596], [71.95084684, 34.45831483], [71.95088599, 34.45824036], [71.95066244, 34.45816046]]]]}, "properties": {"id": "Pakistan_123102132_253572", "height": 2.712597608566284, "hmax": 0.023, "ratio": 0.009, "vulnClass": "none"}}, {"type": "Feature", "geometry": {"type": "MultiPolygon", "coordinates": [[[[71.95042798, 34.4599086], [71.9504234, 34.45981366], [71.95025897, 34.45981905], [71.95026356, 34.45991399], [71.95042798, 34.4599086]]]]}, "properties": {"id": "Pakistan_123102132_475391", "height": 2.850263118743896, "hmax": 0.002, "ratio": 0.001, "vulnClass": "none"}}, {"type": "Feature", "geometry": {"type": "MultiPolygon", "coordinates": [[[[71.94753399, 34.46050415], [71.94751962, 34.4604345], [71.94741795, 34.46044876], [71.94743232, 34.46051842], [71.94753399, 34.46050415]]]]}, "properties": {"id": "Pakistan_123102132_567110", "height": 2.980116605758667, "hmax": 0.003, "ratio": 0.001, "vulnClass": "none"}}, {"type": "Feature", "geometry": {"type": "MultiPolygon", "coordinates": [[[[71.94732038, 34.46046973], [71.94736201, 34.46063606], [71.94766816, 34.46058398], [71.94762622, 34.4604164], [71.94766323, 34.46041011], [71.94762905, 34.46027349], [71.9475766, 34.46028241], [71.94761556, 34.46043812], [71.94758469, 34.46044337], [71.94759775, 34.46049554], [71.94743052, 34.46052398], [71.947413, 34.46045398], [71.94732038, 34.46046973]]]]}, "properties": {"id": "Pakistan_123102132_361271", "height": 3.355995893478394, "hmax": 0.007, "ratio": 0.002, "vulnClass": "none"}}, {"type": "Feature", "geometry": {"type": "MultiPolygon", "coordinates": [[[[71.94677088, 34.45978088], [71.94689196, 34.46003855], [71.94710418, 34.45997075], [71.94708972, 34.45993998], [71.94722032, 34.45989826], [71.94719683, 34.45984827], [71.9471292, 34.45986987], [71.9471057, 34.45981988], [71.94705206, 34.45983701], [71.94707827, 34.45989278], [71.94694767, 34.4599345], [71.94691514, 34.45986528], [71.94697717, 34.45984546], [71.94692385, 34.45973201], [71.94677088, 34.45978088]]]]}, "properties": {"id": "Pakistan_123102132_515335", "height": 2.82954216003418, "hmax": 0.008, "ratio": 0.003, "vulnClass": "none"}}, {"type": "Feature", "geometry": {"type": "MultiPolygon", "coordinates": [[[[71.94568227, 34.4591612], [71.94568411, 34.45920981], [71.94574842, 34.45920816], [71.94574737, 34.45918044], [71.94578757, 34.45917941], [71.94578628, 34.45914527], [71.94582225, 34.45914435], [71.94581992, 34.45908248], [71.94571695, 34.45908512], [71.94571979, 34.45916024], [71.94568227, 34.4591612]]]]}, "properties": {"id": "Pakistan_123102132_120908", "height": 2.667201519012451, "hmax": 0.002, "ratio": 0.001, "vulnClass": "none"}}, {"type": "Feature", "geometry": {"type": "MultiPolygon", "coordinates": [[[[71.94602772, 34.45951645], [71.94601596, 34.45934006], [71.94587579, 34.45934642], [71.94587197, 34.45928909], [71.9457864, 34.45929297], [71.9457939, 34.45940542], [71.9459276, 34.45939936], [71.9459357, 34.45952062], [71.94602772, 34.45951645]]]]}, "properties": {"id": "Pakistan_123102132_475369", "height": 2.506168842315674, "hmax": 0.001, "ratio": 0.0, "vulnClass": "none"}}, {"type": "Feature", "geometry": {"type": "MultiPolygon", "coordinates": [[[[71.94552126, 34.4594194], [71.94552938, 34.45947387], [71.94558222, 34.45946851], [71.94557897, 34.45944672], [71.94562918, 34.45944164], [71.94564639, 34.45955711], [71.94586834, 34.45953461], [71.94585957, 34.45947579], [71.94579242, 34.4594826], [71.9457882, 34.45945427], [71.94571795, 34.45946139], [71.94570886, 34.45940039], [71.94552126, 34.4594194]]]]}, "properties": {"id": "Pakistan_123102132_352060", "height": 2.655445098876953, "hmax": 0.001, "ratio": 0.0, "vulnClass": "none"}}, {"type": "Feature", "geometry": {"type": "MultiPolygon", "coordinates": [[[[71.94753712, 34.46029547], [71.94752176, 34.46020886], [71.94749025, 34.46021266], [71.94747358, 34.46011867], [71.94735804, 34.46013259], [71.94736971, 34.46019844], [71.9473986, 34.46019496], [71.94740359, 34.4602231], [71.94718563, 34.46024938], [71.94720098, 34.46033599], [71.94753712, 34.46029547]]]]}, "properties": {"id": "Pakistan_123102132_232019", "height": 2.578432083129883, "hmax": 0.003, "ratio": 0.001, "vulnClass": "none"}}, {"type": "Feature", "geometry": {"type": "MultiPolygon", "coordinates": [[[[71.9464274, 34.46049169], [71.94639821, 34.46045806], [71.94636096, 34.46048004], [71.94639015, 34.46051367], [71.9464274, 34.46049169]]]]}, "properties": {"id": "Pakistan_123102132_216676", "height": 2.835363388061523, "hmax": 0.003, "ratio": 0.001, "vulnClass": "none"}}, {"type": "Feature", "geometry": {"type": "MultiPolygon", "coordinates": [[[[71.94343099, 34.45789244], [71.94337244, 34.45791215], [71.94341606, 34.45800028], [71.94347461, 34.45798058], [71.94343099, 34.45789244]]]]}, "properties": {"id": "Pakistan_123102132_545840", "height": 2.776525974273682, "hmax": 0.004, "ratio": 0.001, "vulnClass": "none"}}, {"type": "Feature", "geometry": {"type": "MultiPolygon", "coordinates": [[[[71.94271002, 34.45848488], [71.94270757, 34.45843188], [71.9425805, 34.45843586], [71.94258294, 34.45848886], [71.94271002, 34.45848488]]]]}, "properties": {"id": "Pakistan_123102132_419909", "height": 2.530924558639526, "hmax": 0.012, "ratio": 0.005, "vulnClass": "none"}}, {"type": "Feature", "geometry": {"type": "MultiPolygon", "coordinates": [[[[71.94243769, 34.46197512], [71.94244044, 34.46188229], [71.94238683, 34.46188122], [71.9423811, 34.4620747], [71.94288238, 34.46208476], [71.94288653, 34.46194435], [71.94281684, 34.46194295], [71.94281566, 34.46198273], [71.94243769, 34.46197512]]]]}, "properties": {"id": "Pakistan_123102132_413739", "height": 5.915863037109375, "hmax": 0.002, "ratio": 0.0, "vulnClass": "none"}}, {"type": "Feature", "geometry": {"type": "MultiPolygon", "coordinates": [[[[71.94460057, 34.46274912], [71.94456529, 34.46275313], [71.94457183, 34.46279219], [71.94460711, 34.46278818], [71.94460057, 34.46274912]]]]}, "properties": {"id": "Pakistan_123102132_370438", "height": 4.622036933898926, "hmax": 0.004, "ratio": 0.001, "vulnClass": "none"}}, {"type": "Feature", "geometry": {"type": "MultiPolygon", "coordinates": [[[[71.94448184, 34.46279927], [71.94443627, 34.46280021], [71.94443741, 34.46283778], [71.94448298, 34.46283684], [71.94448184, 34.46279927]]]]}, "properties": {"id": "Pakistan_123102132_37766", "height": 3.522716522216797, "hmax": 0.004, "ratio": 0.001, "vulnClass": "none"}}, {"type": "Feature", "geometry": {"type": "MultiPolygon", "coordinates": [[[[71.94440582, 34.46272598], [71.94407019, 34.46274287], [71.94406465, 34.46266796], [71.94416886, 34.46266272], [71.94416585, 34.46262197], [71.94407657, 34.46262645], [71.94398743, 34.46260972], [71.94397639, 34.46264971], [71.94397904, 34.46268554], [71.94400733, 34.46269085], [71.94401271, 34.46276346], [71.9439646, 34.46276588], [71.94395962, 34.46269848], [71.94391863, 34.46269079], [71.94383133, 34.46269518], [71.94380717, 34.46278264], [71.94379629, 34.46278319], [71.94375777, 34.46292264], [71.94394937, 34.46295862], [71.94393831, 34.46280922], [71.94397731, 34.46280725], [71.94398057, 34.46285132], [71.9441409, 34.46284325], [71.94414305, 34.46287224], [71.9441878, 34.46288064], [71.94420512, 34.46281791], [71.94433811, 34.46281121], [71.94435393, 34.46302493], [71.94444478, 34.46302036], [71.94442787, 34.46279194], [71.94441045, 34.46278867], [71.94440582, 34.46272598]]]]}, "properties": {"id": "Pakistan_123102132_154839", "height": 2.841322422027588, "hmax": 0.003, "ratio": 0.001, "vulnClass": "none"}}, {"type": "Feature", "geometry": {"type": "MultiPolygon", "coordinates": [[[[71.94336546, 34.46267073], [71.94338857, 34.46277909], [71.94343801, 34.46277193], [71.9434149, 34.46266357], [71.94336546, 34.46267073]]]]}, "properties": {"id": "Pakistan_123102132_456941", "height": 3.75844144821167, "hmax": 0.002, "ratio": 0.001, "vulnClass": "none"}}, {"type": "Feature", "geometry": {"type": "MultiPolygon", "coordinates": [[[[71.9442791, 34.46467247], [71.94427597, 34.46477968], [71.94438588, 34.46478187], [71.94438901, 34.46467465], [71.9442791, 34.46467247]]]]}, "properties": {"id": "Pakistan_123102132_256637", "height": 3.782848119735718, "hmax": 0.005, "ratio": 0.001, "vulnClass": "none"}}, {"type": "Feature", "geometry": {"type": "MultiPolygon", "coordinates": [[[[71.94449047, 34.4644663], [71.94427358, 34.46447363], [71.94427803, 34.46456306], [71.94449492, 34.46455574], [71.94449047, 34.4644663]]]]}, "properties": {"id": "Pakistan_123102132_241275", "height": 2.838414907455444, "hmax": 0.006, "ratio": 0.002, "vulnClass": "none"}}, {"type": "Feature", "geometry": {"type": "MultiPolygon", "coordinates": [[[[71.94428571, 34.46894716], [71.94427717, 34.46863774], [71.94405576, 34.46864188], [71.94405735, 34.46869934], [71.94417798, 34.46869709], [71.94418491, 34.46894905], [71.94428571, 34.46894716]]]]}, "properties": {"id": "Pakistan_123102132_102208", "height": 3.391119480133057, "hmax": 0.011, "ratio": 0.003, "vulnClass": "none"}}, {"type": "Feature", "geometry": {"type": "MultiPolygon", "coordinates": [[[[71.94635915, 34.46504153], [71.94637135, 34.46509492], [71.94648791, 34.46507682], [71.94647571, 34.46502343], [71.94635915, 34.46504153]]]]}, "properties": {"id": "Pakistan_123102132_490819", "height": 3.748056411743164, "hmax": 0.005, "ratio": 0.001, "vulnClass": "none"}}, {"type": "Feature", "geometry": {"type": "MultiPolygon", "coordinates": [[[[71.94657414, 34.46493374], [71.94657188, 34.46485196], [71.94642318, 34.46485475], [71.94642543, 34.46493653], [71.94657414, 34.46493374]]]]}, "properties": {"id": "Pakistan_123102132_77777", "height": 2.642117977142334, "hmax": 0.005, "ratio": 0.002, "vulnClass": "none"}}, {"type": "Feature", "geometry": {"type": "MultiPolygon", "coordinates": [[[[71.94840014, 34.46524838], [71.9484176, 34.46544773], [71.9486858, 34.46543177], [71.94868002, 34.46536578], [71.94857458, 34.46537205], [71.94857389, 34.46536408], [71.94846982, 34.46537028], [71.94846211, 34.46528228], [71.94850748, 34.46527958], [71.9485042, 34.46524218], [71.94840014, 34.46524838]]]]}, "properties": {"id": "Pakistan_123102132_86896", "height": 2.53419017791748, "hmax": 0.008, "ratio": 0.003, "vulnClass": "none"}}, {"type": "Feature", "geometry": {"type": "MultiPolygon", "coordinates": [[[[71.94846585, 34.46528755], [71.94847945, 34.46536555], [71.94854252, 34.46535807], [71.94853609, 34.46532124], [71.94851635, 34.46532358], [71.94850916, 34.46528241], [71.94846585, 34.46528755]]]]}, "properties": {"id": "Pakistan_123102132_336723", "height": 2.499447822570801, "hmax": 0.009, "ratio": 0.004, "vulnClass": "none"}}, {"type": "Feature", "geometry": {"type": "MultiPolygon", "coordinates": [[[[71.9481218, 34.46706585], [71.94814121, 34.46711213], [71.94814566, 34.46721408], [71.94847783, 34.46720425], [71.94847622, 34.46716739], [71.94853185, 34.46715152], [71.94852988, 34.46710625], [71.94846291, 34.46710824], [71.94846503, 34.46715683], [71.94824537, 34.46716334], [71.94824094, 34.46706175], [71.94830578, 34.46705983], [71.94846949, 34.46701314], [71.94846691, 34.46695417], [71.94814133, 34.46704702], [71.94819326, 34.46704548], [71.9481218, 34.46706585]]]]}, "properties": {"id": "Pakistan_123102132_423096", "height": 3.610470771789551, "hmax": 0.007, "ratio": 0.002, "vulnClass": "none"}}, {"type": "Feature", "geometry": {"type": "MultiPolygon", "coordinates": [[[[71.95110748, 34.46694869], [71.95099458, 34.46699151], [71.95094937, 34.46691048], [71.95090731, 34.46692644], [71.95098104, 34.46705856], [71.951136, 34.46699979], [71.95110748, 34.46694869]]]]}, "properties": {"id": "Pakistan_123102132_139528", "height": 2.710035800933838, "hmax": 0.018, "ratio": 0.007, "vulnClass": "none"}}, {"type": "Feature", "geometry": {"type": "MultiPolygon", "coordinates": [[[[71.95099927, 34.46688798], [71.95097113, 34.46683934], [71.95090339, 34.46686597], [71.95093153, 34.46691461], [71.95099927, 34.46688798]]]]}, "properties": {"id": "Pakistan_123102132_188955", "height": 3.171785593032837, "hmax": 0.018, "ratio": 0.006, "vulnClass": "none"}}, {"type": "Feature", "geometry": {"type": "MultiPolygon", "coordinates": [[[[71.95078555, 34.46736342], [71.95085581, 34.4675667], [71.95095145, 34.46754423], [71.95088118, 34.46734095], [71.95078555, 34.46736342]]]]}, "properties": {"id": "Pakistan_123102132_379677", "height": 3.241041421890259, "hmax": 0.006, "ratio": 0.002, "vulnClass": "none"}}, {"type": "Feature", "geometry": {"type": "MultiPolygon", "coordinates": [[[[71.95094484, 34.46760115], [71.95093487, 34.4675678], [71.95088824, 34.46757728], [71.95089821, 34.46761063], [71.95094484, 34.46760115]]]]}, "properties": {"id": "Pakistan_123102132_545867", "height": 4.619202613830566, "hmax": 0.004, "ratio": 0.001, "vulnClass": "none"}}, {"type": "Feature", "geometry": {"type": "MultiPolygon", "coordinates": [[[[71.95049614, 34.46764898], [71.95054675, 34.4676525], [71.95055191, 34.467602], [71.95050131, 34.46759848], [71.95049614, 34.46764898]]]]}, "properties": {"id": "Pakistan_123102132_530662", "height": 3.253296375274658, "hmax": 0.009, "ratio": 0.003, "vulnClass": "none"}}, {"type": "Feature", "geometry": {"type": "MultiPolygon", "coordinates": [[[[71.95027905, 34.46761266], [71.95037592, 34.46777917], [71.95043479, 34.46775589], [71.95039505, 34.46768757], [71.9504486, 34.4676664], [71.95041762, 34.46761315], [71.95037061, 34.46763174], [71.95034446, 34.4675868], [71.95027905, 34.46761266]]]]}, "properties": {"id": "Pakistan_123102132_373455", "height": 3.122436046600342, "hmax": 0.009, "ratio": 0.003, "vulnClass": "none"}}, {"type": "Feature", "geometry": {"type": "MultiPolygon", "coordinates": [[[[71.95165214, 34.46875658], [71.95163705, 34.46861616], [71.95158649, 34.46861985], [71.95159521, 34.46870103], [71.95139561, 34.46871561], [71.95139349, 34.46869587], [71.95133494, 34.46870014], [71.95134343, 34.46877913], [71.95165214, 34.46875658]]]]}, "properties": {"id": "Pakistan_123102132_450716", "height": 2.494279146194458, "hmax": 0.007, "ratio": 0.003, "vulnClass": "none"}}, {"type": "Feature", "geometry": {"type": "MultiPolygon", "coordinates": [[[[71.95206326, 34.46607483], [71.95197246, 34.46610103], [71.95199456, 34.46615308], [71.95208536, 34.46612689], [71.95206326, 34.46607483]]]]}, "properties": {"id": "Pakistan_123102132_210707", "height": 2.454283952713013, "hmax": 0.003, "ratio": 0.001, "vulnClass": "none"}}, {"type": "Feature", "geometry": {"type": "MultiPolygon", "coordinates": [[[[71.95230742, 34.46594968], [71.95209038, 34.46595526], [71.95209342, 34.46603574], [71.95231046, 34.46603016], [71.95230742, 34.46594968]]]]}, "properties": {"id": "Pakistan_123102132_154877", "height": 3.019922733306885, "hmax": 0.003, "ratio": 0.001, "vulnClass": "none"}}, {"type": "Feature", "geometry": {"type": "MultiPolygon", "coordinates": [[[[71.94947604, 34.46629364], [71.94944417, 34.46623736], [71.94949481, 34.46621786], [71.94946294, 34.46616158], [71.94939027, 34.46618956], [71.94937793, 34.46616777], [71.94925021, 34.46621694], [71.9493263, 34.46635129], [71.94947604, 34.46629364]]]]}, "properties": {"id": "Pakistan_123102132_145588", "height": 3.465792655944824, "hmax": 0.005, "ratio": 0.001, "vulnClass": "none"}}, {"type": "Feature", "geometry": {"type": "MultiPolygon", "coordinates": [[[[71.94973835, 34.46641934], [71.949676, 34.4661612], [71.94958828, 34.4661756], [71.94959856, 34.46621814], [71.94963984, 34.46621136], [71.94967323, 34.46634962], [71.94950162, 34.46637779], [71.94952029, 34.46645513], [71.94973835, 34.46641934]]]]}, "properties": {"id": "Pakistan_123102132_130247", "height": 3.695696115493774, "hmax": 0.006, "ratio": 0.002, "vulnClass": "none"}}, {"type": "Feature", "geometry": {"type": "MultiPolygon", "coordinates": [[[[71.95176658, 34.46545098], [71.95186924, 34.4654359], [71.95186534, 34.46541785], [71.95191866, 34.46541002], [71.95190662, 34.46535429], [71.95162326, 34.46539592], [71.95168577, 34.46568528], [71.95180145, 34.46566828], [71.95175578, 34.46545698], [71.95169858, 34.46546538], [71.95168774, 34.4654152], [71.95175666, 34.46540507], [71.95176658, 34.46545098]]]]}, "properties": {"id": "Pakistan_123102132_43998", "height": 2.823655366897583, "hmax": 0.013, "ratio": 0.005, "vulnClass": "none"}}, {"type": "Feature", "geometry": {"type": "MultiPolygon", "coordinates": [[[[71.95164222, 34.46556709], [71.95158565, 34.46557679], [71.95159933, 34.46563103], [71.95165589, 34.46562133], [71.95164222, 34.46556709]]]]}, "properties": {"id": "Pakistan_123102132_438457", "height": 3.266539812088013, "hmax": 0.019, "ratio": 0.006, "vulnClass": "none"}}, {"type": "Feature", "geometry": {"type": "MultiPolygon", "coordinates": [[[[71.95192258, 34.46539988], [71.95196099, 34.4655386], [71.95205022, 34.46552181], [71.95201181, 34.46538308], [71.95192258, 34.46539988]]]]}, "properties": {"id": "Pakistan_123102132_419960", "height": 3.063865184783936, "hmax": 0.003, "ratio": 0.001, "vulnClass": "none"}}, {"type": "Feature", "geometry": {"type": "MultiPolygon", "coordinates": [[[[71.95246888, 34.46557083], [71.95242754, 34.46557748], [71.95243582, 34.46561249], [71.95247716, 34.46560584], [71.95246888, 34.46557083]]]]}, "properties": {"id": "Pakistan_123102132_204504", "height": 2.537062406539917, "hmax": 0.003, "ratio": 0.001, "vulnClass": "none"}}, {"type": "Feature", "geometry": {"type": "MultiPolygon", "coordinates": [[[[71.95307047, 34.46346055], [71.95315365, 34.46362834], [71.95327776, 34.46358653], [71.95319459, 34.46341873], [71.95307047, 34.46346055]]]]}, "properties": {"id": "Pakistan_123102132_423125", "height": 4.673012733459473, "hmax": 0.002, "ratio": 0.0, "vulnClass": "none"}}, {"type": "Feature", "geometry": {"type": "MultiPolygon", "coordinates": [[[[71.95306489, 34.46308028], [71.9530815, 34.4631343], [71.95318987, 34.46311165], [71.95317325, 34.46305762], [71.95306489, 34.46308028]]]]}, "properties": {"id": "Pakistan_123102132_570189", "height": 3.941557168960571, "hmax": 0.002, "ratio": 0.001, "vulnClass": "none"}}, {"type": "Feature", "geometry": {"type": "MultiPolygon", "coordinates": [[[[71.95233739, 34.46300535], [71.95236543, 34.46306752], [71.95251389, 34.46302202], [71.95248586, 34.46295985], [71.95233739, 34.46300535]]]]}, "properties": {"id": "Pakistan_123102132_99180", "height": 10.029975891113281, "hmax": 0.002, "ratio": 0.0, "vulnClass": "none"}}, {"type": "Feature", "geometry": {"type": "MultiPolygon", "coordinates": [[[[71.95231482, 34.46319296], [71.95234958, 34.46327088], [71.95259292, 34.46319707], [71.95255816, 34.46311916], [71.95231482, 34.46319296]]]]}, "properties": {"id": "Pakistan_123102132_222784", "height": 6.844578742980957, "hmax": 0.002, "ratio": 0.0, "vulnClass": "none"}}, {"type": "Feature", "geometry": {"type": "MultiPolygon", "coordinates": [[[[71.95213212, 34.4633813], [71.95209026, 34.46328938], [71.95191866, 34.46334252], [71.95196053, 34.46343443], [71.95213212, 34.4633813]]]]}, "properties": {"id": "Pakistan_123102132_130263", "height": 2.671233654022217, "hmax": 0.002, "ratio": 0.001, "vulnClass": "none"}}, {"type": "Feature", "geometry": {"type": "MultiPolygon", "coordinates": [[[[71.95138246, 34.46354523], [71.95143248, 34.46364812], [71.95170286, 34.46355876], [71.95165284, 34.46345587], [71.95138246, 34.46354523]]]]}, "properties": {"id": "Pakistan_123102132_130258", "height": 4.964920043945312, "hmax": 0.023, "ratio": 0.005, "vulnClass": "none"}}, {"type": "Feature", "geometry": {"type": "MultiPolygon", "coordinates": [[[[71.94984983, 34.4629297], [71.94980826, 34.46293234], [71.94981148, 34.46296671], [71.94985305, 34.46296407], [71.94984983, 34.4629297]]]]}, "properties": {"id": "Pakistan_123102132_216687", "height": 3.499923467636108, "hmax": 0.034, "ratio": 0.01, "vulnClass": "none"}}, {"type": "Feature", "geometry": {"type": "MultiPolygon", "coordinates": [[[[71.94984793, 34.46308399], [71.94985069, 34.46303544], [71.94977197, 34.4630324], [71.94976979, 34.46307072], [71.94970399, 34.46306818], [71.94970341, 34.46307841], [71.94984793, 34.46308399]]]]}, "properties": {"id": "Pakistan_123102132_401491", "height": 2.856033325195312, "hmax": 0.034, "ratio": 0.012, "vulnClass": "none"}}, {"type": "Feature", "geometry": {"type": "MultiPolygon", "coordinates": [[[[71.94968688, 34.46293048], [71.94956893, 34.46293268], [71.94957357, 34.46310146], [71.94969153, 34.46309926], [71.94968688, 34.46293048]]]]}, "properties": {"id": "Pakistan_123102132_287478", "height": 3.616866111755371, "hmax": 0.004, "ratio": 0.001, "vulnClass": "none"}}, {"type": "Feature", "geometry": {"type": "MultiPolygon", "coordinates": [[[[71.9465565, 34.46476249], [71.94654602, 34.46471772], [71.94650085, 34.4647249], [71.94651133, 34.46476967], [71.9465565, 34.46476249]]]]}, "properties": {"id": "Pakistan_123102132_355169", "height": 2.602720737457275, "hmax": 0.005, "ratio": 0.002, "vulnClass": "none"}}, {"type": "Feature", "geometry": {"type": "MultiPolygon", "coordinates": [[[[71.94605527, 34.46458239], [71.94611197, 34.46458886], [71.94613001, 34.46458452], [71.94612422, 34.464619], [71.94606866, 34.46461267], [71.9460816, 34.46464923], [71.94608027, 34.46465713], [71.94610377, 34.46472351], [71.94615205, 34.4647119], [71.94612609, 34.46463853], [71.94616545, 34.46462906], [71.9461707, 34.46459776], [71.94618594, 34.4645995], [71.94619165, 34.46461563], [71.94622079, 34.46461895], [71.94622692, 34.46458237], [71.9462211, 34.46456592], [71.94621959, 34.46456574], [71.94619734, 34.46450288], [71.94618669, 34.46456641], [71.9461234, 34.4645592], [71.94608674, 34.46445561], [71.94603697, 34.46446758], [71.94603238, 34.46449495], [71.94604329, 34.46452581], [71.94604071, 34.46454123], [71.94605527, 34.46458239]]]]}, "properties": {"id": "Pakistan_123102132_265932", "height": 2.959711074829102, "hmax": 0.01, "ratio": 0.003, "vulnClass": "none"}}, {"type": "Feature", "geometry": {"type": "MultiPolygon", "coordinates": [[[[71.94603499, 34.46457986], [71.94602564, 34.46445774], [71.94588405, 34.4644651], [71.9458934, 34.46458723], [71.94603499, 34.46457986]]]]}, "properties": {"id": "Pakistan_123102132_99138", "height": 2.803314208984375, "hmax": 0.016, "ratio": 0.006, "vulnClass": "none"}}, {"type": "Feature", "geometry": {"type": "MultiPolygon", "coordinates": [[[[71.94641664, 34.46454029], [71.94633691, 34.46455117], [71.94632074, 34.46447059], [71.94628419, 34.46447557], [71.94631919, 34.46464992], [71.9463714, 34.4646428], [71.94637116, 34.46464159], [71.94643522, 34.46463285], [71.94641664, 34.46454029]]]]}, "properties": {"id": "Pakistan_123102132_114647", "height": 2.761862516403198, "hmax": 0.009, "ratio": 0.003, "vulnClass": "none"}}, {"type": "Feature", "geometry": {"type": "MultiPolygon", "coordinates": [[[[71.94627557, 34.46441479], [71.94625956, 34.46430806], [71.94600474, 34.46433403], [71.94602075, 34.46444076], [71.94627557, 34.46441479]]]]}, "properties": {"id": "Pakistan_123102132_281332", "height": 2.493956089019775, "hmax": 0.019, "ratio": 0.008, "vulnClass": "none"}}, {"type": "Feature", "geometry": {"type": "MultiPolygon", "coordinates": [[[[71.94621993, 34.46322871], [71.94605214, 34.46329963], [71.94609896, 34.46337493], [71.94616692, 34.4633462], [71.94614841, 34.46331643], [71.94624824, 34.46327424], [71.94621993, 34.46322871]]]]}, "properties": {"id": "Pakistan_123102132_96136", "height": 3.127127408981323, "hmax": 0.015, "ratio": 0.005, "vulnClass": "none"}}, {"type": "Feature", "geometry": {"type": "MultiPolygon", "coordinates": [[[[71.94760376, 34.46305928], [71.94750406, 34.46308196], [71.94755081, 34.4632217], [71.94765051, 34.46319903], [71.94760376, 34.46305928]]]]}, "properties": {"id": "Pakistan_123102132_551902", "height": 2.696848630905151, "hmax": 0.003, "ratio": 0.001, "vulnClass": "none"}}, {"type": "Feature", "geometry": {"type": "MultiPolygon", "coordinates": [[[[71.94775083, 34.463133], [71.94776968, 34.46321268], [71.94791955, 34.46318857], [71.9479007, 34.4631089], [71.94775083, 34.463133]]]]}, "properties": {"id": "Pakistan_123102132_419934", "height": 3.399705410003662, "hmax": 0.003, "ratio": 0.001, "vulnClass": "none"}}, {"type": "Feature", "geometry": {"type": "MultiPolygon", "coordinates": [[[[71.9481695, 34.46300902], [71.94820535, 34.4630809], [71.94838889, 34.46301866], [71.94835492, 34.46295057], [71.94825627, 34.46298402], [71.94821759, 34.46290646], [71.94802258, 34.46297259], [71.94805938, 34.46304636], [71.9481695, 34.46300902]]]]}, "properties": {"id": "Pakistan_123102132_207549", "height": 2.799017667770386, "hmax": 0.003, "ratio": 0.001, "vulnClass": "none"}}, {"type": "Feature", "geometry": {"type": "MultiPolygon", "coordinates": [[[[71.94794698, 34.46310737], [71.94791756, 34.46301417], [71.94787086, 34.46302419], [71.94790029, 34.46311739], [71.94794698, 34.46310737]]]]}, "properties": {"id": "Pakistan_123102132_432280", "height": 3.02790641784668, "hmax": 0.003, "ratio": 0.001, "vulnClass": "none"}}, {"type": "Feature", "geometry": {"type": "MultiPolygon", "coordinates": [[[[71.94892678, 34.46286566], [71.94877422, 34.46234925], [71.94871852, 34.46236043], [71.94883901, 34.4627683], [71.94851998, 34.46283238], [71.94855205, 34.46294094], [71.94892678, 34.46286566]]]]}, "properties": {"id": "Pakistan_123102132_469078", "height": 3.220782041549683, "hmax": 0.011, "ratio": 0.003, "vulnClass": "none"}}, {"type": "Feature", "geometry": {"type": "MultiPolygon", "coordinates": [[[[71.94814808, 34.46231031], [71.94799874, 34.46235792], [71.94802545, 34.46241488], [71.94817479, 34.46236728], [71.94814808, 34.46231031]]]]}, "properties": {"id": "Pakistan_123102132_235058", "height": 4.738652229309082, "hmax": 0.004, "ratio": 0.001, "vulnClass": "none"}}, {"type": "Feature", "geometry": {"type": "MultiPolygon", "coordinates": [[[[71.94761949, 34.46223758], [71.94769778, 34.46240511], [71.94785426, 34.4623554], [71.94777597, 34.46218787], [71.94761949, 34.46223758]]]]}, "properties": {"id": "Pakistan_123102132_207545", "height": 4.152148723602295, "hmax": 0.004, "ratio": 0.001, "vulnClass": "none"}}, {"type": "Feature", "geometry": {"type": "MultiPolygon", "coordinates": [[[[71.94826107, 34.46297779], [71.94835862, 34.46294345], [71.94848975, 34.46319668], [71.94862133, 34.46315036], [71.94856091, 34.46303368], [71.94858814, 34.46302409], [71.94846803, 34.46279215], [71.94825931, 34.46286562], [71.94821573, 34.46278144], [71.94816809, 34.46279822], [71.94826107, 34.46297779]]]]}, "properties": {"id": "Pakistan_123102132_105333", "height": 3.799294471740723, "hmax": 0.003, "ratio": 0.001, "vulnClass": "none"}}, {"type": "Feature", "geometry": {"type": "MultiPolygon", "coordinates": [[[[71.94694769, 34.46285473], [71.94691645, 34.46276583], [71.94666506, 34.4628259], [71.9466461, 34.46277198], [71.94660056, 34.46278286], [71.94657189, 34.46270125], [71.94652092, 34.46271343], [71.9465998, 34.46293784], [71.94694769, 34.46285473]]]]}, "properties": {"id": "Pakistan_123102132_83898", "height": 3.811933040618896, "hmax": 0.004, "ratio": 0.001, "vulnClass": "none"}}, {"type": "Feature", "geometry": {"type": "MultiPolygon", "coordinates": [[[[71.94777287, 34.46161263], [71.94774965, 34.46152713], [71.94764493, 34.46154646], [71.94766815, 34.46163196], [71.94777287, 34.46161263]]]]}, "properties": {"id": "Pakistan_123102132_610226", "height": 2.470161199569702, "hmax": 0.008, "ratio": 0.003, "vulnClass": "none"}}, {"type": "Feature", "geometry": {"type": "MultiPolygon", "coordinates": [[[[71.94788944, 34.46188046], [71.94785792, 34.46179456], [71.94765151, 34.46184605], [71.94768303, 34.46193196], [71.94788944, 34.46188046]]]]}, "properties": {"id": "Pakistan_123102132_173520", "height": 2.694627523422241, "hmax": 0.008, "ratio": 0.003, "vulnClass": "none"}}, {"type": "Feature", "geometry": {"type": "MultiPolygon", "coordinates": [[[[71.95268766, 34.46301289], [71.95283719, 34.46295373], [71.95289636, 34.46305539], [71.95274901, 34.46311369], [71.95278772, 34.4631802], [71.95297213, 34.46310723], [71.95282567, 34.46285558], [71.95263907, 34.46292941], [71.95268766, 34.46301289]]]]}, "properties": {"id": "Pakistan_123102132_244331", "height": 3.528557300567627, "hmax": 0.001, "ratio": 0.0, "vulnClass": "none"}}, {"type": "Feature", "geometry": {"type": "MultiPolygon", "coordinates": [[[[71.95288165, 34.46282076], [71.95291385, 34.4628928], [71.95309333, 34.46283828], [71.95306114, 34.46276624], [71.95288165, 34.46282076]]]]}, "properties": {"id": "Pakistan_123102132_364394", "height": 2.470274209976196, "hmax": 0.002, "ratio": 0.001, "vulnClass": "none"}}, {"type": "Feature", "geometry": {"type": "MultiPolygon", "coordinates": [[[[71.95281852, 34.46267409], [71.95284127, 34.46271669], [71.95299941, 34.46265924], [71.95297665, 34.46261665], [71.95281852, 34.46267409]]]]}, "properties": {"id": "Pakistan_123102132_426164", "height": 2.838598251342773, "hmax": 0.001, "ratio": 0.0, "vulnClass": "none"}}, {"type": "Feature", "geometry": {"type": "MultiPolygon", "coordinates": [[[[71.95533712, 34.46219341], [71.95542645, 34.46216295], [71.95539994, 34.46211007], [71.95521528, 34.46217303], [71.95532184, 34.46238551], [71.95541715, 34.46235302], [71.95533712, 34.46219341]]]]}, "properties": {"id": "Pakistan_123102132_407621", "height": 2.833205699920654, "hmax": 0.004, "ratio": 0.001, "vulnClass": "none"}}, {"type": "Feature", "geometry": {"type": "MultiPolygon", "coordinates": [[[[71.95536419, 34.46264626], [71.95538713, 34.46273625], [71.95562859, 34.46269441], [71.95557676, 34.46249109], [71.95552539, 34.46249999], [71.95555428, 34.46261333], [71.95536419, 34.46264626]]]]}, "properties": {"id": "Pakistan_123102132_548906", "height": 3.417604446411133, "hmax": 0.004, "ratio": 0.001, "vulnClass": "none"}}, {"type": "Feature", "geometry": {"type": "MultiPolygon", "coordinates": [[[[71.95661124, 34.46314323], [71.95657114, 34.46316044], [71.95659531, 34.46319872], [71.95663541, 34.46318151], [71.95661124, 34.46314323]]]]}, "properties": {"id": "Pakistan_123102132_401544", "height": 3.25231671333313, "hmax": 0.027, "ratio": 0.008, "vulnClass": "none"}}, {"type": "Feature", "geometry": {"type": "MultiPolygon", "coordinates": [[[[71.95626701, 34.46324688], [71.95622511, 34.46314978], [71.95610368, 34.46318539], [71.95614558, 34.4632825], [71.95626701, 34.46324688]]]]}, "properties": {"id": "Pakistan_123102132_490875", "height": 3.031444311141968, "hmax": 0.009, "ratio": 0.003, "vulnClass": "none"}}, {"type": "Feature", "geometry": {"type": "MultiPolygon", "coordinates": [[[[71.95603234, 34.46340318], [71.95602643, 34.46333497], [71.95597572, 34.46333796], [71.95598164, 34.46340617], [71.95603234, 34.46340318]]]]}, "properties": {"id": "Pakistan_123102132_99196", "height": 3.023604154586792, "hmax": 0.002, "ratio": 0.001, "vulnClass": "none"}}, {"type": "Feature", "geometry": {"type": "MultiPolygon", "coordinates": [[[[71.95615682, 34.46340859], [71.95601353, 34.46343729], [71.95602829, 34.46348741], [71.9563818, 34.4634166], [71.95636335, 34.46335395], [71.95620739, 34.46338519], [71.95617601, 34.46327869], [71.95612176, 34.46328956], [71.95615682, 34.46340859]]]]}, "properties": {"id": "Pakistan_123102132_120960", "height": 3.280965805053711, "hmax": 0.012, "ratio": 0.004, "vulnClass": "none"}}, {"type": "Feature", "geometry": {"type": "MultiPolygon", "coordinates": [[[[71.95595876, 34.46336857], [71.95589436, 34.46337934], [71.95592572, 34.46350679], [71.95599012, 34.46349601], [71.95595876, 34.46336857]]]]}, "properties": {"id": "Pakistan_123102132_567153", "height": 3.592419624328613, "hmax": 0.002, "ratio": 0.001, "vulnClass": "none"}}, {"type": "Feature", "geometry": {"type": "MultiPolygon", "coordinates": [[[[71.9556725, 34.46332457], [71.9556815, 34.46337207], [71.9557679, 34.46336093], [71.9557589, 34.46331344], [71.9556725, 34.46332457]]]]}, "properties": {"id": "Pakistan_123102132_416858", "height": 3.363227844238281, "hmax": 0.002, "ratio": 0.001, "vulnClass": "none"}}, {"type": "Feature", "geometry": {"type": "MultiPolygon", "coordinates": [[[[71.95603771, 34.46322606], [71.95597746, 34.46323374], [71.95599607, 34.46333309], [71.95605633, 34.46332542], [71.95603771, 34.46322606]]]]}, "properties": {"id": "Pakistan_123102132_318366", "height": 3.773489475250244, "hmax": 0.002, "ratio": 0.001, "vulnClass": "none"}}, {"type": "Feature", "geometry": {"type": "MultiPolygon", "coordinates": [[[[71.95584802, 34.46343548], [71.9557632, 34.46345685], [71.95574036, 34.4633952], [71.95570356, 34.46340446], [71.95575638, 34.46354702], [71.95587799, 34.46351639], [71.95584802, 34.46343548]]]]}, "properties": {"id": "Pakistan_123102132_176681", "height": 3.357591390609741, "hmax": 0.002, "ratio": 0.001, "vulnClass": "none"}}, {"type": "Feature", "geometry": {"type": "MultiPolygon", "coordinates": [[[[71.95335747, 34.4634596], [71.95332335, 34.46339988], [71.95327506, 34.46341864], [71.95330918, 34.46347836], [71.95335747, 34.4634596]]]]}, "properties": {"id": "Pakistan_123102132_241308", "height": 4.212544918060303, "hmax": 0.002, "ratio": 0.001, "vulnClass": "none"}}, {"type": "Feature", "geometry": {"type": "MultiPolygon", "coordinates": [[[[71.95372249, 34.46365893], [71.95345112, 34.46368517], [71.95346106, 34.46375498], [71.95373242, 34.46372873], [71.95372249, 34.46365893]]]]}, "properties": {"id": "Pakistan_123102132_28678", "height": 4.600327968597412, "hmax": 0.002, "ratio": 0.0, "vulnClass": "none"}}, {"type": "Feature", "geometry": {"type": "MultiPolygon", "coordinates": [[[[71.95319343, 34.46388311], [71.9534252, 34.46387516], [71.9534202, 34.46377582], [71.95318842, 34.46378377], [71.95319343, 34.46388311]]]]}, "properties": {"id": "Pakistan_123102132_536775", "height": 5.747975826263428, "hmax": 0.001, "ratio": 0.0, "vulnClass": "none"}}, {"type": "Feature", "geometry": {"type": "MultiPolygon", "coordinates": [[[[71.95351208, 34.46412722], [71.95356172, 34.46425703], [71.95371298, 34.46421771], [71.95366335, 34.4640879], [71.95351208, 34.46412722]]]]}, "properties": {"id": "Pakistan_123102132_296655", "height": 2.456912994384766, "hmax": 0.001, "ratio": 0.0, "vulnClass": "none"}}, {"type": "Feature", "geometry": {"type": "MultiPolygon", "coordinates": [[[[71.95376141, 34.46476275], [71.95373871, 34.46466919], [71.95344986, 34.46471683], [71.95347256, 34.46481039], [71.95376141, 34.46476275]]]]}, "properties": {"id": "Pakistan_123102132_312244", "height": 4.279707908630371, "hmax": 0.001, "ratio": 0.0, "vulnClass": "none"}}, {"type": "Feature", "geometry": {"type": "MultiPolygon", "coordinates": [[[[71.95324031, 34.4647928], [71.95325416, 34.46484096], [71.95344715, 34.46480323], [71.9534333, 34.46475507], [71.95324031, 34.4647928]]]]}, "properties": {"id": "Pakistan_123102132_469104", "height": 2.781875610351562, "hmax": 0.001, "ratio": 0.0, "vulnClass": "none"}}, {"type": "Feature", "geometry": {"type": "MultiPolygon", "coordinates": [[[[71.95407212, 34.4649359], [71.95410366, 34.46501461], [71.9541533, 34.46500109], [71.95412176, 34.46492238], [71.95407212, 34.4649359]]]]}, "properties": {"id": "Pakistan_123102132_579526", "height": 2.670593738555908, "hmax": 0.002, "ratio": 0.001, "vulnClass": "none"}}, {"type": "Feature", "geometry": {"type": "MultiPolygon", "coordinates": [[[[71.95409108, 34.46514996], [71.95406158, 34.46505679], [71.9539322, 34.46508464], [71.95389614, 34.46497078], [71.95383218, 34.46498454], [71.95387151, 34.46510876], [71.95373089, 34.46513903], [71.95371485, 34.46508837], [71.95366212, 34.46509973], [71.95370438, 34.46523319], [71.95409108, 34.46514996]]]]}, "properties": {"id": "Pakistan_123102132_579527", "height": 3.95973014831543, "hmax": 0.001, "ratio": 0.0, "vulnClass": "none"}}, {"type": "Feature", "geometry": {"type": "MultiPolygon", "coordinates": [[[[71.95427773, 34.46503646], [71.95425204, 34.46494056], [71.95419954, 34.46495012], [71.95422467, 34.46504391], [71.95417998, 34.46505205], [71.95420032, 34.46512795], [71.95462741, 34.46505017], [71.95460764, 34.46497637], [71.95427773, 34.46503646]]]]}, "properties": {"id": "Pakistan_123102132_130281", "height": 4.004530429840088, "hmax": 0.002, "ratio": 0.001, "vulnClass": "none"}}, {"type": "Feature", "geometry": {"type": "MultiPolygon", "coordinates": [[[[71.95420753, 34.46504364], [71.95421186, 34.4649664], [71.95416242, 34.46496452], [71.95415808, 34.46504175], [71.95420753, 34.46504364]]]]}, "properties": {"id": "Pakistan_123102132_441553", "height": 3.022011756896973, "hmax": 0.002, "ratio": 0.001, "vulnClass": "none"}}, {"type": "Feature", "geometry": {"type": "MultiPolygon", "coordinates": [[[[71.95455127, 34.46485805], [71.95451719, 34.46486702], [71.95454206, 34.46493124], [71.95457614, 34.46492227], [71.95455127, 34.46485805]]]]}, "properties": {"id": "Pakistan_123102132_413806", "height": 3.722217559814453, "hmax": 0.002, "ratio": 0.001, "vulnClass": "none"}}, {"type": "Feature", "geometry": {"type": "MultiPolygon", "coordinates": [[[[71.95427121, 34.46765491], [71.95395649, 34.46770414], [71.95393586, 34.46761449], [71.95389703, 34.46762056], [71.95391939, 34.46771774], [71.95379771, 34.46773678], [71.95381736, 34.46782216], [71.95406477, 34.46778344], [71.95407115, 34.46781119], [71.95419397, 34.46779197], [71.95418389, 34.46774817], [71.9543821, 34.46771717], [71.9542961, 34.46734363], [71.95424808, 34.46735115], [71.95425521, 34.46738214], [71.95421004, 34.46738921], [71.95427121, 34.46765491]]]]}, "properties": {"id": "Pakistan_123102132_247454", "height": 2.528532981872559, "hmax": 0.002, "ratio": 0.001, "vulnClass": "none"}}, {"type": "Feature", "geometry": {"type": "MultiPolygon", "coordinates": [[[[71.95352627, 34.46764196], [71.95352308, 34.46769712], [71.95357928, 34.46769933], [71.95358246, 34.46764417], [71.95352627, 34.46764196]]]]}, "properties": {"id": "Pakistan_123102132_469107", "height": 2.448877811431885, "hmax": 0.011, "ratio": 0.005, "vulnClass": "none"}}, {"type": "Feature", "geometry": {"type": "MultiPolygon", "coordinates": [[[[71.95382045, 34.4681333], [71.95372344, 34.46815394], [71.95365885, 34.46794759], [71.95359741, 34.46796066], [71.9536088, 34.46799701], [71.95356353, 34.46800664], [71.9535895, 34.46808957], [71.95365595, 34.46807543], [71.95367931, 34.46815006], [71.95365058, 34.46815618], [71.95367655, 34.46823911], [71.95375557, 34.46822229], [71.95376919, 34.46826583], [71.95385614, 34.46824733], [71.95382045, 34.4681333]]]]}, "properties": {"id": "Pakistan_123102132_192052", "height": 2.811830520629883, "hmax": 0.011, "ratio": 0.004, "vulnClass": "none"}}, {"type": "Feature", "geometry": {"type": "MultiPolygon", "coordinates": [[[[71.95472201, 34.46827514], [71.95471334, 34.46811625], [71.95456076, 34.46812191], [71.95456943, 34.4682808], [71.95472201, 34.46827514]]]]}, "properties": {"id": "Pakistan_123102132_117865", "height": 2.4462890625, "hmax": 0.001, "ratio": 0.0, "vulnClass": "none"}}, {"type": "Feature", "geometry": {"type": "MultiPolygon", "coordinates": [[[[71.95537092, 34.46745024], [71.95520716, 34.46747434], [71.95522665, 34.46756435], [71.95549439, 34.46752495], [71.95547861, 34.46745209], [71.95550201, 34.46744865], [71.95545886, 34.46724934], [71.95533149, 34.46726808], [71.95537092, 34.46745024]]]]}, "properties": {"id": "Pakistan_123102132_176676", "height": 3.298981189727783, "hmax": 0.002, "ratio": 0.001, "vulnClass": "none"}}, {"type": "Feature", "geometry": {"type": "MultiPolygon", "coordinates": [[[[71.95697424, 34.45948978], [71.9569015, 34.45925627], [71.95666645, 34.45930607], [71.9567392, 34.45953956], [71.95697424, 34.45948978]]]]}, "properties": {"id": "Pakistan_123102132_164176", "height": 2.442160606384277, "hmax": 0.002, "ratio": 0.001, "vulnClass": "none"}}, {"type": "Feature", "geometry": {"type": "MultiPolygon", "coordinates": [[[[71.95667618, 34.45941685], [71.95664818, 34.45931491], [71.95654103, 34.45933492], [71.95652947, 34.45929284], [71.9565535, 34.45928836], [71.95654021, 34.45923997], [71.95647388, 34.45925236], [71.9564681, 34.45923132], [71.95642728, 34.45923894], [71.95640995, 34.45917583], [71.95635892, 34.45918535], [71.95643486, 34.45946191], [71.95667618, 34.45941685]]]]}, "properties": {"id": "Pakistan_123102132_512347", "height": 2.48753547668457, "hmax": 0.002, "ratio": 0.001, "vulnClass": "none"}}]}