{"type": "FeatureCollection", "features": [{"type": "Feature", "geometry": {"type": "MultiPolygon", "coordinates": [[[[71.98716095, 34.47054799], [71.98711808, 34.47055669], [71.98713202, 34.47060385], [71.98717489, 34.47059516], [71.98716095, 34.47054799]]]]}, "properties": {"id": "8J6HFXCP+6VJ4", "height": 2.555696249008179, "hmax": 0.001, "ratio": 0.0, "vulnClass": "none"}}, {"type": "Feature", "geometry": {"type": "MultiPolygon", "coordinates": [[[[71.98723503, 34.47053186], [71.98716081, 34.47054689], [71.98720387, 34.47069268], [71.98727809, 34.47067764], [71.98723503, 34.47053186]]]]}, "properties": {"id": "8J6HFXCP+6VXC", "height": 2.73194694519043, "hmax": 0.001, "ratio": 0.0, "vulnClass": "none"}}, {"type": "Feature", "geometry": {"type": "MultiPolygon", "coordinates": [[[[71.98709278, 34.47041168], [71.98707318, 34.47033757], [71.98692016, 34.47036533], [71.98693977, 34.47043945], [71.98709278, 34.47041168]]]]}, "properties": {"id": "8J6HFXCP+5R2C", "height": 3.125085592269897, "hmax": 0.001, "ratio": 0.0, "vulnClass": "none"}}, {"type": "Feature", "geometry": {"type": "MultiPolygon", "coordinates": [[[[71.98719673, 34.47019495], [71.9871475, 34.47020291], [71.98717282, 34.4703104], [71.98722206, 34.47030244], [71.98719673, 34.47019495]]]]}, "properties": {"id": "8J6HFXCP+4V35", "height": 2.692106485366821, "hmax": 0.001, "ratio": 0.0, "vulnClass": "none"}}, {"type": "Feature", "geometry": {"type": "MultiPolygon", "coordinates": [[[[71.98661385, 34.47006734], [71.98657771, 34.46997076], [71.98653422, 34.46998193], [71.98657036, 34.4700785], [71.98661385, 34.47006734]]]]}, "properties": {"id": "8J6HFXCP+2J4V", "height": 2.896676778793335, "hmax": 0.002, "ratio": 0.001, "vulnClass": "none"}}, {"type": "Feature", "geometry": {"type": "MultiPolygon", "coordinates": [[[[71.98661857, 34.4701064], [71.98661411, 34.47007409], [71.9865827, 34.47007706], [71.98658716, 34.47010937], [71.98661857, 34.4701064]]]]}, "properties": {"id": "8J6HFXCP+2JQJ", "height": 3.042413949966431, "hmax": 0.001, "ratio": 0.0, "vulnClass": "none"}}, {"type": "Feature", "geometry": {"type": "MultiPolygon", "coordinates": [[[[71.98697809, 34.47015795], [71.98687188, 34.46996676], [71.98666055, 34.47004728], [71.98676676, 34.47023847], [71.98697809, 34.47015795]]]]}, "properties": {"id": "8J6HFXCP+2PW2", "height": 4.198055744171143, "hmax": 0.002, "ratio": 0.001, "vulnClass": "none"}}, {"type": "Feature", "geometry": {"type": "MultiPolygon", "coordinates": [[[[71.98668802, 34.4699802], [71.98668019, 34.46994779], [71.98660247, 34.46996067], [71.98661031, 34.46999309], [71.98668802, 34.4699802]]]]}, "properties": {"id": "8J6HFX9P+XMJW", "height": 2.453786611557007, "hmax": 0.002, "ratio": 0.001, "vulnClass": "none"}}, {"type": "Feature", "geometry": {"type": "MultiPolygon", "coordinates": [[[[71.98718053, 34.47091601], [71.98717451, 34.47088771], [71.98712453, 34.470895], [71.98713055, 34.4709233], [71.98718053, 34.47091601]]]]}, "properties": {"id": "8J6HFXCP+9V69", "height": 3.536203861236572, "hmax": 0.001, "ratio": 0.0, "vulnClass": "none"}}, {"type": "Feature", "geometry": {"type": "MultiPolygon", "coordinates": [[[[71.98691663, 34.47088433], [71.98688221, 34.47089192], [71.98690935, 34.47097642], [71.98704958, 34.47094553], [71.98702785, 34.47087787], [71.98692204, 34.47090118], [71.98691663, 34.47088433]]]]}, "properties": {"id": "8J6HFXCP+9QG5", "height": 3.098232507705688, "hmax": 0.001, "ratio": 0.0, "vulnClass": "none"}}, {"type": "Feature", "geometry": {"type": "MultiPolygon", "coordinates": [[[[71.98712876, 34.47092809], [71.98710703, 34.47086043], [71.98702785, 34.47087787], [71.98704958, 34.47094553], [71.98712876, 34.47092809]]]]}, "properties": {"id": "8J6HFXCP+9R84", "height": 3.616063117980957, "hmax": 0.001, "ratio": 0.0, "vulnClass": "none"}}, {"type": "Feature", "geometry": {"type": "MultiPolygon", "coordinates": [[[[71.98724073, 34.47075645], [71.98723288, 34.47073201], [71.98713548, 34.47075347], [71.98716028, 34.47083066], [71.98720743, 34.47082027], [71.98719049, 34.47076751], [71.98724073, 34.47075645]]]]}, "properties": {"id": "8J6HFXCP+8V75", "height": 2.51227879524231, "hmax": 0.001, "ratio": 0.0, "vulnClass": "none"}}, {"type": "Feature", "geometry": {"type": "MultiPolygon", "coordinates": [[[[71.98713548, 34.47075347], [71.98710085, 34.4707611], [71.98713106, 34.47085513], [71.98716569, 34.4708475], [71.98713548, 34.47075347]]]]}, "properties": {"id": "8J6HFXCP+8VC3", "height": 3.528504371643066, "hmax": 0.001, "ratio": 0.0, "vulnClass": "none"}}, {"type": "Feature", "geometry": {"type": "MultiPolygon", "coordinates": [[[[71.9873067, 34.4708889], [71.987285, 34.4708212], [71.9871657, 34.4708475], [71.9871752, 34.470877], [71.9871874, 34.4709152], [71.9873067, 34.4708889]]]]}, "properties": {"id": "8J6HFXCP+8VXP", "height": 3.041154623031616, "hmax": 0.001, "ratio": 0.0, "vulnClass": "none"}}, {"type": "Feature", "geometry": {"type": "MultiPolygon", "coordinates": [[[[71.9874414, 34.4715263], [71.9873538, 34.4715691], [71.9874886, 34.4717587], [71.9875302, 34.4717383], [71.9874587, 34.4716378], [71.9875047, 34.4716153], [71.9874414, 34.4715263]]]]}, "properties": {"id": "8J6HFXCP+MX42", "height": 2.568185329437256, "hmax": 0.005, "ratio": 0.002, "vulnClass": "none"}}, {"type": "Feature", "geometry": {"type": "MultiPolygon", "coordinates": [[[[71.98738417, 34.47151275], [71.9873343, 34.4713768], [71.98725878, 34.4713958], [71.98730864, 34.47153175], [71.98738417, 34.47151275]]]]}, "properties": {"id": "8J6HFXCP+HWP3", "height": 2.764415740966797, "hmax": 0.006, "ratio": 0.002, "vulnClass": "none"}}, {"type": "Feature", "geometry": {"type": "MultiPolygon", "coordinates": [[[[71.98730105, 34.47133419], [71.9872496, 34.47134193], [71.98725882, 34.47138398], [71.98731027, 34.47137623], [71.98730105, 34.47133419]]]]}, "properties": {"id": "8J6HFXCP+GWR9", "height": 3.291970252990723, "hmax": 0.006, "ratio": 0.002, "vulnClass": "none"}}, {"type": "Feature", "geometry": {"type": "MultiPolygon", "coordinates": [[[[71.98737301, 34.47132261], [71.98730053, 34.47133499], [71.98731171, 34.47137988], [71.98738419, 34.4713675], [71.98737301, 34.47132261]]]]}, "properties": {"id": "8J6HFXCP+GWW5", "height": 2.745309352874756, "hmax": 0.006, "ratio": 0.002, "vulnClass": "none"}}, {"type": "Feature", "geometry": {"type": "MultiPolygon", "coordinates": [[[[71.98768605, 34.47180511], [71.98763565, 34.47171547], [71.98749149, 34.47177106], [71.98754188, 34.4718607], [71.98768605, 34.47180511]]]]}, "properties": {"id": "8J6HFXCQ+P28H", "height": 3.78630518913269, "hmax": 0.002, "ratio": 0.001, "vulnClass": "none"}}, {"type": "Feature", "geometry": {"type": "MultiPolygon", "coordinates": [[[[71.98109732, 34.47250789], [71.98103919, 34.47250622], [71.98103727, 34.47255185], [71.98109541, 34.47255353], [71.98109732, 34.47250789]]]]}, "properties": {"id": "8J6HFXFJ+2C82", "height": 2.533841609954834, "hmax": 0.006, "ratio": 0.002, "vulnClass": "none"}}, {"type": "Feature", "geometry": {"type": "MultiPolygon", "coordinates": [[[[71.98082042, 34.47250023], [71.98069835, 34.47250153], [71.98069899, 34.47254293], [71.98082107, 34.47254163], [71.98082042, 34.47250023]]]]}, "properties": {"id": "8J6HFXFJ+282V", "height": 2.446590423583984, "hmax": 0.036, "ratio": 0.015, "vulnClass": "none"}}, {"type": "Feature", "geometry": {"type": "MultiPolygon", "coordinates": [[[[71.98161135, 34.47138581], [71.98158592, 34.47131088], [71.98131425, 34.47137411], [71.98133968, 34.47144904], [71.98161135, 34.47138581]]]]}, "properties": {"id": "8J6HFXCJ+HH45", "height": 2.510392665863037, "hmax": 0.002, "ratio": 0.001, "vulnClass": "none"}}, {"type": "Feature", "geometry": {"type": "MultiPolygon", "coordinates": [[[[71.98134033, 34.47129243], [71.98130147, 34.4713017], [71.98132532, 34.47137029], [71.98136418, 34.47136103], [71.98134033, 34.47129243]]]]}, "properties": {"id": "8J6HFXCJ+GGP8", "height": 2.488017797470093, "hmax": 0.002, "ratio": 0.001, "vulnClass": "none"}}, {"type": "Feature", "geometry": {"type": "MultiPolygon", "coordinates": [[[[71.98135851, 34.47116802], [71.98133353, 34.47108176], [71.98123533, 34.47110126], [71.98126031, 34.47118753], [71.98135851, 34.47116802]]]]}, "properties": {"id": "8J6HFXCJ+FG38", "height": 2.826749563217163, "hmax": 0.002, "ratio": 0.001, "vulnClass": "none"}}, {"type": "Feature", "geometry": {"type": "MultiPolygon", "coordinates": [[[[71.98098162, 34.47096826], [71.98089757, 34.47099794], [71.98096496, 34.47112886], [71.9811654, 34.47105809], [71.98112104, 34.47097191], [71.98100465, 34.471013], [71.98098162, 34.47096826]]]]}, "properties": {"id": "8J6HFXCJ+CC6Q", "height": 3.881618499755859, "hmax": 0.006, "ratio": 0.002, "vulnClass": "none"}}, {"type": "Feature", "geometry": {"type": "MultiPolygon", "coordinates": [[[[71.98190386, 34.46946125], [71.9817333, 34.46944324], [71.98172483, 34.4694982], [71.98175268, 34.46950114], [71.98174679, 34.46953937], [71.98188951, 34.46955444], [71.98190386, 34.46946125]]]]}, "properties": {"id": "8J6HFX9J+QPWR", "height": 2.893307209014893, "hmax": 0.002, "ratio": 0.001, "vulnClass": "none"}}, {"type": "Feature", "geometry": {"type": "MultiPolygon", "coordinates": [[[[71.98167983, 34.46942085], [71.98156623, 34.46941153], [71.98156112, 34.46945418], [71.98161003, 34.46945819], [71.98160408, 34.46950789], [71.98166878, 34.4695132], [71.98167983, 34.46942085]]]]}, "properties": {"id": "8J6HFX9J+QMJ6", "height": 3.867884397506714, "hmax": 0.002, "ratio": 0.001, "vulnClass": "none"}}, {"type": "Feature", "geometry": {"type": "MultiPolygon", "coordinates": [[[[71.98161473, 34.46890025], [71.98161736, 34.46880765], [71.98158177, 34.46880696], [71.98158046, 34.46885293], [71.98149302, 34.46885122], [71.98149169, 34.46889784], [71.98161473, 34.46890025]]]]}, "properties": {"id": "8J6HFX9J+GJWJ", "height": 3.443894624710083, "hmax": 0.003, "ratio": 0.001, "vulnClass": "none"}}, {"type": "Feature", "geometry": {"type": "MultiPolygon", "coordinates": [[[[71.98161892, 34.46895737], [71.98152535, 34.46895776], [71.98152559, 34.46899785], [71.98161916, 34.46899746], [71.98161892, 34.46895737]]]]}, "properties": {"id": "8J6HFX9J+HJW3", "height": 2.536450147628784, "hmax": 0.003, "ratio": 0.001, "vulnClass": "none"}}, {"type": "Feature", "geometry": {"type": "MultiPolygon", "coordinates": [[[[71.98160272, 34.46907274], [71.98149708, 34.46906719], [71.9814935, 34.46911393], [71.98157463, 34.46911819], [71.98157553, 34.46910637], [71.98160004, 34.46910765], [71.98160272, 34.46907274]]]]}, "properties": {"id": "8J6HFX9J+JJMM", "height": 3.101050853729248, "hmax": 0.002, "ratio": 0.001, "vulnClass": "none"}}, {"type": "Feature", "geometry": {"type": "MultiPolygon", "coordinates": [[[[71.98160904, 34.46916385], [71.98160802, 34.46928261], [71.9819771, 34.46928478], [71.9819778, 34.46920295], [71.98165955, 34.46920109], [71.98165986, 34.46916415], [71.98160904, 34.46916385]]]]}, "properties": {"id": "8J6HFX9J+MPVC", "height": 2.741875648498535, "hmax": 0.002, "ratio": 0.001, "vulnClass": "none"}}, {"type": "Feature", "geometry": {"type": "MultiPolygon", "coordinates": [[[[71.9814711, 34.469163], [71.9814701, 34.4692818], [71.981608, 34.4692826], [71.9816085, 34.4692272], [71.9815596, 34.4692269], [71.9815598, 34.4692005], [71.9815839, 34.4692006], [71.9815842, 34.4691637], [71.9814711, 34.469163]]]]}, "properties": {"id": "8J6HFX9J+MJV2", "height": 3.023264169692993, "hmax": 0.002, "ratio": 0.001, "vulnClass": "none"}}, {"type": "Feature", "geometry": {"type": "MultiPolygon", "coordinates": [[[[71.98149251, 34.46950868], [71.98150869, 34.46940345], [71.98146373, 34.46939871], [71.98146096, 34.46941674], [71.98141236, 34.46941162], [71.98139895, 34.46949881], [71.98149251, 34.46950868]]]]}, "properties": {"id": "8J6HFX9J+QHP8", "height": 2.929703235626221, "hmax": 0.002, "ratio": 0.001, "vulnClass": "none"}}, {"type": "Feature", "geometry": {"type": "MultiPolygon", "coordinates": [[[[71.97996693, 34.4697795], [71.9798957, 34.46978319], [71.97989815, 34.4698156], [71.97996938, 34.46981191], [71.97996693, 34.4697795]]]]}, "properties": {"id": "8J6HFX9H+WX7X", "height": 5.081369876861572, "hmax": 0.019, "ratio": 0.004, "vulnClass": "none"}}, {"type": "Feature", "geometry": {"type": "MultiPolygon", "coordinates": [[[[71.97997895, 34.46987176], [71.97991776, 34.46986411], [71.97990964, 34.46990863], [71.97997083, 34.46991629], [71.97997895, 34.46987176]]]]}, "properties": {"id": "8J6HFX9H+XX4J", "height": 5.215988159179688, "hmax": 0.03, "ratio": 0.006, "vulnClass": "none"}}, {"type": "Feature", "geometry": {"type": "MultiPolygon", "coordinates": [[[[71.98001339, 34.46990876], [71.97996948, 34.46989742], [71.97995496, 34.46993599], [71.97999887, 34.46994733], [71.98001339, 34.46990876]]]]}, "properties": {"id": "8J6HFX9H+XX9V", "height": 2.718971490859985, "hmax": 0.05, "ratio": 0.018, "vulnClass": "none"}}, {"type": "Feature", "geometry": {"type": "MultiPolygon", "coordinates": [[[[71.98000879, 34.46999233], [71.97996409, 34.46998225], [71.97994193, 34.4700496], [71.97998664, 34.47005968], [71.98000879, 34.46999233]]]]}, "properties": {"id": "8J6HFXCH+2X5R", "height": 2.531147003173828, "hmax": 0.052, "ratio": 0.02, "vulnClass": "none"}}, {"type": "Feature", "geometry": {"type": "MultiPolygon", "coordinates": [[[[71.98003164, 34.46998496], [71.9800322, 34.46994139], [71.97998337, 34.46994096], [71.97998281, 34.46998453], [71.98003164, 34.46998496]]]]}, "properties": {"id": "8J6HFX9J+X2JC", "height": 2.531147003173828, "hmax": 0.052, "ratio": 0.02, "vulnClass": "none"}}, {"type": "Feature", "geometry": {"type": "MultiPolygon", "coordinates": [[[[71.97997976, 34.46976801], [71.97997218, 34.46968781], [71.97987004, 34.46969444], [71.97987762, 34.46977463], [71.97997976, 34.46976801]]]]}, "properties": {"id": "8J6HFX9H+VXV8", "height": 4.520030975341797, "hmax": 0.015, "ratio": 0.003, "vulnClass": "none"}}, {"type": "Feature", "geometry": {"type": "MultiPolygon", "coordinates": [[[[71.97994803, 34.46966058], [71.9798685, 34.46965789], [71.97986682, 34.46969208], [71.97994635, 34.46969476], [71.97994803, 34.46966058]]]]}, "properties": {"id": "8J6HFX9H+VXF2", "height": 6.050288200378418, "hmax": 0.009, "ratio": 0.002, "vulnClass": "none"}}, {"type": "Feature", "geometry": {"type": "MultiPolygon", "coordinates": [[[[71.9798411, 34.46961822], [71.97975404, 34.46961529], [71.97975046, 34.46968815], [71.97986682, 34.46969208], [71.9798685, 34.46965789], [71.9798392, 34.4696569], [71.9798411, 34.46961822]]]]}, "properties": {"id": "8J6HFX9H+VW78", "height": 3.97578239440918, "hmax": 0.002, "ratio": 0.001, "vulnClass": "none"}}, {"type": "Feature", "geometry": {"type": "MultiPolygon", "coordinates": [[[[71.97967883, 34.46960472], [71.97962166, 34.4696017], [71.97961555, 34.46968106], [71.97967272, 34.46968408], [71.97967883, 34.46960472]]]]}, "properties": {"id": "8J6HFX9H+VV2P", "height": 2.449405908584595, "hmax": 0.002, "ratio": 0.001, "vulnClass": "none"}}, {"type": "Feature", "geometry": {"type": "MultiPolygon", "coordinates": [[[[71.98010645, 34.46923777], [71.98007565, 34.46923648], [71.9800735, 34.46927171], [71.9801043, 34.469273], [71.98010645, 34.46923777]]]]}, "properties": {"id": "8J6HFX9J+P245", "height": 3.651915788650513, "hmax": 0.025, "ratio": 0.007, "vulnClass": "none"}}, {"type": "Feature", "geometry": {"type": "MultiPolygon", "coordinates": [[[[71.98010643, 34.46919255], [71.98005197, 34.46919909], [71.98005743, 34.46923031], [71.98011189, 34.46922378], [71.98010643, 34.46919255]]]]}, "properties": {"id": "8J6HFX9J+M2PG", "height": 3.417983293533325, "hmax": 0.025, "ratio": 0.007, "vulnClass": "none"}}, {"type": "Feature", "geometry": {"type": "MultiPolygon", "coordinates": [[[[71.9806049, 34.4693138], [71.9805729, 34.4692049], [71.9800809, 34.4693041], [71.9801045, 34.4693844], [71.9805557, 34.4692934], [71.9805641, 34.4693221], [71.9806049, 34.4693138]]]]}, "properties": {"id": "8J6HFX9J+P49J", "height": 3.353052616119385, "hmax": 0.025, "ratio": 0.007, "vulnClass": "none"}}, {"type": "Feature", "geometry": {"type": "MultiPolygon", "coordinates": [[[[71.97938868, 34.47104477], [71.97938154, 34.47099904], [71.97916999, 34.47102169], [71.97919329, 34.47117096], [71.97924336, 34.4711656], [71.9792272, 34.47106206], [71.97938868, 34.47104477]]]]}, "properties": {"id": "8J6HFXCH+CPCC", "height": 2.478522062301636, "hmax": 0.058, "ratio": 0.023, "vulnClass": "none"}}, {"type": "Feature", "geometry": {"type": "MultiPolygon", "coordinates": [[[[71.97942145, 34.47104126], [71.97931892, 34.47105224], [71.9793243, 34.47108668], [71.97942683, 34.47107571], [71.97942145, 34.47104126]]]]}, "properties": {"id": "8J6HFXCH+CPHH", "height": 2.482847213745117, "hmax": 0.058, "ratio": 0.023, "vulnClass": "none"}}, {"type": "Feature", "geometry": {"type": "MultiPolygon", "coordinates": [[[[71.9800505, 34.4710665], [71.9799754, 34.4710507], [71.9799519, 34.4711276], [71.980027, 34.4711433], [71.9800505, 34.4710665]]]]}, "properties": {"id": "8J6HFXCJ+C2JR", "height": 2.591663122177124, "hmax": 0.024, "ratio": 0.009, "vulnClass": "none"}}, {"type": "Feature", "geometry": {"type": "MultiPolygon", "coordinates": [[[[71.97977547, 34.47132825], [71.97958727, 34.47132938], [71.97958797, 34.47140914], [71.97977617, 34.471408], [71.97977547, 34.47132825]]]]}, "properties": {"id": "8J6HFXCH+GVVQ", "height": 3.622057914733887, "hmax": 0.058, "ratio": 0.016, "vulnClass": "none"}}, {"type": "Feature", "geometry": {"type": "MultiPolygon", "coordinates": [[[[71.98020854, 34.47127792], [71.97990021, 34.47121811], [71.979878, 34.47129666], [71.98018633, 34.47135647], [71.98020854, 34.47127792]]]]}, "properties": {"id": "8J6HFXCJ+G27F", "height": 3.889053583145142, "hmax": 0.024, "ratio": 0.006, "vulnClass": "none"}}, {"type": "Feature", "geometry": {"type": "MultiPolygon", "coordinates": [[[[71.98052003, 34.47238777], [71.98045063, 34.47238804], [71.98045111, 34.47247388], [71.98109656, 34.47247138], [71.98109614, 34.47239585], [71.98076457, 34.47239713], [71.98076477, 34.47243169], [71.98052028, 34.47243263], [71.98052003, 34.47238777]]]]}, "properties": {"id": "8J6HFXCJ+X8FF", "height": 3.81913948059082, "hmax": 0.025, "ratio": 0.007, "vulnClass": "none"}}, {"type": "Feature", "geometry": {"type": "MultiPolygon", "coordinates": [[[[71.98037751, 34.47245179], [71.98037476, 34.47237446], [71.98022251, 34.47237818], [71.98022526, 34.4724555], [71.98037751, 34.47245179]]]]}, "properties": {"id": "8J6HFXCJ+X47G", "height": 3.149270534515381, "hmax": 0.036, "ratio": 0.011, "vulnClass": "none"}}, {"type": "Feature", "geometry": {"type": "MultiPolygon", "coordinates": [[[[71.97946082, 34.47257919], [71.97943223, 34.47257724], [71.97942963, 34.47260351], [71.97945821, 34.47260546], [71.97946082, 34.47257919]]]]}, "properties": {"id": "8J6HFXFH+2QPJ", "height": 2.513023853302002, "hmax": 0.019, "ratio": 0.008, "vulnClass": "none"}}, {"type": "Feature", "geometry": {"type": "MultiPolygon", "coordinates": [[[[71.97921254, 34.47247844], [71.9791427, 34.47248379], [71.97914663, 34.47251906], [71.97921648, 34.47251371], [71.97921254, 34.47247844]]]]}, "properties": {"id": "8J6HFXCH+XMVW", "height": 2.709701299667358, "hmax": 0.019, "ratio": 0.007, "vulnClass": "none"}}, {"type": "Feature", "geometry": {"type": "MultiPolygon", "coordinates": [[[[71.97927564, 34.47250706], [71.9792715, 34.47246647], [71.97922899, 34.47246945], [71.97923313, 34.47251004], [71.97927564, 34.47250706]]]]}, "properties": {"id": "8J6HFXCH+XPRC", "height": 6.794764041900635, "hmax": 0.019, "ratio": 0.003, "vulnClass": "none"}}, {"type": "Feature", "geometry": {"type": "MultiPolygon", "coordinates": [[[[71.97868513, 34.4722693], [71.97863445, 34.4722737], [71.97864538, 34.47236003], [71.97869607, 34.47235563], [71.97868513, 34.4722693]]]]}, "properties": {"id": "8J6HFXCH+WFFF", "height": 3.536020755767822, "hmax": 0.001, "ratio": 0.0, "vulnClass": "none"}}, {"type": "Feature", "geometry": {"type": "MultiPolygon", "coordinates": [[[[71.97862282, 34.4723984], [71.97857508, 34.47240356], [71.97858138, 34.47244357], [71.97862912, 34.47243841], [71.97862282, 34.4723984]]]]}, "properties": {"id": "8J6HFXCH+XC9V", "height": 2.543733835220337, "hmax": 0.001, "ratio": 0.0, "vulnClass": "none"}}, {"type": "Feature", "geometry": {"type": "MultiPolygon", "coordinates": [[[[71.97864299, 34.47243395], [71.9785845, 34.47243851], [71.97858952, 34.47248267], [71.97864801, 34.47247811], [71.97864299, 34.47243395]]]]}, "properties": {"id": "8J6HFXCH+XCQ8", "height": 2.516450643539429, "hmax": 0.001, "ratio": 0.0, "vulnClass": "none"}}, {"type": "Feature", "geometry": {"type": "MultiPolygon", "coordinates": [[[[71.97878045, 34.47248339], [71.97870466, 34.47246754], [71.97867611, 34.47256114], [71.9787519, 34.47257699], [71.97878045, 34.47248339]]]]}, "properties": {"id": "8J6HFXFH+2F5V", "height": 4.819401264190674, "hmax": 0.01, "ratio": 0.002, "vulnClass": "none"}}, {"type": "Feature", "geometry": {"type": "MultiPolygon", "coordinates": [[[[71.97853361, 34.47230431], [71.97845763, 34.47230414], [71.97845723, 34.47242807], [71.97853321, 34.47242824], [71.97853361, 34.47230431]]]]}, "properties": {"id": "8J6HFXCH+W9XQ", "height": 3.810866117477417, "hmax": 0.001, "ratio": 0.0, "vulnClass": "none"}}, {"type": "Feature", "geometry": {"type": "MultiPolygon", "coordinates": [[[[71.97470777, 34.47209585], [71.97457907, 34.47207472], [71.97456829, 34.47211975], [71.97469699, 34.47214088], [71.97470777, 34.47209585]]]]}, "properties": {"id": "8J6HFXCF+RVR7", "height": 2.908669471740723, "hmax": 0.062, "ratio": 0.021, "vulnClass": "none"}}, {"type": "Feature", "geometry": {"type": "MultiPolygon", "coordinates": [[[[71.9733184, 34.47158762], [71.97321294, 34.47153823], [71.97318875, 34.47157334], [71.97311495, 34.47153878], [71.97305505, 34.47162571], [71.97333166, 34.47175525], [71.97336322, 34.47170943], [71.97326588, 34.47166385], [71.9733184, 34.47158762]]]]}, "properties": {"id": "Pakistan_123102132_579650", "height": 3.344373226165771, "hmax": 0.003, "ratio": 0.001, "vulnClass": "none"}}, {"type": "Feature", "geometry": {"type": "MultiPolygon", "coordinates": [[[[71.97303233, 34.47145107], [71.97319434, 34.47155361], [71.97330575, 34.47143397], [71.97320788, 34.47137202], [71.97317601, 34.47140624], [71.97305722, 34.47133106], [71.97288309, 34.47151803], [71.97293776, 34.47155263], [71.97303233, 34.47145107]]]]}, "properties": {"id": "Pakistan_123102132_93177", "height": 3.119879007339478, "hmax": 0.003, "ratio": 0.001, "vulnClass": "none"}}, {"type": "Feature", "geometry": {"type": "MultiPolygon", "coordinates": [[[[71.97311011, 34.46900314], [71.97311219, 34.46905837], [71.97317382, 34.46905679], [71.97317174, 34.46900156], [71.97311011, 34.46900314]]]]}, "properties": {"id": "Pakistan_123102132_84053", "height": 9.205161094665527, "hmax": 0.001, "ratio": 0.0, "vulnClass": "none"}}, {"type": "Feature", "geometry": {"type": "MultiPolygon", "coordinates": [[[[71.97300719, 34.47000234], [71.97289794, 34.47000967], [71.97289534, 34.46998331], [71.9728091, 34.4699891], [71.97280814, 34.46997945], [71.97276915, 34.46998207], [71.97278746, 34.47016745], [71.97302194, 34.47015172], [71.97300719, 34.47000234]]]]}, "properties": {"id": "Pakistan_123102132_241441", "height": 3.505794048309326, "hmax": 0.002, "ratio": 0.001, "vulnClass": "none"}}, {"type": "Feature", "geometry": {"type": "MultiPolygon", "coordinates": [[[[71.97294182, 34.47024945], [71.97279161, 34.47024913], [71.97279134, 34.47033979], [71.97303006, 34.47034029], [71.97303057, 34.47016693], [71.97294206, 34.47016675], [71.97294182, 34.47024945]]]]}, "properties": {"id": "Pakistan_123102132_552038", "height": 2.953238725662231, "hmax": 0.002, "ratio": 0.001, "vulnClass": "none"}}, {"type": "Feature", "geometry": {"type": "MultiPolygon", "coordinates": [[[[71.97277738, 34.47033671], [71.97278019, 34.47022533], [71.97253086, 34.47022106], [71.97252804, 34.47033243], [71.97277738, 34.47033671]]]]}, "properties": {"id": "Pakistan_123102132_503209", "height": 5.966263771057129, "hmax": 0.002, "ratio": 0.0, "vulnClass": "none"}}, {"type": "Feature", "geometry": {"type": "MultiPolygon", "coordinates": [[[[71.9835791, 34.45806479], [71.98318767, 34.45805217], [71.98318419, 34.45812622], [71.98357562, 34.45813885], [71.9835791, 34.45806479]]]]}, "properties": {"id": "8J6HFX5M+69JR", "height": 2.900888919830322, "hmax": 0.001, "ratio": 0.0, "vulnClass": "none"}}, {"type": "Feature", "geometry": {"type": "MultiPolygon", "coordinates": [[[[71.98275736, 34.45868672], [71.98270404, 34.45869437], [71.98272919, 34.45882055], [71.98278251, 34.4588129], [71.98275736, 34.45868672]]]]}, "properties": {"id": "8J6HFX5M+G355", "height": 2.78748345375061, "hmax": 0.001, "ratio": 0.0, "vulnClass": "none"}}, {"type": "Feature", "geometry": {"type": "MultiPolygon", "coordinates": [[[[71.98389471, 34.45925463], [71.98386864, 34.45918741], [71.9837569, 34.45921715], [71.98378298, 34.45928437], [71.98389471, 34.45925463]]]]}, "properties": {"id": "8J6HFX5M+MGWF", "height": 2.611013889312744, "hmax": 0.001, "ratio": 0.0, "vulnClass": "none"}}, {"type": "Feature", "geometry": {"type": "MultiPolygon", "coordinates": [[[[71.97869711, 34.45914738], [71.9786444, 34.45915335], [71.97865715, 34.45923057], [71.97870986, 34.4592246], [71.97869711, 34.45914738]]]]}, "properties": {"id": "8J6HFX5H+MFFG", "height": 2.833208560943604, "hmax": 0.002, "ratio": 0.001, "vulnClass": "none"}}, {"type": "Feature", "geometry": {"type": "MultiPolygon", "coordinates": [[[[71.97303669, 34.45907626], [71.97321462, 34.45912274], [71.97325864, 34.45900818], [71.97296371, 34.45893113], [71.97293281, 34.45901153], [71.97304981, 34.45904209], [71.97303669, 34.45907626]]]]}, "properties": {"id": "Pakistan_123102132_173666", "height": 2.699780464172363, "hmax": 0.001, "ratio": 0.0, "vulnClass": "none"}}, {"type": "Feature", "geometry": {"type": "MultiPolygon", "coordinates": [[[[71.97299689, 34.4611666], [71.97299608, 34.46100295], [71.9729478, 34.46100312], [71.97294861, 34.46116677], [71.97299689, 34.4611666]]]]}, "properties": {"id": "Pakistan_123102132_558113", "height": 2.505345582962036, "hmax": 0.002, "ratio": 0.001, "vulnClass": "none"}}, {"type": "Feature", "geometry": {"type": "MultiPolygon", "coordinates": [[[[71.97375425, 34.46118376], [71.97375126, 34.46109851], [71.97334659, 34.46110813], [71.97334958, 34.46119341], [71.97375425, 34.46118376]]]]}, "properties": {"id": "Pakistan_123102132_500096", "height": 2.501441955566406, "hmax": 0.002, "ratio": 0.001, "vulnClass": "none"}}, {"type": "Feature", "geometry": {"type": "MultiPolygon", "coordinates": [[[[71.97344148, 34.46149347], [71.97315999, 34.46149861], [71.97316254, 34.46159365], [71.97355931, 34.46158642], [71.9735549, 34.46142194], [71.97343962, 34.46142405], [71.97344148, 34.46149347]]]]}, "properties": {"id": "Pakistan_123102132_579654", "height": 3.12459397315979, "hmax": 0.002, "ratio": 0.001, "vulnClass": "none"}}, {"type": "Feature", "geometry": {"type": "MultiPolygon", "coordinates": [[[[71.97425916, 34.46102045], [71.9742571, 34.46095984], [71.97419813, 34.4609612], [71.9742002, 34.46102181], [71.97425916, 34.46102045]]]]}, "properties": {"id": "Pakistan_123102132_604145", "height": 2.616462469100952, "hmax": 0.001, "ratio": 0.0, "vulnClass": "none"}}, {"type": "Feature", "geometry": {"type": "MultiPolygon", "coordinates": [[[[71.97421335, 34.46379673], [71.9745763, 34.46383744], [71.97484043, 34.4638014], [71.97483006, 34.46374974], [71.97481149, 34.46375227], [71.97471364, 34.4637413], [71.97479659, 34.46372998], [71.97478794, 34.46368693], [71.97469657, 34.4636994], [71.97470435, 34.46373815], [71.9745802, 34.46375509], [71.97436371, 34.46373082], [71.97435925, 34.46375781], [71.97422231, 34.46374245], [71.97421335, 34.46379673]]]]}, "properties": {"id": "Pakistan_123102132_139658", "height": 2.739390850067139, "hmax": 0.004, "ratio": 0.002, "vulnClass": "none"}}, {"type": "Feature", "geometry": {"type": "MultiPolygon", "coordinates": [[[[71.97448202, 34.46366202], [71.97459567, 34.46366553], [71.97459452, 34.46369106], [71.97477933, 34.46369675], [71.97478374, 34.46359958], [71.9747007, 34.46359703], [71.97470586, 34.46348317], [71.9746083, 34.46348015], [71.97460383, 34.46357856], [71.97448598, 34.46357493], [71.97448202, 34.46366202]]]]}, "properties": {"id": "Pakistan_123102132_87059", "height": 2.889252662658691, "hmax": 0.004, "ratio": 0.001, "vulnClass": "none"}}, {"type": "Feature", "geometry": {"type": "MultiPolygon", "coordinates": [[[[71.97246647, 34.46735605], [71.97249766, 34.46744359], [71.97299777, 34.46732244], [71.97295642, 34.46720641], [71.97285766, 34.46723034], [71.97286781, 34.46725883], [71.97246647, 34.46735605]]]]}, "properties": {"id": "Pakistan_123102132_222906", "height": 3.994601011276245, "hmax": 0.001, "ratio": 0.0, "vulnClass": "none"}}, {"type": "Feature", "geometry": {"type": "MultiPolygon", "coordinates": [[[[71.97298317, 34.46775192], [71.97339833, 34.46776476], [71.97340656, 34.46758368], [71.97331014, 34.4675807], [71.97330618, 34.46766772], [71.97298745, 34.46765784], [71.97298317, 34.46775192]]]]}, "properties": {"id": "Pakistan_123102132_256790", "height": 4.412257194519043, "hmax": 0.001, "ratio": 0.0, "vulnClass": "none"}}, {"type": "Feature", "geometry": {"type": "MultiPolygon", "coordinates": [[[[71.97348581, 34.46814225], [71.97347972, 34.46799868], [71.97291447, 34.46801496], [71.97291933, 34.46812981], [71.97324884, 34.46812032], [71.97325006, 34.46814903], [71.97348581, 34.46814225]]]]}, "properties": {"id": "Pakistan_123102132_34905", "height": 3.497146606445312, "hmax": 0.002, "ratio": 0.001, "vulnClass": "none"}}, {"type": "Feature", "geometry": {"type": "MultiPolygon", "coordinates": [[[[71.97294874, 34.46853451], [71.9728722, 34.46851447], [71.97284358, 34.46858879], [71.97295909, 34.46861904], [71.97297874, 34.46856802], [71.97293976, 34.46855782], [71.97294874, 34.46853451]]]]}, "properties": {"id": "Pakistan_123102132_293763", "height": 2.58861780166626, "hmax": 0.002, "ratio": 0.001, "vulnClass": "none"}}, {"type": "Feature", "geometry": {"type": "MultiPolygon", "coordinates": [[[[71.9727253, 34.4687586], [71.9729154, 34.4687744], [71.97293119, 34.46864524], [71.97282763, 34.46863664], [71.97283272, 34.46859504], [71.97274619, 34.46858785], [71.9727253, 34.4687586]]]]}, "properties": {"id": "Pakistan_123102132_582665", "height": 2.976020812988281, "hmax": 0.002, "ratio": 0.001, "vulnClass": "none"}}, {"type": "Feature", "geometry": {"type": "MultiPolygon", "coordinates": [[[[71.97629173, 34.4674612], [71.97609982, 34.46743574], [71.97609208, 34.46747573], [71.97614816, 34.46748317], [71.97613965, 34.46752718], [71.97627549, 34.4675452], [71.97629173, 34.4674612]]]]}, "properties": {"id": "8J6HFX8G+XFWF", "height": 2.550915241241455, "hmax": 0.013, "ratio": 0.005, "vulnClass": "none"}}, {"type": "Feature", "geometry": {"type": "MultiPolygon", "coordinates": [[[[71.97606512, 34.4675189], [71.97607602, 34.46743998], [71.97604945, 34.46743746], [71.97603855, 34.46751638], [71.97606512, 34.4675189]]]]}, "properties": {"id": "8J6HFX8G+XCV5", "height": 2.841745615005493, "hmax": 0.013, "ratio": 0.005, "vulnClass": "none"}}, {"type": "Feature", "geometry": {"type": "MultiPolygon", "coordinates": [[[[71.97638113, 34.46727261], [71.97605255, 34.46722918], [71.97603635, 34.4673133], [71.97636492, 34.46735673], [71.97638113, 34.46727261]]]]}, "properties": {"id": "8J6HFX8G+WF8P", "height": 3.352229118347168, "hmax": 0.013, "ratio": 0.004, "vulnClass": "none"}}, {"type": "Feature", "geometry": {"type": "MultiPolygon", "coordinates": [[[[71.97622204, 34.46710111], [71.97608011, 34.46707673], [71.97607111, 34.46711268], [71.97621303, 34.46713706], [71.97622204, 34.46710111]]]]}, "properties": {"id": "8J6HFX8G+RFR8", "height": 2.911628007888794, "hmax": 0.015, "ratio": 0.005, "vulnClass": "none"}}, {"type": "Feature", "geometry": {"type": "MultiPolygon", "coordinates": [[[[71.97657995, 34.4670643], [71.97653769, 34.46705856], [71.97652195, 34.46713809], [71.97656421, 34.46714383], [71.97657995, 34.4670643]]]]}, "properties": {"id": "8J6HFX8G+RJV4", "height": 3.442489147186279, "hmax": 0.016, "ratio": 0.005, "vulnClass": "none"}}, {"type": "Feature", "geometry": {"type": "MultiPolygon", "coordinates": [[[[71.97501978, 34.46627638], [71.97495173, 34.46601882], [71.9746099, 34.46608022], [71.97463414, 34.46617193], [71.97468968, 34.46617416], [71.97470884, 34.46624667], [71.97448388, 34.46623762], [71.97448466, 34.46622434], [71.9745484, 34.46621289], [71.97453892, 34.466177], [71.97438784, 34.46620414], [71.97435628, 34.46608472], [71.97417703, 34.46611691], [71.97417265, 34.46610032], [71.97394222, 34.46609107], [71.97393602, 34.46606762], [71.97393372, 34.46610659], [71.97386893, 34.46611823], [71.97388156, 34.46616603], [71.97404616, 34.46617264], [71.97386764, 34.46620471], [71.97393849, 34.46647282], [71.97400939, 34.46646009], [71.97401296, 34.46639974], [71.97404378, 34.4663942], [71.97402481, 34.46632243], [71.97421806, 34.46628771], [71.97421938, 34.46626536], [71.97441614, 34.46623002], [71.97445519, 34.4663778], [71.97501978, 34.46627638]]]]}, "properties": {"id": "Pakistan_123102132_463262", "height": 4.366844177246094, "hmax": 0.009, "ratio": 0.002, "vulnClass": "none"}}, {"type": "Feature", "geometry": {"type": "MultiPolygon", "coordinates": [[[[71.97352429, 34.46558219], [71.9731437, 34.46559076], [71.97314553, 34.465646], [71.97350199, 34.46563798], [71.97350735, 34.4658002], [71.97353147, 34.46579966], [71.97352429, 34.46558219]]]]}, "properties": {"id": "Pakistan_123102132_80997", "height": 3.26726770401001, "hmax": 0.002, "ratio": 0.001, "vulnClass": "none"}}, {"type": "Feature", "geometry": {"type": "MultiPolygon", "coordinates": [[[[71.97699684, 34.46512679], [71.97693477, 34.4651073], [71.97689701, 34.4651898], [71.97695908, 34.46520929], [71.97699684, 34.46512679]]]]}, "properties": {"id": "8J6HFX8G+3Q87", "height": 3.394452571868896, "hmax": 0.001, "ratio": 0.0, "vulnClass": "none"}}, {"type": "Feature", "geometry": {"type": "MultiPolygon", "coordinates": [[[[71.97657432, 34.46710192], [71.97656954, 34.46714969], [71.97678096, 34.4671642], [71.97678574, 34.46711643], [71.97657432, 34.46710192]]]]}, "properties": {"id": "8J6HFX8G+VM38", "height": 2.445239543914795, "hmax": 0.02, "ratio": 0.008, "vulnClass": "none"}}, {"type": "Feature", "geometry": {"type": "MultiPolygon", "coordinates": [[[[71.9792179, 34.46811659], [71.97921151, 34.4680156], [71.97897706, 34.46802576], [71.97898344, 34.46812675], [71.9792179, 34.46811659]]]]}, "properties": {"id": "8J6HFX9H+6JHR", "height": 3.546714305877686, "hmax": 0.002, "ratio": 0.001, "vulnClass": "none"}}, {"type": "Feature", "geometry": {"type": "MultiPolygon", "coordinates": [[[[71.97920297, 34.46784383], [71.97916387, 34.46783978], [71.97915708, 34.46788465], [71.97919619, 34.4678887], [71.97920297, 34.46784383]]]]}, "properties": {"id": "8J6HFX9H+4MVH", "height": 3.160815477371216, "hmax": 0.001, "ratio": 0.0, "vulnClass": "none"}}, {"type": "Feature", "geometry": {"type": "MultiPolygon", "coordinates": [[[[71.97937239, 34.46783668], [71.97933071, 34.46784162], [71.97933596, 34.46787203], [71.97937764, 34.46786709], [71.97937239, 34.46783668]]]]}, "properties": {"id": "8J6HFX9H+4PX3", "height": 2.574222564697266, "hmax": 0.001, "ratio": 0.0, "vulnClass": "none"}}, {"type": "Feature", "geometry": {"type": "MultiPolygon", "coordinates": [[[[71.97936916, 34.46794673], [71.97925233, 34.46796097], [71.97926049, 34.4680069], [71.97937732, 34.46799266], [71.97936916, 34.46794673]]]]}, "properties": {"id": "8J6HFX9H+5PW2", "height": 2.46143651008606, "hmax": 0.001, "ratio": 0.0, "vulnClass": "none"}}, {"type": "Feature", "geometry": {"type": "MultiPolygon", "coordinates": [[[[71.9796561, 34.468063], [71.979642, 34.4679847], [71.9794838, 34.4680043], [71.9794979, 34.4680825], [71.9796561, 34.468063]]]]}, "properties": {"id": "8J6HFX9H+6R86", "height": 3.545257329940796, "hmax": 0.001, "ratio": 0.0, "vulnClass": "none"}}, {"type": "Feature", "geometry": {"type": "MultiPolygon", "coordinates": [[[[71.97949188, 34.46804926], [71.97947933, 34.46797966], [71.97925993, 34.46800679], [71.97927848, 34.46810967], [71.97936562, 34.4680989], [71.97935962, 34.46806561], [71.97949188, 34.46804926]]]]}, "properties": {"id": "8J6HFX9H+6P9G", "height": 2.449278831481934, "hmax": 0.002, "ratio": 0.001, "vulnClass": "none"}}, {"type": "Feature", "geometry": {"type": "MultiPolygon", "coordinates": [[[[71.97925805, 34.4679289], [71.97922727, 34.46792839], [71.97922615, 34.46797535], [71.97925692, 34.46797585], [71.97925805, 34.4679289]]]]}, "properties": {"id": "8J6HFX9H+5MQ4", "height": 2.495059013366699, "hmax": 0.001, "ratio": 0.0, "vulnClass": "none"}}, {"type": "Feature", "geometry": {"type": "MultiPolygon", "coordinates": [[[[71.9793656, 34.4680989], [71.9792785, 34.4681097], [71.9793279, 34.4683835], [71.979415, 34.4683727], [71.9793656, 34.4680989]]]]}, "properties": {"id": "8J6HFX9H+7PXJ", "height": 3.094973087310791, "hmax": 0.003, "ratio": 0.001, "vulnClass": "none"}}, {"type": "Feature", "geometry": {"type": "MultiPolygon", "coordinates": [[[[71.97944072, 34.46843377], [71.97942218, 34.46837655], [71.97932372, 34.46839843], [71.97934225, 34.46845565], [71.97944072, 34.46843377]]]]}, "properties": {"id": "8J6HFX9H+9Q6J", "height": 2.777035236358643, "hmax": 0.003, "ratio": 0.001, "vulnClass": "none"}}, {"type": "Feature", "geometry": {"type": "MultiPolygon", "coordinates": [[[[71.98053238, 34.46868067], [71.98052345, 34.4685961], [71.98032184, 34.4686107], [71.98033077, 34.46869526], [71.98053238, 34.46868067]]]]}, "properties": {"id": "8J6HFX9J+F53W", "height": 3.435006141662598, "hmax": 0.053, "ratio": 0.015, "vulnClass": "none"}}, {"type": "Feature", "geometry": {"type": "MultiPolygon", "coordinates": [[[[71.97964855, 34.46788627], [71.97960795, 34.46788553], [71.97960543, 34.46798158], [71.9796842, 34.46798287], [71.97968543, 34.46793592], [71.97964726, 34.46793529], [71.97964855, 34.46788627]]]]}, "properties": {"id": "8J6HFX9H+5VCM", "height": 4.486470222473145, "hmax": 0.001, "ratio": 0.0, "vulnClass": "none"}}, {"type": "Feature", "geometry": {"type": "MultiPolygon", "coordinates": [[[[71.97972457, 34.46764667], [71.97970604, 34.46760755], [71.97966172, 34.46762196], [71.97968025, 34.46766108], [71.97972457, 34.46764667]]]]}, "properties": {"id": "8J6HFX9H+3V46", "height": 2.699411392211914, "hmax": 0.001, "ratio": 0.0, "vulnClass": "none"}}, {"type": "Feature", "geometry": {"type": "MultiPolygon", "coordinates": [[[[71.97978607, 34.46759115], [71.97971871, 34.46760432], [71.97973053, 34.46764576], [71.97979788, 34.46763259], [71.97978607, 34.46759115]]]]}, "properties": {"id": "8J6HFX9H+2WRM", "height": 3.048705577850342, "hmax": 0.001, "ratio": 0.0, "vulnClass": "none"}}, {"type": "Feature", "geometry": {"type": "MultiPolygon", "coordinates": [[[[71.97877167, 34.46681515], [71.97869696, 34.46680897], [71.9786799, 34.46695041], [71.97875461, 34.46695659], [71.97875981, 34.46691349], [71.97873551, 34.46691148], [71.97874259, 34.46685275], [71.97876689, 34.46685476], [71.97877167, 34.46681515]]]]}, "properties": {"id": "8J6HFX8H+QF56", "height": 3.552031517028809, "hmax": 0.012, "ratio": 0.003, "vulnClass": "none"}}, {"type": "Feature", "geometry": {"type": "MultiPolygon", "coordinates": [[[[71.98061972, 34.46858469], [71.98052466, 34.46859292], [71.9805502, 34.4687953], [71.98064526, 34.46878707], [71.98061972, 34.46858469]]]]}, "properties": {"id": "8J6HFX9J+F6GG", "height": 3.590756893157959, "hmax": 0.053, "ratio": 0.015, "vulnClass": "none"}}, {"type": "Feature", "geometry": {"type": "MultiPolygon", "coordinates": [[[[71.98073713, 34.46864838], [71.98070171, 34.46864883], [71.98070368, 34.46875569], [71.9807391, 34.46875524], [71.98073713, 34.46864838]]]]}, "properties": {"id": "8J6HFX9J+F7Q2", "height": 3.02788233757019, "hmax": 0.053, "ratio": 0.018, "vulnClass": "none"}}, {"type": "Feature", "geometry": {"type": "MultiPolygon", "coordinates": [[[[71.98267653, 34.46820954], [71.98264845, 34.46821289], [71.98265785, 34.46826687], [71.98268593, 34.46826351], [71.98267653, 34.46820954]]]]}, "properties": {"id": "8J6HFX9M+73VF", "height": 4.231955528259277, "hmax": 0.001, "ratio": 0.0, "vulnClass": "none"}}, {"type": "Feature", "geometry": {"type": "MultiPolygon", "coordinates": [[[[71.98270827, 34.46828059], [71.98252631, 34.46827988], [71.98252608, 34.46832116], [71.98270804, 34.46832187], [71.98270827, 34.46828059]]]]}, "properties": {"id": "8J6HFX9M+82H4", "height": 3.068012237548828, "hmax": 0.001, "ratio": 0.0, "vulnClass": "none"}}, {"type": "Feature", "geometry": {"type": "MultiPolygon", "coordinates": [[[[71.98324504, 34.4663328], [71.98323824, 34.46626998], [71.98312417, 34.46627845], [71.98313097, 34.46634127], [71.98324504, 34.4663328]]]]}, "properties": {"id": "8J6HFX8M+G7F9", "height": 2.564290523529053, "hmax": 0.001, "ratio": 0.0, "vulnClass": "none"}}, {"type": "Feature", "geometry": {"type": "MultiPolygon", "coordinates": [[[[71.98313074, 34.46592891], [71.98312032, 34.4658764], [71.98294269, 34.46590058], [71.98295311, 34.46595309], [71.98313074, 34.46592891]]]]}, "properties": {"id": "8J6HFX8M+967C", "height": 3.627360105514526, "hmax": 0.001, "ratio": 0.0, "vulnClass": "none"}}, {"type": "Feature", "geometry": {"type": "MultiPolygon", "coordinates": [[[[71.98293587, 34.46586973], [71.98293138, 34.46582582], [71.98289395, 34.46582845], [71.98289844, 34.46587235], [71.98293587, 34.46586973]]]]}, "properties": {"id": "8J6HFX8M+85MV", "height": 2.53749418258667, "hmax": 0.001, "ratio": 0.0, "vulnClass": "none"}}, {"type": "Feature", "geometry": {"type": "MultiPolygon", "coordinates": [[[[71.98295274, 34.46595244], [71.98293784, 34.4658776], [71.98281002, 34.46589505], [71.98282492, 34.46596989], [71.98295274, 34.46595244]]]]}, "properties": {"id": "8J6HFX8M+956R", "height": 3.627360105514526, "hmax": 0.001, "ratio": 0.0, "vulnClass": "none"}}, {"type": "Feature", "geometry": {"type": "MultiPolygon", "coordinates": [[[[71.9834008, 34.46639866], [71.9833973, 34.46636629], [71.98337113, 34.46636823], [71.98336632, 34.46632379], [71.98318278, 34.46633742], [71.9831911, 34.46641423], [71.9834008, 34.46639866]]]]}, "properties": {"id": "8J6HFX8M+G8VJ", "height": 2.501166820526123, "hmax": 0.002, "ratio": 0.001, "vulnClass": "none"}}, {"type": "Feature", "geometry": {"type": "MultiPolygon", "coordinates": [[[[71.98177911, 34.46503436], [71.98192444, 34.46540015], [71.98196601, 34.46538874], [71.98192574, 34.46528817], [71.98197198, 34.46527547], [71.9818659, 34.46501052], [71.98177911, 34.46503436]]]]}, "properties": {"id": "8J6HFX8J+3QC6", "height": 3.473552465438843, "hmax": 0.002, "ratio": 0.001, "vulnClass": "none"}}, {"type": "Feature", "geometry": {"type": "MultiPolygon", "coordinates": [[[[71.98261204, 34.46529386], [71.98258295, 34.46525486], [71.98253239, 34.46528073], [71.98256148, 34.46531974], [71.98261204, 34.46529386]]]]}, "properties": {"id": "8J6HFX8M+428F", "height": 3.217611312866211, "hmax": 0.002, "ratio": 0.001, "vulnClass": "none"}}, {"type": "Feature", "geometry": {"type": "MultiPolygon", "coordinates": [[[[71.98293756, 34.46558012], [71.98292996, 34.46553882], [71.98285087, 34.4655488], [71.98285847, 34.4655901], [71.98293756, 34.46558012]]]]}, "properties": {"id": "8J6HFX8M+65CG", "height": 3.254951477050781, "hmax": 0.001, "ratio": 0.0, "vulnClass": "none"}}, {"type": "Feature", "geometry": {"type": "MultiPolygon", "coordinates": [[[[71.9827233, 34.4656164], [71.9826291, 34.465627], [71.9826568, 34.4657957], [71.9828149, 34.4657779], [71.9827932, 34.4656456], [71.9827607, 34.4656493], [71.9827643, 34.4656712], [71.9827329, 34.4656748], [71.9827233, 34.4656164]]]]}, "properties": {"id": "8J6HFX8M+73PH", "height": 3.170102119445801, "hmax": 0.001, "ratio": 0.0, "vulnClass": "none"}}, {"type": "Feature", "geometry": {"type": "MultiPolygon", "coordinates": [[[[71.98298949, 34.4657568], [71.98298263, 34.46570807], [71.98283727, 34.46572212], [71.98284413, 34.46577085], [71.98298949, 34.4657568]]]]}, "properties": {"id": "8J6HFX8M+75VC", "height": 3.618980884552002, "hmax": 0.001, "ratio": 0.0, "vulnClass": "none"}}, {"type": "Feature", "geometry": {"type": "MultiPolygon", "coordinates": [[[[71.98288485, 34.46564387], [71.98278767, 34.46563787], [71.98278471, 34.46567086], [71.98281691, 34.46567285], [71.98281313, 34.46571495], [71.9828781, 34.46571895], [71.98288485, 34.46564387]]]]}, "properties": {"id": "8J6HFX8M+74G5", "height": 4.598003387451172, "hmax": 0.001, "ratio": 0.0, "vulnClass": "none"}}, {"type": "Feature", "geometry": {"type": "MultiPolygon", "coordinates": [[[[71.98296416, 34.46561263], [71.98291671, 34.4656097], [71.98291051, 34.46567863], [71.98295796, 34.46568155], [71.98296416, 34.46561263]]]]}, "properties": {"id": "8J6HFX8M+753X", "height": 4.560633659362793, "hmax": 0.001, "ratio": 0.0, "vulnClass": "none"}}, {"type": "Feature", "geometry": {"type": "MultiPolygon", "coordinates": [[[[71.98430592, 34.46415943], [71.98430295, 34.46408633], [71.98398458, 34.46409521], [71.98398755, 34.4641683], [71.98430592, 34.46415943]]]]}, "properties": {"id": "8J6HFX7M+MM24", "height": 2.777239799499512, "hmax": 0.021, "ratio": 0.008, "vulnClass": "none"}}, {"type": "Feature", "geometry": {"type": "MultiPolygon", "coordinates": [[[[71.98400223, 34.46395321], [71.98417306, 34.46391149], [71.98415962, 34.46387375], [71.9839888, 34.46391547], [71.98400223, 34.46395321]]]]}, "properties": {"id": "8J6HFX7M+HJ8G", "height": 2.63019323348999, "hmax": 0.021, "ratio": 0.008, "vulnClass": "none"}}, {"type": "Feature", "geometry": {"type": "MultiPolygon", "coordinates": [[[[71.98345091, 34.46310811], [71.98340951, 34.46303937], [71.98336152, 34.4630592], [71.98337865, 34.46308764], [71.98333098, 34.46310734], [71.98335524, 34.46314763], [71.98345091, 34.46310811]]]]}, "properties": {"id": "8J6HFX7M+69JW", "height": 2.452567100524902, "hmax": 0.043, "ratio": 0.018, "vulnClass": "none"}}, {"type": "Feature", "geometry": {"type": "MultiPolygon", "coordinates": [[[[71.98340951, 34.46303937], [71.98339704, 34.46301866], [71.98334905, 34.46303849], [71.98336152, 34.4630592], [71.98340951, 34.46303937]]]]}, "properties": {"id": "8J6HFX7M+696C", "height": 2.452567100524902, "hmax": 0.049, "ratio": 0.02, "vulnClass": "none"}}, {"type": "Feature", "geometry": {"type": "MultiPolygon", "coordinates": [[[[71.97827165, 34.46437684], [71.97819596, 34.46437662], [71.97819582, 34.46441013], [71.97827151, 34.46441035], [71.97827165, 34.46437684]]]]}, "properties": {"id": "8J6HFX7H+Q75M", "height": 3.386555910110474, "hmax": 0.001, "ratio": 0.0, "vulnClass": "none"}}, {"type": "Feature", "geometry": {"type": "MultiPolygon", "coordinates": [[[[71.97808635, 34.46465701], [71.9780538, 34.46441942], [71.97795532, 34.46442868], [71.97798788, 34.46466627], [71.97808635, 34.46465701]]]]}, "properties": {"id": "8J6HFX7H+R66P", "height": 2.700278759002686, "hmax": 0.015, "ratio": 0.006, "vulnClass": "none"}}, {"type": "Feature", "geometry": {"type": "MultiPolygon", "coordinates": [[[[71.97770841, 34.46441919], [71.97765048, 34.46442811], [71.9776649, 34.46449238], [71.97772283, 34.46448346], [71.97770841, 34.46441919]]]]}, "properties": {"id": "8J6HFX7H+Q3M9", "height": 2.698904514312744, "hmax": 0.001, "ratio": 0.0, "vulnClass": "none"}}, {"type": "Feature", "geometry": {"type": "MultiPolygon", "coordinates": [[[[71.97765962, 34.46457939], [71.97764331, 34.46454862], [71.97757266, 34.46457432], [71.97758898, 34.46460508], [71.97765962, 34.46457939]]]]}, "properties": {"id": "8J6HFX7H+R2Q4", "height": 3.798221111297607, "hmax": 0.001, "ratio": 0.0, "vulnClass": "none"}}, {"type": "Feature", "geometry": {"type": "MultiPolygon", "coordinates": [[[[71.97755917, 34.46462868], [71.97751942, 34.46463347], [71.97753237, 34.46470721], [71.97757211, 34.46470242], [71.97755917, 34.46462868]]]]}, "properties": {"id": "8J6HFX7H+V27M", "height": 3.506234645843506, "hmax": 0.001, "ratio": 0.0, "vulnClass": "none"}}, {"type": "Feature", "geometry": {"type": "MultiPolygon", "coordinates": [[[[71.97678253, 34.4646203], [71.97664284, 34.46462658], [71.97664749, 34.46469749], [71.97678718, 34.46469121], [71.97678253, 34.4646203]]]]}, "properties": {"id": "8J6HFX7G+VM89", "height": 4.271450042724609, "hmax": 0.006, "ratio": 0.001, "vulnClass": "none"}}, {"type": "Feature", "geometry": {"type": "MultiPolygon", "coordinates": [[[[71.9767949, 34.4646518], [71.9767942, 34.4646975], [71.9769384, 34.4646991], [71.9769391, 34.4646534], [71.9767949, 34.4646518]]]]}, "properties": {"id": "8J6HFX7G+VPH4", "height": 2.687996387481689, "hmax": 0.002, "ratio": 0.001, "vulnClass": "none"}}, {"type": "Feature", "geometry": {"type": "MultiPolygon", "coordinates": [[[[71.97667897, 34.46452527], [71.97663096, 34.46452523], [71.97663085, 34.4645969], [71.97667886, 34.46459695], [71.97667897, 34.46452527]]]]}, "properties": {"id": "8J6HFX7G+RMCH", "height": 3.767714500427246, "hmax": 0.006, "ratio": 0.002, "vulnClass": "none"}}, {"type": "Feature", "geometry": {"type": "MultiPolygon", "coordinates": [[[[71.97673705, 34.46452278], [71.97668911, 34.46452395], [71.97669059, 34.46456567], [71.97673853, 34.4645645], [71.97673705, 34.46452278]]]]}, "properties": {"id": "8J6HFX7G+RM8Q", "height": 3.344443559646606, "hmax": 0.006, "ratio": 0.002, "vulnClass": "none"}}, {"type": "Feature", "geometry": {"type": "MultiPolygon", "coordinates": [[[[71.97754164, 34.4645732], [71.97751521, 34.46457074], [71.97751238, 34.46459157], [71.9775388, 34.46459404], [71.97754164, 34.4645732]]]]}, "properties": {"id": "8J6HFX7H+R2J9", "height": 2.849128723144531, "hmax": 0.001, "ratio": 0.0, "vulnClass": "none"}}, {"type": "Feature", "geometry": {"type": "MultiPolygon", "coordinates": [[[[71.97811263, 34.46441331], [71.97811443, 34.4643147], [71.97804719, 34.46431386], [71.97804673, 34.46433887], [71.97798086, 34.46433804], [71.97797951, 34.46441164], [71.97811263, 34.46441331]]]]}, "properties": {"id": "8J6HFX7H+P6VP", "height": 3.526943445205688, "hmax": 0.001, "ratio": 0.0, "vulnClass": "none"}}, {"type": "Feature", "geometry": {"type": "MultiPolygon", "coordinates": [[[[71.98299032, 34.46209723], [71.98295238, 34.46210127], [71.9829621, 34.46216396], [71.98300004, 34.46215992], [71.98299032, 34.46209723]]]]}, "properties": {"id": "8J6HFX6M+V556", "height": 2.447984218597412, "hmax": 0.004, "ratio": 0.002, "vulnClass": "none"}}, {"type": "Feature", "geometry": {"type": "MultiPolygon", "coordinates": [[[[71.9848245, 34.46123974], [71.98479936, 34.46120109], [71.98475246, 34.46122201], [71.9847776, 34.46126066], [71.9848245, 34.46123974]]]]}, "properties": {"id": "8J6HFX6M+FWV6", "height": 2.950714826583862, "hmax": 0.001, "ratio": 0.0, "vulnClass": "none"}}, {"type": "Feature", "geometry": {"type": "MultiPolygon", "coordinates": [[[[71.9854702, 34.46194498], [71.9854442, 34.46190187], [71.98530646, 34.46195886], [71.98533246, 34.46200197], [71.9854702, 34.46194498]]]]}, "properties": {"id": "8J6HFX6P+Q5J3", "height": 2.850971937179565, "hmax": 0.001, "ratio": 0.0, "vulnClass": "none"}}, {"type": "Feature", "geometry": {"type": "MultiPolygon", "coordinates": [[[[71.98550053, 34.46202292], [71.98545737, 34.46195122], [71.98533853, 34.46200029], [71.98537116, 34.46205449], [71.98534997, 34.46206324], [71.9853605, 34.46208074], [71.98550053, 34.46202292]]]]}, "properties": {"id": "8J6HFX6P+R53F", "height": 2.985835552215576, "hmax": 0.001, "ratio": 0.0, "vulnClass": "none"}}, {"type": "Feature", "geometry": {"type": "MultiPolygon", "coordinates": [[[[71.98528532, 34.46204091], [71.98525879, 34.46199136], [71.98519219, 34.46201583], [71.98521872, 34.46206538], [71.98528532, 34.46204091]]]]}, "properties": {"id": "8J6HFX6P+R394", "height": 2.935928106307983, "hmax": 0.001, "ratio": 0.0, "vulnClass": "none"}}, {"type": "Feature", "geometry": {"type": "MultiPolygon", "coordinates": [[[[71.98523486, 34.46204309], [71.98522191, 34.46204844], [71.98529453, 34.46216909], [71.98543062, 34.4621129], [71.98540116, 34.46206395], [71.98533321, 34.46209201], [71.98530384, 34.4620432], [71.98524864, 34.462066], [71.98523486, 34.46204309]]]]}, "properties": {"id": "8J6HFX6P+R4W3", "height": 2.932952404022217, "hmax": 0.001, "ratio": 0.0, "vulnClass": "none"}}, {"type": "Feature", "geometry": {"type": "MultiPolygon", "coordinates": [[[[71.98541944, 34.46223528], [71.98539499, 34.46219465], [71.98532685, 34.46222279], [71.9853513, 34.46226342], [71.98541944, 34.46223528]]]]}, "properties": {"id": "8J6HFX6P+V4X5", "height": 3.438001155853271, "hmax": 0.001, "ratio": 0.0, "vulnClass": "none"}}, {"type": "Feature", "geometry": {"type": "MultiPolygon", "coordinates": [[[[71.98552236, 34.46273715], [71.98548588, 34.46266017], [71.98530304, 34.46271961], [71.98533951, 34.46279659], [71.98552236, 34.46273715]]]]}, "properties": {"id": "8J6HFX7P+35V2", "height": 5.069265842437744, "hmax": 0.001, "ratio": 0.0, "vulnClass": "none"}}, {"type": "Feature", "geometry": {"type": "MultiPolygon", "coordinates": [[[[71.98573272, 34.46256246], [71.98570878, 34.46247756], [71.98554509, 34.46250923], [71.98556902, 34.46259412], [71.98573272, 34.46256246]]]]}, "properties": {"id": "8J6HFX7P+276F", "height": 2.890202760696411, "hmax": 0.001, "ratio": 0.0, "vulnClass": "none"}}, {"type": "Feature", "geometry": {"type": "MultiPolygon", "coordinates": [[[[71.98582754, 34.46253032], [71.98578181, 34.4625494], [71.98582013, 34.46261243], [71.98586587, 34.46259335], [71.98582754, 34.46253032]]]]}, "properties": {"id": "8J6HFX7P+28GV", "height": 2.623291015625, "hmax": 0.002, "ratio": 0.001, "vulnClass": "none"}}, {"type": "Feature", "geometry": {"type": "MultiPolygon", "coordinates": [[[[71.98580271, 34.46267695], [71.98575031, 34.46258712], [71.98561739, 34.4626403], [71.98566978, 34.46273014], [71.98580271, 34.46267695]]]]}, "properties": {"id": "8J6HFX7P+3788", "height": 3.027283906936646, "hmax": 0.002, "ratio": 0.001, "vulnClass": "none"}}, {"type": "Feature", "geometry": {"type": "MultiPolygon", "coordinates": [[[[71.98550404, 34.4627788], [71.985492, 34.46274975], [71.98546014, 34.46275881], [71.98547217, 34.46278785], [71.98550404, 34.4627788]]]]}, "properties": {"id": "8J6HFX7P+455M", "height": 3.241390705108643, "hmax": 0.001, "ratio": 0.0, "vulnClass": "none"}}, {"type": "Feature", "geometry": {"type": "MultiPolygon", "coordinates": [[[[71.98554849, 34.46284996], [71.98550594, 34.46285581], [71.98551275, 34.4628898], [71.9855553, 34.46288395], [71.98554849, 34.46284996]]]]}, "properties": {"id": "8J6HFX7P+46RQ", "height": 3.676812648773193, "hmax": 0.001, "ratio": 0.0, "vulnClass": "none"}}, {"type": "Feature", "geometry": {"type": "MultiPolygon", "coordinates": [[[[71.98563924, 34.46248329], [71.98556793, 34.46236551], [71.98547675, 34.46240338], [71.98554805, 34.46252116], [71.98563924, 34.46248329]]]]}, "properties": {"id": "8J6HFX6P+X6FQ", "height": 2.89586067199707, "hmax": 0.001, "ratio": 0.0, "vulnClass": "none"}}, {"type": "Feature", "geometry": {"type": "MultiPolygon", "coordinates": [[[[71.985739, 34.46227876], [71.9856972, 34.46220931], [71.98546221, 34.46230634], [71.98547911, 34.46233442], [71.98543933, 34.46235084], [71.98546423, 34.46239222], [71.985739, 34.46227876]]]]}, "properties": {"id": "8J6HFX6P+W68X", "height": 3.169143676757812, "hmax": 0.001, "ratio": 0.0, "vulnClass": "none"}}, {"type": "Feature", "geometry": {"type": "MultiPolygon", "coordinates": [[[[71.98556646, 34.46302054], [71.98552476, 34.46301813], [71.9855218, 34.46305324], [71.9855635, 34.46305565], [71.98556646, 34.46302054]]]]}, "properties": {"id": "8J6HFX7P+667F", "height": 4.08112621307373, "hmax": 0.001, "ratio": 0.0, "vulnClass": "none"}}, {"type": "Feature", "geometry": {"type": "MultiPolygon", "coordinates": [[[[71.98540774, 34.46337218], [71.98539248, 34.4633298], [71.98530221, 34.4633521], [71.98531747, 34.46339447], [71.98540774, 34.46337218]]]]}, "properties": {"id": "8J6HFX7P+84XF", "height": 3.23004674911499, "hmax": 0.001, "ratio": 0.0, "vulnClass": "none"}}, {"type": "Feature", "geometry": {"type": "MultiPolygon", "coordinates": [[[[71.9853254, 34.4634509], [71.98530514, 34.46335357], [71.98522842, 34.46336452], [71.98524868, 34.46346185], [71.9853254, 34.4634509]]]]}, "properties": {"id": "8J6HFX7P+9469", "height": 3.600229740142822, "hmax": 0.001, "ratio": 0.0, "vulnClass": "none"}}, {"type": "Feature", "geometry": {"type": "MultiPolygon", "coordinates": [[[[71.98536786, 34.46333588], [71.98533641, 34.46324851], [71.98519292, 34.46328395], [71.98522438, 34.46337132], [71.98536786, 34.46333588]]]]}, "properties": {"id": "8J6HFX7P+84C9", "height": 3.519659757614136, "hmax": 0.001, "ratio": 0.0, "vulnClass": "none"}}, {"type": "Feature", "geometry": {"type": "MultiPolygon", "coordinates": [[[[71.9855849, 34.4631668], [71.98557969, 34.4630823], [71.98533733, 34.46309257], [71.98534254, 34.46317706], [71.9855849, 34.4631668]]]]}, "properties": {"id": "8J6HFX7P+7545", "height": 3.840899467468262, "hmax": 0.001, "ratio": 0.0, "vulnClass": "none"}}, {"type": "Feature", "geometry": {"type": "MultiPolygon", "coordinates": [[[[71.98538322, 34.46291571], [71.98531484, 34.4629186], [71.98531765, 34.46296415], [71.98538603, 34.46296126], [71.98538322, 34.46291571]]]]}, "properties": {"id": "8J6HFX7P+54HC", "height": 3.841385364532471, "hmax": 0.001, "ratio": 0.0, "vulnClass": "none"}}, {"type": "Feature", "geometry": {"type": "MultiPolygon", "coordinates": [[[[71.98512245, 34.46354762], [71.98511372, 34.46349169], [71.98505301, 34.46349819], [71.98506174, 34.46355412], [71.98512245, 34.46354762]]]]}, "properties": {"id": "8J6HFX7P+C24X", "height": 3.078469514846802, "hmax": 0.001, "ratio": 0.0, "vulnClass": "none"}}, {"type": "Feature", "geometry": {"type": "MultiPolygon", "coordinates": [[[[71.98514921, 34.46348521], [71.98513498, 34.4634068], [71.98510104, 34.46341102], [71.98510649, 34.46344105], [71.98504418, 34.46344881], [71.98505296, 34.46349719], [71.98514921, 34.46348521]]]]}, "properties": {"id": "8J6HFX7P+92Q6", "height": 4.25243616104126, "hmax": 0.001, "ratio": 0.0, "vulnClass": "none"}}, {"type": "Feature", "geometry": {"type": "MultiPolygon", "coordinates": [[[[71.98541748, 34.46347573], [71.98531808, 34.46348384], [71.98533182, 34.46359927], [71.98543121, 34.46359116], [71.98541748, 34.46347573]]]]}, "properties": {"id": "8J6HFX7P+C49H", "height": 3.70305323600769, "hmax": 0.001, "ratio": 0.0, "vulnClass": "none"}}, {"type": "Feature", "geometry": {"type": "MultiPolygon", "coordinates": [[[[71.9852843, 34.4636702], [71.9852781, 34.4636027], [71.9851051, 34.4636136], [71.9851135, 34.463705], [71.9851644, 34.4637018], [71.9851622, 34.4636779], [71.9852843, 34.4636702]]]]}, "properties": {"id": "8J6HFX7P+F34R", "height": 4.060595989227295, "hmax": 0.001, "ratio": 0.0, "vulnClass": "none"}}, {"type": "Feature", "geometry": {"type": "MultiPolygon", "coordinates": [[[[71.98505817, 34.46350394], [71.9850272, 34.4635047], [71.98502864, 34.46354522], [71.98505961, 34.46354447], [71.98505817, 34.46350394]]]]}, "properties": {"id": "8J6HFX7P+C23V", "height": 3.644871234893799, "hmax": 0.001, "ratio": 0.0, "vulnClass": "none"}}, {"type": "Feature", "geometry": {"type": "MultiPolygon", "coordinates": [[[[71.98505363, 34.46358866], [71.9849578, 34.46359468], [71.98496385, 34.46366076], [71.98503694, 34.46365617], [71.98503964, 34.46368562], [71.98508406, 34.46368283], [71.98507787, 34.46361527], [71.98505619, 34.46361663], [71.98505363, 34.46358866]]]]}, "properties": {"id": "8J6HFX7P+F228", "height": 4.156871795654297, "hmax": 0.001, "ratio": 0.0, "vulnClass": "none"}}, {"type": "Feature", "geometry": {"type": "MultiPolygon", "coordinates": [[[[71.98520852, 34.46382832], [71.98519358, 34.46370276], [71.98506112, 34.46371358], [71.98507606, 34.46383913], [71.98520852, 34.46382832]]]]}, "properties": {"id": "8J6HFX7P+G32V", "height": 4.106633186340332, "hmax": 0.001, "ratio": 0.0, "vulnClass": "none"}}, {"type": "Feature", "geometry": {"type": "MultiPolygon", "coordinates": [[[[71.98548234, 34.46434317], [71.98545823, 34.46426358], [71.98530892, 34.46429461], [71.98529091, 34.46423517], [71.98510645, 34.46427351], [71.98514857, 34.46441253], [71.98548234, 34.46434317]]]]}, "properties": {"id": "8J6HFX7P+P4CX", "height": 2.789395332336426, "hmax": 0.001, "ratio": 0.0, "vulnClass": "none"}}, {"type": "Feature", "geometry": {"type": "MultiPolygon", "coordinates": [[[[71.98526265, 34.46407351], [71.98511722, 34.46407364], [71.98511728, 34.46411922], [71.98526271, 34.46411909], [71.98526265, 34.46407351]]]]}, "properties": {"id": "8J6HFX7P+J3PR", "height": 3.340973615646362, "hmax": 0.001, "ratio": 0.0, "vulnClass": "none"}}, {"type": "Feature", "geometry": {"type": "MultiPolygon", "coordinates": [[[[71.98544546, 34.46407716], [71.98542362, 34.46407703], [71.98542339, 34.46410309], [71.98544523, 34.46410323], [71.98544546, 34.46407716]]]]}, "properties": {"id": "8J6HFX7P+J5MQ", "height": 2.445173740386963, "hmax": 0.001, "ratio": 0.0, "vulnClass": "none"}}, {"type": "Feature", "geometry": {"type": "MultiPolygon", "coordinates": [[[[71.98571975, 34.46475196], [71.98567205, 34.46460412], [71.98556552, 34.4646277], [71.98557566, 34.46465914], [71.98523928, 34.4647336], [71.98521811, 34.46466797], [71.9851219, 34.46468926], [71.98518064, 34.4648713], [71.98571975, 34.46475196]]]]}, "properties": {"id": "8J6HFX7P+V5VM", "height": 3.224756956100464, "hmax": 0.013, "ratio": 0.004, "vulnClass": "none"}}, {"type": "Feature", "geometry": {"type": "MultiPolygon", "coordinates": [[[[71.98544215, 34.46461195], [71.98571226, 34.46454875], [71.9856593, 34.46439347], [71.98559976, 34.4644074], [71.98562963, 34.46449496], [71.98541905, 34.46454423], [71.98538919, 34.46445667], [71.98530229, 34.464477], [71.98531172, 34.46450466], [71.98533069, 34.46450022], [71.98533575, 34.46451505], [71.98536408, 34.46450842], [71.98538617, 34.46457318], [71.98542577, 34.46456391], [71.98544215, 34.46461195]]]]}, "properties": {"id": "8J6HFX7P+R63V", "height": 2.880510091781616, "hmax": 0.001, "ratio": 0.0, "vulnClass": "none"}}, {"type": "Feature", "geometry": {"type": "MultiPolygon", "coordinates": [[[[71.98775366, 34.4666753], [71.98772783, 34.46659507], [71.98735933, 34.46667645], [71.98738517, 34.46675668], [71.98775366, 34.4666753]]]]}, "properties": {"id": "8J6HFX8Q+M2F5", "height": 3.500850200653076, "hmax": 0.002, "ratio": 0.001, "vulnClass": "none"}}]}