{
"type": "FeatureCollection",
"name": "kalpani",
"crs": { "type": "name", "properties": { "name": "urn:ogc:def:crs:OGC:1.3:CRS84" } },
"features": [
{"type":"Feature","properties":{"OBJECTID":219,"osm_id":28251087.0,"waterway":"river","covered":" ","water":" ","tunnel":" ","name":"Kalpani River","blockage":" ","Data_Source":"yahoo (landsat)","layer":" ","width":" ","natural":" ","Shape_Length":0.35610983554820141},"geometry":{"type":"MultiLineString","coordinates":[[[71.883393500000068,34.427034100000071],[71.883562400000073,34.426380100000074],[71.884080200000028,34.425759700000071],[71.885410600000057,34.424803900000029],[71.886054300000069,34.42398970000005],[71.886655100000041,34.423104700000067],[71.887384700000041,34.422148900000025],[71.88815720000008,34.421511700000053],[71.889401700000064,34.420697500000074],[71.890775,34.418962800000031],[71.891590400000041,34.417759100000069],[71.891933700000038,34.417051100000037],[71.891847900000073,34.416236800000036],[71.891805,34.415245500000026],[71.892105400000048,34.41418340000007],[71.892792,34.413333700000067],[71.893779100000074,34.412271500000031],[71.894680300000061,34.411103200000071],[71.894465700000069,34.410430500000075],[71.89386490000004,34.410288800000046],[71.893264100000067,34.41032430000007],[71.89257740000005,34.41092610000004],[71.891847900000073,34.41092610000004],[71.890946600000063,34.410430500000075],[71.890903700000081,34.409509900000046],[71.891204100000039,34.408447700000067],[71.891976600000078,34.40773960000007],[71.89274910000006,34.407491800000059],[71.893607400000064,34.407208500000024],[71.894379900000047,34.40646490000006],[71.894809,34.405721400000061],[71.894764200000054,34.404820200000074],[71.894465700000069,34.40409260000007],[71.893779100000074,34.402959600000031],[71.893264100000067,34.402463800000078],[71.892534500000068,34.402393],[71.891805,34.40260550000005],[71.890775,34.402747100000056],[71.890002500000037,34.402499200000079],[71.890174200000047,34.401684800000055],[71.890174200000047,34.400445500000046],[71.890088300000059,34.399418600000047],[71.889702100000079,34.39878120000003],[71.888788300000044,34.398481900000036],[71.888414600000033,34.398214600000074],[71.888243,34.397506400000054],[71.888758,34.396727400000032],[71.889187100000072,34.395983700000045],[71.889144200000032,34.395523400000059],[71.889358800000082,34.394106900000054],[71.88923,34.393079900000032],[71.888672100000065,34.391911300000061],[71.888758,34.391167600000074],[71.88923,34.389892700000075],[71.889273,34.389078200000029],[71.888285900000028,34.388051100000041],[71.887470500000063,34.387449100000026],[71.887255900000071,34.386669900000072],[71.887642200000073,34.386032400000033],[71.88798550000007,34.385395],[71.887770900000078,34.384686600000066],[71.887384700000041,34.383907500000078],[71.887556300000028,34.382986600000038],[71.888328800000068,34.381888700000047],[71.88892960000004,34.381109500000036],[71.88892960000004,34.38011780000005],[71.888758,34.379409400000043],[71.88798550000007,34.378807300000062],[71.887384700000041,34.37831140000003],[71.886655100000041,34.377957200000026],[71.885796800000037,34.377851],[71.885153100000082,34.377709300000049],[71.884766800000079,34.377071700000045],[71.88489560000005,34.375973700000031],[71.884423500000082,34.375052800000049],[71.883865600000036,34.373777600000039],[71.883179,34.372856700000057],[71.882749800000056,34.371829400000024],[71.882578200000069,34.370837600000073],[71.882320700000037,34.369881200000066],[71.881805700000029,34.368854],[71.881505300000072,34.367791300000079],[71.881591100000037,34.366409700000077],[71.882149,34.365524100000073],[71.882835600000078,34.364886500000068],[71.883822700000053,34.364071700000068],[71.884509300000047,34.362831800000038],[71.885410600000057,34.360316500000067],[71.885925600000064,34.358155500000066],[71.885968500000047,34.356384100000071],[71.885753900000054,34.355675500000075],[71.88545350000004,34.355214900000078],[71.884809800000085,34.35454180000005],[71.884294800000077,34.353868600000055],[71.884251900000038,34.353124600000058],[71.884766800000079,34.352380500000038],[71.885668100000032,34.351388500000041],[71.886440500000049,34.350042100000053],[71.886826800000051,34.348270500000069],[71.88742760000008,34.347349300000076],[71.888843800000075,34.346215500000028],[71.890002500000037,34.345294200000069],[71.891504500000053,34.344124900000054],[71.892448700000045,34.342991],[71.89347870000006,34.342424100000073],[71.894723200000044,34.342211500000076],[71.895109400000081,34.341644500000029],[71.895066500000041,34.340829500000041],[71.895195300000069,34.339553800000033],[71.895409800000039,34.339057700000069],[71.896139400000038,34.338774300000068],[71.896826100000055,34.338419900000076],[71.897298100000057,34.337994700000024],[71.897298100000057,34.33728590000004],[71.897083500000065,34.336541800000077],[71.897341,34.335903900000062],[71.897598500000072,34.335478700000067],[71.898628500000029,34.334947100000079],[71.899744300000066,34.334557300000029],[71.900130500000046,34.333954800000072],[71.900302200000056,34.33296260000003],[71.900557800000058,34.331794800000068],[71.90133220000007,34.331261500000039],[71.902147600000035,34.331119700000045],[71.903177500000083,34.331226100000038],[71.904679600000065,34.331722200000058],[71.90592410000005,34.331686800000057],[71.906739500000072,34.331296900000041],[71.907812400000068,34.330588200000079],[71.909228600000063,34.329950200000042],[71.909738800000071,34.32969490000005],[71.910644800000057,34.32924150000008],[71.911331400000051,34.328674400000068],[71.912189700000056,34.327504900000065],[71.912490200000036,34.326299900000038],[71.913563,34.324705],[71.914678800000047,34.323393700000054],[71.915365500000064,34.322578500000077],[71.916395400000056,34.321408900000051],[71.917468300000053,34.320948100000066],[71.918627,34.320841800000039],[71.919699900000069,34.320912700000065],[71.920129100000054,34.32055820000005],[71.921373600000038,34.319494900000052],[71.922489400000075,34.318679700000075],[71.923648100000037,34.318502500000079],[71.925622200000078,34.318289800000059],[71.926480600000048,34.318218900000033],[71.927253,34.317722700000047],[71.927939700000081,34.316942900000072],[71.928540500000054,34.316553],[71.929270100000053,34.316446700000029],[71.930085400000053,34.316446700000029],[71.93115830000005,34.315985900000044],[71.932574500000044,34.315064300000074],[71.933432800000048,34.314532600000064],[71.934162400000048,34.31449710000004],[71.935130100000038,34.31427],[71.935913300000038,34.314509300000054],[71.936651500000039,34.314603500000032],[71.93690040000007,34.314137100000039],[71.936868200000049,34.313224400000024],[71.937037700000076,34.312653900000043],[71.937061300000039,34.312054600000067],[71.937381100000039,34.311519600000054],[71.937769400000036,34.311531800000068],[71.937981900000068,34.311732300000074],[71.93901180000006,34.312618500000042],[71.939698500000077,34.313185600000054],[71.94018340000008,34.313215500000069],[71.940599700000064,34.313150200000052],[71.941071800000032,34.312724800000069],[71.941157600000054,34.312122200000033],[71.940814300000056,34.311377800000059],[71.940513900000042,34.310668900000053],[71.94074130000007,34.310096100000067],[71.941782,34.309396],[71.942616700000031,34.308648300000073],[71.94377540000005,34.307584900000052],[71.944676700000059,34.306911300000024],[71.946393300000068,34.306096],[71.947680700000035,34.305387],[71.948281500000064,34.305351500000029],[71.949268600000039,34.30506790000004],[71.950084,34.304429800000037],[71.951114,34.304394400000035],[71.951886400000035,34.304713400000026],[71.952573100000052,34.304855200000077],[71.953345600000034,34.304855200000077],[71.954375500000083,34.304819800000075],[71.954640900000072,34.304819800000075],[71.95544840000008,34.304819800000075],[71.956435500000055,34.305422400000054],[71.956950400000039,34.305741500000067],[71.957765800000061,34.305954200000031],[71.958495400000061,34.305776900000069],[71.959267900000043,34.305209700000034],[71.960383700000079,34.30453620000003],[71.961199100000044,34.304146200000048],[71.962958600000036,34.303649900000039],[71.964289,34.303189],[71.965490600000066,34.30248],[71.967808,34.301274700000079],[71.969696300000066,34.299608400000068],[71.970683400000041,34.298473900000033],[71.970983800000056,34.297906700000055],[71.971412900000075,34.297623100000067],[71.97184210000006,34.297516700000074],[71.972743300000047,34.297197600000061],[71.973303300000055,34.297200900000064],[71.974159500000042,34.297516700000074],[71.974717400000031,34.297906700000055],[71.975618600000075,34.297906700000055],[71.976028400000075,34.297227500000076],[71.976262400000053,34.297055800000066],[71.976479,34.296660300000042],[71.976562800000067,34.296134],[71.976371700000072,34.29562320000008],[71.976275200000032,34.295073700000046],[71.976648600000033,34.294290400000079],[71.977034800000069,34.293545800000061],[71.977807300000052,34.293155800000079],[71.978708500000039,34.292411300000026],[71.979481,34.291560300000071],[71.979523900000061,34.290425700000071],[71.979051900000059,34.289433],[71.978021900000044,34.288546500000052],[71.97699190000003,34.287837400000058],[71.976949,34.287092800000039],[71.977034800000069,34.286170900000059],[71.977421100000072,34.285036200000036],[71.978021900000044,34.284007900000063],[71.979266400000029,34.282908700000064],[71.979693500000053,34.282555700000046],[71.98063970000004,34.281773900000076],[71.981712600000037,34.281064700000059],[71.982871300000056,34.28017820000008],[71.983772500000043,34.279433600000061],[71.984502100000043,34.279220800000076],[71.985274600000082,34.279114400000026],[71.985918300000037,34.279114400000026],[71.986433300000044,34.27879530000007],[71.986776600000042,34.277837800000043],[71.987291600000049,34.276809400000047],[71.987248700000066,34.275887400000045],[71.98830890000005,34.274047600000074],[71.988847300000032,34.273305100000073],[71.989532,34.272726600000055],[71.989596300000073,34.272345400000063],[71.989547100000038,34.271931600000073],[71.988672300000076,34.271184600000026],[71.987858300000084,34.270944500000041],[71.987257400000033,34.270581],[71.986853300000064,34.269202700000051],[71.98677820000006,34.268324900000039],[71.987379,34.267597900000055],[71.988569900000073,34.266126],[71.990200700000059,34.264813700000047],[71.992035400000077,34.26390930000008],[71.992772100000082,34.263221800000053],[71.99322120000005,34.262629600000025],[71.99353380000008,34.261882800000024],[71.993430600000067,34.260578400000043],[71.993076500000029,34.259700500000065],[71.992711800000052,34.259673900000053],[71.992347,34.259248300000024],[71.992701700000055,34.258849500000053],[71.993237500000077,34.257714200000066],[71.993655900000078,34.257146700000078],[71.994503500000064,34.256818600000031],[71.995,34.256532200000038],[71.99505060000007,34.256135800000038],[71.994653700000072,34.25550620000007],[71.994482,34.254858800000079],[71.994868300000064,34.254406600000038],[71.99558710000008,34.25353750000005],[71.99563,34.253076400000054],[71.995909,34.252446700000064],[71.996917500000052,34.252269400000046],[71.997303700000032,34.252118600000074],[71.996853100000067,34.251001200000076],[71.996370300000081,34.250593300000048],[71.996016200000042,34.249937],[71.995662200000083,34.249608900000055],[71.995286700000065,34.249147700000037],[71.994986300000051,34.248411700000077],[71.995082800000034,34.247560300000032],[71.995029200000033,34.246957200000054],[71.994810500000028,34.246709900000042],[71.994428400000061,34.246673400000077],[71.993963,34.246780800000067],[71.993634400000076,34.246939500000053],[71.99312610000004,34.247073500000056],[71.992396600000063,34.24694930000004],[71.992261100000064,34.246504900000048],[71.992492200000072,34.246095700000069],[71.992578900000069,34.245574700000077],[71.991903,34.244723300000032],[71.991838700000073,34.244315300000039],[71.992332200000078,34.244093600000042],[71.994825,34.244191400000034],[71.995615200000032,34.243978300000038],[71.996291100000064,34.244297600000039],[71.997070300000075,34.244914600000072],[71.99750350000005,34.245122400000071],[71.998265200000048,34.24482080000007],[71.998833900000079,34.24425320000006],[71.999735100000066,34.244625700000029],[72.000464600000043,34.245007100000066],[72.000773600000059,34.245493100000033],[72.001097600000037,34.24749920000005],[72.001859400000058,34.248412700000074],[72.002599700000076,34.24903340000003],[72.003608200000031,34.249060100000065],[72.004931800000065,34.249166500000058],[72.005539400000032,34.249627600000053],[72.00493860000006,34.249725200000057],[72.003758400000038,34.249955800000066],[72.003061,34.25047010000003],[72.00272840000008,34.25103770000004],[72.002835700000048,34.251986600000066],[72.00382280000008,34.252163900000028],[72.005378400000041,34.251294900000062],[72.006333300000051,34.251303700000051],[72.007202300000074,34.250824900000055],[72.007372800000041,34.250708700000075],[72.007972600000073,34.249995700000056],[72.008734300000071,34.249097800000072],[72.009753600000067,34.247656600000028],[72.01020950000003,34.247071300000073],[72.010735300000078,34.246140100000048],[72.01093910000003,34.246015900000032],[72.011293200000068,34.245927300000062],[72.013181400000065,34.246042600000067],[72.013578400000029,34.245953900000075],[72.013921700000083,34.245687800000042],[72.014597600000059,34.244463900000028],[72.014672700000062,34.244047100000046],[72.014672700000062,34.243106900000043],[72.014769300000069,34.242557100000056],[72.014876600000036,34.24237080000006],[72.015045300000054,34.242227900000046],[72.016346400000032,34.242060400000071],[72.017596400000059,34.241812],[72.017966500000057,34.24157260000004],[72.018299100000036,34.241062600000078],[72.018299100000036,34.240472800000077],[72.018197200000031,34.240047100000027],[72.017993300000057,34.239869700000042],[72.017591,34.239785400000073],[72.016915100000062,34.239745500000026],[72.016174800000044,34.239537100000064],[72.01597350000003,34.23916870000005],[72.016917600000056,34.238503500000036],[72.017263100000037,34.237929100000031],[72.017720700000041,34.237626900000066],[72.018269400000065,34.237394800000061],[72.018911600000081,34.237467200000026],[72.01942820000005,34.237448],[72.019716200000062,34.237183400000049],[72.019973700000037,34.236748800000044],[72.020436700000062,34.236392500000079],[72.020907100000045,34.236331900000039],[72.021337900000049,34.23641020000008],[72.02198,34.236491500000056],[72.022443,34.236357],[72.023902100000043,34.235195100000055],[72.025229100000047,34.234039400000029],[72.025685700000054,34.23372820000003],[72.026412600000072,34.233252500000049],[72.026820300000054,34.232605],[72.026893500000028,34.232124900000031],[72.026206800000068,34.231344300000046],[72.026057,34.23101870000005],[72.026260500000035,34.230696800000032]]]}},
{"type":"Feature","properties":{"OBJECTID":425,"osm_id":70804420.0,"waterway":"river","covered":" ","water":" ","tunnel":" ","name":"Kalpani River","blockage":" ","Data_Source":"Yahoo","layer":" ","width":" ","natural":" ","Shape_Length":0.13905736477315478},"geometry":{"type":"MultiLineString","coordinates":[[[72.026260500000035,34.230696800000032],[72.027017300000068,34.230358800000033],[72.027676700000029,34.230200100000047],[72.028996300000074,34.230138],[72.029715200000055,34.229978300000028],[72.030723700000067,34.229729900000052],[72.031421,34.229632400000071],[72.032032600000036,34.229632400000071],[72.032483200000058,34.229614600000048],[72.033609700000056,34.229224300000055],[72.034510900000043,34.229046900000071],[72.035176100000058,34.228798500000039],[72.035347800000068,34.22826630000003],[72.035257,34.227282],[72.035143900000037,34.226589700000034],[72.034693300000072,34.225613900000042],[72.034575300000029,34.225285700000029],[72.03460750000005,34.22493970000005],[72.034907900000064,34.224549400000058],[72.035326300000065,34.224460700000066],[72.03575550000005,34.224301],[72.036495800000068,34.224034900000049],[72.037032200000056,34.223759900000061],[72.037397,34.223422800000037],[72.037579400000084,34.223076800000058],[72.037665200000049,34.222588900000062],[72.037654500000031,34.222313900000074],[72.037418500000058,34.222074400000054],[72.03696780000007,34.221684],[72.036635300000057,34.221089600000028],[72.036495800000068,34.220584],[72.036345600000061,34.218933900000025],[72.036731800000041,34.217913600000031],[72.037356100000068,34.217240600000025],[72.038298200000042,34.216387700000041],[72.038716600000043,34.216210200000035],[72.039253100000053,34.216103800000042],[72.040647800000045,34.215828700000031],[72.043351500000028,34.214826200000061],[72.044274200000075,34.21417850000006],[72.04455310000003,34.213690600000064],[72.044360800000049,34.213282200000037],[72.043351500000028,34.21281220000003],[72.042300100000034,34.211676600000033],[72.040830200000073,34.209831100000031],[72.040808800000036,34.20947620000004],[72.041162800000052,34.208784100000059],[72.041851700000052,34.208281700000043],[72.042042600000059,34.207541900000024],[72.042310800000052,34.207098300000041],[72.043501700000036,34.205856100000062],[72.044349300000079,34.205057500000066],[72.044950100000051,34.204702600000076],[72.045905,34.204365400000029],[72.04643070000003,34.204046],[72.046816900000067,34.203655500000025],[72.047085100000061,34.203203],[72.047632300000032,34.202635100000066],[72.048147300000039,34.202431],[72.048748100000068,34.202342300000055],[72.04910220000005,34.20244880000007],[72.049466900000084,34.202857],[72.050378900000055,34.204134700000054],[72.050893900000062,34.20488],[72.051473200000032,34.205483400000048],[72.052302600000075,34.205839500000025],[72.052868,34.206211],[72.053544500000044,34.206491300000039],[72.054252,34.206707900000026],[72.054734800000062,34.206619200000034],[72.055185400000084,34.206184400000041],[72.055464400000062,34.205421300000069],[72.055367800000056,34.204303300000049],[72.055475100000081,34.202528600000051],[72.055507300000045,34.201916400000073],[72.055603800000029,34.201366200000052],[72.05568130000006,34.200443600000028],[72.055678900000032,34.198615400000051],[72.055721900000037,34.197639300000048],[72.055850600000042,34.197195600000043],[72.056183200000078,34.19676080000005],[72.056751800000029,34.196334800000045],[72.057470700000067,34.196210600000029],[72.058318200000031,34.196361400000058],[72.059809500000028,34.196467900000073],[72.060936100000049,34.196325900000033],[72.062118100000077,34.195607900000027],[72.062571800000057,34.19519310000004],[72.063275,34.194418],[72.063822100000039,34.194178400000055],[72.064766300000031,34.19399210000006],[72.06557,34.193945400000075],[72.066493600000058,34.194080800000052],[72.067126600000051,34.194364800000074],[72.067394800000045,34.194861700000047],[72.067534300000034,34.195935500000076],[72.067652300000077,34.196601],[72.067899100000034,34.196831800000041],[72.068360400000074,34.196876100000054],[72.06976590000005,34.196680900000047],[72.070967500000052,34.196343700000057],[72.071815100000038,34.195713600000033],[72.072554500000081,34.194758500000034],[72.073366500000077,34.193395500000065],[72.073660500000074,34.193069100000059],[72.073801200000048,34.192661200000032],[72.073810700000081,34.192057400000067],[72.073596100000032,34.191507200000046],[72.073499500000082,34.190619800000036],[72.073327900000038,34.19026480000008],[72.073006,34.189900900000055],[72.072287200000062,34.189377300000046],[72.07183660000004,34.188960200000054],[72.071450300000038,34.188445500000057],[72.07091390000005,34.187469200000066],[72.071042600000055,34.187211900000079],[72.071396700000037,34.186972200000071],[72.071954600000083,34.18669710000006],[72.072812900000031,34.186466400000029],[72.073724800000036,34.186315500000035],[72.074787,34.186457500000074],[72.075538,34.186626100000069],[72.075827700000048,34.186581700000033],[72.076117400000044,34.186342100000047],[72.076407,34.186093600000049],[72.076836200000059,34.185942700000055],[72.077372600000047,34.18588950000003],[72.077866200000074,34.186058100000025],[72.078241700000035,34.186315500000035],[72.079357500000071,34.186457500000074],[72.081728500000054,34.186475200000075],[72.083176900000069,34.186590600000045],[72.084721900000034,34.186768100000052],[72.085537300000055,34.186919],[72.086814,34.187247400000047],[72.087962,34.187424900000053],[72.089281600000049,34.187327200000027],[72.089828800000078,34.18729170000006],[72.09023650000006,34.187123100000065],[72.09073,34.18681250000003],[72.091116300000067,34.186377600000071],[72.091448900000046,34.185250500000052],[72.091695600000037,34.184087800000043],[72.092028200000073,34.182854100000043],[72.092221400000028,34.18217960000004],[72.092317900000069,34.181602700000042],[72.092339400000071,34.180821600000058],[72.092194500000062,34.179853600000058],[72.091899500000068,34.178975500000035],[72.091277200000036,34.178141200000027],[72.090687100000082,34.177306800000053],[72.089657200000033,34.17574460000003],[72.089571300000046,34.175220900000056],[72.08967860000007,34.173445700000059],[72.08985030000008,34.172868700000038],[72.090247200000078,34.171581600000025],[72.090279400000043,34.17100460000006],[72.090172100000075,34.169806300000062],[72.089818100000059,34.168030900000076],[72.089861,34.16754270000007],[72.089775200000076,34.167187600000034],[72.089657200000033,34.16629990000007],[72.089287600000034,34.165168700000038]]]}}
]
}
