{"type": "FeatureCollection", "features": [{"type": "Feature", "geometry": {"type": "MultiPolygon", "coordinates": [[[[72.44097869, 34.21997756], [72.4409631, 34.21988171], [72.44091428, 34.21988713], [72.44092987, 34.21998299], [72.44097869, 34.21997756]]]]}, "properties": {"id": "Pakistan_123102311_409358", "height": 2.501563549041748, "hmax": 0.008, "ratio": 0.003, "vulnClass": "none"}}, {"type": "Feature", "geometry": {"type": "MultiPolygon", "coordinates": [[[[72.44322999, 34.22250965], [72.4431647, 34.22249812], [72.44315703, 34.22252781], [72.44322231, 34.22253934], [72.44322999, 34.22250965]]]]}, "properties": {"id": "Pakistan_123102311_403497", "height": 2.900410175323486, "hmax": 0.003, "ratio": 0.001, "vulnClass": "none"}}, {"type": "Feature", "geometry": {"type": "MultiPolygon", "coordinates": [[[[72.44301668, 34.22238286], [72.44297686, 34.22269655], [72.44342138, 34.22273514], [72.44344132, 34.222578], [72.443245, 34.22256097], [72.44323898, 34.22260841], [72.44316204, 34.22260173], [72.44316834, 34.2225521], [72.44308875, 34.2225452], [72.44309153, 34.22252326], [72.4431552, 34.22252878], [72.44317201, 34.22239634], [72.44301668, 34.22238286]]]]}, "properties": {"id": "Pakistan_123102311_108977", "height": 4.329239368438721, "hmax": 0.004, "ratio": 0.001, "vulnClass": "none"}}, {"type": "Feature", "geometry": {"type": "MultiPolygon", "coordinates": [[[[72.44515487, 34.22270474], [72.44501394, 34.22267081], [72.44502833, 34.22262992], [72.4449863, 34.2226198], [72.44501941, 34.22252576], [72.4449304, 34.22250433], [72.44485769, 34.22271082], [72.44512968, 34.2227763], [72.44515487, 34.22270474]]]]}, "properties": {"id": "Pakistan_123102311_138603", "height": 3.718580722808838, "hmax": 0.006, "ratio": 0.002, "vulnClass": "none"}}, {"type": "Feature", "geometry": {"type": "MultiPolygon", "coordinates": [[[[72.44548767, 34.22472532], [72.44581152, 34.2247565], [72.44585932, 34.22441735], [72.44569686, 34.22440171], [72.44566604, 34.22462052], [72.44563693, 34.22461771], [72.44564587, 34.22455426], [72.44560088, 34.22454993], [72.44560736, 34.22450398], [72.44552003, 34.22449557], [72.44548767, 34.22472532]]]]}, "properties": {"id": "Pakistan_123102311_108991", "height": 2.557023525238037, "hmax": 0.007, "ratio": 0.003, "vulnClass": "none"}}, {"type": "Feature", "geometry": {"type": "MultiPolygon", "coordinates": [[[[72.44420812, 34.22594429], [72.44433982, 34.22595904], [72.44434611, 34.22592064], [72.44421441, 34.22590589], [72.44420812, 34.22594429]]]]}, "properties": {"id": "Pakistan_123102311_14866", "height": 3.217635154724121, "hmax": 0.005, "ratio": 0.002, "vulnClass": "none"}}, {"type": "Feature", "geometry": {"type": "MultiPolygon", "coordinates": [[[[72.44354412, 34.22596376], [72.44366598, 34.22597502], [72.44365947, 34.22602321], [72.44382106, 34.22603813], [72.44384207, 34.22588261], [72.44378909, 34.22587772], [72.44378524, 34.2259062], [72.44355477, 34.22588491], [72.44354412, 34.22596376]]]]}, "properties": {"id": "Pakistan_123102311_523272", "height": 2.997447967529297, "hmax": 0.005, "ratio": 0.002, "vulnClass": "none"}}, {"type": "Feature", "geometry": {"type": "MultiPolygon", "coordinates": [[[[72.44384625, 34.22625549], [72.44370949, 34.22625379], [72.44370761, 34.226358], [72.44377093, 34.22635879], [72.44376963, 34.22643053], [72.44384308, 34.22643144], [72.44384625, 34.22625549]]]]}, "properties": {"id": "Pakistan_123102311_182804", "height": 3.169807195663452, "hmax": 0.005, "ratio": 0.002, "vulnClass": "none"}}, {"type": "Feature", "geometry": {"type": "MultiPolygon", "coordinates": [[[[72.44400801, 34.2264144], [72.44388779, 34.22637462], [72.4438486, 34.22645559], [72.44396882, 34.22649538], [72.44400801, 34.2264144]]]]}, "properties": {"id": "Pakistan_123102311_397659", "height": 2.830338478088379, "hmax": 0.005, "ratio": 0.002, "vulnClass": "none"}}, {"type": "Feature", "geometry": {"type": "MultiPolygon", "coordinates": [[[[72.44382877, 34.22661787], [72.44383074, 34.22647738], [72.44371705, 34.22647629], [72.44371559, 34.2265805], [72.44364318, 34.22657981], [72.44364183, 34.22667596], [72.44380006, 34.22667747], [72.4438009, 34.2266176], [72.44382877, 34.22661787]]]]}, "properties": {"id": "Pakistan_123102311_502885", "height": 2.568522214889526, "hmax": 0.005, "ratio": 0.002, "vulnClass": "none"}}, {"type": "Feature", "geometry": {"type": "MultiPolygon", "coordinates": [[[[72.44187185, 34.22674592], [72.44209727, 34.22676622], [72.44214128, 34.2267571], [72.44218654, 34.22641347], [72.44218079, 34.22639451], [72.44210676, 34.22638784], [72.44210128, 34.22642949], [72.44179379, 34.2264018], [72.44179029, 34.22642839], [72.44174844, 34.22643706], [72.44179522, 34.22659148], [72.44188939, 34.22657198], [72.44189541, 34.22652627], [72.44207567, 34.2265425], [72.44206789, 34.22660154], [72.44204307, 34.22660668], [72.44203449, 34.22667186], [72.44188339, 34.22665825], [72.44187185, 34.22674592]]]]}, "properties": {"id": "Pakistan_123102311_194590", "height": 2.893008708953857, "hmax": 0.006, "ratio": 0.002, "vulnClass": "none"}}, {"type": "Feature", "geometry": {"type": "MultiPolygon", "coordinates": [[[[72.44159889, 34.22616835], [72.44160329, 34.22640467], [72.44190363, 34.22640086], [72.44190187, 34.22630643], [72.44181235, 34.22630757], [72.44180972, 34.22616567], [72.44159889, 34.22616835]]]]}, "properties": {"id": "Pakistan_123102311_2993", "height": 3.38753867149353, "hmax": 0.007, "ratio": 0.002, "vulnClass": "none"}}, {"type": "Feature", "geometry": {"type": "MultiPolygon", "coordinates": [[[[72.44281671, 34.226043], [72.44279394, 34.22611097], [72.44310283, 34.22618172], [72.4431256, 34.22611375], [72.44281671, 34.226043]]]]}, "properties": {"id": "Pakistan_123102311_394684", "height": 2.438714027404785, "hmax": 0.005, "ratio": 0.002, "vulnClass": "none"}}, {"type": "Feature", "geometry": {"type": "MultiPolygon", "coordinates": [[[[72.44431541, 34.22537437], [72.44417479, 34.22530269], [72.44414723, 34.22533965], [72.44428785, 34.22541133], [72.44431541, 34.22537437]]]]}, "properties": {"id": "Pakistan_123102311_286043", "height": 2.841162443161011, "hmax": 0.013, "ratio": 0.005, "vulnClass": "none"}}, {"type": "Feature", "geometry": {"type": "MultiPolygon", "coordinates": [[[[72.445396, 34.22446822], [72.44532088, 34.22438724], [72.44489875, 34.224655], [72.44497388, 34.22473598], [72.445396, 34.22446822]]]]}, "properties": {"id": "Pakistan_123102311_73570", "height": 4.19690990447998, "hmax": 0.008, "ratio": 0.002, "vulnClass": "none"}}, {"type": "Feature", "geometry": {"type": "MultiPolygon", "coordinates": [[[[72.4445078, 34.22348876], [72.44472006, 34.22355503], [72.44475763, 34.22347277], [72.44454536, 34.22340651], [72.4445078, 34.22348876]]]]}, "properties": {"id": "Pakistan_123102311_534912", "height": 2.453156709671021, "hmax": 0.003, "ratio": 0.001, "vulnClass": "none"}}, {"type": "Feature", "geometry": {"type": "MultiPolygon", "coordinates": [[[[72.44497973, 34.22303188], [72.44477193, 34.22296278], [72.44474165, 34.22302506], [72.44494944, 34.22309414], [72.44497973, 34.22303188]]]]}, "properties": {"id": "Pakistan_123102311_421010", "height": 2.774840593338013, "hmax": 0.003, "ratio": 0.001, "vulnClass": "none"}}, {"type": "Feature", "geometry": {"type": "MultiPolygon", "coordinates": [[[[72.4430345, 34.22364418], [72.44291849, 34.22363155], [72.4429112, 34.22367733], [72.44302721, 34.22368996], [72.4430345, 34.22364418]]]]}, "properties": {"id": "Pakistan_123102311_558561", "height": 2.466149568557739, "hmax": 0.012, "ratio": 0.005, "vulnClass": "none"}}, {"type": "Feature", "geometry": {"type": "MultiPolygon", "coordinates": [[[[72.44246652, 34.22376923], [72.44252414, 34.22377663], [72.44251901, 34.22380394], [72.44259389, 34.22381356], [72.44257843, 34.22389585], [72.44271462, 34.22391334], [72.44272113, 34.2238787], [72.44283219, 34.22389296], [72.44285132, 34.22379119], [72.44275179, 34.2237784], [72.44274121, 34.2238347], [72.44269407, 34.22382865], [72.44271548, 34.22371471], [72.44276524, 34.2237211], [72.44279551, 34.22356002], [72.44274575, 34.22355363], [72.4427425, 34.22357095], [72.4426325, 34.22355682], [72.44261907, 34.22362828], [72.44249598, 34.22361247], [72.44246652, 34.22376923]]]]}, "properties": {"id": "Pakistan_123102311_138584", "height": 3.666254997253418, "hmax": 0.012, "ratio": 0.003, "vulnClass": "none"}}, {"type": "Feature", "geometry": {"type": "MultiPolygon", "coordinates": [[[[72.44346483, 34.2231262], [72.44320144, 34.22310653], [72.44321803, 34.22295474], [72.44310629, 34.22294639], [72.44306662, 34.22330936], [72.44342845, 34.22333639], [72.44343783, 34.2232506], [72.44327288, 34.22323828], [72.44327663, 34.2232039], [72.44345489, 34.2232172], [72.44346483, 34.2231262]]]]}, "properties": {"id": "Pakistan_123102311_584931", "height": 3.592967510223389, "hmax": 0.005, "ratio": 0.001, "vulnClass": "none"}}, {"type": "Feature", "geometry": {"type": "MultiPolygon", "coordinates": [[[[72.44213205, 34.22357907], [72.44212917, 34.22366772], [72.44232751, 34.22367213], [72.44233039, 34.22358348], [72.44213205, 34.22357907]]]]}, "properties": {"id": "Pakistan_123102311_467451", "height": 2.815434217453003, "hmax": 0.015, "ratio": 0.005, "vulnClass": "none"}}, {"type": "Feature", "geometry": {"type": "MultiPolygon", "coordinates": [[[[72.44199784, 34.22381937], [72.4419886, 34.22386921], [72.44187854, 34.22385526], [72.44185765, 34.22396793], [72.44203847, 34.22399085], [72.4420686, 34.22382834], [72.44199784, 34.22381937]]]]}, "properties": {"id": "Pakistan_123102311_479244", "height": 3.698346614837646, "hmax": 0.015, "ratio": 0.004, "vulnClass": "none"}}, {"type": "Feature", "geometry": {"type": "MultiPolygon", "coordinates": [[[[72.44288509, 34.22374786], [72.44286035, 34.22387858], [72.44297554, 34.22389348], [72.44300028, 34.22376278], [72.44288509, 34.22374786]]]]}, "properties": {"id": "Pakistan_123102311_159367", "height": 2.45805811882019, "hmax": 0.012, "ratio": 0.005, "vulnClass": "none"}}, {"type": "Feature", "geometry": {"type": "MultiPolygon", "coordinates": [[[[72.44297784, 34.22409269], [72.44294857, 34.22417177], [72.44310554, 34.22421149], [72.4431348, 34.2241324], [72.44297784, 34.22409269]]]]}, "properties": {"id": "Pakistan_123102311_200545", "height": 2.537785768508911, "hmax": 0.012, "ratio": 0.005, "vulnClass": "none"}}, {"type": "Feature", "geometry": {"type": "MultiPolygon", "coordinates": [[[[72.44264574, 34.22417198], [72.44274298, 34.22418626], [72.44275886, 34.22411233], [72.44266162, 34.22409804], [72.44264574, 34.22417198]]]]}, "properties": {"id": "Pakistan_123102311_444109", "height": 3.061414241790771, "hmax": 0.012, "ratio": 0.004, "vulnClass": "none"}}, {"type": "Feature", "geometry": {"type": "MultiPolygon", "coordinates": [[[[72.44248964, 34.22415575], [72.4425432, 34.22415743], [72.44254138, 34.22419729], [72.44259762, 34.22419905], [72.442603, 34.22408168], [72.44249319, 34.22407824], [72.44248964, 34.22415575]]]]}, "properties": {"id": "Pakistan_123102311_177195", "height": 3.074748992919922, "hmax": 0.012, "ratio": 0.004, "vulnClass": "none"}}, {"type": "Feature", "geometry": {"type": "MultiPolygon", "coordinates": [[[[72.44041091, 34.22324921], [72.44036165, 34.22324488], [72.44036617, 34.22320979], [72.44050939, 34.2232224], [72.44052802, 34.22307766], [72.44041398, 34.22306762], [72.44043205, 34.22292727], [72.44039376, 34.2229239], [72.44042, 34.22271996], [72.44030713, 34.22271002], [72.44016681, 34.22379992], [72.44033812, 34.22381499], [72.44041091, 34.22324921]]]]}, "properties": {"id": "Pakistan_123102311_212305", "height": 2.463274717330933, "hmax": 0.007, "ratio": 0.003, "vulnClass": "none"}}, {"type": "Feature", "geometry": {"type": "MultiPolygon", "coordinates": [[[[72.43944771, 34.22426622], [72.43985588, 34.22438437], [72.43985456, 34.22444151], [72.43988455, 34.22444198], [72.43989775, 34.22441082], [72.43995569, 34.22442759], [72.44003217, 34.2244288], [72.44001348, 34.22441266], [72.44001465, 34.22436199], [72.4399144, 34.2243604], [72.43991534, 34.22431953], [72.44001388, 34.22434805], [72.44002892, 34.22431253], [72.43998634, 34.22427576], [72.4399232, 34.22425749], [72.43992387, 34.22422839], [72.43994826, 34.22420907], [72.43981202, 34.22409145], [72.43980104, 34.22409128], [72.4397114, 34.22406533], [72.43969802, 34.22409694], [72.4397119, 34.22410096], [72.43976143, 34.22410174], [72.43972621, 34.22418494], [72.43979423, 34.22420463], [72.43980937, 34.22419265], [72.43980748, 34.22427398], [72.43978808, 34.22428934], [72.43963386, 34.2242447], [72.43955647, 34.22417789], [72.43953637, 34.22422535], [72.4394728, 34.22420695], [72.43944771, 34.22426622]]]]}, "properties": {"id": "Pakistan_123102311_247430", "height": 2.527560710906982, "hmax": 0.008, "ratio": 0.003, "vulnClass": "none"}}, {"type": "Feature", "geometry": {"type": "MultiPolygon", "coordinates": [[[[72.44136032, 34.22521831], [72.44117954, 34.22520424], [72.44115551, 34.22541528], [72.4413363, 34.22542935], [72.44136032, 34.22521831]]]]}, "properties": {"id": "Pakistan_123102311_168329", "height": 2.801531314849854, "hmax": 0.022, "ratio": 0.008, "vulnClass": "none"}}, {"type": "Feature", "geometry": {"type": "MultiPolygon", "coordinates": [[[[72.43968254, 34.22558904], [72.43966132, 34.22575246], [72.4399918, 34.22578181], [72.44000591, 34.22567319], [72.43990081, 34.22566386], [72.43990651, 34.22562001], [72.43984456, 34.22561452], [72.43984028, 34.2256474], [72.43976965, 34.22564113], [72.43977535, 34.22559728], [72.43968254, 34.22558904]]]]}, "properties": {"id": "Pakistan_123102311_224182", "height": 2.73629355430603, "hmax": 0.025, "ratio": 0.009, "vulnClass": "none"}}, {"type": "Feature", "geometry": {"type": "MultiPolygon", "coordinates": [[[[72.440338, 34.22577917], [72.44033298, 34.22585434], [72.44038378, 34.22585666], [72.44038777, 34.22579697], [72.44034766, 34.22579513], [72.44035432, 34.22569564], [72.44001472, 34.22568012], [72.4400091, 34.22576413], [72.440338, 34.22577917]]]]}, "properties": {"id": "Pakistan_123102311_197620", "height": 3.921815872192383, "hmax": 0.036, "ratio": 0.009, "vulnClass": "none"}}, {"type": "Feature", "geometry": {"type": "MultiPolygon", "coordinates": [[[[72.44101445, 34.22609361], [72.44116976, 34.22609887], [72.44118195, 34.22585312], [72.44113375, 34.22585149], [72.44113672, 34.22579171], [72.44102961, 34.22578808], [72.44101445, 34.22609361]]]]}, "properties": {"id": "Pakistan_123102311_8903", "height": 3.897769689559937, "hmax": 0.041, "ratio": 0.011, "vulnClass": "none"}}, {"type": "Feature", "geometry": {"type": "MultiPolygon", "coordinates": [[[[72.44115484, 34.22610216], [72.44101669, 34.2260968], [72.44101367, 34.22614991], [72.44115182, 34.22615527], [72.44115484, 34.22610216]]]]}, "properties": {"id": "Pakistan_123102311_482156", "height": 2.964849233627319, "hmax": 0.041, "ratio": 0.014, "vulnClass": "none"}}, {"type": "Feature", "geometry": {"type": "MultiPolygon", "coordinates": [[[[72.44211045, 34.22693336], [72.44211921, 34.22682295], [72.44197873, 34.22681534], [72.4419761, 34.22684846], [72.44203486, 34.22685164], [72.44202874, 34.22692893], [72.44211045, 34.22693336]]]]}, "properties": {"id": "Pakistan_123102311_85302", "height": 2.6725754737854, "hmax": 0.006, "ratio": 0.002, "vulnClass": "none"}}, {"type": "Feature", "geometry": {"type": "MultiPolygon", "coordinates": [[[[72.44233566, 34.22714103], [72.44236545, 34.22700122], [72.44220001, 34.22697712], [72.44216153, 34.22715781], [72.44235297, 34.22718569], [72.44236167, 34.22714482], [72.44233566, 34.22714103]]]]}, "properties": {"id": "Pakistan_123102311_65003", "height": 3.942075967788696, "hmax": 0.005, "ratio": 0.001, "vulnClass": "none"}}, {"type": "Feature", "geometry": {"type": "MultiPolygon", "coordinates": [[[[72.44280708, 34.22701354], [72.44276152, 34.22701245], [72.44276021, 34.22705012], [72.4429612, 34.22705492], [72.44296481, 34.22695162], [72.44292034, 34.22695056], [72.44291898, 34.2269896], [72.44280801, 34.22698695], [72.44280708, 34.22701354]]]]}, "properties": {"id": "Pakistan_123102311_135556", "height": 2.60181999206543, "hmax": 0.004, "ratio": 0.002, "vulnClass": "none"}}, {"type": "Feature", "geometry": {"type": "MultiPolygon", "coordinates": [[[[72.44265951, 34.22694636], [72.44292354, 34.22695502], [72.44292584, 34.22690715], [72.44287068, 34.22690535], [72.44287316, 34.22685357], [72.44280246, 34.22685125], [72.44279991, 34.2269044], [72.44266173, 34.22689986], [72.44265951, 34.22694636]]]]}, "properties": {"id": "Pakistan_123102311_20748", "height": 2.74985671043396, "hmax": 0.004, "ratio": 0.002, "vulnClass": "none"}}, {"type": "Feature", "geometry": {"type": "MultiPolygon", "coordinates": [[[[72.44253257, 34.22658497], [72.44251233, 34.2266503], [72.44264725, 34.22667888], [72.44266749, 34.22661356], [72.44253257, 34.22658497]]]]}, "properties": {"id": "Pakistan_123102311_76527", "height": 2.796743631362915, "hmax": 0.004, "ratio": 0.001, "vulnClass": "none"}}, {"type": "Feature", "geometry": {"type": "MultiPolygon", "coordinates": [[[[72.44306688, 34.22664502], [72.44302721, 34.22666792], [72.44306121, 34.22670817], [72.44310088, 34.22668527], [72.44306688, 34.22664502]]]]}, "properties": {"id": "Pakistan_123102311_227141", "height": 2.580223798751831, "hmax": 0.004, "ratio": 0.002, "vulnClass": "none"}}, {"type": "Feature", "geometry": {"type": "MultiPolygon", "coordinates": [[[[72.44347421, 34.22667025], [72.4434764, 34.22661568], [72.44333172, 34.22661173], [72.44332953, 34.22666629], [72.44347421, 34.22667025]]]]}, "properties": {"id": "Pakistan_123102311_247452", "height": 2.702316761016846, "hmax": 0.005, "ratio": 0.002, "vulnClass": "none"}}, {"type": "Feature", "geometry": {"type": "MultiPolygon", "coordinates": [[[[72.44057377, 34.22970119], [72.44059605, 34.22980993], [72.44076031, 34.22978693], [72.44072675, 34.22962309], [72.44059771, 34.22964116], [72.44060899, 34.22969626], [72.44057377, 34.22970119]]]]}, "properties": {"id": "Pakistan_123102311_403489", "height": 3.352235794067383, "hmax": 0.003, "ratio": 0.001, "vulnClass": "none"}}, {"type": "Feature", "geometry": {"type": "MultiPolygon", "coordinates": [[[[72.44049312, 34.22939509], [72.44051707, 34.2295102], [72.44072682, 34.22948037], [72.44070288, 34.22936527], [72.44049312, 34.22939509]]]]}, "properties": {"id": "Pakistan_123102311_171326", "height": 2.454378128051758, "hmax": 0.003, "ratio": 0.001, "vulnClass": "none"}}, {"type": "Feature", "geometry": {"type": "MultiPolygon", "coordinates": [[[[72.44074031, 34.22903469], [72.44061039, 34.22902311], [72.44061125, 34.22901654], [72.4404283, 34.22900023], [72.44040017, 34.22921604], [72.44075546, 34.22924769], [72.44076089, 34.22920603], [72.44068665, 34.22919942], [72.44069192, 34.229159], [72.44072374, 34.22916184], [72.44074031, 34.22903469]]]]}, "properties": {"id": "Pakistan_123102311_111959", "height": 2.699100494384766, "hmax": 0.003, "ratio": 0.001, "vulnClass": "none"}}]}