{"type": "FeatureCollection", "features": [{"type": "Feature", "geometry": {"type": "MultiPolygon", "coordinates": [[[[72.39197189, 34.24785734], [72.39194324, 34.2479642], [72.39201867, 34.24797802], [72.39202831, 34.24794209], [72.39204747, 34.24794561], [72.39206648, 34.24787468], [72.39197189, 34.24785734]]]]}, "properties": {"id": "Pakistan_123102310_477198", "height": 2.641308784484863, "hmax": 0.082, "ratio": 0.031, "vulnClass": "none"}}, {"type": "Feature", "geometry": {"type": "MultiPolygon", "coordinates": [[[[72.38942254, 34.2487352], [72.38948946, 34.24873768], [72.38949139, 34.24870228], [72.38955166, 34.24870452], [72.38955587, 34.24862708], [72.38942868, 34.24862235], [72.38942254, 34.2487352]]]]}, "properties": {"id": "Pakistan_123102310_903739", "height": 2.920488834381104, "hmax": 0.009, "ratio": 0.003, "vulnClass": "none"}}, {"type": "Feature", "geometry": {"type": "MultiPolygon", "coordinates": [[[[72.38940038, 34.24878082], [72.38939577, 34.24887379], [72.3895243, 34.24887814], [72.38952891, 34.24878517], [72.38940038, 34.24878082]]]]}, "properties": {"id": "Pakistan_123102310_112064", "height": 2.631938934326172, "hmax": 0.008, "ratio": 0.003, "vulnClass": "none"}}, {"type": "Feature", "geometry": {"type": "MultiPolygon", "coordinates": [[[[72.38370354, 34.24993739], [72.38361794, 34.25001357], [72.38374322, 34.25010975], [72.38380073, 34.25005857], [72.38377337, 34.25003756], [72.38380146, 34.25001257], [72.38370354, 34.24993739]]]]}, "properties": {"id": "Pakistan_123102310_922482", "height": 2.66767692565918, "hmax": 0.058, "ratio": 0.022, "vulnClass": "none"}}, {"type": "Feature", "geometry": {"type": "MultiPolygon", "coordinates": [[[[72.38218704, 34.24809634], [72.38237971, 34.24817072], [72.38245993, 34.24802875], [72.38200301, 34.24785236], [72.38195571, 34.24793608], [72.38221995, 34.24803809], [72.38218704, 34.24809634]]]]}, "properties": {"id": "Pakistan_123102310_557365", "height": 3.667920589447021, "hmax": 0.055, "ratio": 0.015, "vulnClass": "none"}}, {"type": "Feature", "geometry": {"type": "MultiPolygon", "coordinates": [[[[72.3818874, 34.24871122], [72.38187183, 34.24874384], [72.38197859, 34.24877865], [72.38208208, 34.24856187], [72.38201245, 34.24853916], [72.38195708, 34.24865516], [72.38152309, 34.2485136], [72.38149053, 34.2485818], [72.3818874, 34.24871122]]]]}, "properties": {"id": "Pakistan_123102310_263276", "height": 2.704281806945801, "hmax": 0.139, "ratio": 0.051, "vulnClass": "low"}}, {"type": "Feature", "geometry": {"type": "MultiPolygon", "coordinates": [[[[72.38210672, 34.24810153], [72.38201194, 34.24826596], [72.38225565, 34.24836196], [72.38229989, 34.24828522], [72.38210316, 34.24820774], [72.38215371, 34.24812005], [72.38210672, 34.24810153]]]]}, "properties": {"id": "Pakistan_123102310_169759", "height": 2.606394529342651, "hmax": 0.055, "ratio": 0.021, "vulnClass": "none"}}, {"type": "Feature", "geometry": {"type": "MultiPolygon", "coordinates": [[[[72.38191192, 34.24840945], [72.38207105, 34.2484726], [72.38204641, 34.24851501], [72.38213361, 34.24854961], [72.38219696, 34.24844054], [72.38195065, 34.24834278], [72.38191192, 34.24840945]]]]}, "properties": {"id": "Pakistan_123102310_273527", "height": 3.756520748138428, "hmax": 0.161, "ratio": 0.043, "vulnClass": "none"}}, {"type": "Feature", "geometry": {"type": "MultiPolygon", "coordinates": [[[[72.37879321, 34.24930643], [72.37852221, 34.24934479], [72.37853917, 34.24942664], [72.37881017, 34.24938828], [72.37879321, 34.24930643]]]]}, "properties": {"id": "Pakistan_123102310_179069", "height": 3.174995422363281, "hmax": 0.024, "ratio": 0.008, "vulnClass": "none"}}, {"type": "Feature", "geometry": {"type": "MultiPolygon", "coordinates": [[[[72.38117705, 34.25240985], [72.38117447, 34.25235797], [72.38110217, 34.25236043], [72.38110052, 34.25232723], [72.38085686, 34.25233552], [72.38086108, 34.25242058], [72.38117705, 34.25240985]]]]}, "properties": {"id": "Pakistan_123102310_131048", "height": 2.524730205535889, "hmax": 0.019, "ratio": 0.007, "vulnClass": "none"}}, {"type": "Feature", "geometry": {"type": "MultiPolygon", "coordinates": [[[[72.37982066, 34.25277728], [72.37982507, 34.25287601], [72.37987426, 34.2528745], [72.37986983, 34.25277578], [72.37982066, 34.25277728]]]]}, "properties": {"id": "Pakistan_123102310_832662", "height": 2.439003944396973, "hmax": 0.026, "ratio": 0.011, "vulnClass": "none"}}, {"type": "Feature", "geometry": {"type": "MultiPolygon", "coordinates": [[[[72.3799404, 34.25302563], [72.37994127, 34.25299239], [72.37981965, 34.25299019], [72.37981877, 34.25302343], [72.3799404, 34.25302563]]]]}, "properties": {"id": "Pakistan_123102310_495920", "height": 3.758882284164429, "hmax": 0.022, "ratio": 0.006, "vulnClass": "none"}}, {"type": "Feature", "geometry": {"type": "MultiPolygon", "coordinates": [[[[72.38112922, 34.2515346], [72.38113161, 34.25162545], [72.38126402, 34.25162307], [72.38126163, 34.25153221], [72.38112922, 34.2515346]]]]}, "properties": {"id": "Pakistan_123102310_273525", "height": 2.552396059036255, "hmax": 0.003, "ratio": 0.001, "vulnClass": "none"}}, {"type": "Feature", "geometry": {"type": "MultiPolygon", "coordinates": [[[[72.38037363, 34.25206652], [72.38134098, 34.25211538], [72.38135306, 34.25195193], [72.38129058, 34.25194877], [72.38128455, 34.2520305], [72.3809542, 34.25201381], [72.3809604, 34.25192988], [72.38087222, 34.25192543], [72.38086585, 34.25201157], [72.38066276, 34.25200131], [72.38067158, 34.25188204], [72.38058607, 34.25187772], [72.38057807, 34.25198595], [72.38042575, 34.25197826], [72.38042444, 34.25199593], [72.38037902, 34.25199363], [72.38037363, 34.25206652]]]]}, "properties": {"id": "Pakistan_123102310_75015", "height": 3.769778728485107, "hmax": 0.029, "ratio": 0.008, "vulnClass": "none"}}, {"type": "Feature", "geometry": {"type": "MultiPolygon", "coordinates": [[[[72.38058065, 34.25185911], [72.38101682, 34.2518586], [72.38101659, 34.2517278], [72.38082616, 34.25172802], [72.38082626, 34.25178566], [72.38058053, 34.25178594], [72.38058065, 34.25185911]]]]}, "properties": {"id": "Pakistan_123102310_406004", "height": 2.611136913299561, "hmax": 0.034, "ratio": 0.013, "vulnClass": "none"}}, {"type": "Feature", "geometry": {"type": "MultiPolygon", "coordinates": [[[[72.38235792, 34.2509811], [72.38237775, 34.25098579], [72.3823501, 34.25106572], [72.38244928, 34.25108916], [72.38246417, 34.25104612], [72.38249392, 34.25105315], [72.38252512, 34.25096298], [72.38237635, 34.25092781], [72.38235792, 34.2509811]]]]}, "properties": {"id": "Pakistan_123102310_908358", "height": 2.752912521362305, "hmax": 0.071, "ratio": 0.026, "vulnClass": "none"}}, {"type": "Feature", "geometry": {"type": "MultiPolygon", "coordinates": [[[[72.38231959, 34.25031664], [72.3823461, 34.25024582], [72.38224467, 34.25021988], [72.38222685, 34.2502675], [72.38219364, 34.25025901], [72.38216981, 34.25032268], [72.38245517, 34.25039565], [72.38247031, 34.25035518], [72.38231959, 34.25031664]]]]}, "properties": {"id": "Pakistan_123102310_752361", "height": 2.622543811798096, "hmax": 0.071, "ratio": 0.027, "vulnClass": "none"}}, {"type": "Feature", "geometry": {"type": "MultiPolygon", "coordinates": [[[[72.3822605, 34.25017068], [72.38251318, 34.25023651], [72.38253856, 34.25016995], [72.38228588, 34.25010413], [72.3822605, 34.25017068]]]]}, "properties": {"id": "Pakistan_123102310_728570", "height": 2.62479829788208, "hmax": 0.131, "ratio": 0.05, "vulnClass": "none"}}, {"type": "Feature", "geometry": {"type": "MultiPolygon", "coordinates": [[[[72.39026128, 34.25161888], [72.39014569, 34.25160502], [72.3901415, 34.25162891], [72.38999279, 34.25161107], [72.38998021, 34.25168273], [72.39024451, 34.25171442], [72.39026128, 34.25161888]]]]}, "properties": {"id": "Pakistan_123102310_738142", "height": 4.130757331848145, "hmax": 0.016, "ratio": 0.004, "vulnClass": "none"}}, {"type": "Feature", "geometry": {"type": "MultiPolygon", "coordinates": [[[[72.38819502, 34.25177207], [72.38794411, 34.25218726], [72.38814804, 34.25227146], [72.38822242, 34.25214836], [72.38815883, 34.2521221], [72.38820132, 34.2520518], [72.38816617, 34.25203729], [72.3883002, 34.25181549], [72.38819502, 34.25177207]]]]}, "properties": {"id": "Pakistan_123102310_391812", "height": 4.14051342010498, "hmax": 0.008, "ratio": 0.002, "vulnClass": "none"}}, {"type": "Feature", "geometry": {"type": "MultiPolygon", "coordinates": [[[[72.38795473, 34.25132936], [72.38820877, 34.25143656], [72.38827544, 34.25132862], [72.38822565, 34.25130761], [72.38818329, 34.2513762], [72.38797904, 34.25129], [72.38795473, 34.25132936]]]]}, "properties": {"id": "Pakistan_123102310_604813", "height": 2.579846858978271, "hmax": 0.006, "ratio": 0.002, "vulnClass": "none"}}, {"type": "Feature", "geometry": {"type": "MultiPolygon", "coordinates": [[[[72.38825713, 34.25253067], [72.38822482, 34.25267526], [72.38809136, 34.25257632], [72.38809903, 34.25254201], [72.3881855, 34.25255521], [72.38805847, 34.25246104], [72.38795664, 34.25255489], [72.38820668, 34.25274024], [72.38830097, 34.25275463], [72.38834791, 34.25254453], [72.38825713, 34.25253067]]]]}, "properties": {"id": "Pakistan_123102310_642783", "height": 4.198254585266113, "hmax": 0.011, "ratio": 0.003, "vulnClass": "none"}}, {"type": "Feature", "geometry": {"type": "MultiPolygon", "coordinates": [[[[72.38814614, 34.25249815], [72.38823102, 34.25252099], [72.38828392, 34.25238668], [72.38810534, 34.25233863], [72.38806744, 34.25243485], [72.38816114, 34.25246006], [72.38814614, 34.25249815]]]]}, "properties": {"id": "Pakistan_123102310_292356", "height": 3.629633665084839, "hmax": 0.012, "ratio": 0.003, "vulnClass": "none"}}, {"type": "Feature", "geometry": {"type": "MultiPolygon", "coordinates": [[[[72.38805314, 34.25240723], [72.38804092, 34.25240154], [72.38809256, 34.25232583], [72.38796433, 34.25226608], [72.38793106, 34.25231487], [72.38785168, 34.25227788], [72.38774382, 34.25243602], [72.38795549, 34.25253466], [72.38800139, 34.25246736], [72.38800953, 34.25247116], [72.38805314, 34.25240723]]]]}, "properties": {"id": "Pakistan_123102310_448585", "height": 2.780641794204712, "hmax": 0.012, "ratio": 0.004, "vulnClass": "none"}}, {"type": "Feature", "geometry": {"type": "MultiPolygon", "coordinates": [[[[72.38820095, 34.25232947], [72.38847978, 34.25238505], [72.38852623, 34.25222582], [72.3882474, 34.25217023], [72.38820095, 34.25232947]]]]}, "properties": {"id": "Pakistan_123102310_927241", "height": 4.324795722961426, "hmax": 0.008, "ratio": 0.002, "vulnClass": "none"}}, {"type": "Feature", "geometry": {"type": "MultiPolygon", "coordinates": [[[[72.38954312, 34.25217765], [72.38953191, 34.25222546], [72.38980757, 34.2522696], [72.38981878, 34.25222178], [72.38954312, 34.25217765]]]]}, "properties": {"id": "Pakistan_123102310_917902", "height": 2.708459377288818, "hmax": 0.006, "ratio": 0.002, "vulnClass": "none"}}, {"type": "Feature", "geometry": {"type": "MultiPolygon", "coordinates": [[[[72.39013067, 34.25218935], [72.39013396, 34.25209853], [72.39002676, 34.25209589], [72.39002348, 34.25218671], [72.39013067, 34.25218935]]]]}, "properties": {"id": "Pakistan_123102310_595432", "height": 3.065607309341431, "hmax": 0.016, "ratio": 0.005, "vulnClass": "none"}}, {"type": "Feature", "geometry": {"type": "MultiPolygon", "coordinates": [[[[72.39013899, 34.25240544], [72.39007835, 34.25239884], [72.39007314, 34.25243153], [72.39013378, 34.25243813], [72.39013899, 34.25240544]]]]}, "properties": {"id": "Pakistan_123102310_245347", "height": 2.875576972961426, "hmax": 0.006, "ratio": 0.002, "vulnClass": "none"}}, {"type": "Feature", "geometry": {"type": "MultiPolygon", "coordinates": [[[[72.3900607, 34.25241953], [72.38993547, 34.25239353], [72.38992406, 34.25243106], [72.3900493, 34.25245707], [72.3900607, 34.25241953]]]]}, "properties": {"id": "Pakistan_123102310_922522", "height": 2.720169544219971, "hmax": 0.006, "ratio": 0.002, "vulnClass": "none"}}, {"type": "Feature", "geometry": {"type": "MultiPolygon", "coordinates": [[[[72.38979283, 34.25252316], [72.38977858, 34.25256981], [72.39003073, 34.25262243], [72.39000527, 34.2527058], [72.38976321, 34.25265528], [72.3897399, 34.2527316], [72.38997944, 34.25278159], [72.38999893, 34.25271778], [72.39006538, 34.25273165], [72.39008282, 34.25267457], [72.39010209, 34.25267859], [72.39012819, 34.25259314], [72.38979283, 34.25252316]]]]}, "properties": {"id": "Pakistan_123102310_73668", "height": 2.672347784042358, "hmax": 0.006, "ratio": 0.002, "vulnClass": "none"}}, {"type": "Feature", "geometry": {"type": "MultiPolygon", "coordinates": [[[[72.38965495, 34.25292171], [72.38962893, 34.25305657], [72.38991926, 34.25309486], [72.38993486, 34.25301404], [72.38970991, 34.25298438], [72.38972034, 34.25293033], [72.38965495, 34.25292171]]]]}, "properties": {"id": "Pakistan_123102310_92878", "height": 5.101468563079834, "hmax": 0.006, "ratio": 0.001, "vulnClass": "none"}}, {"type": "Feature", "geometry": {"type": "MultiPolygon", "coordinates": [[[[72.39016765, 34.25360643], [72.39047938, 34.25364624], [72.39048627, 34.25360943], [72.39057533, 34.25362081], [72.39058853, 34.25355022], [72.39058491, 34.25354976], [72.39059438, 34.25349909], [72.39054723, 34.25349307], [72.39055371, 34.25345843], [72.39049708, 34.25345119], [72.39046955, 34.25359843], [72.39033333, 34.25358103], [72.39035843, 34.25344678], [72.3902615, 34.2534344], [72.39023907, 34.25355434], [72.39017882, 34.25354664], [72.39016765, 34.25360643]]]]}, "properties": {"id": "Pakistan_123102310_102392", "height": 3.881506204605103, "hmax": 0.002, "ratio": 0.001, "vulnClass": "none"}}, {"type": "Feature", "geometry": {"type": "MultiPolygon", "coordinates": [[[[72.39062349, 34.25347689], [72.39061649, 34.25352272], [72.39073001, 34.25353457], [72.39073702, 34.25348875], [72.39062349, 34.25347689]]]]}, "properties": {"id": "Pakistan_123102310_462865", "height": 2.940871715545654, "hmax": 0.002, "ratio": 0.001, "vulnClass": "none"}}, {"type": "Feature", "geometry": {"type": "MultiPolygon", "coordinates": [[[[72.39019286, 34.25375466], [72.39040525, 34.25381955], [72.39043403, 34.25375518], [72.39042459, 34.25375229], [72.39045459, 34.2536852], [72.39032479, 34.25364555], [72.39031398, 34.25366973], [72.39024083, 34.25364738], [72.39019286, 34.25375466]]]]}, "properties": {"id": "Pakistan_123102310_927261", "height": 3.433037281036377, "hmax": 0.002, "ratio": 0.001, "vulnClass": "none"}}, {"type": "Feature", "geometry": {"type": "MultiPolygon", "coordinates": [[[[72.39058007, 34.25399327], [72.39088709, 34.25406009], [72.39094124, 34.25389008], [72.3908951, 34.25388004], [72.3908737, 34.25394723], [72.39066802, 34.25390246], [72.39069867, 34.25380626], [72.39064349, 34.25379425], [72.39058007, 34.25399327]]]]}, "properties": {"id": "Pakistan_123102310_856337", "height": 3.001655340194702, "hmax": 0.002, "ratio": 0.001, "vulnClass": "none"}}, {"type": "Feature", "geometry": {"type": "MultiPolygon", "coordinates": [[[[72.38803092, 34.25311286], [72.38820431, 34.25314844], [72.38822587, 34.25307666], [72.38805248, 34.25304107], [72.38803092, 34.25311286]]]]}, "properties": {"id": "Pakistan_123102310_860961", "height": 2.446328163146973, "hmax": 0.01, "ratio": 0.004, "vulnClass": "none"}}, {"type": "Feature", "geometry": {"type": "MultiPolygon", "coordinates": [[[[72.38443319, 34.25547656], [72.38440214, 34.2554836], [72.38441856, 34.25553309], [72.38444961, 34.25552605], [72.38443319, 34.25547656]]]]}, "properties": {"id": "Pakistan_123102310_671427", "height": 3.342057228088379, "hmax": 0.073, "ratio": 0.022, "vulnClass": "none"}}, {"type": "Feature", "geometry": {"type": "MultiPolygon", "coordinates": [[[[72.38924477, 34.2543363], [72.38915186, 34.2543146], [72.38907745, 34.25453221], [72.38917038, 34.25455392], [72.38924477, 34.2543363]]]]}, "properties": {"id": "Pakistan_123102310_917898", "height": 3.953321933746338, "hmax": 0.008, "ratio": 0.002, "vulnClass": "none"}}, {"type": "Feature", "geometry": {"type": "MultiPolygon", "coordinates": [[[[72.38974006, 34.25429756], [72.38973067, 34.25433358], [72.3896497, 34.25431916], [72.38963645, 34.25437], [72.38975843, 34.25439173], [72.38978108, 34.25430487], [72.38974006, 34.25429756]]]]}, "properties": {"id": "Pakistan_123102310_704719", "height": 3.019742012023926, "hmax": 0.011, "ratio": 0.004, "vulnClass": "none"}}, {"type": "Feature", "geometry": {"type": "MultiPolygon", "coordinates": [[[[72.38965663, 34.25403414], [72.38963828, 34.25407762], [72.38976024, 34.25411278], [72.38974105, 34.25415824], [72.38980084, 34.25417547], [72.38977081, 34.25424663], [72.38981767, 34.25426014], [72.38984321, 34.25419962], [72.38982266, 34.25419369], [72.38985101, 34.25412649], [72.38981036, 34.25411477], [72.38982402, 34.25408239], [72.38965663, 34.25403414]]]]}, "properties": {"id": "Pakistan_123102310_47133", "height": 2.456383228302002, "hmax": 0.011, "ratio": 0.005, "vulnClass": "none"}}, {"type": "Feature", "geometry": {"type": "MultiPolygon", "coordinates": [[[[72.38958641, 34.25402639], [72.38953886, 34.254133], [72.38954122, 34.25413372], [72.38951391, 34.25419495], [72.38962489, 34.25422878], [72.38966319, 34.2541429], [72.38960321, 34.25412462], [72.38963977, 34.25404265], [72.38958641, 34.25402639]]]]}, "properties": {"id": "Pakistan_123102310_325727", "height": 3.721488475799561, "hmax": 0.011, "ratio": 0.003, "vulnClass": "none"}}, {"type": "Feature", "geometry": {"type": "MultiPolygon", "coordinates": [[[[72.39048615, 34.2543383], [72.3906334, 34.25433345], [72.39064143, 34.25430946], [72.39063643, 34.25420566], [72.39064974, 34.25420522], [72.39072675, 34.25422283], [72.39075074, 34.25415118], [72.39075039, 34.25414399], [72.39065822, 34.25412292], [72.39067517, 34.25412236], [72.39051514, 34.25408576], [72.39048688, 34.2541702], [72.39058701, 34.25419309], [72.39047934, 34.25419664], [72.39048615, 34.2543383]]]]}, "properties": {"id": "Pakistan_123102310_600151", "height": 4.651815414428711, "hmax": 0.003, "ratio": 0.001, "vulnClass": "none"}}, {"type": "Feature", "geometry": {"type": "MultiPolygon", "coordinates": [[[[72.38941827, 34.25489844], [72.38950769, 34.25493252], [72.38953689, 34.25488019], [72.38944748, 34.2548461], [72.38941827, 34.25489844]]]]}, "properties": {"id": "Pakistan_123102310_131729", "height": 2.616097450256348, "hmax": 0.008, "ratio": 0.003, "vulnClass": "none"}}, {"type": "Feature", "geometry": {"type": "MultiPolygon", "coordinates": [[[[72.38944985, 34.25481045], [72.38955939, 34.25483728], [72.38958569, 34.2547639], [72.38947615, 34.25473708], [72.38944985, 34.25481045]]]]}, "properties": {"id": "Pakistan_123102310_552711", "height": 3.881014347076416, "hmax": 0.011, "ratio": 0.003, "vulnClass": "none"}}, {"type": "Feature", "geometry": {"type": "MultiPolygon", "coordinates": [[[[72.38957359, 34.25469], [72.38955941, 34.25472856], [72.3895987, 34.25473842], [72.38961288, 34.25469986], [72.38957359, 34.25469]]]]}, "properties": {"id": "Pakistan_123102310_368248", "height": 3.087106943130493, "hmax": 0.011, "ratio": 0.004, "vulnClass": "none"}}, {"type": "Feature", "geometry": {"type": "MultiPolygon", "coordinates": [[[[72.38955417, 34.2544119], [72.38954079, 34.25448192], [72.38969409, 34.25450196], [72.38970749, 34.25443193], [72.38955417, 34.2544119]]]]}, "properties": {"id": "Pakistan_123102310_486500", "height": 3.603425264358521, "hmax": 0.011, "ratio": 0.003, "vulnClass": "none"}}, {"type": "Feature", "geometry": {"type": "MultiPolygon", "coordinates": [[[[72.38924359, 34.25487196], [72.38926754, 34.25479179], [72.38899557, 34.2547363], [72.38897163, 34.25481646], [72.38924359, 34.25487196]]]]}, "properties": {"id": "Pakistan_123102310_917897", "height": 5.22893238067627, "hmax": 0.008, "ratio": 0.002, "vulnClass": "none"}}, {"type": "Feature", "geometry": {"type": "MultiPolygon", "coordinates": [[[[72.3890549, 34.25492901], [72.38892084, 34.25492694], [72.38891698, 34.25509759], [72.38905105, 34.25509966], [72.3890549, 34.25492901]]]]}, "properties": {"id": "Pakistan_123102310_453279", "height": 2.728524684906006, "hmax": 0.008, "ratio": 0.003, "vulnClass": "none"}}, {"type": "Feature", "geometry": {"type": "MultiPolygon", "coordinates": [[[[72.38915843, 34.2550782], [72.3891873, 34.25499014], [72.38911734, 34.25497447], [72.38908847, 34.25506253], [72.38915843, 34.2550782]]]]}, "properties": {"id": "Pakistan_123102310_292364", "height": 3.718678951263428, "hmax": 0.008, "ratio": 0.002, "vulnClass": "none"}}, {"type": "Feature", "geometry": {"type": "MultiPolygon", "coordinates": [[[[72.38945549, 34.25501402], [72.38933111, 34.25500205], [72.38932433, 34.25505017], [72.38944871, 34.25506214], [72.38945549, 34.25501402]]]]}, "properties": {"id": "Pakistan_123102310_851506", "height": 3.246329307556152, "hmax": 0.007, "ratio": 0.002, "vulnClass": "none"}}, {"type": "Feature", "geometry": {"type": "MultiPolygon", "coordinates": [[[[72.37872482, 34.2596396], [72.37871714, 34.25991128], [72.37876964, 34.2599123], [72.3787773, 34.25964061], [72.37872482, 34.2596396]]]]}, "properties": {"id": "Pakistan_123102310_282106", "height": 2.482174396514893, "hmax": 0.008, "ratio": 0.003, "vulnClass": "none"}}, {"type": "Feature", "geometry": {"type": "MultiPolygon", "coordinates": [[[[72.37965153, 34.26090676], [72.37964309, 34.26094997], [72.37973197, 34.26096183], [72.37974041, 34.26091861], [72.37965153, 34.26090676]]]]}, "properties": {"id": "Pakistan_123102310_562140", "height": 2.541569709777832, "hmax": 0.008, "ratio": 0.003, "vulnClass": "none"}}, {"type": "Feature", "geometry": {"type": "MultiPolygon", "coordinates": [[[[72.37876189, 34.25991556], [72.37869644, 34.25991678], [72.3786971, 34.25994115], [72.37876255, 34.25993993], [72.37876189, 34.25991556]]]]}, "properties": {"id": "Pakistan_123102310_922462", "height": 2.685360908508301, "hmax": 0.008, "ratio": 0.003, "vulnClass": "none"}}, {"type": "Feature", "geometry": {"type": "MultiPolygon", "coordinates": [[[[72.37856699, 34.25995056], [72.37869449, 34.259954], [72.37869773, 34.25987207], [72.37855148, 34.25986812], [72.37854972, 34.25991241], [72.37856848, 34.25991291], [72.37856699, 34.25995056]]]]}, "properties": {"id": "Pakistan_123102310_339826", "height": 2.709768295288086, "hmax": 0.008, "ratio": 0.003, "vulnClass": "none"}}, {"type": "Feature", "geometry": {"type": "MultiPolygon", "coordinates": [[[[72.37846414, 34.26007805], [72.37846101, 34.26004054], [72.3784172, 34.26004305], [72.37842034, 34.26008055], [72.37846414, 34.26007805]]]]}, "properties": {"id": "Pakistan_123102310_424776", "height": 2.644707441329956, "hmax": 0.004, "ratio": 0.002, "vulnClass": "none"}}, {"type": "Feature", "geometry": {"type": "MultiPolygon", "coordinates": [[[[72.37839072, 34.26021153], [72.37838696, 34.26028981], [72.3785771, 34.26029605], [72.37858086, 34.26021776], [72.37839072, 34.26021153]]]]}, "properties": {"id": "Pakistan_123102310_169723", "height": 2.835330247879028, "hmax": 0.004, "ratio": 0.001, "vulnClass": "none"}}, {"type": "Feature", "geometry": {"type": "MultiPolygon", "coordinates": [[[[72.38386104, 34.2620802], [72.3838621, 34.26203923], [72.38378874, 34.26203792], [72.38378767, 34.26207889], [72.38386104, 34.2620802]]]]}, "properties": {"id": "Pakistan_123102310_301863", "height": 2.753576517105103, "hmax": 0.003, "ratio": 0.001, "vulnClass": "none"}}, {"type": "Feature", "geometry": {"type": "MultiPolygon", "coordinates": [[[[72.38903102, 34.26187662], [72.38903456, 34.26195632], [72.3893275, 34.26194742], [72.38932396, 34.26186773], [72.38903102, 34.26187662]]]]}, "properties": {"id": "Pakistan_123102310_884722", "height": 3.628520011901855, "hmax": 0.039, "ratio": 0.011, "vulnClass": "none"}}, {"type": "Feature", "geometry": {"type": "MultiPolygon", "coordinates": [[[[72.38918984, 34.2618114], [72.38913621, 34.26181091], [72.38913552, 34.2618627], [72.38918916, 34.26186318], [72.38918984, 34.2618114]]]]}, "properties": {"id": "Pakistan_123102310_657124", "height": 3.845638275146484, "hmax": 0.048, "ratio": 0.013, "vulnClass": "none"}}, {"type": "Feature", "geometry": {"type": "MultiPolygon", "coordinates": [[[[72.38914976, 34.26175983], [72.38915098, 34.26178559], [72.38920455, 34.26178384], [72.38920332, 34.26175809], [72.38914976, 34.26175983]]]]}, "properties": {"id": "Pakistan_123102310_510312", "height": 2.794103860855103, "hmax": 0.048, "ratio": 0.017, "vulnClass": "none"}}, {"type": "Feature", "geometry": {"type": "MultiPolygon", "coordinates": [[[[72.38900767, 34.26169626], [72.38901124, 34.26175374], [72.38920213, 34.26174565], [72.38919857, 34.26168816], [72.38900767, 34.26169626]]]]}, "properties": {"id": "Pakistan_123102310_131725", "height": 3.74681282043457, "hmax": 0.027, "ratio": 0.007, "vulnClass": "none"}}, {"type": "Feature", "geometry": {"type": "MultiPolygon", "coordinates": [[[[72.38784008, 34.26000182], [72.38786926, 34.26001251], [72.38810273, 34.26003297], [72.38810965, 34.259979], [72.38802643, 34.25997171], [72.38792798, 34.25993564], [72.38791421, 34.25993443], [72.38792405, 34.2598577], [72.38793593, 34.25985874], [72.38799332, 34.25987977], [72.38801925, 34.25983142], [72.38811884, 34.25984014], [72.38820799, 34.2598728], [72.38820565, 34.25989106], [72.38836032, 34.25994773], [72.38832873, 34.26000661], [72.38832586, 34.26002904], [72.38841144, 34.26006039], [72.38846641, 34.25995788], [72.3884705, 34.25992603], [72.38809498, 34.25978844], [72.38809198, 34.25978818], [72.38803488, 34.25976726], [72.38801374, 34.25980668], [72.38801235, 34.25981751], [72.38786536, 34.25980464], [72.38784008, 34.26000182]]]]}, "properties": {"id": "Pakistan_123102310_47117", "height": 3.640318393707275, "hmax": 0.04, "ratio": 0.011, "vulnClass": "none"}}, {"type": "Feature", "geometry": {"type": "MultiPolygon", "coordinates": [[[[72.38445706, 34.26105753], [72.3844517, 34.26109799], [72.38448716, 34.2611012], [72.38449252, 34.26106073], [72.38445706, 34.26105753]]]]}, "properties": {"id": "Pakistan_123102310_804268", "height": 3.186827182769775, "hmax": 0.007, "ratio": 0.002, "vulnClass": "none"}}, {"type": "Feature", "geometry": {"type": "MultiPolygon", "coordinates": [[[[72.38430779, 34.26112668], [72.38430901, 34.26117658], [72.38454059, 34.26117275], [72.38453938, 34.26112283], [72.38430779, 34.26112668]]]]}, "properties": {"id": "Pakistan_123102310_633318", "height": 2.822542190551758, "hmax": 0.01, "ratio": 0.003, "vulnClass": "none"}}, {"type": "Feature", "geometry": {"type": "MultiPolygon", "coordinates": [[[[72.38454322, 34.26097282], [72.38454042, 34.26092194], [72.38448791, 34.26092392], [72.38449071, 34.2609748], [72.38454322, 34.26097282]]]]}, "properties": {"id": "Pakistan_123102310_73614", "height": 3.441628456115723, "hmax": 0.003, "ratio": 0.001, "vulnClass": "none"}}, {"type": "Feature", "geometry": {"type": "MultiPolygon", "coordinates": [[[[72.38359579, 34.26030874], [72.38359361, 34.26043729], [72.38377328, 34.26043937], [72.38377399, 34.26039726], [72.38364796, 34.2603958], [72.38364942, 34.26030936], [72.38359579, 34.26030874]]]]}, "properties": {"id": "Pakistan_123102310_842048", "height": 2.792552471160889, "hmax": 0.004, "ratio": 0.001, "vulnClass": "none"}}, {"type": "Feature", "geometry": {"type": "MultiPolygon", "coordinates": [[[[72.38380755, 34.26023804], [72.38397646, 34.26023513], [72.38397462, 34.260162], [72.38380571, 34.26016491], [72.38380755, 34.26023804]]]]}, "properties": {"id": "Pakistan_123102310_17340", "height": 3.593002557754517, "hmax": 0.003, "ratio": 0.001, "vulnClass": "none"}}, {"type": "Feature", "geometry": {"type": "MultiPolygon", "coordinates": [[[[72.38381029, 34.26023959], [72.38380762, 34.26028381], [72.38386648, 34.26028624], [72.38386915, 34.26024202], [72.38381029, 34.26023959]]]]}, "properties": {"id": "Pakistan_123102310_495945", "height": 3.729968070983887, "hmax": 0.003, "ratio": 0.001, "vulnClass": "none"}}, {"type": "Feature", "geometry": {"type": "MultiPolygon", "coordinates": [[[[72.384461, 34.25815329], [72.38446249, 34.25817983], [72.38450657, 34.25817815], [72.38450508, 34.2581516], [72.384461, 34.25815329]]]]}, "properties": {"id": "Pakistan_123102310_931996", "height": 3.682476282119751, "hmax": 0.004, "ratio": 0.001, "vulnClass": "none"}}, {"type": "Feature", "geometry": {"type": "MultiPolygon", "coordinates": [[[[72.39166319, 34.2602845], [72.3916707, 34.26046068], [72.39180732, 34.26045671], [72.39180449, 34.26039028], [72.39177342, 34.26039119], [72.39176875, 34.26028144], [72.39166319, 34.2602845]]]]}, "properties": {"id": "Pakistan_123102310_936761", "height": 3.348191022872925, "hmax": 0.004, "ratio": 0.001, "vulnClass": "none"}}, {"type": "Feature", "geometry": {"type": "MultiPolygon", "coordinates": [[[[72.390808, 34.25987259], [72.39081174, 34.25995005], [72.39087066, 34.25994811], [72.39086691, 34.25987064], [72.390808, 34.25987259]]]]}, "properties": {"id": "Pakistan_123102310_131150", "height": 4.167662620544434, "hmax": 0.006, "ratio": 0.001, "vulnClass": "none"}}, {"type": "Feature", "geometry": {"type": "MultiPolygon", "coordinates": [[[[72.39085939, 34.26009704], [72.39141886, 34.26009969], [72.39141921, 34.26004871], [72.391077, 34.26004708], [72.39107717, 34.2600227], [72.39085991, 34.26002167], [72.39085939, 34.26009704]]]]}, "properties": {"id": "Pakistan_123102310_738147", "height": 3.68910813331604, "hmax": 0.005, "ratio": 0.001, "vulnClass": "none"}}, {"type": "Feature", "geometry": {"type": "MultiPolygon", "coordinates": [[[[72.39105472, 34.26034661], [72.39105627, 34.26021935], [72.39081489, 34.26021736], [72.39081335, 34.26034461], [72.39105472, 34.26034661]]]]}, "properties": {"id": "Pakistan_123102310_235010", "height": 4.054632186889648, "hmax": 0.009, "ratio": 0.002, "vulnClass": "none"}}, {"type": "Feature", "geometry": {"type": "MultiPolygon", "coordinates": [[[[72.39228446, 34.25599213], [72.39237172, 34.25603495], [72.3923882, 34.256012], [72.39230094, 34.25596919], [72.39228446, 34.25599213]]]]}, "properties": {"id": "Pakistan_123102310_846896", "height": 3.410604953765869, "hmax": 0.003, "ratio": 0.001, "vulnClass": "none"}}, {"type": "Feature", "geometry": {"type": "MultiPolygon", "coordinates": [[[[72.39244788, 34.25594362], [72.39246529, 34.25592839], [72.39258153, 34.25601914], [72.39263107, 34.25597578], [72.39244962, 34.25583413], [72.39238267, 34.25589272], [72.39244788, 34.25594362]]]]}, "properties": {"id": "Pakistan_123102310_519831", "height": 4.537197589874268, "hmax": 0.003, "ratio": 0.001, "vulnClass": "none"}}, {"type": "Feature", "geometry": {"type": "MultiPolygon", "coordinates": [[[[72.39082326, 34.25115539], [72.39081587, 34.25118612], [72.39088037, 34.25119673], [72.39088776, 34.251166], [72.39082326, 34.25115539]]]]}, "properties": {"id": "Pakistan_123102310_524511", "height": 2.767370223999023, "hmax": 0.01, "ratio": 0.004, "vulnClass": "none"}}, {"type": "Feature", "geometry": {"type": "MultiPolygon", "coordinates": [[[[72.39075717, 34.25111909], [72.39089914, 34.2511423], [72.39091036, 34.25109536], [72.39085463, 34.25108625], [72.39087168, 34.25101497], [72.39096355, 34.25102998], [72.3909855, 34.25093823], [72.39090032, 34.25092431], [72.39091665, 34.25085604], [72.39086609, 34.25084777], [72.39088018, 34.2507889], [72.3908378, 34.25078197], [72.39075717, 34.25111909]]]]}, "properties": {"id": "Pakistan_123102310_377737", "height": 2.522928714752197, "hmax": 0.01, "ratio": 0.004, "vulnClass": "none"}}]}