{"type": "FeatureCollection", "features": [{"type": "Feature", "geometry": {"type": "MultiPolygon", "coordinates": [[[[71.98142161, 34.30277571], [71.98136746, 34.30277169], [71.9813526, 34.30290962], [71.98140675, 34.30291364], [71.98142161, 34.30277571]]]]}, "properties": {"id": "8J6H8X3J+4HJM", "height": 3.27297306060791, "hmax": 0.003, "ratio": 0.001, "vulnClass": "none"}}, {"type": "Feature", "geometry": {"type": "MultiPolygon", "coordinates": [[[[71.98171531, 34.30277997], [71.98145983, 34.30276563], [71.98145349, 34.30284342], [71.98170897, 34.30285776], [71.98171531, 34.30277997]]]]}, "properties": {"id": "8J6H8X3J+4JGG", "height": 3.213965892791748, "hmax": 0.006, "ratio": 0.002, "vulnClass": "none"}}, {"type": "Feature", "geometry": {"type": "MultiPolygon", "coordinates": [[[[71.9822358, 34.30287202], [71.98219327, 34.30287617], [71.98219694, 34.30290206], [71.98223947, 34.30289791], [71.9822358, 34.30287202]]]]}, "properties": {"id": "8J6H8X3J+5V4H", "height": 3.091063499450684, "hmax": 0.008, "ratio": 0.003, "vulnClass": "none"}}, {"type": "Feature", "geometry": {"type": "MultiPolygon", "coordinates": [[[[71.98221162, 34.30280577], [71.98204566, 34.30279929], [71.98204149, 34.30287292], [71.98220745, 34.3028794], [71.98221162, 34.30280577]]]]}, "properties": {"id": "8J6H8X3J+4VJC", "height": 4.256869316101074, "hmax": 0.008, "ratio": 0.002, "vulnClass": "none"}}, {"type": "Feature", "geometry": {"type": "MultiPolygon", "coordinates": [[[[71.98212793, 34.30083183], [71.98209684, 34.30079905], [71.98204338, 34.30083397], [71.98207447, 34.30086676], [71.98212793, 34.30083183]]]]}, "properties": {"id": "8J6H8X2J+8RP8", "height": 2.639359712600708, "hmax": 0.012, "ratio": 0.005, "vulnClass": "none"}}, {"type": "Feature", "geometry": {"type": "MultiPolygon", "coordinates": [[[[71.98221706, 34.30242647], [71.98208171, 34.30242267], [71.98208022, 34.30245912], [71.98221557, 34.30246293], [71.98221706, 34.30242647]]]]}, "properties": {"id": "8J6H8X2J+XVCQ", "height": 2.452808856964111, "hmax": 0.008, "ratio": 0.003, "vulnClass": "none"}}, {"type": "Feature", "geometry": {"type": "MultiPolygon", "coordinates": [[[[71.98051506, 34.30380335], [71.98032562, 34.30372595], [71.98030301, 34.30376406], [71.98049245, 34.30384146], [71.98051506, 34.30380335]]]]}, "properties": {"id": "8J6H8X3J+G576", "height": 3.519032001495361, "hmax": 0.004, "ratio": 0.001, "vulnClass": "none"}}, {"type": "Feature", "geometry": {"type": "MultiPolygon", "coordinates": [[[[71.98043768, 34.29741312], [71.98039766, 34.29743474], [71.98048739, 34.29754916], [71.98052741, 34.29752755], [71.98050154, 34.29749456], [71.98059004, 34.29744676], [71.9805661, 34.29741622], [71.98051157, 34.29744567], [71.98049746, 34.29742767], [71.98046348, 34.29744602], [71.98043768, 34.29741312]]]]}, "properties": {"id": "8J6H7XWJ+X5QP", "height": 2.993201732635498, "hmax": 0.003, "ratio": 0.001, "vulnClass": "none"}}, {"type": "Feature", "geometry": {"type": "MultiPolygon", "coordinates": [[[[71.98037303, 34.29800144], [71.98028829, 34.29795365], [71.98019793, 34.29806401], [71.9803289, 34.29813787], [71.98036713, 34.29809118], [71.98034992, 34.29808148], [71.98036868, 34.29805856], [71.98033966, 34.2980422], [71.98037303, 34.29800144]]]]}, "properties": {"id": "8J6H7XXJ+647V", "height": 2.745796680450439, "hmax": 0.003, "ratio": 0.001, "vulnClass": "none"}}, {"type": "Feature", "geometry": {"type": "MultiPolygon", "coordinates": [[[[71.98041228, 34.29819232], [71.98024311, 34.29808673], [71.98019078, 34.29814448], [71.98035994, 34.29825007], [71.98041228, 34.29819232]]]]}, "properties": {"id": "8J6H7XXJ+747P", "height": 3.149807453155518, "hmax": 0.003, "ratio": 0.001, "vulnClass": "none"}}, {"type": "Feature", "geometry": {"type": "MultiPolygon", "coordinates": [[[[71.98024349, 34.29808631], [71.98019739, 34.29805753], [71.98014467, 34.2981157], [71.98019078, 34.29814448], [71.98024349, 34.29808631]]]]}, "properties": {"id": "8J6H7XXJ+63W2", "height": 2.882492780685425, "hmax": 0.003, "ratio": 0.001, "vulnClass": "none"}}, {"type": "Feature", "geometry": {"type": "MultiPolygon", "coordinates": [[[[71.97872256, 34.29861805], [71.9786292, 34.29858174], [71.97851713, 34.2987802], [71.97869135, 34.29884796], [71.9787298, 34.29877987], [71.97864894, 34.29874842], [71.97872256, 34.29861805]]]]}, "properties": {"id": "8J6H7XXH+FFJR", "height": 2.81597113609314, "hmax": 0.002, "ratio": 0.001, "vulnClass": "none"}}, {"type": "Feature", "geometry": {"type": "MultiPolygon", "coordinates": [[[[71.97860225, 34.298555], [71.97842508, 34.29849487], [71.97838993, 34.29856621], [71.97848513, 34.29859852], [71.9784704, 34.2986284], [71.9785087, 34.2986414], [71.97847199, 34.29871589], [71.97851566, 34.29873072], [71.97860225, 34.298555]]]]}, "properties": {"id": "8J6H7XXH+CCJJ", "height": 3.134617805480957, "hmax": 0.002, "ratio": 0.001, "vulnClass": "none"}}, {"type": "Feature", "geometry": {"type": "MultiPolygon", "coordinates": [[[[71.97848937, 34.2980365], [71.97846137, 34.29803269], [71.97845625, 34.29805855], [71.97848425, 34.29806236], [71.97848937, 34.2980365]]]]}, "properties": {"id": "8J6H7XXH+699R", "height": 2.522392272949219, "hmax": 0.001, "ratio": 0.0, "vulnClass": "none"}}, {"type": "Feature", "geometry": {"type": "MultiPolygon", "coordinates": [[[[71.97773027, 34.29964088], [71.97763948, 34.29962029], [71.97760461, 34.2997262], [71.97769539, 34.29974679], [71.97773027, 34.29964088]]]]}, "properties": {"id": "8J6H7XXH+V3F7", "height": 2.624098062515259, "hmax": 0.002, "ratio": 0.001, "vulnClass": "none"}}, {"type": "Feature", "geometry": {"type": "MultiPolygon", "coordinates": [[[[71.97859847, 34.30055703], [71.97840674, 34.300523], [71.97838714, 34.30059905], [71.97857888, 34.30063307], [71.97859847, 34.30055703]]]]}, "properties": {"id": "8J6H8X2H+69Q5", "height": 3.210595607757568, "hmax": 0.004, "ratio": 0.001, "vulnClass": "none"}}, {"type": "Feature", "geometry": {"type": "MultiPolygon", "coordinates": [[[[71.97851285, 34.30032355], [71.97842824, 34.300299], [71.97841608, 34.30032787], [71.97850069, 34.30035242], [71.97851285, 34.30032355]]]]}, "properties": {"id": "8J6H8X2H+49P5", "height": 2.500143766403198, "hmax": 0.002, "ratio": 0.001, "vulnClass": "none"}}, {"type": "Feature", "geometry": {"type": "MultiPolygon", "coordinates": [[[[71.97845473, 34.30025622], [71.97837659, 34.3002333], [71.97832707, 34.30034955], [71.97838784, 34.30036738], [71.97841623, 34.30030073], [71.9784336, 34.30030582], [71.97845473, 34.30025622]]]]}, "properties": {"id": "8J6H8X2H+496V", "height": 2.7340087890625, "hmax": 0.002, "ratio": 0.001, "vulnClass": "none"}}, {"type": "Feature", "geometry": {"type": "MultiPolygon", "coordinates": [[[[71.98059168, 34.29882219], [71.98059714, 34.29879802], [71.98056717, 34.29879335], [71.98056171, 34.29881752], [71.98059168, 34.29882219]]]]}, "properties": {"id": "8J6H7XXJ+G6G8", "height": 2.563638210296631, "hmax": 0.003, "ratio": 0.001, "vulnClass": "none"}}, {"type": "Feature", "geometry": {"type": "MultiPolygon", "coordinates": [[[[71.9807005, 34.29850014], [71.9806537, 34.29846445], [71.9805744, 34.29853606], [71.98068067, 34.29861711], [71.98071643, 34.29858481], [71.98065696, 34.29853946], [71.9807005, 34.29850014]]]]}, "properties": {"id": "8J6H7XXJ+C76Q", "height": 3.612281084060669, "hmax": 0.002, "ratio": 0.001, "vulnClass": "none"}}, {"type": "Feature", "geometry": {"type": "MultiPolygon", "coordinates": [[[[71.98072288, 34.29839026], [71.98065502, 34.29835928], [71.98062381, 34.29840637], [71.98069168, 34.29843734], [71.98072288, 34.29839026]]]]}, "properties": {"id": "8J6H7XXJ+973W", "height": 3.649618625640869, "hmax": 0.002, "ratio": 0.001, "vulnClass": "none"}}, {"type": "Feature", "geometry": {"type": "MultiPolygon", "coordinates": [[[[71.9809246, 34.29840565], [71.98084921, 34.29835823], [71.98079097, 34.29842201], [71.98073832, 34.29838889], [71.9806932, 34.29843828], [71.98082124, 34.29851882], [71.9809246, 34.29840565]]]]}, "properties": {"id": "8J6H7XXJ+98GC", "height": 3.80274486541748, "hmax": 0.001, "ratio": 0.0, "vulnClass": "none"}}, {"type": "Feature", "geometry": {"type": "MultiPolygon", "coordinates": [[[[71.98065517, 34.29835925], [71.98060555, 34.29832804], [71.98057359, 34.29836304], [71.98062321, 34.29839425], [71.98065517, 34.29835925]]]]}, "properties": {"id": "8J6H7XXJ+86XG", "height": 2.618454933166504, "hmax": 0.003, "ratio": 0.001, "vulnClass": "none"}}, {"type": "Feature", "geometry": {"type": "MultiPolygon", "coordinates": [[[[71.98093593, 34.29803608], [71.98090097, 34.2980079], [71.98084313, 34.29805673], [71.98087844, 34.2980852], [71.98093593, 34.29803608]]]]}, "properties": {"id": "8J6H7XXJ+696V", "height": 3.883654117584229, "hmax": 0.001, "ratio": 0.0, "vulnClass": "none"}}, {"type": "Feature", "geometry": {"type": "MultiPolygon", "coordinates": [[[[71.98117731, 34.29800192], [71.98099357, 34.29791282], [71.98094739, 34.29797841], [71.98113114, 34.29806751], [71.98117731, 34.29800192]]]]}, "properties": {"id": "8J6H7XXJ+5CVQ", "height": 4.716029167175293, "hmax": 0.001, "ratio": 0.0, "vulnClass": "none"}}, {"type": "Feature", "geometry": {"type": "MultiPolygon", "coordinates": [[[[71.98099357, 34.29791282], [71.98092422, 34.2978792], [71.98089588, 34.29791945], [71.98096522, 34.29795308], [71.98099357, 34.29791282]]]]}, "properties": {"id": "8J6H7XXJ+598J", "height": 4.279069423675537, "hmax": 0.001, "ratio": 0.0, "vulnClass": "none"}}, {"type": "Feature", "geometry": {"type": "MultiPolygon", "coordinates": [[[[71.98106043, 34.29809106], [71.98106821, 34.29806423], [71.98104349, 34.2980593], [71.98103571, 34.29808612], [71.98106043, 34.29809106]]]]}, "properties": {"id": "8J6H7XXJ+6CM4", "height": 3.429361820220947, "hmax": 0.001, "ratio": 0.0, "vulnClass": "none"}}, {"type": "Feature", "geometry": {"type": "MultiPolygon", "coordinates": [[[[71.9814114, 34.2977981], [71.9813536, 34.2977565], [71.9813242, 34.2977846], [71.981382, 34.2978262], [71.9814114, 34.2977981]]]]}, "properties": {"id": "8J6H7XXJ+4G9Q", "height": 2.856503248214722, "hmax": 0.002, "ratio": 0.001, "vulnClass": "none"}}, {"type": "Feature", "geometry": {"type": "MultiPolygon", "coordinates": [[[[71.98138669, 34.29768398], [71.98134353, 34.29764746], [71.98128222, 34.29769735], [71.98132537, 34.29773388], [71.98138669, 34.29768398]]]]}, "properties": {"id": "8J6H7XXJ+3GGP", "height": 2.617233037948608, "hmax": 0.003, "ratio": 0.001, "vulnClass": "none"}}, {"type": "Feature", "geometry": {"type": "MultiPolygon", "coordinates": [[[[71.98135371, 34.29775786], [71.98128222, 34.29769735], [71.98120879, 34.2977571], [71.98128029, 34.29781761], [71.98135371, 34.29775786]]]]}, "properties": {"id": "8J6H7XXJ+4G29", "height": 2.856503248214722, "hmax": 0.002, "ratio": 0.001, "vulnClass": "none"}}, {"type": "Feature", "geometry": {"type": "MultiPolygon", "coordinates": [[[[71.98091241, 34.29779298], [71.98087017, 34.29785298], [71.98117731, 34.29800192], [71.98121956, 34.29794192], [71.98091241, 34.29779298]]]]}, "properties": {"id": "8J6H7XXJ+5C3V", "height": 3.518847942352295, "hmax": 0.001, "ratio": 0.0, "vulnClass": "none"}}, {"type": "Feature", "geometry": {"type": "MultiPolygon", "coordinates": [[[[71.98092422, 34.2978792], [71.98083816, 34.29783746], [71.98080982, 34.29787772], [71.98089588, 34.29791945], [71.98092422, 34.2978792]]]]}, "properties": {"id": "8J6H7XXJ+5854", "height": 3.081877470016479, "hmax": 0.001, "ratio": 0.0, "vulnClass": "none"}}, {"type": "Feature", "geometry": {"type": "MultiPolygon", "coordinates": [[[[71.9808376, 34.29786254], [71.98076259, 34.29778903], [71.98067692, 34.29784925], [71.98064577, 34.29781872], [71.98053004, 34.29790007], [71.9806362, 34.2980041], [71.9808376, 34.29786254]]]]}, "properties": {"id": "8J6H7XXJ+573Q", "height": 2.51034140586853, "hmax": 0.002, "ratio": 0.001, "vulnClass": "none"}}, {"type": "Feature", "geometry": {"type": "MultiPolygon", "coordinates": [[[[71.9809004, 34.2977149], [71.9808712, 34.297687], [71.9807682, 34.2977613], [71.9808589, 34.2978479], [71.9809362, 34.2977921], [71.9808747, 34.2977334], [71.9809004, 34.2977149]]]]}, "properties": {"id": "8J6H7XXJ+485V", "height": 2.619821786880493, "hmax": 0.002, "ratio": 0.001, "vulnClass": "none"}}, {"type": "Feature", "geometry": {"type": "MultiPolygon", "coordinates": [[[[71.98154638, 34.29694184], [71.98150202, 34.29690528], [71.98141971, 34.29697408], [71.98146407, 34.29701064], [71.98154638, 34.29694184]]]]}, "properties": {"id": "8J6H7XWJ+QHQ7", "height": 2.532914161682129, "hmax": 0.003, "ratio": 0.001, "vulnClass": "none"}}, {"type": "Feature", "geometry": {"type": "MultiPolygon", "coordinates": [[[[71.98266967, 34.29687996], [71.98248393, 34.29689532], [71.98250988, 34.29711136], [71.98259963, 34.29710393], [71.98257971, 34.29693808], [71.9826757, 34.29693014], [71.98266967, 34.29687996]]]]}, "properties": {"id": "8J6H7XWM+Q2V9", "height": 3.296002149581909, "hmax": 0.008, "ratio": 0.002, "vulnClass": "none"}}, {"type": "Feature", "geometry": {"type": "MultiPolygon", "coordinates": [[[[71.98280059, 34.29711184], [71.98275513, 34.29709127], [71.9827178, 34.29714808], [71.98276326, 34.29716866], [71.98280059, 34.29711184]]]]}, "properties": {"id": "8J6H7XWM+V423", "height": 2.651697874069214, "hmax": 0.008, "ratio": 0.003, "vulnClass": "none"}}, {"type": "Feature", "geometry": {"type": "MultiPolygon", "coordinates": [[[[71.98313004, 34.29706393], [71.9828863, 34.29704615], [71.98287785, 34.29712601], [71.98312158, 34.29714379], [71.98313004, 34.29706393]]]]}, "properties": {"id": "8J6H7XWM+R6JJ", "height": 3.85295581817627, "hmax": 0.007, "ratio": 0.002, "vulnClass": "none"}}, {"type": "Feature", "geometry": {"type": "MultiPolygon", "coordinates": [[[[71.98296522, 34.29739324], [71.9830117, 34.29732553], [71.98298118, 34.2973111], [71.9829347, 34.29737881], [71.98296522, 34.29739324]]]]}, "properties": {"id": "8J6H7XWM+W5X2", "height": 3.533312559127808, "hmax": 0.007, "ratio": 0.002, "vulnClass": "none"}}, {"type": "Feature", "geometry": {"type": "MultiPolygon", "coordinates": [[[[71.98278719, 34.29735699], [71.982847, 34.29726985], [71.98279641, 34.29724593], [71.98273659, 34.29733307], [71.98278719, 34.29735699]]]]}, "properties": {"id": "8J6H7XWM+W4F3", "height": 2.460676193237305, "hmax": 0.008, "ratio": 0.003, "vulnClass": "none"}}, {"type": "Feature", "geometry": {"type": "MultiPolygon", "coordinates": [[[[71.98342177, 34.29766481], [71.98324259, 34.29754053], [71.98318681, 34.29759593], [71.98336599, 34.29772021], [71.98342177, 34.29766481]]]]}, "properties": {"id": "8J6H7XXM+3838", "height": 2.957959651947021, "hmax": 0.007, "ratio": 0.002, "vulnClass": "none"}}, {"type": "Feature", "geometry": {"type": "MultiPolygon", "coordinates": [[[[71.98315959, 34.29752414], [71.98309646, 34.29746884], [71.98306396, 34.2974944], [71.98312709, 34.29754969], [71.98315959, 34.29752414]]]]}, "properties": {"id": "8J6H7XXM+2658", "height": 2.503286361694336, "hmax": 0.007, "ratio": 0.003, "vulnClass": "none"}}, {"type": "Feature", "geometry": {"type": "MultiPolygon", "coordinates": [[[[71.98508703, 34.29784634], [71.98504769, 34.29782964], [71.98502709, 34.29786307], [71.98506642, 34.29787977], [71.98508703, 34.29784634]]]]}, "properties": {"id": "8J6H7XXP+42V5", "height": 3.088973760604858, "hmax": 0.003, "ratio": 0.001, "vulnClass": "none"}}, {"type": "Feature", "geometry": {"type": "MultiPolygon", "coordinates": [[[[71.98467125, 34.29814531], [71.98461952, 34.29808725], [71.98451799, 34.29814955], [71.98456972, 34.29820761], [71.98467125, 34.29814531]]]]}, "properties": {"id": "8J6H7XXM+7R5R", "height": 3.063075065612793, "hmax": 0.002, "ratio": 0.001, "vulnClass": "none"}}, {"type": "Feature", "geometry": {"type": "MultiPolygon", "coordinates": [[[[71.9849245, 34.29809425], [71.98482489, 34.29800554], [71.98478689, 34.29803493], [71.98488651, 34.29812364], [71.9849245, 34.29809425]]]]}, "properties": {"id": "8J6H7XXM+6WHF", "height": 3.075080871582031, "hmax": 0.002, "ratio": 0.001, "vulnClass": "none"}}, {"type": "Feature", "geometry": {"type": "MultiPolygon", "coordinates": [[[[71.98481162, 34.29839049], [71.98469931, 34.29820766], [71.98461395, 34.29824378], [71.98472627, 34.29842661], [71.98481162, 34.29839049]]]]}, "properties": {"id": "8J6H7XXM+8VGQ", "height": 4.823779582977295, "hmax": 0.002, "ratio": 0.0, "vulnClass": "none"}}, {"type": "Feature", "geometry": {"type": "MultiPolygon", "coordinates": [[[[71.98473983, 34.29815371], [71.98470737, 34.29811554], [71.9846097, 34.29817273], [71.98464216, 34.29821091], [71.98473983, 34.29815371]]]]}, "properties": {"id": "8J6H7XXM+7V7G", "height": 2.573293685913086, "hmax": 0.002, "ratio": 0.001, "vulnClass": "none"}}, {"type": "Feature", "geometry": {"type": "MultiPolygon", "coordinates": [[[[71.98455779, 34.29818197], [71.98452616, 34.29814836], [71.98442828, 34.29821178], [71.98445991, 34.2982454], [71.98455779, 34.29818197]]]]}, "properties": {"id": "8J6H7XXM+7QHX", "height": 2.469466924667358, "hmax": 0.002, "ratio": 0.001, "vulnClass": "none"}}, {"type": "Feature", "geometry": {"type": "MultiPolygon", "coordinates": [[[[71.98457359, 34.29823199], [71.9845401, 34.29819674], [71.98443176, 34.29826762], [71.98446525, 34.29830288], [71.98457359, 34.29823199]]]]}, "properties": {"id": "8J6H7XXM+7RRR", "height": 3.542336940765381, "hmax": 0.002, "ratio": 0.001, "vulnClass": "none"}}, {"type": "Feature", "geometry": {"type": "MultiPolygon", "coordinates": [[[[71.9847737, 34.29847327], [71.98474308, 34.29842202], [71.98468531, 34.29844579], [71.98471594, 34.29849704], [71.9847737, 34.29847327]]]]}, "properties": {"id": "8J6H7XXM+9VQ7", "height": 2.722058534622192, "hmax": 0.002, "ratio": 0.001, "vulnClass": "none"}}, {"type": "Feature", "geometry": {"type": "MultiPolygon", "coordinates": [[[[71.98519075, 34.29863208], [71.9851088, 34.29859684], [71.98504716, 34.29869559], [71.98512911, 34.29873082], [71.98519075, 34.29863208]]]]}, "properties": {"id": "8J6H7XXP+F29H", "height": 2.635988473892212, "hmax": 0.003, "ratio": 0.001, "vulnClass": "none"}}, {"type": "Feature", "geometry": {"type": "MultiPolygon", "coordinates": [[[[71.9863574, 34.29857004], [71.98647296, 34.29842325], [71.98644045, 34.29840563], [71.98632489, 34.29855242], [71.9863574, 34.29857004]]]]}, "properties": {"id": "8J6H7XXP+9HRH", "height": 3.081862926483154, "hmax": 0.009, "ratio": 0.003, "vulnClass": "none"}}, {"type": "Feature", "geometry": {"type": "MultiPolygon", "coordinates": [[[[71.98626949, 34.29858628], [71.98642624, 34.29840863], [71.9863821, 34.29838181], [71.98622536, 34.29855946], [71.98626949, 34.29858628]]]]}, "properties": {"id": "8J6H7XXP+9GW7", "height": 3.081862926483154, "hmax": 0.009, "ratio": 0.003, "vulnClass": "none"}}, {"type": "Feature", "geometry": {"type": "MultiPolygon", "coordinates": [[[[71.98546235, 34.29825162], [71.98553331, 34.2981757], [71.98546511, 34.2981318], [71.98539415, 34.29820772], [71.98546235, 34.29825162]]]]}, "properties": {"id": "8J6H7XXP+75GQ", "height": 2.594119548797607, "hmax": 0.003, "ratio": 0.001, "vulnClass": "none"}}, {"type": "Feature", "geometry": {"type": "MultiPolygon", "coordinates": [[[[71.98565749, 34.29812262], [71.98559787, 34.2981052], [71.98558415, 34.29813755], [71.98564377, 34.29815497], [71.98565749, 34.29812262]]]]}, "properties": {"id": "8J6H7XXP+7659", "height": 2.640992879867554, "hmax": 0.003, "ratio": 0.001, "vulnClass": "none"}}, {"type": "Feature", "geometry": {"type": "MultiPolygon", "coordinates": [[[[71.98553331, 34.2981757], [71.98560321, 34.29810091], [71.98553501, 34.29805701], [71.98546511, 34.2981318], [71.98553331, 34.2981757]]]]}, "properties": {"id": "8J6H7XXP+66VJ", "height": 2.843519687652588, "hmax": 0.003, "ratio": 0.001, "vulnClass": "none"}}, {"type": "Feature", "geometry": {"type": "MultiPolygon", "coordinates": [[[[71.98570336, 34.29805469], [71.98559463, 34.29798783], [71.98553261, 34.2980573], [71.98560685, 34.29810295], [71.98562629, 34.29808116], [71.98566079, 34.29810238], [71.98570336, 34.29805469]]]]}, "properties": {"id": "8J6H7XXP+66H4", "height": 2.475589990615845, "hmax": 0.003, "ratio": 0.001, "vulnClass": "none"}}, {"type": "Feature", "geometry": {"type": "MultiPolygon", "coordinates": [[[[71.9859847, 34.30143968], [71.98597274, 34.30135782], [71.98563995, 34.30139131], [71.98565191, 34.30147317], [71.9859847, 34.30143968]]]]}, "properties": {"id": "8J6H8X2P+H87Q", "height": 3.233245372772217, "hmax": 0.024, "ratio": 0.007, "vulnClass": "none"}}, {"type": "Feature", "geometry": {"type": "MultiPolygon", "coordinates": [[[[71.9861581, 34.30141662], [71.98605259, 34.30140868], [71.98604313, 34.30149524], [71.98614864, 34.30150318], [71.9861581, 34.30141662]]]]}, "properties": {"id": "8J6H8X2P+HCQ6", "height": 2.550576686859131, "hmax": 0.012, "ratio": 0.005, "vulnClass": "none"}}, {"type": "Feature", "geometry": {"type": "MultiPolygon", "coordinates": [[[[71.98596006, 34.30127773], [71.98592037, 34.30127717], [71.98591927, 34.30133066], [71.98595895, 34.30133122], [71.98596006, 34.30127773]]]]}, "properties": {"id": "8J6H8X2P+G9G2", "height": 2.908923625946045, "hmax": 0.025, "ratio": 0.009, "vulnClass": "none"}}, {"type": "Feature", "geometry": {"type": "MultiPolygon", "coordinates": [[[[71.98633301, 34.30125286], [71.98628035, 34.30124566], [71.98624467, 34.30142532], [71.98629733, 34.30143252], [71.98633301, 34.30125286]]]]}, "properties": {"id": "8J6H8X2P+GGMC", "height": 2.626700401306152, "hmax": 0.012, "ratio": 0.005, "vulnClass": "none"}}, {"type": "Feature", "geometry": {"type": "MultiPolygon", "coordinates": [[[[71.9871954, 34.30133994], [71.98714077, 34.30119295], [71.98707889, 34.30120879], [71.98713352, 34.30135578], [71.9871954, 34.30133994]]]]}, "properties": {"id": "8J6H8X2P+GV2V", "height": 4.075512409210205, "hmax": 0.017, "ratio": 0.004, "vulnClass": "none"}}, {"type": "Feature", "geometry": {"type": "MultiPolygon", "coordinates": [[[[71.98740678, 34.30096504], [71.98726308, 34.30095182], [71.98725199, 34.30103478], [71.9873957, 34.30104801], [71.98740678, 34.30096504]]]]}, "properties": {"id": "8J6H8X2P+9WWW", "height": 4.963786602020264, "hmax": 0.017, "ratio": 0.003, "vulnClass": "none"}}, {"type": "Feature", "geometry": {"type": "MultiPolygon", "coordinates": [[[[71.98764025, 34.30099427], [71.98741061, 34.30097389], [71.9873994, 34.30106087], [71.98762904, 34.30108124], [71.98764025, 34.30099427]]]]}, "properties": {"id": "8J6H8X2Q+C264", "height": 4.004857063293457, "hmax": 0.017, "ratio": 0.004, "vulnClass": "none"}}, {"type": "Feature", "geometry": {"type": "MultiPolygon", "coordinates": [[[[71.9873957, 34.30104801], [71.98734357, 34.30104321], [71.98733699, 34.30109243], [71.98738912, 34.30109723], [71.9873957, 34.30104801]]]]}, "properties": {"id": "8J6H8X2P+CWHW", "height": 4.289609432220459, "hmax": 0.017, "ratio": 0.004, "vulnClass": "none"}}, {"type": "Feature", "geometry": {"type": "MultiPolygon", "coordinates": [[[[71.98727987, 34.30173842], [71.98722938, 34.30173598], [71.98722358, 34.30181566], [71.98727406, 34.30181819], [71.98727987, 34.30173842]]]]}, "properties": {"id": "8J6H8X2P+PW62", "height": 3.011989831924438, "hmax": 0.008, "ratio": 0.003, "vulnClass": "none"}}, {"type": "Feature", "geometry": {"type": "MultiPolygon", "coordinates": [[[[71.98721074, 34.30156518], [71.98712561, 34.30156107], [71.98711777, 34.30167299], [71.9872029, 34.3016771], [71.98719888, 34.30173451], [71.98727987, 34.30173842], [71.98728404, 34.30168101], [71.98723356, 34.30167858], [71.98723621, 34.3016421], [71.98720545, 34.30164062], [71.98721074, 34.30156518]]]]}, "properties": {"id": "8J6H8X2P+MV4R", "height": 3.011989831924438, "hmax": 0.008, "ratio": 0.003, "vulnClass": "none"}}, {"type": "Feature", "geometry": {"type": "MultiPolygon", "coordinates": [[[[71.98720816, 34.30137426], [71.9871954, 34.30133994], [71.98713352, 34.30135578], [71.98714628, 34.3013901], [71.98720816, 34.30137426]]]]}, "properties": {"id": "8J6H8X2P+GVVM", "height": 4.075512409210205, "hmax": 0.017, "ratio": 0.004, "vulnClass": "none"}}, {"type": "Feature", "geometry": {"type": "MultiPolygon", "coordinates": [[[[71.98702811, 34.30149092], [71.98703379, 34.30145838], [71.98700513, 34.30145493], [71.98699945, 34.30148747], [71.98702811, 34.30149092]]]]}, "properties": {"id": "8J6H8X2P+HRJW", "height": 2.609797954559326, "hmax": 0.012, "ratio": 0.005, "vulnClass": "none"}}, {"type": "Feature", "geometry": {"type": "MultiPolygon", "coordinates": [[[[71.98728216, 34.30182841], [71.98707874, 34.30179398], [71.98706825, 34.30183667], [71.98727167, 34.3018711], [71.98728216, 34.30182841]]]]}, "properties": {"id": "8J6H8X2P+PVM8", "height": 2.678389072418213, "hmax": 0.008, "ratio": 0.003, "vulnClass": "none"}}, {"type": "Feature", "geometry": {"type": "MultiPolygon", "coordinates": [[[[71.98646124, 34.30272906], [71.98641095, 34.30274719], [71.98644176, 34.30280604], [71.98649205, 34.30278791], [71.98646124, 34.30272906]]]]}, "properties": {"id": "8J6H8X3P+4H4M", "height": 3.584718704223633, "hmax": 0.005, "ratio": 0.001, "vulnClass": "none"}}, {"type": "Feature", "geometry": {"type": "MultiPolygon", "coordinates": [[[[71.98639373, 34.30299768], [71.98630352, 34.30300325], [71.98631366, 34.30311625], [71.98640387, 34.30311067], [71.98639373, 34.30299768]]]]}, "properties": {"id": "8J6H8X3P+6GH7", "height": 3.078092813491821, "hmax": 0.005, "ratio": 0.002, "vulnClass": "none"}}, {"type": "Feature", "geometry": {"type": "MultiPolygon", "coordinates": [[[[71.9868543, 34.3031076], [71.9867827, 34.3031386], [71.9867659, 34.3031119], [71.9866957, 34.3031422], [71.9867124, 34.3031689], [71.9866353, 34.3032022], [71.9866853, 34.3032819], [71.9869042, 34.3031873], [71.9868543, 34.3031076]]]]}, "properties": {"id": "8J6H8X3P+7PCG", "height": 3.225827217102051, "hmax": 0.005, "ratio": 0.002, "vulnClass": "none"}}, {"type": "Feature", "geometry": {"type": "MultiPolygon", "coordinates": [[[[71.98659852, 34.30310388], [71.98655046, 34.30310969], [71.98657768, 34.30326458], [71.98662574, 34.30325877], [71.98659852, 34.30310388]]]]}, "properties": {"id": "8J6H8X3P+7JG9", "height": 2.824990749359131, "hmax": 0.005, "ratio": 0.002, "vulnClass": "none"}}, {"type": "Feature", "geometry": {"type": "MultiPolygon", "coordinates": [[[[71.98654613, 34.30277692], [71.98648969, 34.30278834], [71.98650518, 34.30284107], [71.98656163, 34.30282965], [71.98654613, 34.30277692]]]]}, "properties": {"id": "8J6H8X3P+4JC9", "height": 3.776082992553711, "hmax": 0.005, "ratio": 0.001, "vulnClass": "none"}}, {"type": "Feature", "geometry": {"type": "MultiPolygon", "coordinates": [[[[71.98455857, 34.29499454], [71.9845021, 34.29503637], [71.98451841, 34.29505154], [71.98462335, 34.29505477], [71.98455857, 34.29499454]]]]}, "properties": {"id": "8J6H7XWM+2R79", "height": 2.661838054656982, "hmax": 0.001, "ratio": 0.0, "vulnClass": "none"}}, {"type": "Feature", "geometry": {"type": "MultiPolygon", "coordinates": [[[[71.98475848, 34.29504232], [71.98471977, 34.29504326], [71.98472086, 34.295074], [71.98475957, 34.29507306], [71.98475848, 34.29504232]]]]}, "properties": {"id": "8J6H7XWM+2VH8", "height": 3.095409870147705, "hmax": 0.001, "ratio": 0.0, "vulnClass": "none"}}, {"type": "Feature", "geometry": {"type": "MultiPolygon", "coordinates": [[[[71.98618717, 34.29531598], [71.98615828, 34.29526466], [71.98606789, 34.29529971], [71.98613214, 34.29541385], [71.98626557, 34.29536211], [71.98623021, 34.29529929], [71.98618717, 34.29531598]]]]}, "properties": {"id": "8J6H7XWP+4FMC", "height": 4.220081329345703, "hmax": 0.004, "ratio": 0.001, "vulnClass": "none"}}, {"type": "Feature", "geometry": {"type": "MultiPolygon", "coordinates": [[[[71.98693464, 34.29578949], [71.9868801, 34.29540746], [71.98675634, 34.29541963], [71.98680416, 34.29575459], [71.98675745, 34.29575919], [71.98676417, 34.29580626], [71.98693464, 34.29578949]]]]}, "properties": {"id": "8J6H7XWP+6PWH", "height": 3.292632102966309, "hmax": 0.007, "ratio": 0.002, "vulnClass": "none"}}, {"type": "Feature", "geometry": {"type": "MultiPolygon", "coordinates": [[[[71.98672622, 34.29564412], [71.98669284, 34.29557769], [71.9865416, 34.29563003], [71.98657498, 34.29569646], [71.98672622, 34.29564412]]]]}, "properties": {"id": "8J6H7XWP+7M2F", "height": 2.767027854919434, "hmax": 0.007, "ratio": 0.003, "vulnClass": "none"}}, {"type": "Feature", "geometry": {"type": "MultiPolygon", "coordinates": [[[[71.986715, 34.29565792], [71.98667899, 34.29565696], [71.98667639, 34.29572402], [71.9867124, 34.29572498], [71.986715, 34.29565792]]]]}, "properties": {"id": "8J6H7XWP+7MGM", "height": 2.486666679382324, "hmax": 0.007, "ratio": 0.003, "vulnClass": "none"}}, {"type": "Feature", "geometry": {"type": "MultiPolygon", "coordinates": [[[[71.98599202, 34.29482981], [71.98596039, 34.29483356], [71.98596964, 34.29488724], [71.98600127, 34.29488349], [71.98599202, 34.29482981]]]]}, "properties": {"id": "8J6H7XVP+W9X7", "height": 2.779159069061279, "hmax": 0.005, "ratio": 0.002, "vulnClass": "none"}}, {"type": "Feature", "geometry": {"type": "MultiPolygon", "coordinates": [[[[71.98562537, 34.29470582], [71.98565977, 34.294634], [71.98554215, 34.2945952], [71.98546045, 34.29476581], [71.98554026, 34.29479213], [71.98558756, 34.29469335], [71.98562537, 34.29470582]]]]}, "properties": {"id": "8J6H7XVP+V6FH", "height": 3.761617183685303, "hmax": 0.005, "ratio": 0.001, "vulnClass": "none"}}, {"type": "Feature", "geometry": {"type": "MultiPolygon", "coordinates": [[[[71.9848117, 34.29489879], [71.98474241, 34.29494809], [71.98487062, 34.29507222], [71.98493991, 34.29502292], [71.9848117, 34.29489879]]]]}, "properties": {"id": "8J6H7XVM+XWWH", "height": 2.923018217086792, "hmax": 0.001, "ratio": 0.0, "vulnClass": "none"}}, {"type": "Feature", "geometry": {"type": "MultiPolygon", "coordinates": [[[[71.98476061, 34.29488826], [71.98471378, 34.29483116], [71.98462714, 34.2948801], [71.98467397, 34.2949372], [71.98476061, 34.29488826]]]]}, "properties": {"id": "8J6H7XVM+XV46", "height": 2.96355676651001, "hmax": 0.001, "ratio": 0.0, "vulnClass": "none"}}, {"type": "Feature", "geometry": {"type": "MultiPolygon", "coordinates": [[[[71.98459945, 34.29494594], [71.98455675, 34.29491409], [71.98451872, 34.29494921], [71.98456143, 34.29498106], [71.98459945, 34.29494594]]]]}, "properties": {"id": "8J6H7XVM+XRFX", "height": 2.594415664672852, "hmax": 0.001, "ratio": 0.0, "vulnClass": "none"}}, {"type": "Feature", "geometry": {"type": "MultiPolygon", "coordinates": [[[[71.98471857, 34.29481297], [71.98466265, 34.29476433], [71.98457168, 34.29483638], [71.98462761, 34.29488501], [71.98471857, 34.29481297]]]]}, "properties": {"id": "8J6H7XVM+WVCW", "height": 2.715586185455322, "hmax": 0.001, "ratio": 0.0, "vulnClass": "none"}}, {"type": "Feature", "geometry": {"type": "MultiPolygon", "coordinates": [[[[71.98500821, 34.29470006], [71.98505866, 34.29464393], [71.98503459, 34.29462903], [71.98498414, 34.29468516], [71.98500821, 34.29470006]]]]}, "properties": {"id": "8J6H7XVP+V26G", "height": 3.548815011978149, "hmax": 0.001, "ratio": 0.0, "vulnClass": "none"}}, {"type": "Feature", "geometry": {"type": "MultiPolygon", "coordinates": [[[[71.98604018, 34.29422848], [71.98596355, 34.29419989], [71.98591652, 34.29428669], [71.98599268, 34.29431537], [71.98604018, 34.29422848]]]]}, "properties": {"id": "8J6H7XVP+P957", "height": 3.288526058197021, "hmax": 0.003, "ratio": 0.001, "vulnClass": "none"}}, {"type": "Feature", "geometry": {"type": "MultiPolygon", "coordinates": [[[[71.98602129, 34.29409891], [71.98592261, 34.29406296], [71.98588554, 34.29413305], [71.98598422, 34.29416901], [71.98602129, 34.29409891]]]]}, "properties": {"id": "8J6H7XVP+J9WP", "height": 3.039572954177856, "hmax": 0.002, "ratio": 0.001, "vulnClass": "none"}}, {"type": "Feature", "geometry": {"type": "MultiPolygon", "coordinates": [[[[71.98595565, 34.29385178], [71.98587108, 34.29380467], [71.98583739, 34.29384633], [71.98592195, 34.29389344], [71.98595565, 34.29385178]]]]}, "properties": {"id": "8J6H7XVP+G9JW", "height": 2.900730133056641, "hmax": 0.002, "ratio": 0.001, "vulnClass": "none"}}, {"type": "Feature", "geometry": {"type": "MultiPolygon", "coordinates": [[[[71.97304544, 34.29295767], [71.97285202, 34.292956], [71.97285104, 34.29303418], [71.97304445, 34.29303586], [71.97304544, 34.29295767]]]]}, "properties": {"id": "8J6H7XVF+55WV", "height": 3.500313520431519, "hmax": 0.005, "ratio": 0.001, "vulnClass": "none"}}, {"type": "Feature", "geometry": {"type": "MultiPolygon", "coordinates": [[[[71.97331846, 34.29294258], [71.97326449, 34.29294097], [71.97326306, 34.29297393], [71.97331704, 34.29297553], [71.97331846, 34.29294258]]]]}, "properties": {"id": "8J6H7XVF+58M7", "height": 2.462587833404541, "hmax": 0.005, "ratio": 0.002, "vulnClass": "none"}}, {"type": "Feature", "geometry": {"type": "MultiPolygon", "coordinates": [[[[71.97593293, 34.29269364], [71.97584664, 34.29267837], [71.97580538, 34.29283897], [71.97589167, 34.29285424], [71.97593293, 34.29269364]]]]}, "properties": {"id": "8J6H7XVG+485Q", "height": 2.467530488967896, "hmax": 0.004, "ratio": 0.002, "vulnClass": "none"}}, {"type": "Feature", "geometry": {"type": "MultiPolygon", "coordinates": [[[[71.97821444, 34.2948437], [71.97817222, 34.29483469], [71.97816221, 34.294867], [71.97820442, 34.29487601], [71.97821444, 34.2948437]]]]}, "properties": {"id": "8J6H7XVH+W7W6", "height": 2.707960605621338, "hmax": 0.004, "ratio": 0.002, "vulnClass": "none"}}, {"type": "Feature", "geometry": {"type": "MultiPolygon", "coordinates": [[[[71.97878247, 34.29437705], [71.97886784, 34.29420529], [71.97876972, 34.29417169], [71.97868435, 34.29434346], [71.97878247, 34.29437705]]]]}, "properties": {"id": "8J6H7XVH+PG2X", "height": 4.605881214141846, "hmax": 0.003, "ratio": 0.001, "vulnClass": "none"}}, {"type": "Feature", "geometry": {"type": "MultiPolygon", "coordinates": [[[[71.97922072, 34.294037], [71.97914399, 34.29399518], [71.97911063, 34.29403735], [71.97918737, 34.29407916], [71.97922072, 34.294037]]]]}, "properties": {"id": "8J6H7XVH+JM7F", "height": 3.504168748855591, "hmax": 0.003, "ratio": 0.001, "vulnClass": "none"}}, {"type": "Feature", "geometry": {"type": "MultiPolygon", "coordinates": [[[[71.97944502, 34.29411174], [71.9794787, 34.29404575], [71.97943498, 34.29403038], [71.9794013, 34.29409637], [71.97944502, 34.29411174]]]]}, "properties": {"id": "8J6H7XVH+JQGR", "height": 4.22166109085083, "hmax": 0.003, "ratio": 0.001, "vulnClass": "none"}}, {"type": "Feature", "geometry": {"type": "MultiPolygon", "coordinates": [[[[71.97955063, 34.29445266], [71.9794286, 34.294404], [71.97936962, 34.29450589], [71.97949166, 34.29455455], [71.97955063, 34.29445266]]]]}, "properties": {"id": "8J6H7XVH+QQW4", "height": 2.880456924438477, "hmax": 0.003, "ratio": 0.001, "vulnClass": "none"}}, {"type": "Feature", "geometry": {"type": "MultiPolygon", "coordinates": [[[[71.97955404, 34.29464948], [71.97944878, 34.2945987], [71.97939801, 34.29467119], [71.97950327, 34.29472197], [71.97955404, 34.29464948]]]]}, "properties": {"id": "8J6H7XVH+VQ9C", "height": 3.413760423660278, "hmax": 0.003, "ratio": 0.001, "vulnClass": "none"}}, {"type": "Feature", "geometry": {"type": "MultiPolygon", "coordinates": [[[[71.97942497, 34.29463269], [71.97937414, 34.29460816], [71.97934718, 34.29464667], [71.97939801, 34.29467119], [71.97942497, 34.29463269]]]]}, "properties": {"id": "8J6H7XVH+VQ2F", "height": 2.805862665176392, "hmax": 0.003, "ratio": 0.001, "vulnClass": "none"}}, {"type": "Feature", "geometry": {"type": "MultiPolygon", "coordinates": [[[[71.97922126, 34.29470438], [71.97915191, 34.29467231], [71.97910629, 34.29474025], [71.97917565, 34.29477233], [71.97922126, 34.29470438]]]]}, "properties": {"id": "8J6H7XVH+VMMR", "height": 2.584720134735107, "hmax": 0.003, "ratio": 0.001, "vulnClass": "none"}}, {"type": "Feature", "geometry": {"type": "MultiPolygon", "coordinates": [[[[71.97932027, 34.29455677], [71.97928819, 34.29454591], [71.97926008, 34.2946031], [71.97929216, 34.29461396], [71.97932027, 34.29455677]]]]}, "properties": {"id": "8J6H7XVH+RPM3", "height": 2.491738796234131, "hmax": 0.003, "ratio": 0.001, "vulnClass": "none"}}, {"type": "Feature", "geometry": {"type": "MultiPolygon", "coordinates": [[[[71.97977269, 34.29452971], [71.97955556, 34.29444361], [71.97953176, 34.29448496], [71.97974889, 34.29457106], [71.97977269, 34.29452971]]]]}, "properties": {"id": "8J6H7XVH+RV29", "height": 3.073719501495361, "hmax": 0.002, "ratio": 0.001, "vulnClass": "none"}}, {"type": "Feature", "geometry": {"type": "MultiPolygon", "coordinates": [[[[71.9797407, 34.2945924], [71.9797085, 34.2946348], [71.979807, 34.2946865], [71.9798393, 34.2946442], [71.9797407, 34.2945924]]]]}, "properties": {"id": "8J6H7XVH+VW2H", "height": 3.168055534362793, "hmax": 0.001, "ratio": 0.0, "vulnClass": "none"}}, {"type": "Feature", "geometry": {"type": "MultiPolygon", "coordinates": [[[[71.98045935, 34.29450452], [71.98037242, 34.29445198], [71.98026077, 34.29457921], [71.98053863, 34.29474717], [71.98060189, 34.29467508], [71.98041096, 34.29455967], [71.98045935, 34.29450452]]]]}, "properties": {"id": "8J6H7XVJ+R5V4", "height": 4.639238834381104, "hmax": 0.001, "ratio": 0.0, "vulnClass": "none"}}, {"type": "Feature", "geometry": {"type": "MultiPolygon", "coordinates": [[[[71.97997957, 34.29401791], [71.97992484, 34.29401279], [71.97990981, 34.29412338], [71.98015195, 34.29414603], [71.98015977, 34.29408842], [71.98001219, 34.29407461], [71.98001582, 34.29404788], [71.979976, 34.29404415], [71.97997957, 34.29401791]]]]}, "properties": {"id": "8J6H7XVJ+J2JP", "height": 3.954639196395874, "hmax": 0.002, "ratio": 0.001, "vulnClass": "none"}}, {"type": "Feature", "geometry": {"type": "MultiPolygon", "coordinates": [[[[71.97945195, 34.29394189], [71.97940647, 34.29394917], [71.97942362, 34.29402289], [71.9794691, 34.2940156], [71.97945195, 34.29394189]]]]}, "properties": {"id": "8J6H7XVH+HQW6", "height": 2.552845478057861, "hmax": 0.003, "ratio": 0.001, "vulnClass": "none"}}, {"type": "Feature", "geometry": {"type": "MultiPolygon", "coordinates": [[[[71.97967447, 34.29400649], [71.97965695, 34.29380702], [71.97944602, 34.29381979], [71.97945294, 34.29389852], [71.97957252, 34.29389129], [71.97957647, 34.29393627], [71.97952018, 34.29393968], [71.97952683, 34.29401542], [71.97967447, 34.29400649]]]]}, "properties": {"id": "8J6H7XVH+HR84", "height": 2.894697427749634, "hmax": 0.003, "ratio": 0.001, "vulnClass": "none"}}, {"type": "Feature", "geometry": {"type": "MultiPolygon", "coordinates": [[[[71.9806861, 34.2950985], [71.980658, 34.2950777], [71.9805608, 34.2951681], [71.9806337, 34.2952221], [71.980664, 34.295194], [71.9806191, 34.2951608], [71.9806861, 34.2950985]]]]}, "properties": {"id": "8J6H7XWJ+3695", "height": 3.291090488433838, "hmax": 0.002, "ratio": 0.001, "vulnClass": "none"}}, {"type": "Feature", "geometry": {"type": "MultiPolygon", "coordinates": [[[[71.98087489, 34.29520138], [71.98080083, 34.29514896], [71.98072422, 34.29522352], [71.98067773, 34.29519061], [71.98061758, 34.29524914], [71.98073813, 34.29533446], [71.98087489, 34.29520138]]]]}, "properties": {"id": "8J6H7XWJ+37XQ", "height": 3.02708101272583, "hmax": 0.003, "ratio": 0.001, "vulnClass": "none"}}, {"type": "Feature", "geometry": {"type": "MultiPolygon", "coordinates": [[[[71.98086599, 34.29527148], [71.98082944, 34.29524561], [71.98077397, 34.29529959], [71.98081052, 34.29532546], [71.98086599, 34.29527148]]]]}, "properties": {"id": "8J6H7XWJ+488C", "height": 2.605947494506836, "hmax": 0.003, "ratio": 0.001, "vulnClass": "none"}}, {"type": "Feature", "geometry": {"type": "MultiPolygon", "coordinates": [[[[71.98060844, 34.29522532], [71.98054613, 34.29517852], [71.98051558, 34.29520654], [71.98057789, 34.29525334], [71.98060844, 34.29522532]]]]}, "properties": {"id": "8J6H7XWJ+36MQ", "height": 3.291090488433838, "hmax": 0.002, "ratio": 0.001, "vulnClass": "none"}}, {"type": "Feature", "geometry": {"type": "MultiPolygon", "coordinates": [[[[71.9805779, 34.2952533], [71.9805156, 34.2952065], [71.9804765, 34.2952423], [71.9805388, 34.2952891], [71.9805779, 34.2952533]]]]}, "properties": {"id": "8J6H7XWJ+36RX", "height": 2.467695713043213, "hmax": 0.002, "ratio": 0.001, "vulnClass": "none"}}, {"type": "Feature", "geometry": {"type": "MultiPolygon", "coordinates": [[[[71.98082164, 34.29539446], [71.98075082, 34.29532383], [71.98070939, 34.29535245], [71.98078021, 34.29542308], [71.98082164, 34.29539446]]]]}, "properties": {"id": "8J6H7XWJ+48RV", "height": 2.674079179763794, "hmax": 0.003, "ratio": 0.001, "vulnClass": "none"}}, {"type": "Feature", "geometry": {"type": "MultiPolygon", "coordinates": [[[[71.98069006, 34.29543697], [71.98065332, 34.29540089], [71.98057957, 34.29545261], [71.98061632, 34.2954887], [71.98069006, 34.29543697]]]]}, "properties": {"id": "8J6H7XWJ+57CM", "height": 3.720118284225464, "hmax": 0.002, "ratio": 0.001, "vulnClass": "none"}}, {"type": "Feature", "geometry": {"type": "MultiPolygon", "coordinates": [[[[71.9816078, 34.295768], [71.9815198, 34.2957111], [71.9814568, 34.2957783], [71.9815128, 34.2958145], [71.9814833, 34.2958459], [71.9815153, 34.2958666], [71.9816078, 34.295768]]]]}, "properties": {"id": "8J6H7XWJ+8J69", "height": 3.8263258934021, "hmax": 0.003, "ratio": 0.001, "vulnClass": "none"}}, {"type": "Feature", "geometry": {"type": "MultiPolygon", "coordinates": [[[[71.98437155, 34.29499789], [71.98433182, 34.29496826], [71.98429501, 34.29500225], [71.98433474, 34.29503188], [71.98437155, 34.29499789]]]]}, "properties": {"id": "8J6H7XWM+2P44", "height": 3.00273609161377, "hmax": 0.001, "ratio": 0.0, "vulnClass": "none"}}, {"type": "Feature", "geometry": {"type": "MultiPolygon", "coordinates": [[[[71.98436054, 34.29515136], [71.98426018, 34.29506895], [71.98423544, 34.2950897], [71.98427073, 34.29511868], [71.9841857, 34.29519], [71.98425077, 34.29524343], [71.98436054, 34.29515136]]]]}, "properties": {"id": "8J6H7XWM+3P6G", "height": 3.649054527282715, "hmax": 0.002, "ratio": 0.001, "vulnClass": "none"}}, {"type": "Feature", "geometry": {"type": "MultiPolygon", "coordinates": [[[[71.98263358, 34.29606675], [71.98256319, 34.29602309], [71.98250728, 34.29608517], [71.98257767, 34.29612884], [71.98263358, 34.29606675]]]]}, "properties": {"id": "8J6H7XWM+C2P3", "height": 3.669747829437256, "hmax": 0.004, "ratio": 0.001, "vulnClass": "none"}}, {"type": "Feature", "geometry": {"type": "MultiPolygon", "coordinates": [[[[71.98256128, 34.2964114], [71.98252289, 34.29637953], [71.98243934, 34.29644885], [71.98247773, 34.29648072], [71.98256128, 34.2964114]]]]}, "properties": {"id": "8J6H7XWM+H2C6", "height": 2.648423433303833, "hmax": 0.004, "ratio": 0.002, "vulnClass": "none"}}, {"type": "Feature", "geometry": {"type": "MultiPolygon", "coordinates": [[[[71.98321957, 34.29622758], [71.98316806, 34.29619604], [71.98307292, 34.29630308], [71.98322476, 34.29639603], [71.983269, 34.29634626], [71.98319375, 34.29630019], [71.98321541, 34.29627582], [71.98319034, 34.29626047], [71.98321957, 34.29622758]]]]}, "properties": {"id": "8J6H7XWM+G77V", "height": 2.655856609344482, "hmax": 0.002, "ratio": 0.001, "vulnClass": "none"}}, {"type": "Feature", "geometry": {"type": "MultiPolygon", "coordinates": [[[[71.98314136, 34.29634497], [71.98307292, 34.29630308], [71.98296511, 34.29642438], [71.98303354, 34.29646627], [71.98314136, 34.29634497]]]]}, "properties": {"id": "8J6H7XWM+H638", "height": 2.613943576812744, "hmax": 0.002, "ratio": 0.001, "vulnClass": "none"}}, {"type": "Feature", "geometry": {"type": "MultiPolygon", "coordinates": [[[[71.98336313, 34.29636625], [71.98329066, 34.29632189], [71.98322476, 34.29639603], [71.98329723, 34.2964404], [71.98336313, 34.29636625]]]]}, "properties": {"id": "8J6H7XWM+H837", "height": 3.090288877487183, "hmax": 0.002, "ratio": 0.001, "vulnClass": "none"}}, {"type": "Feature", "geometry": {"type": "MultiPolygon", "coordinates": [[[[71.98336313, 34.29636625], [71.98340452, 34.29631968], [71.98335834, 34.29629141], [71.98331695, 34.29633798], [71.98336313, 34.29636625]]]]}, "properties": {"id": "8J6H7XWM+G8Q4", "height": 3.497438192367554, "hmax": 0.002, "ratio": 0.001, "vulnClass": "none"}}, {"type": "Feature", "geometry": {"type": "MultiPolygon", "coordinates": [[[[71.98347777, 34.29635451], [71.98342166, 34.29633994], [71.98340966, 34.29637177], [71.98346576, 34.29638634], [71.98347777, 34.29635451]]]]}, "properties": {"id": "8J6H7XWM+G9WC", "height": 3.075697898864746, "hmax": 0.002, "ratio": 0.001, "vulnClass": "none"}}, {"type": "Feature", "geometry": {"type": "MultiPolygon", "coordinates": [[[[71.98350702, 34.29654055], [71.98358587, 34.29645184], [71.98354947, 34.29642956], [71.98347062, 34.29651827], [71.98350702, 34.29654055]]]]}, "properties": {"id": "8J6H7XWM+HCRH", "height": 3.255948543548584, "hmax": 0.002, "ratio": 0.001, "vulnClass": "none"}}, {"type": "Feature", "geometry": {"type": "MultiPolygon", "coordinates": [[[[71.98354767, 34.29640245], [71.98351203, 34.29641487], [71.98352533, 34.29644115], [71.98356097, 34.29642873], [71.98354767, 34.29640245]]]]}, "properties": {"id": "8J6H7XWM+HC7R", "height": 3.120611190795898, "hmax": 0.002, "ratio": 0.001, "vulnClass": "none"}}, {"type": "Feature", "geometry": {"type": "MultiPolygon", "coordinates": [[[[71.98327686, 34.29679874], [71.98318933, 34.29674914], [71.98306637, 34.29689859], [71.98315391, 34.2969482], [71.98327686, 34.29679874]]]]}, "properties": {"id": "8J6H7XWM+P7MV", "height": 2.767633438110352, "hmax": 0.002, "ratio": 0.001, "vulnClass": "none"}}, {"type": "Feature", "geometry": {"type": "MultiPolygon", "coordinates": [[[[71.98349799, 34.29675885], [71.98341237, 34.29670643], [71.98337828, 34.29674477], [71.98345164, 34.29678968], [71.98346533, 34.29677428], [71.9834776, 34.29678179], [71.98349799, 34.29675885]]]]}, "properties": {"id": "8J6H7XWM+M9VX", "height": 2.487565517425537, "hmax": 0.002, "ratio": 0.001, "vulnClass": "none"}}, {"type": "Feature", "geometry": {"type": "MultiPolygon", "coordinates": [[[[71.98303449, 34.29666264], [71.98288124, 34.29654974], [71.98284794, 34.29658087], [71.9830012, 34.29669377], [71.98303449, 34.29666264]]]]}, "properties": {"id": "8J6H7XWM+J5WR", "height": 2.463165521621704, "hmax": 0.002, "ratio": 0.001, "vulnClass": "none"}}, {"type": "Feature", "geometry": {"type": "MultiPolygon", "coordinates": [[[[71.98273396, 34.29662816], [71.98284909, 34.29653264], [71.98276932, 34.29646642], [71.98263008, 34.29658194], [71.98266662, 34.29661228], [71.98269073, 34.29659227], [71.98273396, 34.29662816]]]]}, "properties": {"id": "8J6H7XWM+J3H5", "height": 2.763685703277588, "hmax": 0.004, "ratio": 0.001, "vulnClass": "none"}}, {"type": "Feature", "geometry": {"type": "MultiPolygon", "coordinates": [[[[71.98261635, 34.29642421], [71.98258111, 34.29639495], [71.98249295, 34.2964681], [71.98252819, 34.29649735], [71.98261635, 34.29642421]]]]}, "properties": {"id": "8J6H7XWM+H2FW", "height": 2.648423433303833, "hmax": 0.004, "ratio": 0.002, "vulnClass": "none"}}, {"type": "Feature", "geometry": {"type": "MultiPolygon", "coordinates": [[[[71.9825533, 34.29664722], [71.98252994, 34.29661805], [71.98248579, 34.29664241], [71.98250915, 34.29667158], [71.9825533, 34.29664722]]]]}, "properties": {"id": "8J6H7XWM+M22P", "height": 2.656728506088257, "hmax": 0.004, "ratio": 0.002, "vulnClass": "none"}}, {"type": "Feature", "geometry": {"type": "MultiPolygon", "coordinates": [[[[71.98266866, 34.29668233], [71.98258889, 34.29661611], [71.98247443, 34.29671107], [71.98253552, 34.29676179], [71.98258032, 34.29672462], [71.982599, 34.29674013], [71.98266866, 34.29668233]]]]}, "properties": {"id": "8J6H7XWM+M2GM", "height": 3.944068193435669, "hmax": 0.004, "ratio": 0.001, "vulnClass": "none"}}, {"type": "Feature", "geometry": {"type": "MultiPolygon", "coordinates": [[[[71.98226036, 34.29669498], [71.9822263, 34.29666474], [71.9820888, 34.29677144], [71.98212286, 34.29680167], [71.98226036, 34.29669498]]]]}, "properties": {"id": "8J6H7XWJ+MVV8", "height": 4.011960983276367, "hmax": 0.004, "ratio": 0.001, "vulnClass": "none"}}, {"type": "Feature", "geometry": {"type": "MultiPolygon", "coordinates": [[[[71.98222931, 34.29666389], [71.98220075, 34.29662787], [71.98214922, 34.296656], [71.98217778, 34.29669202], [71.98222931, 34.29666389]]]]}, "properties": {"id": "8J6H7XWJ+MV86", "height": 4.011960983276367, "hmax": 0.004, "ratio": 0.001, "vulnClass": "none"}}, {"type": "Feature", "geometry": {"type": "MultiPolygon", "coordinates": [[[[71.98231864, 34.29661489], [71.98226934, 34.2965732], [71.98222144, 34.29661221], [71.9823001, 34.29667872], [71.98233459, 34.29665063], [71.98230523, 34.2966258], [71.98231864, 34.29661489]]]]}, "properties": {"id": "8J6H7XWJ+MW25", "height": 3.834275245666504, "hmax": 0.004, "ratio": 0.001, "vulnClass": "none"}}, {"type": "Feature", "geometry": {"type": "MultiPolygon", "coordinates": [[[[71.98238961, 34.2966749], [71.98231864, 34.29661489], [71.98230523, 34.2966258], [71.98233459, 34.29665063], [71.98228568, 34.29669046], [71.9823273, 34.29672565], [71.98238961, 34.2966749]]]]}, "properties": {"id": "8J6H7XWJ+MWG5", "height": 3.834275245666504, "hmax": 0.004, "ratio": 0.001, "vulnClass": "none"}}, {"type": "Feature", "geometry": {"type": "MultiPolygon", "coordinates": [[[[71.98245624, 34.29662161], [71.98240484, 34.29657894], [71.98236004, 34.29661611], [71.98241144, 34.29665878], [71.98245624, 34.29662161]]]]}, "properties": {"id": "8J6H7XWJ+JXVJ", "height": 3.205965757369995, "hmax": 0.004, "ratio": 0.001, "vulnClass": "none"}}, {"type": "Feature", "geometry": {"type": "MultiPolygon", "coordinates": [[[[71.98251521, 34.29667609], [71.98245286, 34.29662337], [71.9823273, 34.29672565], [71.98238965, 34.29677837], [71.98251521, 34.29667609]]]]}, "properties": {"id": "8J6H7XWJ+MXM3", "height": 3.190625429153442, "hmax": 0.004, "ratio": 0.001, "vulnClass": "none"}}, {"type": "Feature", "geometry": {"type": "MultiPolygon", "coordinates": [[[[71.98252735, 34.29659271], [71.98246766, 34.29654223], [71.98241212, 34.29658747], [71.98247182, 34.29663795], [71.98252735, 34.29659271]]]]}, "properties": {"id": "8J6H7XWJ+JXQJ", "height": 3.190625429153442, "hmax": 0.004, "ratio": 0.001, "vulnClass": "none"}}, {"type": "Feature", "geometry": {"type": "MultiPolygon", "coordinates": [[[[71.98216068, 34.29634948], [71.98210658, 34.29630231], [71.98197195, 34.29640866], [71.98202606, 34.29645584], [71.98216068, 34.29634948]]]]}, "properties": {"id": "8J6H7XWJ+HR42", "height": 2.466218948364258, "hmax": 0.004, "ratio": 0.002, "vulnClass": "none"}}, {"type": "Feature", "geometry": {"type": "MultiPolygon", "coordinates": [[[[71.9818512, 34.29644859], [71.98175087, 34.29634139], [71.98167957, 34.29638735], [71.9817799, 34.29649455], [71.9818512, 34.29644859]]]]}, "properties": {"id": "8J6H7XWJ+HP6M", "height": 2.836496353149414, "hmax": 0.002, "ratio": 0.001, "vulnClass": "none"}}, {"type": "Feature", "geometry": {"type": "MultiPolygon", "coordinates": [[[[71.98155697, 34.29634871], [71.98151598, 34.29630491], [71.98141803, 34.29636804], [71.98145903, 34.29641185], [71.98155697, 34.29634871]]]]}, "properties": {"id": "8J6H7XWJ+GHX8", "height": 2.581618785858154, "hmax": 0.002, "ratio": 0.001, "vulnClass": "none"}}, {"type": "Feature", "geometry": {"type": "MultiPolygon", "coordinates": [[[[71.98093878, 34.2961781], [71.98091839, 34.29615652], [71.98087677, 34.2961836], [71.98089716, 34.29620518], [71.98093878, 34.2961781]]]]}, "properties": {"id": "8J6H7XWJ+F9F6", "height": 2.760981559753418, "hmax": 0.002, "ratio": 0.001, "vulnClass": "none"}}, {"type": "Feature", "geometry": {"type": "MultiPolygon", "coordinates": [[[[71.98165438, 34.29673194], [71.98145772, 34.29664474], [71.98133885, 34.29682942], [71.98153551, 34.29691661], [71.98165438, 34.29673194]]]]}, "properties": {"id": "8J6H7XWJ+PH99", "height": 5.45588207244873, "hmax": 0.002, "ratio": 0.0, "vulnClass": "none"}}, {"type": "Feature", "geometry": {"type": "MultiPolygon", "coordinates": [[[[71.98143329, 34.29690508], [71.98140151, 34.2968728], [71.9813024, 34.29693999], [71.98133417, 34.29697228], [71.98143329, 34.29690508]]]]}, "properties": {"id": "8J6H7XWJ+QG9X", "height": 4.764676094055176, "hmax": 0.003, "ratio": 0.001, "vulnClass": "none"}}, {"type": "Feature", "geometry": {"type": "MultiPolygon", "coordinates": [[[[71.98105579, 34.29685501], [71.98099813, 34.29679557], [71.9809017, 34.29686001], [71.98099519, 34.29695638], [71.98106301, 34.29691105], [71.98102719, 34.29687413], [71.98105579, 34.29685501]]]]}, "properties": {"id": "8J6H7XWJ+Q954", "height": 2.887590169906616, "hmax": 0.002, "ratio": 0.001, "vulnClass": "none"}}, {"type": "Feature", "geometry": {"type": "MultiPolygon", "coordinates": [[[[71.98047286, 34.29642306], [71.9804296, 34.29636352], [71.98037442, 34.29639113], [71.98041768, 34.29645067], [71.98047286, 34.29642306]]]]}, "properties": {"id": "8J6H7XWJ+H578", "height": 3.368398427963257, "hmax": 0.003, "ratio": 0.001, "vulnClass": "none"}}, {"type": "Feature", "geometry": {"type": "MultiPolygon", "coordinates": [[[[71.97747515, 34.29652905], [71.97742662, 34.29652261], [71.97741897, 34.29656342], [71.97746754, 34.29656968], [71.97747515, 34.29652905]]]]}, "properties": {"id": "8J6H7XWG+JX8V", "height": 2.7179274559021, "hmax": 0.251, "ratio": 0.092, "vulnClass": "low"}}, {"type": "Feature", "geometry": {"type": "MultiPolygon", "coordinates": [[[[71.97754807, 34.29644055], [71.97750965, 34.29643247], [71.97749253, 34.2964886], [71.97753095, 34.29649667], [71.97754807, 34.29644055]]]]}, "properties": {"id": "8J6H7XWH+H2JG", "height": 4.552680015563965, "hmax": 0.004, "ratio": 0.001, "vulnClass": "none"}}, {"type": "Feature", "geometry": {"type": "MultiPolygon", "coordinates": [[[[71.97743458, 34.29641816], [71.97738728, 34.29641495], [71.97738081, 34.29648045], [71.97742811, 34.29648366], [71.97743458, 34.29641816]]]]}, "properties": {"id": "8J6H7XWG+HXFR", "height": 2.841908931732178, "hmax": 0.501, "ratio": 0.176, "vulnClass": "low"}}, {"type": "Feature", "geometry": {"type": "MultiPolygon", "coordinates": [[[[71.97714264, 34.29641612], [71.97708777, 34.2964112], [71.97707391, 34.2965177], [71.97712878, 34.29652262], [71.97714264, 34.29641612]]]]}, "properties": {"id": "8J6H7XWG+HRQM", "height": 2.978389501571655, "hmax": 0.501, "ratio": 0.168, "vulnClass": "low"}}, {"type": "Feature", "geometry": {"type": "MultiPolygon", "coordinates": [[[[71.97523744, 34.29442948], [71.97515415, 34.29442557], [71.97514934, 34.29449617], [71.97523263, 34.29450008], [71.97523744, 34.29442948]]]]}, "properties": {"id": "8J6H7XVG+Q3PC", "height": 3.080994606018066, "hmax": 0.003, "ratio": 0.001, "vulnClass": "none"}}, {"type": "Feature", "geometry": {"type": "MultiPolygon", "coordinates": [[[[71.97497495, 34.29408446], [71.9748626, 34.2939584], [71.9747894, 34.29400333], [71.97490176, 34.29412939], [71.97497495, 34.29408446]]]]}, "properties": {"id": "8J6H7XVF+JX6J", "height": 2.526703119277954, "hmax": 0.003, "ratio": 0.001, "vulnClass": "none"}}, {"type": "Feature", "geometry": {"type": "MultiPolygon", "coordinates": [[[[71.97576685, 34.29430497], [71.9757485, 34.2942793], [71.97563663, 34.29433436], [71.97565498, 34.29436003], [71.97576685, 34.29430497]]]]}, "properties": {"id": "8J6H7XVG+P7GM", "height": 2.801003932952881, "hmax": 0.886, "ratio": 0.316, "vulnClass": "moderate"}}, {"type": "Feature", "geometry": {"type": "MultiPolygon", "coordinates": [[[[71.97602126, 34.29452689], [71.97605409, 34.29444361], [71.97600488, 34.29443025], [71.97597205, 34.29451353], [71.97602126, 34.29452689]]]]}, "properties": {"id": "8J6H7XVG+QCR3", "height": 2.590267896652222, "hmax": 0.886, "ratio": 0.342, "vulnClass": "moderate"}}, {"type": "Feature", "geometry": {"type": "MultiPolygon", "coordinates": [[[[71.97604516, 34.29425325], [71.97593415, 34.29422185], [71.97591814, 34.29426084], [71.97602915, 34.29429224], [71.97604516, 34.29425325]]]]}, "properties": {"id": "8J6H7XVG+P957", "height": 3.156499147415161, "hmax": 0.886, "ratio": 0.281, "vulnClass": "low"}}, {"type": "Feature", "geometry": {"type": "MultiPolygon", "coordinates": [[[[71.97474671, 34.2939678], [71.97470361, 34.29391197], [71.97466506, 34.29393247], [71.97470816, 34.2939883], [71.97474671, 34.2939678]]]]}, "properties": {"id": "8J6H7XVF+HVP4", "height": 3.643418788909912, "hmax": 0.003, "ratio": 0.001, "vulnClass": "none"}}, {"type": "Feature", "geometry": {"type": "MultiPolygon", "coordinates": [[[[71.97320187, 34.29312913], [71.97316723, 34.29312857], [71.97316684, 34.29314512], [71.97314277, 34.29314473], [71.9731411, 34.29321579], [71.97308471, 34.29321487], [71.97308351, 34.29326581], [71.9732799, 34.29326899], [71.97328277, 34.293147], [71.97320148, 34.29314568], [71.97320187, 34.29312913]]]]}, "properties": {"id": "8J6H7XVF+77P7", "height": 2.842149257659912, "hmax": 0.004, "ratio": 0.001, "vulnClass": "none"}}, {"type": "Feature", "geometry": {"type": "MultiPolygon", "coordinates": [[[[71.97331704, 34.29297553], [71.97311258, 34.29296944], [71.97310835, 34.29306712], [71.97331281, 34.29307321], [71.97331704, 34.29297553]]]]}, "properties": {"id": "8J6H7XVF+674X", "height": 3.263498544692993, "hmax": 0.005, "ratio": 0.002, "vulnClass": "none"}}, {"type": "Feature", "geometry": {"type": "MultiPolygon", "coordinates": [[[[71.97308453, 34.2935513], [71.97305118, 34.29332425], [71.97300876, 34.29332854], [71.97303584, 34.29351296], [71.97298307, 34.2935183], [71.97298933, 34.29356093], [71.97308453, 34.2935513]]]]}, "properties": {"id": "8J6H7XVF+96M7", "height": 2.674422740936279, "hmax": 0.004, "ratio": 0.002, "vulnClass": "none"}}]}