{"type": "FeatureCollection", "features": [{"type": "Feature", "geometry": {"type": "MultiPolygon", "coordinates": [[[[72.09273394, 34.53782818], [72.09272882, 34.5377666], [72.09267543, 34.53776961], [72.09267013, 34.53770584], [72.09254198, 34.53771306], [72.09254527, 34.53775265], [72.09235305, 34.53776349], [72.09235591, 34.53779789], [72.09215569, 34.53780919], [72.09215995, 34.53786054], [72.09273394, 34.53782818]]]]}, "properties": {"id": "Pakistan_123102132_319142", "height": 2.595860958099365, "hmax": 0.006, "ratio": 0.002, "vulnClass": "none"}}, {"type": "Feature", "geometry": {"type": "MultiPolygon", "coordinates": [[[[72.0919056, 34.53376452], [72.09191675, 34.53381591], [72.09211335, 34.53378695], [72.09209709, 34.53371201], [72.09210841, 34.53371034], [72.09208796, 34.53361613], [72.09195449, 34.53363579], [72.09198004, 34.53375355], [72.0919056, 34.53376452]]]]}, "properties": {"id": "Pakistan_123102132_614222", "height": 2.669198036193848, "hmax": 0.013, "ratio": 0.005, "vulnClass": "none"}}, {"type": "Feature", "geometry": {"type": "MultiPolygon", "coordinates": [[[[72.09199098, 34.53398216], [72.0919548, 34.53389514], [72.09180596, 34.53393714], [72.09184214, 34.53402415], [72.09199098, 34.53398216]]]]}, "properties": {"id": "Pakistan_123102132_202187", "height": 3.215110778808594, "hmax": 0.003, "ratio": 0.001, "vulnClass": "none"}}, {"type": "Feature", "geometry": {"type": "MultiPolygon", "coordinates": [[[[72.09252, 34.53414669], [72.09255605, 34.53425657], [72.09250356, 34.53426826], [72.09247992, 34.53419619], [72.09239993, 34.534214], [72.09242898, 34.53430254], [72.09245241, 34.53429732], [72.09252313, 34.53451278], [72.09276558, 34.53445878], [72.09269868, 34.53425493], [72.09273524, 34.53424679], [72.09268997, 34.53410883], [72.09252, 34.53414669]]]]}, "properties": {"id": "Pakistan_123102132_485508", "height": 2.701509237289429, "hmax": 0.007, "ratio": 0.003, "vulnClass": "none"}}, {"type": "Feature", "geometry": {"type": "MultiPolygon", "coordinates": [[[[72.08705651, 34.53457097], [72.08708475, 34.5344892], [72.08692936, 34.53445279], [72.08690043, 34.5345366], [72.08696246, 34.53455114], [72.08695187, 34.5345818], [72.08697822, 34.53458797], [72.08696339, 34.5346309], [72.08714205, 34.53467277], [72.08716817, 34.53459714], [72.08705651, 34.53457097]]]]}, "properties": {"id": "Pakistan_123102132_152623", "height": 2.549225807189941, "hmax": 0.038, "ratio": 0.015, "vulnClass": "none"}}, {"type": "Feature", "geometry": {"type": "MultiPolygon", "coordinates": [[[[72.0903988, 34.53271264], [72.09042217, 34.53291185], [72.0905391, 34.53290254], [72.09052497, 34.53278214], [72.09059672, 34.53277643], [72.09058747, 34.53269762], [72.0903988, 34.53271264]]]]}, "properties": {"id": "Pakistan_123102132_528406", "height": 2.457926034927368, "hmax": 0.008, "ratio": 0.003, "vulnClass": "none"}}, {"type": "Feature", "geometry": {"type": "MultiPolygon", "coordinates": [[[[72.09177532, 34.53263873], [72.09166274, 34.53264105], [72.09166515, 34.53272054], [72.09177773, 34.53271823], [72.09177532, 34.53263873]]]]}, "properties": {"id": "Pakistan_123102132_254401", "height": 2.734811305999756, "hmax": 0.007, "ratio": 0.003, "vulnClass": "none"}}, {"type": "Feature", "geometry": {"type": "MultiPolygon", "coordinates": [[[[72.09186277, 34.53265824], [72.09187315, 34.53283378], [72.09189188, 34.53283303], [72.09189423, 34.53287271], [72.09202369, 34.53286752], [72.09202539, 34.53289618], [72.09211534, 34.53289257], [72.09211239, 34.53284267], [72.09228467, 34.53283576], [72.09227973, 34.53275199], [72.09218771, 34.53275568], [72.09218472, 34.53270498], [72.09208571, 34.53270895], [72.09208397, 34.5326795], [72.09200473, 34.53268267], [72.09200296, 34.53265262], [72.09186277, 34.53265824]]]]}, "properties": {"id": "Pakistan_123102132_451539", "height": 2.840227127075195, "hmax": 0.008, "ratio": 0.003, "vulnClass": "none"}}]}