{"type": "FeatureCollection", "features": [{"type": "Feature", "geometry": {"type": "MultiPolygon", "coordinates": [[[[72.21289326, 34.06722652], [72.21289654, 34.06705547], [72.21240582, 34.06704901], [72.2124042, 34.06713343], [72.21237739, 34.06713307], [72.21237573, 34.0672197], [72.21289326, 34.06722652]]]]}, "properties": {"id": "Pakistan_123102310_509087", "height": 2.557447910308838, "hmax": 0.004, "ratio": 0.002, "vulnClass": "none"}}, {"type": "Feature", "geometry": {"type": "MultiPolygon", "coordinates": [[[[72.2156682, 34.06509738], [72.21585833, 34.06514364], [72.21593592, 34.06492478], [72.21574579, 34.06487851], [72.2156682, 34.06509738]]]]}, "properties": {"id": "Pakistan_123102310_599053", "height": 6.0978684425354, "hmax": 0.008, "ratio": 0.001, "vulnClass": "none"}}, {"type": "Feature", "geometry": {"type": "MultiPolygon", "coordinates": [[[[72.21431186, 34.0629243], [72.21428698, 34.06300574], [72.21447704, 34.06304558], [72.21450191, 34.06296414], [72.21431186, 34.0629243]]]]}, "properties": {"id": "Pakistan_123102310_518646", "height": 2.746080875396729, "hmax": 0.002, "ratio": 0.001, "vulnClass": "none"}}]}