{"type": "FeatureCollection", "features": [{"type": "Feature", "geometry": {"type": "MultiPolygon", "coordinates": [[[[72.20414145, 34.07883653], [72.20413533, 34.07902967], [72.2043444, 34.07903422], [72.20434623, 34.0789765], [72.20423633, 34.07897411], [72.20423929, 34.07888087], [72.20435186, 34.07888331], [72.2043532, 34.07884113], [72.20414145, 34.07883653]]]]}, "properties": {"id": "Pakistan_123102310_214651", "height": 3.452829360961914, "hmax": 0.002, "ratio": 0.001, "vulnClass": "none"}}, {"type": "Feature", "geometry": {"type": "MultiPolygon", "coordinates": [[[[72.20390485, 34.07912502], [72.20389548, 34.0793736], [72.20393467, 34.07937461], [72.20394401, 34.07912603], [72.20390485, 34.07912502]]]]}, "properties": {"id": "Pakistan_123102310_194710", "height": 2.570519924163818, "hmax": 0.009, "ratio": 0.003, "vulnClass": "none"}}, {"type": "Feature", "geometry": {"type": "MultiPolygon", "coordinates": [[[[72.21029306, 34.08054363], [72.21025861, 34.08081836], [72.21030372, 34.08082224], [72.21030923, 34.08077828], [72.2104711, 34.0807922], [72.21048157, 34.08070869], [72.21037012, 34.0806991], [72.21038859, 34.08055184], [72.21029306, 34.08054363]]]]}, "properties": {"id": "Pakistan_123102310_52608", "height": 3.66359281539917, "hmax": 0.003, "ratio": 0.001, "vulnClass": "none"}}, {"type": "Feature", "geometry": {"type": "MultiPolygon", "coordinates": [[[[72.21053943, 34.0808263], [72.2105057, 34.08091669], [72.21056445, 34.08093174], [72.21059819, 34.08084135], [72.21053943, 34.0808263]]]]}, "properties": {"id": "Pakistan_123102310_774854", "height": 2.952354669570923, "hmax": 0.009, "ratio": 0.003, "vulnClass": "none"}}, {"type": "Feature", "geometry": {"type": "MultiPolygon", "coordinates": [[[[72.21065809, 34.08142584], [72.21062975, 34.08156307], [72.21067665, 34.08156971], [72.21069716, 34.08147043], [72.21082591, 34.08148867], [72.21083374, 34.08145071], [72.21065809, 34.08142584]]]]}, "properties": {"id": "Pakistan_123102310_252433", "height": 2.445862293243408, "hmax": 0.005, "ratio": 0.002, "vulnClass": "none"}}, {"type": "Feature", "geometry": {"type": "MultiPolygon", "coordinates": [[[[72.21008481, 34.0816422], [72.2100314, 34.08184352], [72.21011839, 34.08185935], [72.21017181, 34.08165803], [72.21008481, 34.0816422]]]]}, "properties": {"id": "Pakistan_123102310_788947", "height": 2.730698823928833, "hmax": 0.003, "ratio": 0.001, "vulnClass": "none"}}, {"type": "Feature", "geometry": {"type": "MultiPolygon", "coordinates": [[[[72.20538969, 34.08074584], [72.20538711, 34.08069484], [72.20532183, 34.0806971], [72.20532441, 34.08074811], [72.20538969, 34.08074584]]]]}, "properties": {"id": "Pakistan_123102310_241926", "height": 2.800990581512451, "hmax": 0.07, "ratio": 0.025, "vulnClass": "none"}}, {"type": "Feature", "geometry": {"type": "MultiPolygon", "coordinates": [[[[72.20534267, 34.08079416], [72.20533839, 34.08087843], [72.20538123, 34.08087992], [72.20538551, 34.08079565], [72.20534267, 34.08079416]]]]}, "properties": {"id": "Pakistan_123102310_101309", "height": 2.982900857925415, "hmax": 0.07, "ratio": 0.024, "vulnClass": "none"}}, {"type": "Feature", "geometry": {"type": "MultiPolygon", "coordinates": [[[[72.20461291, 34.08039375], [72.2046149, 34.08043367], [72.20472468, 34.08042991], [72.20472269, 34.08038999], [72.20461291, 34.08039375]]]]}, "properties": {"id": "Pakistan_123102310_788919", "height": 4.824543476104736, "hmax": 0.142, "ratio": 0.029, "vulnClass": "none"}}, {"type": "Feature", "geometry": {"type": "MultiPolygon", "coordinates": [[[[72.20474303, 34.08015045], [72.2047724, 34.08058005], [72.20496758, 34.0805709], [72.20496492, 34.08053199], [72.20481787, 34.08053888], [72.20479404, 34.08019027], [72.20489199, 34.08018567], [72.20488911, 34.0801436], [72.20474303, 34.08015045]]]]}, "properties": {"id": "Pakistan_123102310_324552", "height": 2.689083814620972, "hmax": 0.127, "ratio": 0.047, "vulnClass": "none"}}, {"type": "Feature", "geometry": {"type": "MultiPolygon", "coordinates": [[[[72.20456698, 34.08020941], [72.2045658, 34.08016278], [72.2045346, 34.08016332], [72.20454049, 34.08039426], [72.20465845, 34.0803922], [72.20465701, 34.0803354], [72.20462385, 34.08033598], [72.2046206, 34.08020847], [72.20456698, 34.08020941]]]]}, "properties": {"id": "Pakistan_123102310_883533", "height": 4.201250553131104, "hmax": 0.224, "ratio": 0.053, "vulnClass": "low"}}, {"type": "Feature", "geometry": {"type": "MultiPolygon", "coordinates": [[[[72.20448634, 34.08022362], [72.20448293, 34.08017268], [72.20436528, 34.08017807], [72.20436868, 34.08022901], [72.20448634, 34.08022362]]]]}, "properties": {"id": "Pakistan_123102310_698757", "height": 2.561141490936279, "hmax": 0.224, "ratio": 0.087, "vulnClass": "low"}}, {"type": "Feature", "geometry": {"type": "MultiPolygon", "coordinates": [[[[72.2043751, 34.08039404], [72.20436978, 34.08028406], [72.20431622, 34.08028584], [72.20432155, 34.08039582], [72.2043751, 34.08039404]]]]}, "properties": {"id": "Pakistan_123102310_343434", "height": 2.506601810455322, "hmax": 0.224, "ratio": 0.089, "vulnClass": "low"}}, {"type": "Feature", "geometry": {"type": "MultiPolygon", "coordinates": [[[[72.20719944, 34.08213592], [72.20702682, 34.08207255], [72.20698659, 34.08214772], [72.2071592, 34.08221109], [72.20719944, 34.08213592]]]]}, "properties": {"id": "Pakistan_123102310_110673", "height": 2.910346746444702, "hmax": 0.028, "ratio": 0.01, "vulnClass": "none"}}, {"type": "Feature", "geometry": {"type": "MultiPolygon", "coordinates": [[[[72.20723671, 34.08216222], [72.20720095, 34.08214795], [72.20716056, 34.08221739], [72.20729428, 34.08227074], [72.20739864, 34.08209133], [72.20730068, 34.08205223], [72.20723671, 34.08216222]]]]}, "properties": {"id": "Pakistan_123102310_466373", "height": 3.134033203125, "hmax": 0.402, "ratio": 0.128, "vulnClass": "low"}}, {"type": "Feature", "geometry": {"type": "MultiPolygon", "coordinates": [[[[72.21132797, 34.07728097], [72.21123726, 34.07732219], [72.21126486, 34.07736386], [72.21135557, 34.07732264], [72.21132797, 34.07728097]]]]}, "properties": {"id": "Pakistan_123102310_91795", "height": 2.908390998840332, "hmax": 0.002, "ratio": 0.001, "vulnClass": "none"}}, {"type": "Feature", "geometry": {"type": "MultiPolygon", "coordinates": [[[[72.21142564, 34.0771848], [72.21132838, 34.07719629], [72.2113385, 34.07725508], [72.21143576, 34.07724359], [72.21142564, 34.0771848]]]]}, "properties": {"id": "Pakistan_123102310_409577", "height": 2.507338047027588, "hmax": 0.002, "ratio": 0.001, "vulnClass": "none"}}, {"type": "Feature", "geometry": {"type": "MultiPolygon", "coordinates": [[[[72.21154865, 34.07703571], [72.2115373, 34.07699011], [72.21143953, 34.0770068], [72.21147263, 34.07713978], [72.21160499, 34.07711717], [72.21158325, 34.0770298], [72.21154865, 34.07703571]]]]}, "properties": {"id": "Pakistan_123102310_371857", "height": 2.828537464141846, "hmax": 0.002, "ratio": 0.001, "vulnClass": "none"}}, {"type": "Feature", "geometry": {"type": "MultiPolygon", "coordinates": [[[[72.21140855, 34.07709107], [72.21133697, 34.07710852], [72.21136531, 34.07718826], [72.21143689, 34.0771708], [72.21140855, 34.07709107]]]]}, "properties": {"id": "Pakistan_123102310_575445", "height": 2.872578859329224, "hmax": 0.002, "ratio": 0.001, "vulnClass": "none"}}, {"type": "Feature", "geometry": {"type": "MultiPolygon", "coordinates": [[[[72.21004514, 34.07437342], [72.21073964, 34.07458516], [72.21078709, 34.07447836], [72.21009257, 34.07426666], [72.21004514, 34.07437342]]]]}, "properties": {"id": "Pakistan_123102310_376497", "height": 6.666893005371094, "hmax": 0.004, "ratio": 0.001, "vulnClass": "none"}}, {"type": "Feature", "geometry": {"type": "MultiPolygon", "coordinates": [[[[72.21214357, 34.06818837], [72.21210477, 34.06820183], [72.21213761, 34.06826683], [72.21217641, 34.06825338], [72.21214357, 34.06818837]]]]}, "properties": {"id": "Pakistan_123102310_6551", "height": 5.125540256500244, "hmax": 0.002, "ratio": 0.0, "vulnClass": "none"}}, {"type": "Feature", "geometry": {"type": "MultiPolygon", "coordinates": [[[[72.2120853, 34.06813625], [72.21209821, 34.06818267], [72.21215312, 34.06817218], [72.2121402, 34.06812577], [72.2120853, 34.06813625]]]]}, "properties": {"id": "Pakistan_123102310_452129", "height": 5.387797832489014, "hmax": 0.002, "ratio": 0.0, "vulnClass": "none"}}, {"type": "Feature", "geometry": {"type": "MultiPolygon", "coordinates": [[[[72.21132849, 34.06784403], [72.2113319, 34.06791591], [72.21144438, 34.06791225], [72.21144097, 34.06784037], [72.21132849, 34.06784403]]]]}, "properties": {"id": "Pakistan_123102310_518633", "height": 2.63144588470459, "hmax": 0.001, "ratio": 0.0, "vulnClass": "none"}}, {"type": "Feature", "geometry": {"type": "MultiPolygon", "coordinates": [[[[72.21248416, 34.06836025], [72.21242309, 34.06837394], [72.21243662, 34.06841534], [72.21249768, 34.06840165], [72.21248416, 34.06836025]]]]}, "properties": {"id": "Pakistan_123102310_665627", "height": 2.685881376266479, "hmax": 0.002, "ratio": 0.001, "vulnClass": "none"}}]}