{"type": "FeatureCollection", "features": [{"type": "Feature", "geometry": {"type": "MultiPolygon", "coordinates": [[[[72.30838934, 34.09109732], [72.308863, 34.09111621], [72.30886789, 34.09103199], [72.30839424, 34.09101311], [72.30838934, 34.09109732]]]]}, "properties": {"id": "Pakistan_123102310_865127", "height": 3.850450992584229, "hmax": 0.005, "ratio": 0.001, "vulnClass": "none"}}, {"type": "Feature", "geometry": {"type": "MultiPolygon", "coordinates": [[[[72.30733389, 34.09047034], [72.30730612, 34.09055277], [72.30755745, 34.09061085], [72.30760467, 34.09047072], [72.30740161, 34.09042379], [72.30738217, 34.0904815], [72.30733389, 34.09047034]]]]}, "properties": {"id": "Pakistan_123102310_44384", "height": 2.728447437286377, "hmax": 0.005, "ratio": 0.002, "vulnClass": "none"}}, {"type": "Feature", "geometry": {"type": "MultiPolygon", "coordinates": [[[[72.30868743, 34.09123882], [72.30877584, 34.09124133], [72.30877801, 34.09118907], [72.30886374, 34.0911915], [72.30886552, 34.09114837], [72.30869138, 34.09114342], [72.30868743, 34.09123882]]]]}, "properties": {"id": "Pakistan_123102310_552073", "height": 3.258295774459839, "hmax": 0.006, "ratio": 0.002, "vulnClass": "none"}}, {"type": "Feature", "geometry": {"type": "MultiPolygon", "coordinates": [[[[72.30881806, 34.09150642], [72.30891728, 34.0915051], [72.30891668, 34.09147401], [72.30881746, 34.09147533], [72.30881806, 34.09150642]]]]}, "properties": {"id": "Pakistan_123102310_471708", "height": 2.606533050537109, "hmax": 0.008, "ratio": 0.003, "vulnClass": "none"}}, {"type": "Feature", "geometry": {"type": "MultiPolygon", "coordinates": [[[[72.30918671, 34.09163745], [72.30918526, 34.09166945], [72.30928018, 34.09167239], [72.30928483, 34.09156941], [72.30909349, 34.09156347], [72.30909028, 34.09163446], [72.30918671, 34.09163745]]]]}, "properties": {"id": "Pakistan_123102310_575979", "height": 2.553457260131836, "hmax": 0.008, "ratio": 0.003, "vulnClass": "none"}}, {"type": "Feature", "geometry": {"type": "MultiPolygon", "coordinates": [[[[72.30917214, 34.08971265], [72.30976099, 34.08977388], [72.3097716, 34.0897039], [72.30938608, 34.08966381], [72.30938309, 34.08968349], [72.30917977, 34.08966235], [72.30917214, 34.08971265]]]]}, "properties": {"id": "Pakistan_123102310_931374", "height": 3.532166957855225, "hmax": 0.003, "ratio": 0.001, "vulnClass": "none"}}, {"type": "Feature", "geometry": {"type": "MultiPolygon", "coordinates": [[[[72.30833939, 34.0938947], [72.30876437, 34.09390194], [72.30876668, 34.09380869], [72.30865272, 34.09380675], [72.30865181, 34.0938435], [72.3083931, 34.09383908], [72.30839454, 34.09378135], [72.30834224, 34.09378046], [72.30833939, 34.0938947]]]]}, "properties": {"id": "Pakistan_123102310_391172", "height": 4.282020568847656, "hmax": 0.007, "ratio": 0.002, "vulnClass": "none"}}, {"type": "Feature", "geometry": {"type": "MultiPolygon", "coordinates": [[[[72.30892678, 34.09396564], [72.30892877, 34.0939146], [72.3087546, 34.09390996], [72.3087496, 34.09403865], [72.30888089, 34.09404215], [72.30888391, 34.09396449], [72.30892678, 34.09396564]]]]}, "properties": {"id": "Pakistan_123102310_708853", "height": 2.766891717910767, "hmax": 0.011, "ratio": 0.004, "vulnClass": "none"}}, {"type": "Feature", "geometry": {"type": "MultiPolygon", "coordinates": [[[[72.31164152, 34.09517099], [72.3116379, 34.09527892], [72.31173974, 34.09528127], [72.31174336, 34.09517333], [72.31164152, 34.09517099]]]]}, "properties": {"id": "Pakistan_123102310_391185", "height": 2.848939895629883, "hmax": 0.021, "ratio": 0.007, "vulnClass": "none"}}, {"type": "Feature", "geometry": {"type": "MultiPolygon", "coordinates": [[[[72.31157541, 34.09563403], [72.3115705, 34.09574412], [72.31162407, 34.09574576], [72.31162898, 34.09563566], [72.31157541, 34.09563403]]]]}, "properties": {"id": "Pakistan_123102310_224316", "height": 3.360224008560181, "hmax": 0.027, "ratio": 0.008, "vulnClass": "none"}}, {"type": "Feature", "geometry": {"type": "MultiPolygon", "coordinates": [[[[72.30935007, 34.09574225], [72.3092671, 34.09573908], [72.30926307, 34.09581127], [72.30934604, 34.09581445], [72.30935007, 34.09574225]]]]}, "properties": {"id": "Pakistan_123102310_149691", "height": 4.170613288879395, "hmax": 0.018, "ratio": 0.004, "vulnClass": "none"}}, {"type": "Feature", "geometry": {"type": "MultiPolygon", "coordinates": [[[[72.3093724, 34.0959069], [72.30958504, 34.09591458], [72.30958714, 34.09587468], [72.3093745, 34.095867], [72.3093724, 34.0959069]]]]}, "properties": {"id": "Pakistan_123102310_841461", "height": 3.577757358551025, "hmax": 0.018, "ratio": 0.005, "vulnClass": "none"}}, {"type": "Feature", "geometry": {"type": "MultiPolygon", "coordinates": [[[[72.30934407, 34.09616005], [72.30935064, 34.09620185], [72.30943261, 34.09621141], [72.30944551, 34.09629349], [72.30953783, 34.09628354], [72.30954263, 34.09631412], [72.30960971, 34.09630688], [72.30961457, 34.09627834], [72.30967491, 34.09628538], [72.30966851, 34.09624466], [72.30964043, 34.09624138], [72.30956203, 34.09624983], [72.30955104, 34.09617994], [72.30954148, 34.09618097], [72.30935348, 34.09615904], [72.30934407, 34.09616005]]]]}, "properties": {"id": "Pakistan_123102310_35068", "height": 2.870949506759644, "hmax": 0.021, "ratio": 0.007, "vulnClass": "none"}}, {"type": "Feature", "geometry": {"type": "MultiPolygon", "coordinates": [[[[72.30915909, 34.09621062], [72.30917426, 34.09628719], [72.30924085, 34.09629786], [72.3092443, 34.09628309], [72.30923563, 34.09623928], [72.30922649, 34.09623781], [72.309236, 34.09619713], [72.30919376, 34.09619037], [72.30918626, 34.09619139], [72.30909726, 34.09617712], [72.30909078, 34.09614438], [72.30915085, 34.09613622], [72.30914255, 34.09609427], [72.30906189, 34.09608135], [72.30903883, 34.09618003], [72.3090286, 34.09612836], [72.30900192, 34.09612409], [72.30895935, 34.09612987], [72.30893818, 34.09622048], [72.30899115, 34.09622897], [72.30901911, 34.09622518], [72.30902525, 34.0961989], [72.30912623, 34.09621508], [72.30915909, 34.09621062]]]]}, "properties": {"id": "Pakistan_123102310_694642", "height": 2.663015604019165, "hmax": 0.019, "ratio": 0.007, "vulnClass": "none"}}, {"type": "Feature", "geometry": {"type": "MultiPolygon", "coordinates": [[[[72.30942876, 34.09634633], [72.30939365, 34.09626056], [72.30937454, 34.09625973], [72.30935047, 34.09620094], [72.30923959, 34.09619613], [72.30923765, 34.09622674], [72.30925391, 34.09626647], [72.30925018, 34.09632538], [72.30919011, 34.09634224], [72.30918819, 34.09637261], [72.30907349, 34.09640481], [72.3090724, 34.0964221], [72.30901088, 34.09641943], [72.30901589, 34.09634025], [72.30900476, 34.09631305], [72.30902877, 34.09630631], [72.30903272, 34.09624395], [72.30893375, 34.09623965], [72.30893046, 34.09629153], [72.30892814, 34.09628585], [72.30891576, 34.09648144], [72.30897589, 34.09646456], [72.3090748, 34.09646885], [72.30907658, 34.09644074], [72.30933524, 34.09636814], [72.30934895, 34.09636873], [72.30942876, 34.09634633]]]]}, "properties": {"id": "Pakistan_123102310_280924", "height": 2.603686809539795, "hmax": 0.039, "ratio": 0.015, "vulnClass": "none"}}, {"type": "Feature", "geometry": {"type": "MultiPolygon", "coordinates": [[[[72.31039652, 34.09640731], [72.31071305, 34.09660432], [72.31072545, 34.09659066], [72.31075553, 34.09636106], [72.31068505, 34.09635473], [72.31066375, 34.09651723], [72.31041345, 34.09636143], [72.31040267, 34.09636046], [72.31039652, 34.09640731]]]]}, "properties": {"id": "Pakistan_123102310_571123", "height": 4.183635711669922, "hmax": 0.014, "ratio": 0.003, "vulnClass": "none"}}, {"type": "Feature", "geometry": {"type": "MultiPolygon", "coordinates": [[[[72.31034861, 34.09606669], [72.31035014, 34.09609996], [72.3104037, 34.09609828], [72.31040218, 34.09606501], [72.31034861, 34.09606669]]]]}, "properties": {"id": "Pakistan_123102310_813135", "height": 2.702661514282227, "hmax": 0.017, "ratio": 0.006, "vulnClass": "none"}}, {"type": "Feature", "geometry": {"type": "MultiPolygon", "coordinates": [[[[72.30982646, 34.09573839], [72.30966225, 34.09573033], [72.3096595, 34.09576889], [72.3098237, 34.09577693], [72.30982646, 34.09573839]]]]}, "properties": {"id": "Pakistan_123102310_130511", "height": 2.708211660385132, "hmax": 0.017, "ratio": 0.006, "vulnClass": "none"}}, {"type": "Feature", "geometry": {"type": "MultiPolygon", "coordinates": [[[[72.31156707, 34.09575605], [72.31157769, 34.09579164], [72.31166111, 34.09577457], [72.31165049, 34.09573899], [72.31156707, 34.09575605]]]]}, "properties": {"id": "Pakistan_123102310_936130", "height": 2.6114501953125, "hmax": 0.027, "ratio": 0.01, "vulnClass": "none"}}, {"type": "Feature", "geometry": {"type": "MultiPolygon", "coordinates": [[[[72.31252486, 34.09575557], [72.31252119, 34.09583764], [72.31258395, 34.09583956], [72.31258914, 34.09572339], [72.31249807, 34.09572061], [72.31249655, 34.0957547], [72.31252486, 34.09575557]]]]}, "properties": {"id": "Pakistan_123102310_794227", "height": 2.577668190002441, "hmax": 0.017, "ratio": 0.007, "vulnClass": "none"}}, {"type": "Feature", "geometry": {"type": "MultiPolygon", "coordinates": [[[[72.3107473, 34.09623031], [72.31074428, 34.09631242], [72.31080591, 34.09631397], [72.31080893, 34.09623187], [72.3107473, 34.09623031]]]]}, "properties": {"id": "Pakistan_123102310_504783", "height": 3.472702503204346, "hmax": 0.026, "ratio": 0.007, "vulnClass": "none"}}, {"type": "Feature", "geometry": {"type": "MultiPolygon", "coordinates": [[[[72.31080861, 34.09636124], [72.31080622, 34.09632272], [72.31075807, 34.09632476], [72.31076045, 34.09636329], [72.31080861, 34.09636124]]]]}, "properties": {"id": "Pakistan_123102310_110742", "height": 3.984979152679443, "hmax": 0.016, "ratio": 0.004, "vulnClass": "none"}}, {"type": "Feature", "geometry": {"type": "MultiPolygon", "coordinates": [[[[72.31070708, 34.09687129], [72.31072817, 34.09690898], [72.31078779, 34.09688611], [72.31076671, 34.09684842], [72.31070708, 34.09687129]]]]}, "properties": {"id": "Pakistan_123102310_945518", "height": 2.659185409545898, "hmax": 0.016, "ratio": 0.006, "vulnClass": "none"}}, {"type": "Feature", "geometry": {"type": "MultiPolygon", "coordinates": [[[[72.31098387, 34.09705664], [72.31097586, 34.09700869], [72.31099428, 34.09700658], [72.31098881, 34.09697389], [72.31088354, 34.09698596], [72.31088318, 34.09698378], [72.31074369, 34.09699977], [72.31075171, 34.09704772], [72.31070697, 34.09705284], [72.3107128, 34.09708771], [72.31098387, 34.09705664]]]]}, "properties": {"id": "Pakistan_123102310_694653", "height": 3.430448532104492, "hmax": 0.016, "ratio": 0.005, "vulnClass": "none"}}, {"type": "Feature", "geometry": {"type": "MultiPolygon", "coordinates": [[[[72.31052726, 34.09731224], [72.3103843, 34.09731691], [72.31038746, 34.09738344], [72.31053042, 34.09737877], [72.31052726, 34.09731224]]]]}, "properties": {"id": "Pakistan_123102310_457352", "height": 2.609907627105713, "hmax": 0.16, "ratio": 0.061, "vulnClass": "low"}}, {"type": "Feature", "geometry": {"type": "MultiPolygon", "coordinates": [[[[72.30858345, 34.09675175], [72.30858175, 34.09679736], [72.30864338, 34.09679894], [72.30864508, 34.09675333], [72.30858345, 34.09675175]]]]}, "properties": {"id": "Pakistan_123102310_632667", "height": 2.684216499328613, "hmax": 0.045, "ratio": 0.017, "vulnClass": "none"}}, {"type": "Feature", "geometry": {"type": "MultiPolygon", "coordinates": [[[[72.30783351, 34.09672998], [72.30776291, 34.09660232], [72.30771545, 34.09662032], [72.30778607, 34.09674798], [72.30783351, 34.09672998]]]]}, "properties": {"id": "Pakistan_123102310_921900", "height": 2.805981159210205, "hmax": 0.129, "ratio": 0.046, "vulnClass": "none"}}, {"type": "Feature", "geometry": {"type": "MultiPolygon", "coordinates": [[[[72.30809835, 34.09627484], [72.308227, 34.09627196], [72.30822562, 34.09622979], [72.30815326, 34.09623141], [72.30815326, 34.09623141], [72.30809697, 34.09623267], [72.30809835, 34.09627484]]]]}, "properties": {"id": "Pakistan_123102310_419503", "height": 4.137990474700928, "hmax": 0.07, "ratio": 0.017, "vulnClass": "none"}}, {"type": "Feature", "geometry": {"type": "MultiPolygon", "coordinates": [[[[72.30812984, 34.09584246], [72.30813263, 34.09588555], [72.30831335, 34.09587754], [72.30831536, 34.09590855], [72.30825117, 34.09591139], [72.30825411, 34.0959569], [72.3082969, 34.095955], [72.30830169, 34.09602909], [72.30835251, 34.09602684], [72.30834743, 34.09594832], [72.30837953, 34.0959469], [72.30837523, 34.09588046], [72.30866255, 34.09586773], [72.30865912, 34.09581458], [72.30853342, 34.09582014], [72.3085337, 34.09582457], [72.30812984, 34.09584246]]]]}, "properties": {"id": "Pakistan_123102310_798932", "height": 3.014491319656372, "hmax": 0.01, "ratio": 0.003, "vulnClass": "none"}}, {"type": "Feature", "geometry": {"type": "MultiPolygon", "coordinates": [[[[72.30771484, 34.09613097], [72.30877192, 34.09608931], [72.30876797, 34.09602061], [72.30771089, 34.09606227], [72.30771484, 34.09613097]]]]}, "properties": {"id": "Pakistan_123102310_386469", "height": 3.014491319656372, "hmax": 0.011, "ratio": 0.004, "vulnClass": "none"}}, {"type": "Feature", "geometry": {"type": "MultiPolygon", "coordinates": [[[[72.30795394, 34.0961201], [72.30795504, 34.09615886], [72.30827941, 34.09615251], [72.3082783, 34.09611376], [72.30795394, 34.0961201]]]]}, "properties": {"id": "Pakistan_123102310_377087", "height": 2.827608346939087, "hmax": 0.009, "ratio": 0.003, "vulnClass": "none"}}, {"type": "Feature", "geometry": {"type": "MultiPolygon", "coordinates": [[[[72.30771882, 34.09614245], [72.30771348, 34.09598487], [72.30761432, 34.09598718], [72.30761966, 34.09614475], [72.30771882, 34.09614245]]]]}, "properties": {"id": "Pakistan_123102310_537889", "height": 2.798391819000244, "hmax": 0.009, "ratio": 0.003, "vulnClass": "none"}}]}