{"type": "FeatureCollection", "features": [{"type": "Feature", "geometry": {"type": "MultiPolygon", "coordinates": [[[[72.07603386, 34.12955194], [72.07594647, 34.12954058], [72.07593801, 34.12958557], [72.07602541, 34.12959693], [72.07603386, 34.12955194]]]]}, "properties": {"id": "8J6J43HG+R9HP", "height": 2.554757833480835, "hmax": 0.004, "ratio": 0.002, "vulnClass": "none"}}, {"type": "Feature", "geometry": {"type": "MultiPolygon", "coordinates": [[[[72.07612262, 34.12957002], [72.07603167, 34.12955834], [72.07601725, 34.12963598], [72.0761082, 34.12964766], [72.07612262, 34.12957002]]]]}, "properties": {"id": "8J6J43HG+RCW2", "height": 3.41269326210022, "hmax": 0.004, "ratio": 0.001, "vulnClass": "none"}}, {"type": "Feature", "geometry": {"type": "MultiPolygon", "coordinates": [[[[72.07585294, 34.12954493], [72.0758083, 34.12953913], [72.07579852, 34.12959123], [72.07584316, 34.12959703], [72.07585294, 34.12954493]]]]}, "properties": {"id": "8J6J43HG+R8GM", "height": 3.283957481384277, "hmax": 0.004, "ratio": 0.001, "vulnClass": "none"}}, {"type": "Feature", "geometry": {"type": "MultiPolygon", "coordinates": [[[[72.06285105, 34.13025564], [72.06284079, 34.13021546], [72.06280952, 34.13022099], [72.06281979, 34.13026117], [72.06285105, 34.13025564]]]]}, "properties": {"id": "8J6J43J7+34WG", "height": 2.448294401168823, "hmax": 0.006, "ratio": 0.003, "vulnClass": "none"}}, {"type": "Feature", "geometry": {"type": "MultiPolygon", "coordinates": [[[[72.06283174, 34.13034353], [72.06280852, 34.13023092], [72.06272716, 34.13024253], [72.06275038, 34.13035513], [72.06283174, 34.13034353]]]]}, "properties": {"id": "8J6J43J7+446Q", "height": 3.163673877716064, "hmax": 0.01, "ratio": 0.003, "vulnClass": "none"}}, {"type": "Feature", "geometry": {"type": "MultiPolygon", "coordinates": [[[[72.06447248, 34.1306324], [72.06443066, 34.13063841], [72.06445028, 34.13073277], [72.0644921, 34.13072676], [72.06447248, 34.1306324]]]]}, "properties": {"id": "8J6J43J7+7QG9", "height": 2.651116609573364, "hmax": 0.034, "ratio": 0.013, "vulnClass": "none"}}, {"type": "Feature", "geometry": {"type": "MultiPolygon", "coordinates": [[[[72.06444986, 34.13038278], [72.06443402, 34.13035267], [72.06433416, 34.130389], [72.06435001, 34.13041911], [72.06444986, 34.13038278]]]]}, "properties": {"id": "8J6J43J7+5Q2G", "height": 2.475983858108521, "hmax": 0.034, "ratio": 0.014, "vulnClass": "none"}}, {"type": "Feature", "geometry": {"type": "MultiPolygon", "coordinates": [[[[72.0644724, 34.1305926], [72.0644741, 34.1306895], [72.0646656, 34.1306871], [72.0646639, 34.1305903], [72.0644724, 34.1305926]]]]}, "properties": {"id": "8J6J43J7+7R4C", "height": 2.655901193618774, "hmax": 0.034, "ratio": 0.013, "vulnClass": "none"}}, {"type": "Feature", "geometry": {"type": "MultiPolygon", "coordinates": [[[[72.0646022, 34.130723], [72.06454758, 34.13072021], [72.06454261, 34.13078741], [72.06459722, 34.1307902], [72.0646022, 34.130723]]]]}, "properties": {"id": "8J6J43J7+8R47", "height": 2.492192506790161, "hmax": 0.034, "ratio": 0.014, "vulnClass": "none"}}, {"type": "Feature", "geometry": {"type": "MultiPolygon", "coordinates": [[[[72.0641847, 34.13097287], [72.06414219, 34.13098023], [72.06415869, 34.13104611], [72.06420119, 34.13103875], [72.0641847, 34.13097287]]]]}, "properties": {"id": "8J6J43J7+CM37", "height": 2.757394075393677, "hmax": 0.034, "ratio": 0.012, "vulnClass": "none"}}, {"type": "Feature", "geometry": {"type": "MultiPolygon", "coordinates": [[[[72.06336168, 34.1361134], [72.06332675, 34.13611216], [72.06331717, 34.13629839], [72.06335211, 34.13629963], [72.06335361, 34.13627041], [72.06342643, 34.136273], [72.06343267, 34.13615167], [72.06335985, 34.13614908], [72.06336168, 34.1361134]]]]}, "properties": {"id": "8J6J43P7+F8Q9", "height": 3.865944385528564, "hmax": 0.007, "ratio": 0.002, "vulnClass": "none"}}, {"type": "Feature", "geometry": {"type": "MultiPolygon", "coordinates": [[[[72.0633221, 34.13620252], [72.06326354, 34.13620044], [72.06326011, 34.13626708], [72.06331867, 34.13626917], [72.0633221, 34.13620252]]]]}, "properties": {"id": "8J6J43P7+F8V7", "height": 3.439204692840576, "hmax": 0.007, "ratio": 0.002, "vulnClass": "none"}}, {"type": "Feature", "geometry": {"type": "MultiPolygon", "coordinates": [[[[72.06292665, 34.13610532], [72.0628471, 34.13610801], [72.06285495, 34.13626882], [72.06297287, 34.13626484], [72.0629665, 34.13613449], [72.06292814, 34.13613578], [72.06292665, 34.13610532]]]]}, "properties": {"id": "8J6J43P7+F5FJ", "height": 2.542657613754272, "hmax": 0.007, "ratio": 0.003, "vulnClass": "none"}}, {"type": "Feature", "geometry": {"type": "MultiPolygon", "coordinates": [[[[72.0627272, 34.1362952], [72.062738, 34.1364701], [72.0628691, 34.1364645], [72.0628583, 34.1362896], [72.0627272, 34.1362952]]]]}, "properties": {"id": "8J6J43P7+H434", "height": 2.517875909805298, "hmax": 0.007, "ratio": 0.003, "vulnClass": "none"}}, {"type": "Feature", "geometry": {"type": "MultiPolygon", "coordinates": [[[[72.06331664, 34.13630865], [72.06331867, 34.13626917], [72.06326011, 34.13626708], [72.06325808, 34.13630657], [72.06331664, 34.13630865]]]]}, "properties": {"id": "8J6J43P7+G87C", "height": 3.439204692840576, "hmax": 0.007, "ratio": 0.002, "vulnClass": "none"}}, {"type": "Feature", "geometry": {"type": "MultiPolygon", "coordinates": [[[[72.06331038, 34.13643044], [72.06331635, 34.1363143], [72.06325779, 34.13631221], [72.06325182, 34.13642836], [72.06331038, 34.13643044]]]]}, "properties": {"id": "8J6J43P7+G8VR", "height": 3.08552360534668, "hmax": 0.007, "ratio": 0.002, "vulnClass": "none"}}, {"type": "Feature", "geometry": {"type": "MultiPolygon", "coordinates": [[[[72.0635436, 34.1363064], [72.0633172, 34.1362984], [72.063309, 34.1364565], [72.0635355, 34.1364645], [72.0635436, 34.1363064]]]]}, "properties": {"id": "8J6J43P7+H938", "height": 3.770084857940674, "hmax": 0.005, "ratio": 0.001, "vulnClass": "none"}}, {"type": "Feature", "geometry": {"type": "MultiPolygon", "coordinates": [[[[72.06481328, 34.13580349], [72.06466345, 34.13579579], [72.06465367, 34.13592728], [72.0648035, 34.13593499], [72.06481328, 34.13580349]]]]}, "properties": {"id": "8J6J43P7+8VXM", "height": 3.196407318115234, "hmax": 0.01, "ratio": 0.003, "vulnClass": "none"}}, {"type": "Feature", "geometry": {"type": "MultiPolygon", "coordinates": [[[[72.0657014, 34.1363117], [72.0655562, 34.1363057], [72.0655479, 34.1364435], [72.0656931, 34.1364496], [72.0657014, 34.1363117]]]]}, "properties": {"id": "8J6J43P8+H655", "height": 3.629163265228271, "hmax": 0.047, "ratio": 0.013, "vulnClass": "none"}}, {"type": "Feature", "geometry": {"type": "MultiPolygon", "coordinates": [[[[72.06510344, 34.13552771], [72.06495019, 34.13552264], [72.06494672, 34.13559529], [72.06509997, 34.13560036], [72.06510344, 34.13552771]]]]}, "properties": {"id": "8J6J43P8+62CH", "height": 3.044579267501831, "hmax": 0.006, "ratio": 0.002, "vulnClass": "none"}}, {"type": "Feature", "geometry": {"type": "MultiPolygon", "coordinates": [[[[72.0649386, 34.1357391], [72.0651044, 34.1357393], [72.0651045, 34.1356704], [72.0649387, 34.1356702], [72.0649386, 34.1357391]]]]}, "properties": {"id": "8J6J43P8+72J4", "height": 2.69127368927002, "hmax": 0.006, "ratio": 0.002, "vulnClass": "none"}}, {"type": "Feature", "geometry": {"type": "MultiPolygon", "coordinates": [[[[72.06550716, 34.13509449], [72.0653997, 34.13508952], [72.06539412, 34.13517281], [72.06550159, 34.13517778], [72.06550716, 34.13509449]]]]}, "properties": {"id": "8J6J43P8+3547", "height": 2.709041118621826, "hmax": 0.006, "ratio": 0.002, "vulnClass": "none"}}, {"type": "Feature", "geometry": {"type": "MultiPolygon", "coordinates": [[[[72.0655173, 34.1348888], [72.0653797, 34.13488982], [72.06538147, 34.13505607], [72.06551907, 34.13505506], [72.0655173, 34.1348888]]]]}, "properties": {"id": "8J6J43M8+X5PV", "height": 3.017960548400879, "hmax": 0.006, "ratio": 0.002, "vulnClass": "none"}}, {"type": "Feature", "geometry": {"type": "MultiPolygon", "coordinates": [[[[72.06565361, 34.13518606], [72.0656594, 34.13508844], [72.06554534, 34.13508376], [72.06553955, 34.13518139], [72.06565361, 34.13518606]]]]}, "properties": {"id": "8J6J43P8+3656", "height": 2.824188947677612, "hmax": 0.009, "ratio": 0.003, "vulnClass": "none"}}, {"type": "Feature", "geometry": {"type": "MultiPolygon", "coordinates": [[[[72.06967242, 34.13423669], [72.06964531, 34.13423542], [72.06964322, 34.13426612], [72.06967034, 34.13426739], [72.06967242, 34.13423669]]]]}, "properties": {"id": "8J6J43M9+PV32", "height": 3.056960821151733, "hmax": 0.003, "ratio": 0.001, "vulnClass": "none"}}, {"type": "Feature", "geometry": {"type": "MultiPolygon", "coordinates": [[[[72.0696265, 34.1342175], [72.0694648, 34.1342408], [72.0694832, 34.1343292], [72.0696449, 34.1343059], [72.0696265, 34.1342175]]]]}, "properties": {"id": "8J6J43M9+PR3X", "height": 2.949388265609741, "hmax": 0.003, "ratio": 0.001, "vulnClass": "none"}}, {"type": "Feature", "geometry": {"type": "MultiPolygon", "coordinates": [[[[72.06947433, 34.1342547], [72.06931659, 34.13424104], [72.06930455, 34.1343371], [72.06946229, 34.13435077], [72.06947433, 34.1342547]]]]}, "properties": {"id": "8J6J43M9+PQ6V", "height": 2.949388265609741, "hmax": 0.003, "ratio": 0.001, "vulnClass": "none"}}, {"type": "Feature", "geometry": {"type": "MultiPolygon", "coordinates": [[[[72.06930883, 34.13430945], [72.06927549, 34.13429917], [72.06926325, 34.13432664], [72.06929659, 34.13433692], [72.06930883, 34.13430945]]]]}, "properties": {"id": "8J6J43M9+PPFJ", "height": 2.829039335250854, "hmax": 0.003, "ratio": 0.001, "vulnClass": "none"}}, {"type": "Feature", "geometry": {"type": "MultiPolygon", "coordinates": [[[[72.06866302, 34.13353644], [72.06863408, 34.13353522], [72.06863248, 34.13356141], [72.06866143, 34.13356263], [72.06866302, 34.13353644]]]]}, "properties": {"id": "8J6J43M9+CF6W", "height": 3.609462738037109, "hmax": 0.002, "ratio": 0.001, "vulnClass": "none"}}, {"type": "Feature", "geometry": {"type": "MultiPolygon", "coordinates": [[[[72.07228156, 34.13333248], [72.07210725, 34.1333219], [72.07209887, 34.13341736], [72.07227318, 34.13342794], [72.07228156, 34.13333248]]]]}, "properties": {"id": "8J6J43MC+8VWR", "height": 3.341912031173706, "hmax": 0.004, "ratio": 0.001, "vulnClass": "none"}}, {"type": "Feature", "geometry": {"type": "MultiPolygon", "coordinates": [[[[72.07255478, 34.13330423], [72.07245794, 34.13329175], [72.07243269, 34.1334272], [72.07267155, 34.13345799], [72.07268803, 34.13336959], [72.07254601, 34.13335128], [72.07255478, 34.13330423]]]]}, "properties": {"id": "8J6J43MF+9238", "height": 4.050193786621094, "hmax": 0.004, "ratio": 0.001, "vulnClass": "none"}}, {"type": "Feature", "geometry": {"type": "MultiPolygon", "coordinates": [[[[72.07676171, 34.13707286], [72.07637009, 34.1368115], [72.07629631, 34.13688795], [72.07668792, 34.1371493], [72.07676171, 34.13707286]]]]}, "properties": {"id": "8J6J43PG+QJR9", "height": 4.311505317687988, "hmax": 0.097, "ratio": 0.022, "vulnClass": "none"}}, {"type": "Feature", "geometry": {"type": "MultiPolygon", "coordinates": [[[[72.07683617, 34.13709184], [72.07680758, 34.1370724], [72.07672708, 34.13715426], [72.07677713, 34.13718829], [72.07687858, 34.13708512], [72.07685713, 34.13707053], [72.07683617, 34.13709184]]]]}, "properties": {"id": "8J6J43PG+VP34", "height": 2.581366539001465, "hmax": 0.012, "ratio": 0.005, "vulnClass": "none"}}, {"type": "Feature", "geometry": {"type": "MultiPolygon", "coordinates": [[[[72.07690519, 34.13688091], [72.07681281, 34.1368317], [72.0766721, 34.13701432], [72.07676448, 34.13706354], [72.07690519, 34.13688091]]]]}, "properties": {"id": "8J6J43PG+QPFR", "height": 3.683320045471191, "hmax": 0.019, "ratio": 0.005, "vulnClass": "none"}}, {"type": "Feature", "geometry": {"type": "MultiPolygon", "coordinates": [[[[72.07694979, 34.13677427], [72.07678556, 34.13673123], [72.07675093, 34.13682259], [72.07691516, 34.13686563], [72.07694979, 34.13677427]]]]}, "properties": {"id": "8J6J43PG+PP9R", "height": 2.654601335525513, "hmax": 0.029, "ratio": 0.011, "vulnClass": "none"}}, {"type": "Feature", "geometry": {"type": "MultiPolygon", "coordinates": [[[[72.07435602, 34.13914829], [72.07431354, 34.13913777], [72.07429894, 34.13917852], [72.07434142, 34.13918905], [72.07435602, 34.13914829]]]]}, "properties": {"id": "8J6J43QF+MP8F", "height": 3.234123468399048, "hmax": 0.01, "ratio": 0.003, "vulnClass": "none"}}, {"type": "Feature", "geometry": {"type": "MultiPolygon", "coordinates": [[[[72.07474998, 34.13950739], [72.07469194, 34.1394946], [72.07468097, 34.13952903], [72.074739, 34.13954182], [72.07474998, 34.13950739]]]]}, "properties": {"id": "8J6J43QF+RV4Q", "height": 2.575368165969849, "hmax": 0.01, "ratio": 0.004, "vulnClass": "none"}}, {"type": "Feature", "geometry": {"type": "MultiPolygon", "coordinates": [[[[72.07577741, 34.13971551], [72.07580247, 34.13954987], [72.07575141, 34.13954453], [72.07572636, 34.13971017], [72.07577741, 34.13971551]]]]}, "properties": {"id": "8J6J43QG+V827", "height": 2.463677883148193, "hmax": 0.024, "ratio": 0.01, "vulnClass": "none"}}, {"type": "Feature", "geometry": {"type": "MultiPolygon", "coordinates": [[[[72.07707933, 34.14042171], [72.07692759, 34.14042211], [72.07692785, 34.14049078], [72.07707959, 34.14049038], [72.07707933, 34.14042171]]]]}, "properties": {"id": "8J6J43RG+5RJ6", "height": 3.053863048553467, "hmax": 0.021, "ratio": 0.007, "vulnClass": "none"}}, {"type": "Feature", "geometry": {"type": "MultiPolygon", "coordinates": [[[[72.07700555, 34.14033961], [72.07695356, 34.14033712], [72.07694801, 34.14041714], [72.07700001, 34.14041963], [72.07700555, 34.14033961]]]]}, "properties": {"id": "8J6J43RG+5Q53", "height": 3.056288242340088, "hmax": 0.021, "ratio": 0.007, "vulnClass": "none"}}, {"type": "Feature", "geometry": {"type": "MultiPolygon", "coordinates": [[[[72.07737352, 34.14033019], [72.0771081, 34.14031959], [72.07710312, 34.14040588], [72.07727462, 34.14041272], [72.07727058, 34.14048276], [72.07736449, 34.14048651], [72.07737352, 34.14033019]]]]}, "properties": {"id": "8J6J43RG+5W2C", "height": 2.639524936676025, "hmax": 0.019, "ratio": 0.007, "vulnClass": "none"}}, {"type": "Feature", "geometry": {"type": "MultiPolygon", "coordinates": [[[[72.07506222, 34.13979751], [72.07496016, 34.13979457], [72.07495881, 34.13982709], [72.07506087, 34.13983002], [72.07506222, 34.13979751]]]]}, "properties": {"id": "8J6J43QG+W2CF", "height": 2.483476161956787, "hmax": 0.021, "ratio": 0.009, "vulnClass": "none"}}, {"type": "Feature", "geometry": {"type": "MultiPolygon", "coordinates": [[[[72.07414652, 34.14018817], [72.0740359, 34.14018553], [72.07403476, 34.14021856], [72.07414538, 34.1402212], [72.07414652, 34.14018817]]]]}, "properties": {"id": "8J6J43RF+3JP5", "height": 2.998509407043457, "hmax": 0.025, "ratio": 0.008, "vulnClass": "none"}}, {"type": "Feature", "geometry": {"type": "MultiPolygon", "coordinates": [[[[72.07390153, 34.13979909], [72.07367421, 34.13979794], [72.07367364, 34.13987504], [72.07390097, 34.13987619], [72.07390153, 34.13979909]]]]}, "properties": {"id": "8J6J43QF+WGMC", "height": 2.760118722915649, "hmax": 0.029, "ratio": 0.011, "vulnClass": "none"}}, {"type": "Feature", "geometry": {"type": "MultiPolygon", "coordinates": [[[[72.07422333, 34.13922186], [72.07415998, 34.139209], [72.07415088, 34.13924], [72.07421423, 34.13925286], [72.07422333, 34.13922186]]]]}, "properties": {"id": "8J6J43QF+MMV9", "height": 2.849887132644653, "hmax": 0.01, "ratio": 0.003, "vulnClass": "none"}}, {"type": "Feature", "geometry": {"type": "MultiPolygon", "coordinates": [[[[72.06968627, 34.1405573], [72.06968387, 34.14047305], [72.06964473, 34.14047382], [72.06964595, 34.14051638], [72.06956994, 34.14051788], [72.06957112, 34.14055957], [72.06968627, 34.1405573]]]]}, "properties": {"id": "8J6J43R9+6V63", "height": 2.676797389984131, "hmax": 0.236, "ratio": 0.088, "vulnClass": "low"}}, {"type": "Feature", "geometry": {"type": "MultiPolygon", "coordinates": [[[[72.06960257, 34.14017233], [72.06960195, 34.14014004], [72.06956388, 34.14014054], [72.0695645, 34.14017284], [72.06960257, 34.14017233]]]]}, "properties": {"id": "8J6J43R9+3R88", "height": 4.001399040222168, "hmax": 0.15, "ratio": 0.037, "vulnClass": "none"}}, {"type": "Feature", "geometry": {"type": "MultiPolygon", "coordinates": [[[[72.06964422, 34.14013948], [72.06960195, 34.14014004], [72.06960313, 34.14020125], [72.0696454, 34.14020068], [72.06964422, 34.14013948]]]]}, "properties": {"id": "8J6J43R9+3R9X", "height": 4.001399040222168, "hmax": 0.15, "ratio": 0.037, "vulnClass": "none"}}, {"type": "Feature", "geometry": {"type": "MultiPolygon", "coordinates": [[[[72.0698483, 34.13982645], [72.06984153, 34.13978796], [72.06977074, 34.13979657], [72.06977751, 34.13983506], [72.0698483, 34.13982645]]]]}, "properties": {"id": "8J6J43Q9+WWFH", "height": 3.192612648010254, "hmax": 0.015, "ratio": 0.005, "vulnClass": "none"}}, {"type": "Feature", "geometry": {"type": "MultiPolygon", "coordinates": [[[[72.06963475, 34.13998028], [72.06963399, 34.13990594], [72.06936052, 34.13990788], [72.06936128, 34.13998223], [72.06963475, 34.13998028]]]]}, "properties": {"id": "8J6J43Q9+XQHQ", "height": 3.63175368309021, "hmax": 0.15, "ratio": 0.041, "vulnClass": "none"}}, {"type": "Feature", "geometry": {"type": "MultiPolygon", "coordinates": [[[[72.06965001, 34.14005903], [72.06959588, 34.14005713], [72.06959323, 34.14010949], [72.06964736, 34.14011138], [72.06965001, 34.14005903]]]]}, "properties": {"id": "8J6J43R9+2RQ9", "height": 4.383886337280273, "hmax": 0.15, "ratio": 0.034, "vulnClass": "none"}}, {"type": "Feature", "geometry": {"type": "MultiPolygon", "coordinates": [[[[72.06972432, 34.14007297], [72.06966355, 34.14007363], [72.06966582, 34.14021835], [72.06992981, 34.14021548], [72.06992822, 34.14011404], [72.06972501, 34.14011625], [72.06972432, 34.14007297]]]]}, "properties": {"id": "8J6J43R9+3W76", "height": 3.75979471206665, "hmax": 0.071, "ratio": 0.019, "vulnClass": "none"}}, {"type": "Feature", "geometry": {"type": "MultiPolygon", "coordinates": [[[[72.0695619, 34.14006074], [72.06936704, 34.14006596], [72.06937377, 34.1402394], [72.06947026, 34.14023681], [72.06946623, 34.1401328], [72.06942608, 34.14013388], [72.06942548, 34.14011828], [72.06956398, 34.14011457], [72.0695619, 34.14006074]]]]}, "properties": {"id": "8J6J43R9+3Q4C", "height": 3.996580123901367, "hmax": 0.15, "ratio": 0.037, "vulnClass": "none"}}, {"type": "Feature", "geometry": {"type": "MultiPolygon", "coordinates": [[[[72.0684804, 34.14034171], [72.06845869, 34.14034052], [72.06845663, 34.14036653], [72.06847834, 34.14036772], [72.0684804, 34.14034171]]]]}, "properties": {"id": "8J6J43R9+49W5", "height": 3.460568904876709, "hmax": 0.08, "ratio": 0.023, "vulnClass": "none"}}, {"type": "Feature", "geometry": {"type": "MultiPolygon", "coordinates": [[[[72.06816879, 34.14034152], [72.06811171, 34.14034377], [72.06813052, 34.14067305], [72.06856067, 34.14065606], [72.06855847, 34.1406176], [72.06838413, 34.14062448], [72.06838129, 34.14057486], [72.06832491, 34.14057709], [72.06832774, 34.14062671], [72.0681854, 34.14063233], [72.06816879, 34.14034152]]]]}, "properties": {"id": "8J6J43R9+68CJ", "height": 4.175607681274414, "hmax": 0.08, "ratio": 0.019, "vulnClass": "none"}}, {"type": "Feature", "geometry": {"type": "MultiPolygon", "coordinates": [[[[72.06814236, 34.13958549], [72.06814063, 34.13954392], [72.06801901, 34.13954743], [72.06802075, 34.139589], [72.06814236, 34.13958549]]]]}, "properties": {"id": "8J6J43Q9+R6GP", "height": 3.259356021881104, "hmax": 0.077, "ratio": 0.024, "vulnClass": "none"}}, {"type": "Feature", "geometry": {"type": "MultiPolygon", "coordinates": [[[[72.06853019, 34.13911029], [72.06831979, 34.13909442], [72.06831557, 34.13913304], [72.06836403, 34.13913669], [72.06835936, 34.13917947], [72.06852131, 34.13919169], [72.06853019, 34.13911029]]]]}, "properties": {"id": "8J6J43Q9+M93Q", "height": 3.083767890930176, "hmax": 0.026, "ratio": 0.008, "vulnClass": "none"}}, {"type": "Feature", "geometry": {"type": "MultiPolygon", "coordinates": [[[[72.06842117, 34.13893051], [72.06836112, 34.1389269], [72.06835937, 34.13894704], [72.06841942, 34.13895065], [72.06842117, 34.13893051]]]]}, "properties": {"id": "8J6J43Q9+H9CF", "height": 3.125635862350464, "hmax": 0.026, "ratio": 0.008, "vulnClass": "none"}}, {"type": "Feature", "geometry": {"type": "MultiPolygon", "coordinates": [[[[72.06840377, 34.13880367], [72.06831598, 34.1387984], [72.06831304, 34.1388322], [72.06840083, 34.13883747], [72.06840377, 34.13880367]]]]}, "properties": {"id": "8J6J43Q9+G8HM", "height": 2.664487361907959, "hmax": 0.026, "ratio": 0.01, "vulnClass": "none"}}, {"type": "Feature", "geometry": {"type": "MultiPolygon", "coordinates": [[[[72.06850264, 34.13884359], [72.06846292, 34.1388412], [72.06845686, 34.13891091], [72.06849659, 34.1389133], [72.06850264, 34.13884359]]]]}, "properties": {"id": "8J6J43Q9+H953", "height": 3.349306106567383, "hmax": 0.026, "ratio": 0.008, "vulnClass": "none"}}, {"type": "Feature", "geometry": {"type": "MultiPolygon", "coordinates": [[[[72.06855765, 34.13890252], [72.06853022, 34.13890081], [72.06852592, 34.13894857], [72.06855335, 34.13895028], [72.06855765, 34.13890252]]]]}, "properties": {"id": "8J6J43Q9+HCF3", "height": 3.368417978286743, "hmax": 0.026, "ratio": 0.008, "vulnClass": "none"}}, {"type": "Feature", "geometry": {"type": "MultiPolygon", "coordinates": [[[[72.06859419, 34.13890542], [72.06855502, 34.13890297], [72.06854985, 34.13895998], [72.06858902, 34.13896244], [72.06859419, 34.13890542]]]]}, "properties": {"id": "8J6J43Q9+HCG7", "height": 3.368417978286743, "hmax": 0.026, "ratio": 0.008, "vulnClass": "none"}}, {"type": "Feature", "geometry": {"type": "MultiPolygon", "coordinates": [[[[72.06858735, 34.13884402], [72.06853561, 34.1388408], [72.06853022, 34.13890081], [72.06858195, 34.13890403], [72.06858735, 34.13884402]]]]}, "properties": {"id": "8J6J43Q9+GCVX", "height": 2.879543304443359, "hmax": 0.026, "ratio": 0.009, "vulnClass": "none"}}, {"type": "Feature", "geometry": {"type": "MultiPolygon", "coordinates": [[[[72.06873971, 34.13868717], [72.0686852, 34.13868341], [72.06866951, 34.13884054], [72.06883761, 34.13885215], [72.06883293, 34.138899], [72.0688968, 34.13890341], [72.06890398, 34.13883154], [72.06872652, 34.13881929], [72.06873971, 34.13868717]]]]}, "properties": {"id": "8J6J43Q9+GGC7", "height": 3.4720458984375, "hmax": 0.032, "ratio": 0.009, "vulnClass": "none"}}, {"type": "Feature", "geometry": {"type": "MultiPolygon", "coordinates": [[[[72.06864911, 34.13903762], [72.06860281, 34.13903872], [72.06860402, 34.13907396], [72.06865032, 34.13907286], [72.06864911, 34.13903762]]]]}, "properties": {"id": "8J6J43Q9+JFC6", "height": 3.11067533493042, "hmax": 0.026, "ratio": 0.008, "vulnClass": "none"}}, {"type": "Feature", "geometry": {"type": "MultiPolygon", "coordinates": [[[[72.06859923, 34.13903574], [72.06854954, 34.13903231], [72.06854597, 34.13906808], [72.06859566, 34.13907151], [72.06859923, 34.13903574]]]]}, "properties": {"id": "8J6J43Q9+JCG3", "height": 3.410341739654541, "hmax": 0.026, "ratio": 0.008, "vulnClass": "none"}}, {"type": "Feature", "geometry": {"type": "MultiPolygon", "coordinates": [[[[72.06847772, 34.13901535], [72.06847703, 34.1389652], [72.06842366, 34.1389657], [72.06842435, 34.13901585], [72.06847772, 34.13901535]]]]}, "properties": {"id": "8J6J43Q9+H9WM", "height": 2.886485576629639, "hmax": 0.026, "ratio": 0.009, "vulnClass": "none"}}, {"type": "Feature", "geometry": {"type": "MultiPolygon", "coordinates": [[[[72.0687168, 34.13912436], [72.06853019, 34.13911029], [72.06852131, 34.13919169], [72.06863949, 34.1392006], [72.06863683, 34.13922502], [72.06870525, 34.13923018], [72.0687168, 34.13912436]]]]}, "properties": {"id": "8J6J43Q9+MC9H", "height": 3.083767890930176, "hmax": 0.026, "ratio": 0.008, "vulnClass": "none"}}, {"type": "Feature", "geometry": {"type": "MultiPolygon", "coordinates": [[[[72.06871111, 34.13924971], [72.06864893, 34.13925208], [72.06865093, 34.13928836], [72.06871311, 34.13928599], [72.06871111, 34.13924971]]]]}, "properties": {"id": "8J6J43Q9+PF3Q", "height": 2.438450336456299, "hmax": 0.027, "ratio": 0.011, "vulnClass": "none"}}, {"type": "Feature", "geometry": {"type": "MultiPolygon", "coordinates": [[[[72.06863321, 34.13945106], [72.06856534, 34.13945585], [72.0685685, 34.13948673], [72.06863636, 34.13948194], [72.06863321, 34.13945106]]]]}, "properties": {"id": "8J6J43Q9+QCQJ", "height": 3.147492647171021, "hmax": 0.077, "ratio": 0.025, "vulnClass": "none"}}, {"type": "Feature", "geometry": {"type": "MultiPolygon", "coordinates": [[[[72.06870817, 34.13948244], [72.0686606, 34.1394844], [72.06866308, 34.13952596], [72.06871064, 34.139524], [72.06870817, 34.13948244]]]]}, "properties": {"id": "8J6J43Q9+RF35", "height": 3.00202202796936, "hmax": 0.094, "ratio": 0.031, "vulnClass": "none"}}, {"type": "Feature", "geometry": {"type": "MultiPolygon", "coordinates": [[[[72.06907529, 34.13958034], [72.06903196, 34.13957931], [72.06903089, 34.13961032], [72.06907422, 34.13961136], [72.06907529, 34.13958034]]]]}, "properties": {"id": "8J6J43Q9+RJMW", "height": 2.722734451293945, "hmax": 0.15, "ratio": 0.055, "vulnClass": "low"}}, {"type": "Feature", "geometry": {"type": "MultiPolygon", "coordinates": [[[[72.06894333, 34.13933952], [72.06889252, 34.13933562], [72.06888671, 34.13938802], [72.06893752, 34.13939191], [72.06894333, 34.13933952]]]]}, "properties": {"id": "8J6J43Q9+PHVF", "height": 3.125170230865479, "hmax": 0.038, "ratio": 0.012, "vulnClass": "none"}}, {"type": "Feature", "geometry": {"type": "MultiPolygon", "coordinates": [[[[72.06873709, 34.1386566], [72.06867911, 34.13865225], [72.06867692, 34.1386724], [72.0687349, 34.13867675], [72.06873709, 34.1386566]]]]}, "properties": {"id": "8J6J43Q9+FF8G", "height": 3.640584468841553, "hmax": 0.028, "ratio": 0.008, "vulnClass": "none"}}, {"type": "Feature", "geometry": {"type": "MultiPolygon", "coordinates": [[[[72.06842838, 34.13854671], [72.06838602, 34.13854472], [72.06838266, 34.13859431], [72.06842502, 34.13859629], [72.06842838, 34.13854671]]]]}, "properties": {"id": "8J6J43Q9+C9CX", "height": 2.845979690551758, "hmax": 0.026, "ratio": 0.009, "vulnClass": "none"}}, {"type": "Feature", "geometry": {"type": "MultiPolygon", "coordinates": [[[[72.06861983, 34.13839631], [72.06857529, 34.13839321], [72.06856827, 34.13846294], [72.06861282, 34.13846604], [72.06861983, 34.13839631]]]]}, "properties": {"id": "8J6J43Q9+9CH2", "height": 3.156343460083008, "hmax": 0.007, "ratio": 0.002, "vulnClass": "none"}}, {"type": "Feature", "geometry": {"type": "MultiPolygon", "coordinates": [[[[72.0684771, 34.13805696], [72.06839147, 34.13805196], [72.0683883, 34.13808958], [72.06847392, 34.13809458], [72.0684771, 34.13805696]]]]}, "properties": {"id": "8J6J43Q9+69FX", "height": 3.105857372283936, "hmax": 0.007, "ratio": 0.002, "vulnClass": "none"}}, {"type": "Feature", "geometry": {"type": "MultiPolygon", "coordinates": [[[[72.06993915, 34.13802856], [72.06990861, 34.13801947], [72.06989504, 34.13805099], [72.06992558, 34.13806008], [72.06993915, 34.13802856]]]]}, "properties": {"id": "8J6J43Q9+6X7F", "height": 3.198763608932495, "hmax": 1.648, "ratio": 0.515, "vulnClass": "moderate"}}, {"type": "Feature", "geometry": {"type": "MultiPolygon", "coordinates": [[[[72.06830619, 34.13749751], [72.068252, 34.13749823], [72.06825276, 34.13753806], [72.06837219, 34.13753648], [72.06837094, 34.13747106], [72.0683057, 34.13747192], [72.06830619, 34.13749751]]]]}, "properties": {"id": "8J6J43Q9+2846", "height": 2.926115989685059, "hmax": 0.017, "ratio": 0.006, "vulnClass": "none"}}, {"type": "Feature", "geometry": {"type": "MultiPolygon", "coordinates": [[[[72.06793797, 34.13790701], [72.06791876, 34.13764091], [72.0678579, 34.13764395], [72.06786128, 34.13769077], [72.06783168, 34.13769225], [72.06784751, 34.13791153], [72.06793797, 34.13790701]]]]}, "properties": {"id": "8J6J43Q9+4567", "height": 2.707175254821777, "hmax": 0.007, "ratio": 0.003, "vulnClass": "none"}}, {"type": "Feature", "geometry": {"type": "MultiPolygon", "coordinates": [[[[72.06753974, 34.13768742], [72.06750019, 34.13769769], [72.06752068, 34.13775229], [72.06756024, 34.13774202], [72.06753974, 34.13768742]]]]}, "properties": {"id": "8J6J43Q9+32JQ", "height": 2.893866300582886, "hmax": 0.002, "ratio": 0.001, "vulnClass": "none"}}, {"type": "Feature", "geometry": {"type": "MultiPolygon", "coordinates": [[[[72.06847174, 34.13712925], [72.06835045, 34.13711782], [72.06834535, 34.13715525], [72.06846663, 34.13716668], [72.06847174, 34.13712925]]]]}, "properties": {"id": "8J6J43P9+V93J", "height": 3.429299116134644, "hmax": 0.017, "ratio": 0.005, "vulnClass": "none"}}, {"type": "Feature", "geometry": {"type": "MultiPolygon", "coordinates": [[[[72.06835379, 34.13713609], [72.06831863, 34.13712602], [72.06830431, 34.13716058], [72.06827324, 34.13715168], [72.06826078, 34.13718176], [72.06832701, 34.13720073], [72.06835379, 34.13713609]]]]}, "properties": {"id": "8J6J43P9+V87Q", "height": 3.429299116134644, "hmax": 0.017, "ratio": 0.005, "vulnClass": "none"}}, {"type": "Feature", "geometry": {"type": "MultiPolygon", "coordinates": [[[[72.06823961, 34.13705967], [72.06805044, 34.1370443], [72.06804081, 34.13712625], [72.06822998, 34.13714162], [72.06823961, 34.13705967]]]]}, "properties": {"id": "8J6J43P9+R7JM", "height": 2.857933282852173, "hmax": 0.017, "ratio": 0.006, "vulnClass": "none"}}, {"type": "Feature", "geometry": {"type": "MultiPolygon", "coordinates": [[[[72.06761651, 34.1378327], [72.06759211, 34.13776979], [72.06754133, 34.1377834], [72.06756573, 34.13784632], [72.06761651, 34.1378327]]]]}, "properties": {"id": "8J6J43Q9+42G8", "height": 3.613005399703979, "hmax": 0.002, "ratio": 0.001, "vulnClass": "none"}}, {"type": "Feature", "geometry": {"type": "MultiPolygon", "coordinates": [[[[72.0676615, 34.1377999], [72.0676638, 34.1378326], [72.0677765, 34.137827], [72.0677742, 34.1377943], [72.0676615, 34.1377999]]]]}, "properties": {"id": "8J6J43Q9+43HC", "height": 3.246890068054199, "hmax": 0.006, "ratio": 0.002, "vulnClass": "none"}}, {"type": "Feature", "geometry": {"type": "MultiPolygon", "coordinates": [[[[72.06814385, 34.1377857], [72.06806706, 34.13778865], [72.06807265, 34.13788921], [72.06814944, 34.13788626], [72.06814385, 34.1377857]]]]}, "properties": {"id": "8J6J43Q9+46QF", "height": 2.471908092498779, "hmax": 0.007, "ratio": 0.003, "vulnClass": "none"}}, {"type": "Feature", "geometry": {"type": "MultiPolygon", "coordinates": [[[[72.06802417, 34.13788173], [72.06797483, 34.13788447], [72.06797719, 34.13791381], [72.06802653, 34.13791107], [72.06802417, 34.13788173]]]]}, "properties": {"id": "8J6J43Q9+562R", "height": 3.375057220458984, "hmax": 0.007, "ratio": 0.002, "vulnClass": "none"}}, {"type": "Feature", "geometry": {"type": "MultiPolygon", "coordinates": [[[[72.06826019, 34.13849584], [72.06811331, 34.13849721], [72.06811383, 34.13853587], [72.06826071, 34.1385345], [72.06826019, 34.13849584]]]]}, "properties": {"id": "8J6J43Q9+C73Q", "height": 2.741202592849731, "hmax": 0.009, "ratio": 0.003, "vulnClass": "none"}}, {"type": "Feature", "geometry": {"type": "MultiPolygon", "coordinates": [[[[72.06833696, 34.1384492], [72.06826107, 34.13844945], [72.06826149, 34.13853542], [72.06833737, 34.13853516], [72.06833696, 34.1384492]]]]}, "properties": {"id": "8J6J43Q9+98VP", "height": 3.115725517272949, "hmax": 0.007, "ratio": 0.002, "vulnClass": "none"}}, {"type": "Feature", "geometry": {"type": "MultiPolygon", "coordinates": [[[[72.06839748, 34.138449], [72.06833696, 34.1384492], [72.06833709, 34.13847732], [72.06839762, 34.13847712], [72.06839748, 34.138449]]]]}, "properties": {"id": "8J6J43Q9+98QH", "height": 2.984294891357422, "hmax": 0.007, "ratio": 0.002, "vulnClass": "none"}}, {"type": "Feature", "geometry": {"type": "MultiPolygon", "coordinates": [[[[72.06333928, 34.1373456], [72.06315782, 34.13733891], [72.06314926, 34.13749934], [72.06333072, 34.13750604], [72.06333928, 34.1373456]]]]}, "properties": {"id": "8J6J43P7+X79X", "height": 3.378679752349854, "hmax": 0.06, "ratio": 0.018, "vulnClass": "none"}}, {"type": "Feature", "geometry": {"type": "MultiPolygon", "coordinates": [[[[72.063947, 34.14096908], [72.06390586, 34.14057162], [72.06381082, 34.14057842], [72.06384383, 34.14089745], [72.06374333, 34.14090464], [72.06374632, 34.14093351], [72.06371828, 34.14093552], [72.06372341, 34.14098508], [72.063947, 34.14096908]]]]}, "properties": {"id": "8J6J43R7+8GH8", "height": 3.281210660934448, "hmax": 0.008, "ratio": 0.002, "vulnClass": "none"}}, {"type": "Feature", "geometry": {"type": "MultiPolygon", "coordinates": [[[[72.064468, 34.1412727], [72.0643681, 34.141279], [72.0643884, 34.1415054], [72.0644884, 34.1414992], [72.064468, 34.1412727]]]]}, "properties": {"id": "8J6J43R7+HQ3G", "height": 2.941956996917725, "hmax": 0.005, "ratio": 0.002, "vulnClass": "none"}}, {"type": "Feature", "geometry": {"type": "MultiPolygon", "coordinates": [[[[72.06428045, 34.14138661], [72.06424273, 34.14138895], [72.06425127, 34.14148403], [72.06428899, 34.14148169], [72.06428045, 34.14138661]]]]}, "properties": {"id": "8J6J43R7+HPCG", "height": 2.986283779144287, "hmax": 0.009, "ratio": 0.003, "vulnClass": "none"}}, {"type": "Feature", "geometry": {"type": "MultiPolygon", "coordinates": [[[[72.06439169, 34.14154182], [72.06438575, 34.14147568], [72.06425127, 34.14148403], [72.06425721, 34.14155017], [72.06439169, 34.14154182]]]]}, "properties": {"id": "8J6J43R7+JP4F", "height": 2.702478885650635, "hmax": 0.006, "ratio": 0.002, "vulnClass": "none"}}, {"type": "Feature", "geometry": {"type": "MultiPolygon", "coordinates": [[[[72.06536169, 34.14249152], [72.06535897, 34.14241943], [72.06517361, 34.14242427], [72.06517633, 34.14249635], [72.06536169, 34.14249152]]]]}, "properties": {"id": "8J6J43R8+X4J8", "height": 2.815527200698853, "hmax": 0.005, "ratio": 0.002, "vulnClass": "none"}}, {"type": "Feature", "geometry": {"type": "MultiPolygon", "coordinates": [[[[72.06525453, 34.14252208], [72.06521579, 34.14252336], [72.06521926, 34.14259577], [72.065258, 34.14259449], [72.06525453, 34.14252208]]]]}, "properties": {"id": "8J6J43V8+23H8", "height": 2.531982660293579, "hmax": 0.004, "ratio": 0.002, "vulnClass": "none"}}, {"type": "Feature", "geometry": {"type": "MultiPolygon", "coordinates": [[[[72.06551067, 34.14252643], [72.06538161, 34.14251912], [72.06537057, 34.14265385], [72.06557169, 34.14266524], [72.06557829, 34.14258464], [72.06550624, 34.14258056], [72.06551067, 34.14252643]]]]}, "properties": {"id": "8J6J43V8+25PX", "height": 2.629830360412598, "hmax": 0.014, "ratio": 0.005, "vulnClass": "none"}}, {"type": "Feature", "geometry": {"type": "MultiPolygon", "coordinates": [[[[72.06823273, 34.14143809], [72.06818519, 34.1414396], [72.06819331, 34.14161641], [72.06824085, 34.1416149], [72.06823273, 34.14143809]]]]}, "properties": {"id": "8J6J43R9+J785", "height": 3.833253860473633, "hmax": 0.045, "ratio": 0.012, "vulnClass": "none"}}, {"type": "Feature", "geometry": {"type": "MultiPolygon", "coordinates": [[[[72.06839663, 34.1414685], [72.06839499, 34.14143294], [72.06823273, 34.14143809], [72.06823436, 34.14147364], [72.06839663, 34.1414685]]]]}, "properties": {"id": "8J6J43R9+H8P2", "height": 3.253899097442627, "hmax": 0.045, "ratio": 0.014, "vulnClass": "none"}}, {"type": "Feature", "geometry": {"type": "MultiPolygon", "coordinates": [[[[72.06851326, 34.14201875], [72.06845955, 34.14202031], [72.06847215, 34.14231994], [72.06852585, 34.14231838], [72.06851326, 34.14201875]]]]}, "properties": {"id": "8J6J43R9+V99Q", "height": 2.929218530654907, "hmax": 0.034, "ratio": 0.012, "vulnClass": "none"}}, {"type": "Feature", "geometry": {"type": "MultiPolygon", "coordinates": [[[[72.06979187, 34.14248913], [72.06969283, 34.1424919], [72.06970038, 34.1426783], [72.06993092, 34.14267185], [72.06992518, 34.1425298], [72.06979366, 34.14253348], [72.06979187, 34.14248913]]]]}, "properties": {"id": "8J6J43V9+2WMP", "height": 3.842223644256592, "hmax": 0.041, "ratio": 0.011, "vulnClass": "none"}}, {"type": "Feature", "geometry": {"type": "MultiPolygon", "coordinates": [[[[72.06982608, 34.14242755], [72.06978941, 34.14242857], [72.06979366, 34.14253348], [72.06983032, 34.14253245], [72.06982608, 34.14242755]]]]}, "properties": {"id": "8J6J43R9+XWV9", "height": 2.450641870498657, "hmax": 0.041, "ratio": 0.017, "vulnClass": "none"}}, {"type": "Feature", "geometry": {"type": "MultiPolygon", "coordinates": [[[[72.06944071, 34.14243833], [72.0694392, 34.1424008], [72.06933939, 34.14240359], [72.06934091, 34.14244112], [72.06944071, 34.14243833]]]]}, "properties": {"id": "8J6J43R9+XQ6V", "height": 4.787139415740967, "hmax": 0.034, "ratio": 0.007, "vulnClass": "none"}}, {"type": "Feature", "geometry": {"type": "MultiPolygon", "coordinates": [[[[72.06916627, 34.14241539], [72.0691254, 34.14241917], [72.069168, 34.14273811], [72.06925937, 34.14272967], [72.06921955, 34.14243155], [72.06916905, 34.14243622], [72.06916627, 34.14241539]]]]}, "properties": {"id": "8J6J43V9+2MP6", "height": 4.620189666748047, "hmax": 0.034, "ratio": 0.007, "vulnClass": "none"}}, {"type": "Feature", "geometry": {"type": "MultiPolygon", "coordinates": [[[[72.06905309, 34.142558], [72.06901404, 34.14231841], [72.06894768, 34.14232589], [72.06898673, 34.14256548], [72.06905309, 34.142558]]]]}, "properties": {"id": "8J6J43R9+XJCJ", "height": 2.900209665298462, "hmax": 0.034, "ratio": 0.012, "vulnClass": "none"}}, {"type": "Feature", "geometry": {"type": "MultiPolygon", "coordinates": [[[[72.06867187, 34.14228104], [72.06864048, 34.14228029], [72.06863913, 34.14231928], [72.06867053, 34.14232004], [72.06867187, 34.14228104]]]]}, "properties": {"id": "8J6J43R9+WFC5", "height": 3.384939193725586, "hmax": 0.034, "ratio": 0.01, "vulnClass": "none"}}, {"type": "Feature", "geometry": {"type": "MultiPolygon", "coordinates": [[[[72.06832784, 34.14198588], [72.06832404, 34.14189544], [72.06819939, 34.14189906], [72.06820319, 34.1419895], [72.06832784, 34.14198588]]]]}, "properties": {"id": "8J6J43R9+Q8CM", "height": 2.852774143218994, "hmax": 0.045, "ratio": 0.016, "vulnClass": "none"}}, {"type": "Feature", "geometry": {"type": "MultiPolygon", "coordinates": [[[[72.06527543, 34.14267071], [72.06526622, 34.14259693], [72.06521863, 34.14260104], [72.06522784, 34.14267482], [72.06527543, 34.14267071]]]]}, "properties": {"id": "8J6J43V8+335H", "height": 3.52816915512085, "hmax": 0.004, "ratio": 0.001, "vulnClass": "none"}}, {"type": "Feature", "geometry": {"type": "MultiPolygon", "coordinates": [[[[72.07191822, 34.14262665], [72.07192039, 34.14259646], [72.07179763, 34.14259035], [72.07178878, 34.14271308], [72.07185869, 34.14271657], [72.07186536, 34.14262402], [72.07191822, 34.14262665]]]]}, "properties": {"id": "8J6J43VC+3P4X", "height": 2.72318959236145, "hmax": 0.012, "ratio": 0.004, "vulnClass": "none"}}, {"type": "Feature", "geometry": {"type": "MultiPolygon", "coordinates": [[[[72.07428834, 34.14255925], [72.07400194, 34.14256119], [72.07400249, 34.14261657], [72.07428889, 34.14261463], [72.07428834, 34.14255925]]]]}, "properties": {"id": "8J6J43VF+2MJG", "height": 3.057466506958008, "hmax": 0.019, "ratio": 0.006, "vulnClass": "none"}}, {"type": "Feature", "geometry": {"type": "MultiPolygon", "coordinates": [[[[72.07399421, 34.14214461], [72.07394003, 34.14214147], [72.07392949, 34.14226719], [72.07398368, 34.14227033], [72.07399421, 34.14214461]]]]}, "properties": {"id": "8J6J43RF+VHP9", "height": 3.423090219497681, "hmax": 0.023, "ratio": 0.007, "vulnClass": "none"}}, {"type": "Feature", "geometry": {"type": "MultiPolygon", "coordinates": [[[[72.07393535, 34.14219729], [72.07377724, 34.14218813], [72.07377138, 34.14225803], [72.07392949, 34.14226719], [72.07393535, 34.14219729]]]]}, "properties": {"id": "8J6J43RF+VGX3", "height": 3.986522197723389, "hmax": 0.023, "ratio": 0.006, "vulnClass": "none"}}, {"type": "Feature", "geometry": {"type": "MultiPolygon", "coordinates": [[[[72.07431924, 34.1419895], [72.07431381, 34.14185324], [72.07415787, 34.14185754], [72.07416004, 34.14191197], [72.07402769, 34.14191562], [72.07403095, 34.14199744], [72.07431924, 34.1419895]]]]}, "properties": {"id": "8J6J43RF+QMG6", "height": 2.599129199981689, "hmax": 0.027, "ratio": 0.01, "vulnClass": "none"}}, {"type": "Feature", "geometry": {"type": "MultiPolygon", "coordinates": [[[[72.0727469, 34.14182412], [72.07260154, 34.14181243], [72.07259603, 34.14185978], [72.07274139, 34.14187147], [72.0727469, 34.14182412]]]]}, "properties": {"id": "8J6J43RF+P3MM", "height": 3.775490283966064, "hmax": 0.022, "ratio": 0.006, "vulnClass": "none"}}, {"type": "Feature", "geometry": {"type": "MultiPolygon", "coordinates": [[[[72.07276218, 34.14169275], [72.07261682, 34.14168106], [72.07260154, 34.14181243], [72.0727469, 34.14182412], [72.07276218, 34.14169275]]]]}, "properties": {"id": "8J6J43RF+P335", "height": 3.149201154708862, "hmax": 0.022, "ratio": 0.007, "vulnClass": "none"}}, {"type": "Feature", "geometry": {"type": "MultiPolygon", "coordinates": [[[[72.07238699, 34.14227024], [72.07228083, 34.14226254], [72.07227727, 34.1422965], [72.07234907, 34.14230171], [72.07233952, 34.14239272], [72.07237388, 34.14239521], [72.07238699, 34.14227024]]]]}, "properties": {"id": "8J6J43RC+WWHC", "height": 2.45405101776123, "hmax": 0.007, "ratio": 0.003, "vulnClass": "none"}}, {"type": "Feature", "geometry": {"type": "MultiPolygon", "coordinates": [[[[72.07231338, 34.14251515], [72.07224982, 34.14251135], [72.07223552, 34.14267655], [72.07229908, 34.14268036], [72.07231338, 34.14251515]]]]}, "properties": {"id": "8J6J43VC+2WJX", "height": 2.60947322845459, "hmax": 0.007, "ratio": 0.003, "vulnClass": "none"}}, {"type": "Feature", "geometry": {"type": "MultiPolygon", "coordinates": [[[[72.07224828, 34.14255132], [72.07209786, 34.14254366], [72.07209099, 34.142637], [72.07224141, 34.14264466], [72.07224828, 34.14255132]]]]}, "properties": {"id": "8J6J43VC+2VMM", "height": 2.60947322845459, "hmax": 0.007, "ratio": 0.003, "vulnClass": "none"}}, {"type": "Feature", "geometry": {"type": "MultiPolygon", "coordinates": [[[[72.07186835, 34.14258251], [72.07188455, 34.14235779], [72.07181464, 34.14235431], [72.07179844, 34.14257903], [72.07186835, 34.14258251]]]]}, "properties": {"id": "8J6J43RC+XPPQ", "height": 2.763088226318359, "hmax": 0.012, "ratio": 0.004, "vulnClass": "none"}}, {"type": "Feature", "geometry": {"type": "MultiPolygon", "coordinates": [[[[72.07211344, 34.14238785], [72.07205986, 34.14238518], [72.07205522, 34.14244954], [72.0721088, 34.14245221], [72.07211344, 34.14238785]]]]}, "properties": {"id": "8J6J43RC+XR8P", "height": 2.531396150588989, "hmax": 0.007, "ratio": 0.003, "vulnClass": "none"}}, {"type": "Feature", "geometry": {"type": "MultiPolygon", "coordinates": [[[[72.0731633, 34.1412504], [72.0731842, 34.1410527], [72.0731153, 34.1410477], [72.0731076, 34.1411204], [72.0730779, 34.1411182], [72.0730757, 34.1411385], [72.0729675, 34.1411306], [72.0729642, 34.1411616], [72.0729564, 34.1412353], [72.0731633, 34.1412504]]]]}, "properties": {"id": "8J6J43RF+F68P", "height": 2.724057674407959, "hmax": 0.037, "ratio": 0.014, "vulnClass": "none"}}, {"type": "Feature", "geometry": {"type": "MultiPolygon", "coordinates": [[[[72.07365149, 34.1413053], [72.07360222, 34.14130259], [72.07359698, 34.14136837], [72.07364625, 34.14137108], [72.07365149, 34.1413053]]]]}, "properties": {"id": "8J6J43RF+GCQH", "height": 3.286834716796875, "hmax": 0.036, "ratio": 0.011, "vulnClass": "none"}}, {"type": "Feature", "geometry": {"type": "MultiPolygon", "coordinates": [[[[72.0736622, 34.1414028], [72.07362901, 34.14140101], [72.07362576, 34.14144284], [72.07385772, 34.1414553], [72.07386329, 34.14138357], [72.07366452, 34.14137289], [72.0736622, 34.1414028]]]]}, "properties": {"id": "8J6J43RF+HG6C", "height": 3.385027408599854, "hmax": 0.023, "ratio": 0.007, "vulnClass": "none"}}, {"type": "Feature", "geometry": {"type": "MultiPolygon", "coordinates": [[[[72.07381351, 34.14125147], [72.07378021, 34.14124968], [72.07377093, 34.14136917], [72.07386402, 34.14137417], [72.07387145, 34.1412785], [72.07381166, 34.14127529], [72.07381351, 34.14125147]]]]}, "properties": {"id": "8J6J43RF+GGGJ", "height": 3.552398443222046, "hmax": 0.037, "ratio": 0.01, "vulnClass": "none"}}, {"type": "Feature", "geometry": {"type": "MultiPolygon", "coordinates": [[[[72.0749055, 34.1410419], [72.0747253, 34.1410341], [72.074721, 34.1411029], [72.0748328, 34.1411078], [72.0748345, 34.1410801], [72.0749029, 34.1410831], [72.0749055, 34.1410419]]]]}, "properties": {"id": "8J6J43RF+CWFP", "height": 2.732115030288696, "hmax": 0.022, "ratio": 0.008, "vulnClass": "none"}}, {"type": "Feature", "geometry": {"type": "MultiPolygon", "coordinates": [[[[72.07554879, 34.14066721], [72.07546197, 34.14066882], [72.07546392, 34.14074181], [72.07555074, 34.14074021], [72.07554879, 34.14066721]]]]}, "properties": {"id": "8J6J43RG+76J2", "height": 2.529420375823975, "hmax": 0.018, "ratio": 0.007, "vulnClass": "none"}}, {"type": "Feature", "geometry": {"type": "MultiPolygon", "coordinates": [[[[72.0746173, 34.14129226], [72.0745623, 34.14128935], [72.07455971, 34.14132325], [72.07461471, 34.14132616], [72.0746173, 34.14129226]]]]}, "properties": {"id": "8J6J43RF+GRG9", "height": 2.451052188873291, "hmax": 0.022, "ratio": 0.009, "vulnClass": "none"}}, {"type": "Feature", "geometry": {"type": "MultiPolygon", "coordinates": [[[[72.0744805, 34.14230047], [72.07442272, 34.14229795], [72.07442124, 34.14232149], [72.07447902, 34.142324], [72.0744805, 34.14230047]]]]}, "properties": {"id": "8J6J43RF+WQGF", "height": 2.916231632232666, "hmax": 0.02, "ratio": 0.007, "vulnClass": "none"}}, {"type": "Feature", "geometry": {"type": "MultiPolygon", "coordinates": [[[[72.07593351, 34.14235194], [72.07586951, 34.1423536], [72.07587366, 34.14246381], [72.07593766, 34.14246238], [72.07593351, 34.14235194]]]]}, "properties": {"id": "8J6J43RG+X969", "height": 2.531561136245728, "hmax": 0.015, "ratio": 0.006, "vulnClass": "none"}}, {"type": "Feature", "geometry": {"type": "MultiPolygon", "coordinates": [[[[72.07611372, 34.14236762], [72.0760577, 34.14236502], [72.07604764, 34.1425145], [72.07615141, 34.14251933], [72.07615986, 34.14239368], [72.07611212, 34.14239146], [72.07611372, 34.14236762]]]]}, "properties": {"id": "8J6J43RG+XCHV", "height": 3.465895652770996, "hmax": 0.015, "ratio": 0.004, "vulnClass": "none"}}, {"type": "Feature", "geometry": {"type": "MultiPolygon", "coordinates": [[[[72.07622206, 34.1421975], [72.07617321, 34.14219523], [72.07616147, 34.14236984], [72.0763397, 34.14237813], [72.07632964, 34.14252762], [72.07642667, 34.14253213], [72.07644705, 34.1422292], [72.07641095, 34.14222752], [72.07640273, 34.14234981], [72.07623933, 34.14234221], [72.07624199, 34.14230272], [72.07621506, 34.14230147], [72.07622206, 34.1421975]]]]}, "properties": {"id": "8J6J43RG+WGWV", "height": 4.002273559570312, "hmax": 0.014, "ratio": 0.003, "vulnClass": "none"}}, {"type": "Feature", "geometry": {"type": "MultiPolygon", "coordinates": [[[[72.07641123, 34.14204994], [72.07617148, 34.14203879], [72.07616962, 34.14206645], [72.07625761, 34.14207054], [72.07625663, 34.14208516], [72.07635909, 34.14208993], [72.0763564, 34.1421299], [72.07640569, 34.14213219], [72.07641123, 34.14204994]]]]}, "properties": {"id": "8J6J43RG+RGGR", "height": 2.444048881530762, "hmax": 0.019, "ratio": 0.008, "vulnClass": "none"}}, {"type": "Feature", "geometry": {"type": "MultiPolygon", "coordinates": [[[[72.07617148, 34.14203879], [72.07611078, 34.14203597], [72.07610892, 34.14206362], [72.07616962, 34.14206645], [72.07617148, 34.14203879]]]]}, "properties": {"id": "8J6J43RG+RFC3", "height": 3.551544904708862, "hmax": 0.018, "ratio": 0.005, "vulnClass": "none"}}, {"type": "Feature", "geometry": {"type": "MultiPolygon", "coordinates": [[[[72.07611292, 34.14205387], [72.07607857, 34.14205238], [72.07605916, 34.14236124], [72.07609351, 34.14236273], [72.07609219, 34.14238362], [72.07616409, 34.14238674], [72.07618357, 34.14207693], [72.07611167, 34.14207381], [72.07611292, 34.14205387]]]]}, "properties": {"id": "8J6J43RG+VCQX", "height": 4.638044834136963, "hmax": 0.017, "ratio": 0.004, "vulnClass": "none"}}, {"type": "Feature", "geometry": {"type": "MultiPolygon", "coordinates": [[[[72.0760896, 34.14181054], [72.07607849, 34.14203712], [72.07613904, 34.14203917], [72.07614753, 34.14186602], [72.07642278, 34.14187535], [72.0764254, 34.14182193], [72.0760896, 34.14181054]]]]}, "properties": {"id": "8J6J43RG+QF48", "height": 3.285904169082642, "hmax": 0.018, "ratio": 0.006, "vulnClass": "none"}}, {"type": "Feature", "geometry": {"type": "MultiPolygon", "coordinates": [[[[72.07719928, 34.141685], [72.07708706, 34.14167687], [72.07708092, 34.14173549], [72.07719314, 34.14174362], [72.07719928, 34.141685]]]]}, "properties": {"id": "8J6J43RG+MVJF", "height": 3.066324472427368, "hmax": 0.019, "ratio": 0.006, "vulnClass": "none"}}, {"type": "Feature", "geometry": {"type": "MultiPolygon", "coordinates": [[[[72.07708706, 34.14167687], [72.0770034, 34.14167082], [72.07699726, 34.14172944], [72.07708092, 34.14173549], [72.07708706, 34.14167687]]]]}, "properties": {"id": "8J6J43RG+MRM3", "height": 3.59714937210083, "hmax": 0.019, "ratio": 0.005, "vulnClass": "none"}}, {"type": "Feature", "geometry": {"type": "MultiPolygon", "coordinates": [[[[72.07709513, 34.14174788], [72.07700087, 34.14174062], [72.07696025, 34.14210551], [72.0770545, 34.14211276], [72.07709513, 34.14174788]]]]}, "properties": {"id": "8J6J43RG+QRC5", "height": 3.691179275512695, "hmax": 0.019, "ratio": 0.005, "vulnClass": "none"}}, {"type": "Feature", "geometry": {"type": "MultiPolygon", "coordinates": [[[[72.07697784, 34.14177633], [72.07688261, 34.14177039], [72.0768782, 34.14181922], [72.07697343, 34.14182516], [72.07697784, 34.14177633]]]]}, "properties": {"id": "8J6J43RG+PQ7W", "height": 3.134612321853638, "hmax": 0.019, "ratio": 0.006, "vulnClass": "none"}}, {"type": "Feature", "geometry": {"type": "MultiPolygon", "coordinates": [[[[72.07687703, 34.141907], [72.07682702, 34.14190315], [72.07680764, 34.14207716], [72.07685766, 34.14208101], [72.07687703, 34.141907]]]]}, "properties": {"id": "8J6J43RG+QPWQ", "height": 2.68326735496521, "hmax": 0.019, "ratio": 0.007, "vulnClass": "none"}}, {"type": "Feature", "geometry": {"type": "MultiPolygon", "coordinates": [[[[72.07623191, 34.14206427], [72.07617969, 34.14206176], [72.07617775, 34.14208959], [72.07622997, 34.1420921], [72.07623191, 34.14206427]]]]}, "properties": {"id": "8J6J43RG+RFP4", "height": 2.444048881530762, "hmax": 0.018, "ratio": 0.007, "vulnClass": "none"}}, {"type": "Feature", "geometry": {"type": "MultiPolygon", "coordinates": [[[[72.0769284, 34.14239153], [72.07677397, 34.14237964], [72.07676565, 34.14245433], [72.07692009, 34.14246621], [72.0769284, 34.14239153]]]]}, "properties": {"id": "8J6J43RG+XP9R", "height": 3.243701934814453, "hmax": 0.012, "ratio": 0.004, "vulnClass": "none"}}, {"type": "Feature", "geometry": {"type": "MultiPolygon", "coordinates": [[[[72.07681567, 34.14245818], [72.07676565, 34.14245433], [72.07675594, 34.14254153], [72.07680596, 34.14254538], [72.07681567, 34.14245818]]]]}, "properties": {"id": "8J6J43RG+XPVR", "height": 3.243701934814453, "hmax": 0.012, "ratio": 0.004, "vulnClass": "none"}}, {"type": "Feature", "geometry": {"type": "MultiPolygon", "coordinates": [[[[72.0768095, 34.1424752], [72.076805, 34.1425303], [72.0769208, 34.1425369], [72.0769252, 34.1424817], [72.0768095, 34.1424752]]]]}, "properties": {"id": "8J6J43VG+2P58", "height": 2.539002656936646, "hmax": 0.012, "ratio": 0.005, "vulnClass": "none"}}, {"type": "Feature", "geometry": {"type": "MultiPolygon", "coordinates": [[[[72.07707793, 34.14216881], [72.07695426, 34.14215929], [72.07694416, 34.14224999], [72.07706784, 34.14225951], [72.07707793, 34.14216881]]]]}, "properties": {"id": "8J6J43RG+VRJ7", "height": 2.723890781402588, "hmax": 0.019, "ratio": 0.007, "vulnClass": "none"}}, {"type": "Feature", "geometry": {"type": "MultiPolygon", "coordinates": [[[[72.07720538, 34.14217862], [72.07707793, 34.14216881], [72.07706574, 34.14227835], [72.07719318, 34.14228816], [72.07720538, 34.14217862]]]]}, "properties": {"id": "8J6J43RG+VVR3", "height": 2.665553092956543, "hmax": 0.019, "ratio": 0.007, "vulnClass": "none"}}, {"type": "Feature", "geometry": {"type": "MultiPolygon", "coordinates": [[[[72.07723487, 34.14217968], [72.07724132, 34.14209338], [72.07719329, 34.1420909], [72.07719014, 34.14213314], [72.07714675, 34.1421309], [72.07714346, 34.14217496], [72.07723487, 34.14217968]]]]}, "properties": {"id": "8J6J43RG+VV4M", "height": 3.231204032897949, "hmax": 0.019, "ratio": 0.006, "vulnClass": "none"}}, {"type": "Feature", "geometry": {"type": "MultiPolygon", "coordinates": [[[[72.07747573, 34.14218359], [72.07738681, 34.14217681], [72.07737925, 34.14224543], [72.07745757, 34.14225139], [72.07745998, 34.14222951], [72.07747059, 34.14223032], [72.07747573, 34.14218359]]]]}, "properties": {"id": "8J6J43RG+VXMG", "height": 3.879652976989746, "hmax": 0.005, "ratio": 0.001, "vulnClass": "none"}}, {"type": "Feature", "geometry": {"type": "MultiPolygon", "coordinates": [[[[72.07755862, 34.14229728], [72.07756306, 34.14225743], [72.0773795, 34.1422433], [72.07736199, 34.1424006], [72.07741206, 34.14240446], [72.07742513, 34.14228701], [72.07755862, 34.14229728]]]]}, "properties": {"id": "8J6J43RG+WXF5", "height": 4.357438087463379, "hmax": 0.005, "ratio": 0.001, "vulnClass": "none"}}, {"type": "Feature", "geometry": {"type": "MultiPolygon", "coordinates": [[[[72.07734023, 34.14239893], [72.07721305, 34.14238914], [72.07719592, 34.14254295], [72.07723095, 34.14254565], [72.0772239, 34.142609], [72.07733781, 34.14261777], [72.07735737, 34.14244208], [72.07733561, 34.1424404], [72.07734023, 34.14239893]]]]}, "properties": {"id": "8J6J43VG+2W25", "height": 3.020927667617798, "hmax": 0.01, "ratio": 0.003, "vulnClass": "none"}}, {"type": "Feature", "geometry": {"type": "MultiPolygon", "coordinates": [[[[72.07746173, 34.1424261], [72.07741858, 34.14242297], [72.07740699, 34.14253336], [72.07745014, 34.14253649], [72.07746173, 34.1424261]]]]}, "properties": {"id": "8J6J43RG+XXV5", "height": 2.638128519058228, "hmax": 0.008, "ratio": 0.003, "vulnClass": "none"}}, {"type": "Feature", "geometry": {"type": "MultiPolygon", "coordinates": [[[[72.07740086, 34.14208811], [72.07737094, 34.14208559], [72.07736491, 34.14213514], [72.07739484, 34.14213766], [72.07740086, 34.14208811]]]]}, "properties": {"id": "8J6J43RG+RXRF", "height": 2.481460809707642, "hmax": 0.005, "ratio": 0.002, "vulnClass": "none"}}, {"type": "Feature", "geometry": {"type": "MultiPolygon", "coordinates": [[[[72.0775922, 34.1419949], [72.0775966, 34.1419546], [72.0775018, 34.1419474], [72.0774128, 34.1419406], [72.0773868, 34.1421768], [72.0774757, 34.1421836], [72.0774973, 34.1419877], [72.0775922, 34.1419949]]]]}, "properties": {"id": "8J6J43RG+RX8W", "height": 2.713948249816895, "hmax": 0.005, "ratio": 0.002, "vulnClass": "none"}}, {"type": "Feature", "geometry": {"type": "MultiPolygon", "coordinates": [[[[72.07738762, 34.14194988], [72.07727237, 34.14194081], [72.07726392, 34.14201496], [72.07737917, 34.14202404], [72.07738762, 34.14194988]]]]}, "properties": {"id": "8J6J43RG+QWW7", "height": 2.583739280700684, "hmax": 0.007, "ratio": 0.003, "vulnClass": "none"}}, {"type": "Feature", "geometry": {"type": "MultiPolygon", "coordinates": [[[[72.07757425, 34.14189202], [72.07750841, 34.14188701], [72.07750175, 34.14194742], [72.07756759, 34.14195244], [72.07757425, 34.14189202]]]]}, "properties": {"id": "8J6J43RH+Q27J", "height": 2.5804443359375, "hmax": 0.005, "ratio": 0.002, "vulnClass": "none"}}, {"type": "Feature", "geometry": {"type": "MultiPolygon", "coordinates": [[[[72.07743625, 34.14175756], [72.07742777, 34.1418337], [72.0774738, 34.14183725], [72.07747997, 34.14178191], [72.07754705, 34.14178707], [72.07754937, 34.14176627], [72.07743625, 34.14175756]]]]}, "properties": {"id": "8J6J43RG+PX9J", "height": 3.201872587203979, "hmax": 0.005, "ratio": 0.002, "vulnClass": "none"}}, {"type": "Feature", "geometry": {"type": "MultiPolygon", "coordinates": [[[[72.07729164, 34.14177205], [72.07724362, 34.14176949], [72.07722313, 34.14203522], [72.07727115, 34.14203778], [72.07729164, 34.14177205]]]]}, "properties": {"id": "8J6J43RG+QW62", "height": 2.499240875244141, "hmax": 0.019, "ratio": 0.008, "vulnClass": "none"}}, {"type": "Feature", "geometry": {"type": "MultiPolygon", "coordinates": [[[[72.0772454, 34.14175104], [72.07717168, 34.14174624], [72.07716774, 34.1417881], [72.07718794, 34.14178941], [72.0771668, 34.14201404], [72.07722033, 34.14201752], [72.0772454, 34.14175104]]]]}, "properties": {"id": "8J6J43RG+QV44", "height": 2.517694473266602, "hmax": 0.019, "ratio": 0.007, "vulnClass": "none"}}, {"type": "Feature", "geometry": {"type": "MultiPolygon", "coordinates": [[[[72.07758748, 34.1417692], [72.07759595, 34.14169312], [72.07752699, 34.14168781], [72.07752426, 34.1417123], [72.077442, 34.14170596], [72.07743625, 34.14175756], [72.07758748, 34.1417692]]]]}, "properties": {"id": "8J6J43RH+M2R8", "height": 3.201872587203979, "hmax": 0.005, "ratio": 0.002, "vulnClass": "none"}}, {"type": "Feature", "geometry": {"type": "MultiPolygon", "coordinates": [[[[72.07753827, 34.14134867], [72.07748276, 34.14134327], [72.07747417, 34.14140425], [72.07752968, 34.14140965], [72.07753827, 34.14134867]]]]}, "properties": {"id": "8J6J43RH+H222", "height": 2.558743476867676, "hmax": 0.005, "ratio": 0.002, "vulnClass": "none"}}, {"type": "Feature", "geometry": {"type": "MultiPolygon", "coordinates": [[[[72.07754706, 34.14122769], [72.07748559, 34.14122253], [72.07747159, 34.14133795], [72.07753306, 34.1413431], [72.07754706, 34.14122769]]]]}, "properties": {"id": "8J6J43RH+G267", "height": 3.451393365859985, "hmax": 0.005, "ratio": 0.001, "vulnClass": "none"}}, {"type": "Feature", "geometry": {"type": "MultiPolygon", "coordinates": [[[[72.07738296, 34.14126331], [72.07733106, 34.14126054], [72.07732485, 34.14134111], [72.07737675, 34.14134387], [72.07738296, 34.14126331]]]]}, "properties": {"id": "8J6J43RG+GWH3", "height": 2.827637434005737, "hmax": 0.005, "ratio": 0.002, "vulnClass": "none"}}, {"type": "Feature", "geometry": {"type": "MultiPolygon", "coordinates": [[[[72.07755898, 34.14147636], [72.07746461, 34.14146818], [72.07745479, 34.14154659], [72.07754916, 34.14155477], [72.07755898, 34.14147636]]]]}, "properties": {"id": "8J6J43RH+J22C", "height": 3.056853294372559, "hmax": 0.005, "ratio": 0.002, "vulnClass": "none"}}, {"type": "Feature", "geometry": {"type": "MultiPolygon", "coordinates": [[[[72.07753813, 34.14155396], [72.07745423, 34.14154579], [72.07744308, 34.14162494], [72.07752698, 34.14163311], [72.07753813, 34.14155396]]]]}, "properties": {"id": "8J6J43RG+JXQG", "height": 2.850611925125122, "hmax": 0.005, "ratio": 0.002, "vulnClass": "none"}}, {"type": "Feature", "geometry": {"type": "MultiPolygon", "coordinates": [[[[72.07691479, 34.14137794], [72.07686613, 34.14137442], [72.07685007, 34.14152776], [72.07699817, 34.14153848], [72.07700543, 34.14146913], [72.076906, 34.14146193], [72.07691479, 34.14137794]]]]}, "properties": {"id": "8J6J43RG+HQV3", "height": 2.602396011352539, "hmax": 0.02, "ratio": 0.008, "vulnClass": "none"}}, {"type": "Feature", "geometry": {"type": "MultiPolygon", "coordinates": [[[[72.07699157, 34.14160157], [72.07686864, 34.14159267], [72.07686154, 34.14166055], [72.07698446, 34.14166945], [72.07699157, 34.14160157]]]]}, "properties": {"id": "8J6J43RG+MQ38", "height": 2.499234676361084, "hmax": 0.019, "ratio": 0.008, "vulnClass": "none"}}, {"type": "Feature", "geometry": {"type": "MultiPolygon", "coordinates": [[[[72.07728574, 34.14136058], [72.07728961, 34.14132356], [72.07704163, 34.14130562], [72.0770034, 34.14167082], [72.07708706, 34.14167687], [72.07712142, 34.14134869], [72.07728574, 34.14136058]]]]}, "properties": {"id": "8J6J43RG+HRPQ", "height": 4.420026779174805, "hmax": 0.023, "ratio": 0.005, "vulnClass": "none"}}, {"type": "Feature", "geometry": {"type": "MultiPolygon", "coordinates": [[[[72.07728963, 34.14124761], [72.0770752, 34.14123412], [72.07706779, 34.14131555], [72.07728222, 34.14132904], [72.07728963, 34.14124761]]]]}, "properties": {"id": "8J6J43RG+GV78", "height": 4.420026779174805, "hmax": 0.027, "ratio": 0.006, "vulnClass": "none"}}, {"type": "Feature", "geometry": {"type": "MultiPolygon", "coordinates": [[[[72.07714236, 34.14089012], [72.0771362, 34.14094588], [72.07733986, 34.14096143], [72.07734602, 34.14090567], [72.07714236, 34.14089012]]]]}, "properties": {"id": "8J6J43RG+9VH4", "height": 3.364297151565552, "hmax": 0.024, "ratio": 0.007, "vulnClass": "none"}}, {"type": "Feature", "geometry": {"type": "MultiPolygon", "coordinates": [[[[72.07706106, 34.14111477], [72.07688554, 34.14110198], [72.07687295, 34.14122145], [72.07693348, 34.14122586], [72.07693821, 34.14118096], [72.0770532, 34.14118934], [72.07706106, 34.14111477]]]]}, "properties": {"id": "8J6J43RG+FQ88", "height": 3.639173984527588, "hmax": 0.027, "ratio": 0.007, "vulnClass": "none"}}, {"type": "Feature", "geometry": {"type": "MultiPolygon", "coordinates": [[[[72.07714506, 34.14086571], [72.07707171, 34.14086011], [72.07706285, 34.14094028], [72.0771362, 34.14094588], [72.07714506, 34.14086571]]]]}, "properties": {"id": "8J6J43RG+9R93", "height": 3.395549297332764, "hmax": 0.027, "ratio": 0.008, "vulnClass": "none"}}, {"type": "Feature", "geometry": {"type": "MultiPolygon", "coordinates": [[[[72.07738332, 34.14104507], [72.07735624, 34.14104442], [72.07735453, 34.14109396], [72.07738161, 34.14109461], [72.07738332, 34.14104507]]]]}, "properties": {"id": "8J6J43RG+CWHQ", "height": 2.504012107849121, "hmax": 0.005, "ratio": 0.002, "vulnClass": "none"}}, {"type": "Feature", "geometry": {"type": "MultiPolygon", "coordinates": [[[[72.07760333, 34.14100449], [72.07751297, 34.14099691], [72.07750004, 34.14110351], [72.0775904, 34.14111109], [72.07760333, 34.14100449]]]]}, "properties": {"id": "8J6J43RH+C2F4", "height": 3.009053707122803, "hmax": 0.005, "ratio": 0.002, "vulnClass": "none"}}]}